{
  "type": "FeatureCollection",
  "name": "801（經台鐵新左營站－臺鐵岡山車站(捷運岡山車站)）",
  "properties": {
    "id": "kaohsiung_801_0ef117fab2",
    "name": "801（經台鐵新左營站－臺鐵岡山車站(捷運岡山車站)）",
    "name_en": "801 (via 台鐵新左營站－臺鐵岡山車站(捷運岡山車站))",
    "ref": "801",
    "color": "#134e4a",
    "city_id": "Kaohsiung",
    "source": "TDX Bus Shape / StopOfRoute",
    "via": "台鐵新左營站－臺鐵岡山車站(捷運岡山車站)",
    "official_map_url": "http://ibus.tbkc.gov.tw/cms/api/route/8017/map/1765/image",
    "operator_id": "10320",
    "operator": "高雄客運",
    "operator_en": "Kaohsiung Bus Co., Ltd."
  },
  "features": [
    {
      "type": "Feature",
      "properties": {
        "feature_type": "route",
        "ref": "801",
        "name": "801（經台鐵新左營站－臺鐵岡山車站(捷運岡山車站)）",
        "name_en": "801 (via 台鐵新左營站－臺鐵岡山車站(捷運岡山車站))",
        "color": "#134e4a",
        "direction": 0
      },
      "geometry": {
        "type": "LineString",
        "coordinates": [
          [
            120.30756,
            22.68873
          ],
          [
            120.30777,
            22.68899
          ],
          [
            120.30715,
            22.6895
          ],
          [
            120.30654,
            22.68899
          ],
          [
            120.3059,
            22.68951
          ],
          [
            120.30534,
            22.68924
          ],
          [
            120.30485,
            22.68915
          ],
          [
            120.30409,
            22.68876
          ],
          [
            120.30394,
            22.68888
          ],
          [
            120.30372,
            22.68894
          ],
          [
            120.30277,
            22.68897
          ],
          [
            120.30262,
            22.68836
          ],
          [
            120.30255,
            22.68772
          ],
          [
            120.30276,
            22.68565
          ],
          [
            120.3028,
            22.68511
          ],
          [
            120.3027,
            22.68462
          ],
          [
            120.30251,
            22.68414
          ],
          [
            120.30203,
            22.6835
          ],
          [
            120.30047,
            22.68189
          ],
          [
            120.29892,
            22.68025
          ],
          [
            120.29881,
            22.67994
          ],
          [
            120.29758,
            22.67863
          ],
          [
            120.29454,
            22.67558
          ],
          [
            120.29014,
            22.67097
          ],
          [
            120.28869,
            22.67215
          ],
          [
            120.28788,
            22.67302
          ],
          [
            120.28703,
            22.67231
          ],
          [
            120.2869,
            22.67252
          ],
          [
            120.28664,
            22.67265
          ],
          [
            120.28663,
            22.67544
          ],
          [
            120.28683,
            22.67626
          ],
          [
            120.28762,
            22.68078
          ],
          [
            120.28991,
            22.68558
          ],
          [
            120.29027,
            22.68591
          ],
          [
            120.29247,
            22.68684
          ],
          [
            120.29296,
            22.68708
          ],
          [
            120.2934,
            22.68742
          ],
          [
            120.29412,
            22.68837
          ],
          [
            120.29485,
            22.68896
          ],
          [
            120.29601,
            22.69025
          ],
          [
            120.29746,
            22.69113
          ],
          [
            120.29919,
            22.69362
          ],
          [
            120.29241,
            22.6937
          ],
          [
            120.29252,
            22.70144
          ],
          [
            120.29244,
            22.70488
          ],
          [
            120.29293,
            22.70589
          ],
          [
            120.29283,
            22.70733
          ],
          [
            120.29303,
            22.7088
          ],
          [
            120.29296,
            22.70889
          ],
          [
            120.28985,
            22.71049
          ],
          [
            120.28899,
            22.7113
          ],
          [
            120.28948,
            22.71261
          ],
          [
            120.29015,
            22.71373
          ],
          [
            120.28855,
            22.71521
          ],
          [
            120.2881,
            22.716
          ],
          [
            120.28752,
            22.71672
          ],
          [
            120.28712,
            22.71705
          ],
          [
            120.27923,
            22.72189
          ],
          [
            120.27754,
            22.72275
          ],
          [
            120.27734,
            22.72297
          ],
          [
            120.27713,
            22.72342
          ],
          [
            120.27154,
            22.73086
          ],
          [
            120.27036,
            22.73201
          ],
          [
            120.26777,
            22.7349
          ],
          [
            120.26496,
            22.73846
          ],
          [
            120.26018,
            22.73735
          ],
          [
            120.25905,
            22.7373
          ],
          [
            120.2577,
            22.73677
          ],
          [
            120.25706,
            22.7366
          ],
          [
            120.25007,
            22.73315
          ],
          [
            120.24737,
            22.73808
          ],
          [
            120.26099,
            22.74695
          ],
          [
            120.26148,
            22.74719
          ],
          [
            120.26244,
            22.74737
          ],
          [
            120.26281,
            22.74755
          ],
          [
            120.26303,
            22.74789
          ],
          [
            120.26339,
            22.74907
          ],
          [
            120.26499,
            22.75051
          ],
          [
            120.26757,
            22.75502
          ],
          [
            120.26789,
            22.75565
          ],
          [
            120.26799,
            22.75603
          ],
          [
            120.26746,
            22.75754
          ],
          [
            120.26671,
            22.763
          ],
          [
            120.26671,
            22.76347
          ],
          [
            120.26712,
            22.76429
          ],
          [
            120.2683,
            22.77151
          ],
          [
            120.26893,
            22.77598
          ],
          [
            120.26945,
            22.77798
          ],
          [
            120.26989,
            22.77943
          ],
          [
            120.27053,
            22.7799
          ],
          [
            120.27152,
            22.78134
          ],
          [
            120.27295,
            22.78246
          ],
          [
            120.27527,
            22.78413
          ],
          [
            120.2756,
            22.7843
          ],
          [
            120.2813,
            22.78427
          ],
          [
            120.2848,
            22.7844
          ],
          [
            120.2885,
            22.79065
          ],
          [
            120.2919,
            22.79102
          ],
          [
            120.29614,
            22.79099
          ],
          [
            120.29699,
            22.78455
          ],
          [
            120.29885,
            22.77966
          ],
          [
            120.2993,
            22.77869
          ],
          [
            120.30096,
            22.77937
          ],
          [
            120.30101,
            22.77946
          ],
          [
            120.30021,
            22.78115
          ],
          [
            120.30032,
            22.78177
          ],
          [
            120.30012,
            22.7823
          ],
          [
            120.29951,
            22.78243
          ],
          [
            120.29987,
            22.78445
          ],
          [
            120.29988,
            22.7849
          ],
          [
            120.29961,
            22.78845
          ],
          [
            120.29922,
            22.79205
          ],
          [
            120.29918,
            22.79231
          ],
          [
            120.29967,
            22.79236
          ]
        ]
      }
    },
    {
      "type": "Feature",
      "properties": {
        "feature_type": "route",
        "ref": "801",
        "name": "801（經台鐵新左營站－臺鐵岡山車站(捷運岡山車站)）",
        "name_en": "801 (via 台鐵新左營站－臺鐵岡山車站(捷運岡山車站))",
        "color": "#134e4a",
        "direction": 1
      },
      "geometry": {
        "type": "LineString",
        "coordinates": [
          [
            120.29979,
            22.79287
          ],
          [
            120.29975,
            22.79296
          ],
          [
            120.29962,
            22.79297
          ],
          [
            120.29893,
            22.7929
          ]
        ]
      }
    },
    {
      "type": "Feature",
      "properties": {
        "feature_type": "route",
        "ref": "801",
        "name": "801（經台鐵新左營站－臺鐵岡山車站(捷運岡山車站)）",
        "name_en": "801 (via 台鐵新左營站－臺鐵岡山車站(捷運岡山車站))",
        "color": "#134e4a",
        "direction": 1
      },
      "geometry": {
        "type": "LineString",
        "coordinates": [
          [
            120.30462,
            22.68685
          ],
          [
            120.30476,
            22.68687
          ],
          [
            120.30493,
            22.68704
          ],
          [
            120.30544,
            22.68672
          ],
          [
            120.30595,
            22.68713
          ],
          [
            120.30612,
            22.68718
          ],
          [
            120.30723,
            22.68823
          ]
        ]
      }
    },
    {
      "type": "Feature",
      "properties": {
        "feature_type": "station",
        "ref": "KHH10801751471",
        "name": "臺鐵新左營站",
        "name_en": "TRA Xin Zuoying Station",
        "line": "801（經台鐵新左營站－臺鐵岡山車站(捷運岡山車站)）",
        "color": "#134e4a",
        "direction": 0
      },
      "geometry": {
        "type": "Point",
        "coordinates": [
          120.307691,
          22.688726
        ]
      }
    },
    {
      "type": "Feature",
      "properties": {
        "feature_type": "station",
        "ref": "KHH10801751551",
        "name": "左營火車站",
        "name_en": "Zuoying Train Station",
        "line": "801（經台鐵新左營站－臺鐵岡山車站(捷運岡山車站)）",
        "color": "#134e4a",
        "direction": 0
      },
      "geometry": {
        "type": "Point",
        "coordinates": [
          120.293239,
          22.674451
        ]
      }
    },
    {
      "type": "Feature",
      "properties": {
        "feature_type": "station",
        "ref": "KHH10801779451",
        "name": "翠峰路",
        "name_en": "Cueifong Rd.",
        "line": "801（經台鐵新左營站－臺鐵岡山車站(捷運岡山車站)）",
        "color": "#134e4a",
        "direction": 0
      },
      "geometry": {
        "type": "Point",
        "coordinates": [
          120.288536,
          22.672353
        ]
      }
    },
    {
      "type": "Feature",
      "properties": {
        "feature_type": "station",
        "ref": "KHH108017153781",
        "name": "海青工商",
        "name_en": "Haicing Vocational High School",
        "line": "801（經台鐵新左營站－臺鐵岡山車站(捷運岡山車站)）",
        "color": "#134e4a",
        "direction": 0
      },
      "geometry": {
        "type": "Point",
        "coordinates": [
          120.286708,
          22.674428
        ]
      }
    },
    {
      "type": "Feature",
      "properties": {
        "feature_type": "station",
        "ref": "KHH108017153771",
        "name": "左營南站",
        "name_en": "Zuoying South Station",
        "line": "801（經台鐵新左營站－臺鐵岡山車站(捷運岡山車站)）",
        "color": "#134e4a",
        "direction": 0
      },
      "geometry": {
        "type": "Point",
        "coordinates": [
          120.287535,
          22.679802
        ]
      }
    },
    {
      "type": "Feature",
      "properties": {
        "feature_type": "station",
        "ref": "KHH108017153761",
        "name": "左營農會",
        "name_en": "Zuoying Farmers' Association",
        "line": "801（經台鐵新左營站－臺鐵岡山車站(捷運岡山車站)）",
        "color": "#134e4a",
        "direction": 0
      },
      "geometry": {
        "type": "Point",
        "coordinates": [
          120.288286,
          22.682099
        ]
      }
    },
    {
      "type": "Feature",
      "properties": {
        "feature_type": "station",
        "ref": "KHH10801734271",
        "name": "店仔頂路口",
        "name_en": "Dianzihding Rd. Intersection",
        "line": "801（經台鐵新左營站－臺鐵岡山車站(捷運岡山車站)）",
        "color": "#134e4a",
        "direction": 0
      },
      "geometry": {
        "type": "Point",
        "coordinates": [
          120.289441,
          22.684343
        ]
      }
    },
    {
      "type": "Feature",
      "properties": {
        "feature_type": "station",
        "ref": "KHH108017175731",
        "name": "左營大路",
        "name_en": "Zuoying Avenue",
        "line": "801（經台鐵新左營站－臺鐵岡山車站(捷運岡山車站)）",
        "color": "#134e4a",
        "direction": 0
      },
      "geometry": {
        "type": "Point",
        "coordinates": [
          120.291235,
          22.686212
        ]
      }
    },
    {
      "type": "Feature",
      "properties": {
        "feature_type": "station",
        "ref": "KHH10801732911",
        "name": "左營市場",
        "name_en": "Zuoying Market",
        "line": "801（經台鐵新左營站－臺鐵岡山車站(捷運岡山車站)）",
        "color": "#134e4a",
        "direction": 0
      },
      "geometry": {
        "type": "Point",
        "coordinates": [
          120.293494,
          22.687454
        ]
      }
    },
    {
      "type": "Feature",
      "properties": {
        "feature_type": "station",
        "ref": "KHH108017175741",
        "name": "豐穀宮(進學路口)",
        "name_en": "Fonggu Temple(Jinsyue Rd.Intersection)",
        "line": "801（經台鐵新左營站－臺鐵岡山車站(捷運岡山車站)）",
        "color": "#134e4a",
        "direction": 0
      },
      "geometry": {
        "type": "Point",
        "coordinates": [
          120.296596,
          22.690513
        ]
      }
    },
    {
      "type": "Feature",
      "properties": {
        "feature_type": "station",
        "ref": "KHH108017138631",
        "name": "菜公路口(左營大路)",
        "name_en": "Caigong Rd. Intersection(Zuoying Avenue)",
        "line": "801（經台鐵新左營站－臺鐵岡山車站(捷運岡山車站)）",
        "color": "#134e4a",
        "direction": 0
      },
      "geometry": {
        "type": "Point",
        "coordinates": [
          120.298141,
          22.691923
        ]
      }
    },
    {
      "type": "Feature",
      "properties": {
        "feature_type": "station",
        "ref": "KHH108017153711",
        "name": "左營高中",
        "name_en": "Tsoying Senior High School",
        "line": "801（經台鐵新左營站－臺鐵岡山車站(捷運岡山車站)）",
        "color": "#134e4a",
        "direction": 0
      },
      "geometry": {
        "type": "Point",
        "coordinates": [
          120.297174,
          22.693689
        ]
      }
    },
    {
      "type": "Feature",
      "properties": {
        "feature_type": "station",
        "ref": "KHH108017175581",
        "name": "海功路(進學路口)",
        "name_en": "Haigong Rd.(Jinsyue Rd. Intersection)",
        "line": "801（經台鐵新左營站－臺鐵岡山車站(捷運岡山車站)）",
        "color": "#134e4a",
        "direction": 0
      },
      "geometry": {
        "type": "Point",
        "coordinates": [
          120.294922,
          22.693749
        ]
      }
    },
    {
      "type": "Feature",
      "properties": {
        "feature_type": "station",
        "ref": "KHH108017107651",
        "name": "左營禮拜堂(海功路)",
        "name_en": "Zuoying Chapel(Haigong Rd.)",
        "line": "801（經台鐵新左營站－臺鐵岡山車站(捷運岡山車站)）",
        "color": "#134e4a",
        "direction": 0
      },
      "geometry": {
        "type": "Point",
        "coordinates": [
          120.293478,
          22.693762
        ]
      }
    },
    {
      "type": "Feature",
      "properties": {
        "feature_type": "station",
        "ref": "KHH108017153701",
        "name": "國軍左營醫院",
        "name_en": "Zuoying Branch of Kaohsiung Armed Forces General Hospital",
        "line": "801（經台鐵新左營站－臺鐵岡山車站(捷運岡山車站)）",
        "color": "#134e4a",
        "direction": 0
      },
      "geometry": {
        "type": "Point",
        "coordinates": [
          120.292606,
          22.702148
        ]
      }
    },
    {
      "type": "Feature",
      "properties": {
        "feature_type": "station",
        "ref": "KHH108017153691",
        "name": "莒光新村(軍校路)",
        "name_en": "Jyuguang New Village(Jyunsiao Rd.)",
        "line": "801（經台鐵新左營站－臺鐵岡山車站(捷運岡山車站)）",
        "color": "#134e4a",
        "direction": 0
      },
      "geometry": {
        "type": "Point",
        "coordinates": [
          120.292981,
          22.706344
        ]
      }
    },
    {
      "type": "Feature",
      "properties": {
        "feature_type": "station",
        "ref": "KHH10801735561",
        "name": "右昌(三山街口)",
        "name_en": "Youchang(Sanshan St. Intersection)",
        "line": "801（經台鐵新左營站－臺鐵岡山車站(捷運岡山車站)）",
        "color": "#134e4a",
        "direction": 0
      },
      "geometry": {
        "type": "Point",
        "coordinates": [
          120.289524,
          22.710867
        ]
      }
    },
    {
      "type": "Feature",
      "properties": {
        "feature_type": "station",
        "ref": "KHH108017153671",
        "name": "北右昌(右昌街)",
        "name_en": "Beiyouchang(Youchang St.)",
        "line": "801（經台鐵新左營站－臺鐵岡山車站(捷運岡山車站)）",
        "color": "#134e4a",
        "direction": 0
      },
      "geometry": {
        "type": "Point",
        "coordinates": [
          120.289509,
          22.71438
        ]
      }
    },
    {
      "type": "Feature",
      "properties": {
        "feature_type": "station",
        "ref": "KHH108017153661",
        "name": "興昌里",
        "name_en": "Singchang Village",
        "line": "801（經台鐵新左營站－臺鐵岡山車站(捷運岡山車站)）",
        "color": "#134e4a",
        "direction": 0
      },
      "geometry": {
        "type": "Point",
        "coordinates": [
          120.28713,
          22.717127
        ]
      }
    },
    {
      "type": "Feature",
      "properties": {
        "feature_type": "station",
        "ref": "KHH10801771041",
        "name": "五福社區",
        "name_en": "Wufu Community",
        "line": "801（經台鐵新左營站－臺鐵岡山車站(捷運岡山車站)）",
        "color": "#134e4a",
        "direction": 0
      },
      "geometry": {
        "type": "Point",
        "coordinates": [
          120.284054,
          22.718969
        ]
      }
    },
    {
      "type": "Feature",
      "properties": {
        "feature_type": "station",
        "ref": "KHH108017153631",
        "name": "援中港",
        "name_en": "Yuanjhong Harbor",
        "line": "801（經台鐵新左營站－臺鐵岡山車站(捷運岡山車站)）",
        "color": "#134e4a",
        "direction": 0
      },
      "geometry": {
        "type": "Point",
        "coordinates": [
          120.277812,
          22.722652
        ]
      }
    },
    {
      "type": "Feature",
      "properties": {
        "feature_type": "station",
        "ref": "KHH108017175841",
        "name": "高雄大學(德中路)",
        "name_en": "National University of Kaohsiung(Dejhong Rd.)",
        "line": "801（經台鐵新左營站－臺鐵岡山車站(捷運岡山車站)）",
        "color": "#134e4a",
        "direction": 0
      },
      "geometry": {
        "type": "Point",
        "coordinates": [
          120.27396,
          22.72774
        ]
      }
    },
    {
      "type": "Feature",
      "properties": {
        "feature_type": "station",
        "ref": "KHH108017154221",
        "name": "草橋",
        "name_en": "Cao Bridge",
        "line": "801（經台鐵新左營站－臺鐵岡山車站(捷運岡山車站)）",
        "color": "#134e4a",
        "direction": 0
      },
      "geometry": {
        "type": "Point",
        "coordinates": [
          120.27124,
          22.73122
        ]
      }
    },
    {
      "type": "Feature",
      "properties": {
        "feature_type": "station",
        "ref": "KHH108017154231",
        "name": "東寶公司",
        "name_en": "Tong Pao frozen food co., ltd.",
        "line": "801（經台鐵新左營站－臺鐵岡山車站(捷運岡山車站)）",
        "color": "#134e4a",
        "direction": 0
      },
      "geometry": {
        "type": "Point",
        "coordinates": [
          120.26815,
          22.73458
        ]
      }
    },
    {
      "type": "Feature",
      "properties": {
        "feature_type": "station",
        "ref": "KHH108017153591",
        "name": "典寶橋",
        "name_en": "Dianbao Bridge",
        "line": "801（經台鐵新左營站－臺鐵岡山車站(捷運岡山車站)）",
        "color": "#134e4a",
        "direction": 0
      },
      "geometry": {
        "type": "Point",
        "coordinates": [
          120.264372,
          22.738413
        ]
      }
    },
    {
      "type": "Feature",
      "properties": {
        "feature_type": "station",
        "ref": "KHH108017153581",
        "name": "典寶",
        "name_en": "Dianbao",
        "line": "801（經台鐵新左營站－臺鐵岡山車站(捷運岡山車站)）",
        "color": "#134e4a",
        "direction": 0
      },
      "geometry": {
        "type": "Point",
        "coordinates": [
          120.25813,
          22.73699
        ]
      }
    },
    {
      "type": "Feature",
      "properties": {
        "feature_type": "station",
        "ref": "KHH108017153571",
        "name": "茄冬坑",
        "name_en": "Jiadongkeng",
        "line": "801（經台鐵新左營站－臺鐵岡山車站(捷運岡山車站)）",
        "color": "#134e4a",
        "direction": 0
      },
      "geometry": {
        "type": "Point",
        "coordinates": [
          120.253849,
          22.735042
        ]
      }
    },
    {
      "type": "Feature",
      "properties": {
        "feature_type": "station",
        "ref": "KHH108017153551",
        "name": "蚵寮國小(南赤崁)",
        "name_en": "Keliao Junior High School",
        "line": "801（經台鐵新左營站－臺鐵岡山車站(捷運岡山車站)）",
        "color": "#134e4a",
        "direction": 0
      },
      "geometry": {
        "type": "Point",
        "coordinates": [
          120.249405,
          22.734435
        ]
      }
    },
    {
      "type": "Feature",
      "properties": {
        "feature_type": "station",
        "ref": "KHH108017153541",
        "name": "赤崁(梓官)",
        "name_en": "Chihkan(Zihguan)",
        "line": "801（經台鐵新左營站－臺鐵岡山車站(捷運岡山車站)）",
        "color": "#134e4a",
        "direction": 0
      },
      "geometry": {
        "type": "Point",
        "coordinates": [
          120.24765,
          22.73761
        ]
      }
    },
    {
      "type": "Feature",
      "properties": {
        "feature_type": "station",
        "ref": "KHH108017153531",
        "name": "赤崁東路(北赤崁)",
        "name_en": "Chihkan E. Rd.(N. Chihkan)",
        "line": "801（經台鐵新左營站－臺鐵岡山車站(捷運岡山車站)）",
        "color": "#134e4a",
        "direction": 0
      },
      "geometry": {
        "type": "Point",
        "coordinates": [
          120.251062,
          22.740448
        ]
      }
    },
    {
      "type": "Feature",
      "properties": {
        "feature_type": "station",
        "ref": "KHH108017120181",
        "name": "赤崁東路(新富光)",
        "name_en": "Chihkan E. Rd.(Sinfuguang)",
        "line": "801（經台鐵新左營站－臺鐵岡山車站(捷運岡山車站)）",
        "color": "#134e4a",
        "direction": 0
      },
      "geometry": {
        "type": "Point",
        "coordinates": [
          120.253495,
          22.741915
        ]
      }
    },
    {
      "type": "Feature",
      "properties": {
        "feature_type": "station",
        "ref": "KHH108017169221",
        "name": "木業公司(梓官)",
        "name_en": "Wood industry company(Zihguan)",
        "line": "801（經台鐵新左營站－臺鐵岡山車站(捷運岡山車站)）",
        "color": "#134e4a",
        "direction": 0
      },
      "geometry": {
        "type": "Point",
        "coordinates": [
          120.257028,
          22.744318
        ]
      }
    },
    {
      "type": "Feature",
      "properties": {
        "feature_type": "station",
        "ref": "KHH108017153501",
        "name": "大舍甲農會(大舍西路)",
        "name_en": "Dashejia Farmers' Association(Dashe W. Rd.)",
        "line": "801（經台鐵新左營站－臺鐵岡山車站(捷運岡山車站)）",
        "color": "#134e4a",
        "direction": 0
      },
      "geometry": {
        "type": "Point",
        "coordinates": [
          120.261232,
          22.747023
        ]
      }
    },
    {
      "type": "Feature",
      "properties": {
        "feature_type": "station",
        "ref": "KHH108017153491",
        "name": "大舍甲",
        "name_en": "Dashejia",
        "line": "801（經台鐵新左營站－臺鐵岡山車站(捷運岡山車站)）",
        "color": "#134e4a",
        "direction": 0
      },
      "geometry": {
        "type": "Point",
        "coordinates": [
          120.263248,
          22.748406
        ]
      }
    },
    {
      "type": "Feature",
      "properties": {
        "feature_type": "station",
        "ref": "KHH108017153481",
        "name": "同安",
        "name_en": "Tongan",
        "line": "801（經台鐵新左營站－臺鐵岡山車站(捷運岡山車站)）",
        "color": "#134e4a",
        "direction": 0
      },
      "geometry": {
        "type": "Point",
        "coordinates": [
          120.265778,
          22.751757
        ]
      }
    },
    {
      "type": "Feature",
      "properties": {
        "feature_type": "station",
        "ref": "KHH108017153471",
        "name": "南梓官",
        "name_en": "South Zihguan",
        "line": "801（經台鐵新左營站－臺鐵岡山車站(捷運岡山車站)）",
        "color": "#134e4a",
        "direction": 0
      },
      "geometry": {
        "type": "Point",
        "coordinates": [
          120.2675,
          22.757497
        ]
      }
    },
    {
      "type": "Feature",
      "properties": {
        "feature_type": "station",
        "ref": "KHH108017153461",
        "name": "梓官",
        "name_en": "Zihguan",
        "line": "801（經台鐵新左營站－臺鐵岡山車站(捷運岡山車站)）",
        "color": "#134e4a",
        "direction": 0
      },
      "geometry": {
        "type": "Point",
        "coordinates": [
          120.267166,
          22.759839
        ]
      }
    },
    {
      "type": "Feature",
      "properties": {
        "feature_type": "station",
        "ref": "KHH108017153451",
        "name": "北梓官",
        "name_en": "North zihguan",
        "line": "801（經台鐵新左營站－臺鐵岡山車站(捷運岡山車站)）",
        "color": "#134e4a",
        "direction": 0
      },
      "geometry": {
        "type": "Point",
        "coordinates": [
          120.26684,
          22.762515
        ]
      }
    },
    {
      "type": "Feature",
      "properties": {
        "feature_type": "station",
        "ref": "KHH108017153441",
        "name": "春木工廠",
        "name_en": "Chun Mu Works Co., Ltd.",
        "line": "801（經台鐵新左營站－臺鐵岡山車站(捷運岡山車站)）",
        "color": "#134e4a",
        "direction": 0
      },
      "geometry": {
        "type": "Point",
        "coordinates": [
          120.267414,
          22.765651
        ]
      }
    },
    {
      "type": "Feature",
      "properties": {
        "feature_type": "station",
        "ref": "KHH108017153431",
        "name": "石螺潭",
        "name_en": "Shihluo Pond",
        "line": "801（經台鐵新左營站－臺鐵岡山車站(捷運岡山車站)）",
        "color": "#134e4a",
        "direction": 0
      },
      "geometry": {
        "type": "Point",
        "coordinates": [
          120.268556,
          22.772576
        ]
      }
    },
    {
      "type": "Feature",
      "properties": {
        "feature_type": "station",
        "ref": "KHH108017153421",
        "name": "福興里",
        "name_en": "Fusing Village",
        "line": "801（經台鐵新左營站－臺鐵岡山車站(捷運岡山車站)）",
        "color": "#134e4a",
        "direction": 0
      },
      "geometry": {
        "type": "Point",
        "coordinates": [
          120.269127,
          22.776435
        ]
      }
    },
    {
      "type": "Feature",
      "properties": {
        "feature_type": "station",
        "ref": "KHH108017153411",
        "name": "頂潭路口",
        "name_en": "Dingtan Rd. Intersection",
        "line": "801（經台鐵新左營站－臺鐵岡山車站(捷運岡山車站)）",
        "color": "#134e4a",
        "direction": 0
      },
      "geometry": {
        "type": "Point",
        "coordinates": [
          120.269803,
          22.779049
        ]
      }
    },
    {
      "type": "Feature",
      "properties": {
        "feature_type": "station",
        "ref": "KHH108017153401",
        "name": "西後協",
        "name_en": "Sihousie",
        "line": "801（經台鐵新左營站－臺鐵岡山車站(捷運岡山車站)）",
        "color": "#134e4a",
        "direction": 0
      },
      "geometry": {
        "type": "Point",
        "coordinates": [
          120.276083,
          22.78426
        ]
      }
    },
    {
      "type": "Feature",
      "properties": {
        "feature_type": "station",
        "ref": "KHH108017153391",
        "name": "後協",
        "name_en": "Housie",
        "line": "801（經台鐵新左營站－臺鐵岡山車站(捷運岡山車站)）",
        "color": "#134e4a",
        "direction": 0
      },
      "geometry": {
        "type": "Point",
        "coordinates": [
          120.282287,
          22.784286
        ]
      }
    },
    {
      "type": "Feature",
      "properties": {
        "feature_type": "station",
        "ref": "KHH108017153381",
        "name": "醒村",
        "name_en": "Singcun",
        "line": "801（經台鐵新左營站－臺鐵岡山車站(捷運岡山車站)）",
        "color": "#134e4a",
        "direction": 0
      },
      "geometry": {
        "type": "Point",
        "coordinates": [
          120.284048,
          22.784284
        ]
      }
    },
    {
      "type": "Feature",
      "properties": {
        "feature_type": "station",
        "ref": "KHH108017153371",
        "name": "大義二路口",
        "name_en": "Dayi 2nd Rd. Intersection",
        "line": "801（經台鐵新左營站－臺鐵岡山車站(捷運岡山車站)）",
        "color": "#134e4a",
        "direction": 0
      },
      "geometry": {
        "type": "Point",
        "coordinates": [
          120.286664,
          22.78731
        ]
      }
    },
    {
      "type": "Feature",
      "properties": {
        "feature_type": "station",
        "ref": "KHH108017153361",
        "name": "中正堂(岡山)",
        "name_en": "Jhongjheng Hall(Gangshan)",
        "line": "801（經台鐵新左營站－臺鐵岡山車站(捷運岡山車站)）",
        "color": "#134e4a",
        "direction": 0
      },
      "geometry": {
        "type": "Point",
        "coordinates": [
          120.289361,
          22.790708
        ]
      }
    },
    {
      "type": "Feature",
      "properties": {
        "feature_type": "station",
        "ref": "KHH108017153351",
        "name": "岡山國小",
        "name_en": "Gangshan Elementary School",
        "line": "801（經台鐵新左營站－臺鐵岡山車站(捷運岡山車站)）",
        "color": "#134e4a",
        "direction": 0
      },
      "geometry": {
        "type": "Point",
        "coordinates": [
          120.294485,
          22.790919
        ]
      }
    },
    {
      "type": "Feature",
      "properties": {
        "feature_type": "station",
        "ref": "KHH10801763161",
        "name": "勵志新城",
        "name_en": "Lijhih New Village",
        "line": "801（經台鐵新左營站－臺鐵岡山車站(捷運岡山車站)）",
        "color": "#134e4a",
        "direction": 0
      },
      "geometry": {
        "type": "Point",
        "coordinates": [
          120.296261,
          22.789936
        ]
      }
    },
    {
      "type": "Feature",
      "properties": {
        "feature_type": "station",
        "ref": "KHH10801763491",
        "name": "文化街口",
        "name_en": "Wunhua St. Intersection",
        "line": "801（經台鐵新左營站－臺鐵岡山車站(捷運岡山車站)）",
        "color": "#134e4a",
        "direction": 0
      },
      "geometry": {
        "type": "Point",
        "coordinates": [
          120.296551,
          22.787696
        ]
      }
    },
    {
      "type": "Feature",
      "properties": {
        "feature_type": "station",
        "ref": "KHH10801781191",
        "name": "岡山文化中心",
        "name_en": "Gangshan Cultural Center",
        "line": "801（經台鐵新左營站－臺鐵岡山車站(捷運岡山車站)）",
        "color": "#134e4a",
        "direction": 0
      },
      "geometry": {
        "type": "Point",
        "coordinates": [
          120.297123,
          22.783962
        ]
      }
    },
    {
      "type": "Feature",
      "properties": {
        "feature_type": "station",
        "ref": "KHH10801763931",
        "name": "捷運岡山高醫站",
        "name_en": "MRT Kaohsiung Medical University Gangshan Hospital",
        "line": "801（經台鐵新左營站－臺鐵岡山車站(捷運岡山車站)）",
        "color": "#134e4a",
        "direction": 0
      },
      "geometry": {
        "type": "Point",
        "coordinates": [
          120.300583,
          22.780683
        ]
      }
    },
    {
      "type": "Feature",
      "properties": {
        "feature_type": "station",
        "ref": "KHH10801764071",
        "name": "岡山文化中心(後門)",
        "name_en": "Gangshan Cultural Center(Back Door)",
        "line": "801（經台鐵新左營站－臺鐵岡山車站(捷運岡山車站)）",
        "color": "#134e4a",
        "direction": 0
      },
      "geometry": {
        "type": "Point",
        "coordinates": [
          120.299769,
          22.782783
        ]
      }
    },
    {
      "type": "Feature",
      "properties": {
        "feature_type": "station",
        "ref": "KHH10801764091",
        "name": "大德三路口",
        "name_en": "Dade 3rd Rd. Intersection",
        "line": "801（經台鐵新左營站－臺鐵岡山車站(捷運岡山車站)）",
        "color": "#134e4a",
        "direction": 0
      },
      "geometry": {
        "type": "Point",
        "coordinates": [
          120.299593,
          22.788897
        ]
      }
    },
    {
      "type": "Feature",
      "properties": {
        "feature_type": "station",
        "ref": "KHH10801764131",
        "name": "臺鐵岡山車站(捷運岡山車站)",
        "name_en": "TRA Gangshan Station(MRT Gangshan Station)",
        "line": "801（經台鐵新左營站－臺鐵岡山車站(捷運岡山車站)）",
        "color": "#134e4a",
        "direction": 0
      },
      "geometry": {
        "type": "Point",
        "coordinates": [
          120.299489,
          22.792248
        ]
      }
    },
    {
      "type": "Feature",
      "properties": {
        "feature_type": "station",
        "ref": "KHH10801764142",
        "name": "臺鐵岡山車站(捷運岡山車站)",
        "name_en": "TRA Gangshan Station(MRT Gangshan Station)",
        "line": "801（經台鐵新左營站－臺鐵岡山車站(捷運岡山車站)）",
        "color": "#134e4a",
        "direction": 1
      },
      "geometry": {
        "type": "Point",
        "coordinates": [
          120.299489,
          22.792248
        ]
      }
    },
    {
      "type": "Feature",
      "properties": {
        "feature_type": "station",
        "ref": "KHH10801764162",
        "name": "大德三路口",
        "name_en": "Dade 3rd Rd. Intersection",
        "line": "801（經台鐵新左營站－臺鐵岡山車站(捷運岡山車站)）",
        "color": "#134e4a",
        "direction": 1
      },
      "geometry": {
        "type": "Point",
        "coordinates": [
          120.299314,
          22.788774
        ]
      }
    },
    {
      "type": "Feature",
      "properties": {
        "feature_type": "station",
        "ref": "KHH10801764192",
        "name": "岡山文化中心(後門)",
        "name_en": "Gangshan Cultural Center(Back Door)",
        "line": "801（經台鐵新左營站－臺鐵岡山車站(捷運岡山車站)）",
        "color": "#134e4a",
        "direction": 1
      },
      "geometry": {
        "type": "Point",
        "coordinates": [
          120.299415,
          22.782835
        ]
      }
    },
    {
      "type": "Feature",
      "properties": {
        "feature_type": "station",
        "ref": "KHH10801764462",
        "name": "捷運岡山高醫站",
        "name_en": "MRT Kaohsiung Medical University Gangshan Hospital",
        "line": "801（經台鐵新左營站－臺鐵岡山車站(捷運岡山車站)）",
        "color": "#134e4a",
        "direction": 1
      },
      "geometry": {
        "type": "Point",
        "coordinates": [
          120.300583,
          22.780683
        ]
      }
    },
    {
      "type": "Feature",
      "properties": {
        "feature_type": "station",
        "ref": "KHH10801764492",
        "name": "岡山文化中心",
        "name_en": "Gangshan Cultural Center",
        "line": "801（經台鐵新左營站－臺鐵岡山車站(捷運岡山車站)）",
        "color": "#134e4a",
        "direction": 1
      },
      "geometry": {
        "type": "Point",
        "coordinates": [
          120.297341,
          22.784204
        ]
      }
    },
    {
      "type": "Feature",
      "properties": {
        "feature_type": "station",
        "ref": "KHH10801764502",
        "name": "文化街口",
        "name_en": "Wunhua St. Intersection",
        "line": "801（經台鐵新左營站－臺鐵岡山車站(捷運岡山車站)）",
        "color": "#134e4a",
        "direction": 1
      },
      "geometry": {
        "type": "Point",
        "coordinates": [
          120.296628,
          22.788517
        ]
      }
    },
    {
      "type": "Feature",
      "properties": {
        "feature_type": "station",
        "ref": "KHH10801764672",
        "name": "勵志新城",
        "name_en": "Lijhih New Village",
        "line": "801（經台鐵新左營站－臺鐵岡山車站(捷運岡山車站)）",
        "color": "#134e4a",
        "direction": 1
      },
      "geometry": {
        "type": "Point",
        "coordinates": [
          120.29642,
          22.790124
        ]
      }
    },
    {
      "type": "Feature",
      "properties": {
        "feature_type": "station",
        "ref": "KHH108017154482",
        "name": "岡山國小",
        "name_en": "Gangshan Elementary School",
        "line": "801（經台鐵新左營站－臺鐵岡山車站(捷運岡山車站)）",
        "color": "#134e4a",
        "direction": 1
      },
      "geometry": {
        "type": "Point",
        "coordinates": [
          120.293447,
          22.791093
        ]
      }
    },
    {
      "type": "Feature",
      "properties": {
        "feature_type": "station",
        "ref": "KHH108017154472",
        "name": "中正堂(岡山)",
        "name_en": "Jhongjheng Hall(Gangshan)",
        "line": "801（經台鐵新左營站－臺鐵岡山車站(捷運岡山車站)）",
        "color": "#134e4a",
        "direction": 1
      },
      "geometry": {
        "type": "Point",
        "coordinates": [
          120.289356,
          22.790751
        ]
      }
    },
    {
      "type": "Feature",
      "properties": {
        "feature_type": "station",
        "ref": "KHH108017154462",
        "name": "大義二路口",
        "name_en": "Dayi 2nd Rd. Intersection",
        "line": "801（經台鐵新左營站－臺鐵岡山車站(捷運岡山車站)）",
        "color": "#134e4a",
        "direction": 1
      },
      "geometry": {
        "type": "Point",
        "coordinates": [
          120.28652,
          22.787385
        ]
      }
    },
    {
      "type": "Feature",
      "properties": {
        "feature_type": "station",
        "ref": "KHH108017154452",
        "name": "醒村",
        "name_en": "Singcun",
        "line": "801（經台鐵新左營站－臺鐵岡山車站(捷運岡山車站)）",
        "color": "#134e4a",
        "direction": 1
      },
      "geometry": {
        "type": "Point",
        "coordinates": [
          120.284163,
          22.784407
        ]
      }
    },
    {
      "type": "Feature",
      "properties": {
        "feature_type": "station",
        "ref": "KHH108017154442",
        "name": "後協",
        "name_en": "Housie",
        "line": "801（經台鐵新左營站－臺鐵岡山車站(捷運岡山車站)）",
        "color": "#134e4a",
        "direction": 1
      },
      "geometry": {
        "type": "Point",
        "coordinates": [
          120.282284,
          22.784342
        ]
      }
    },
    {
      "type": "Feature",
      "properties": {
        "feature_type": "station",
        "ref": "KHH108017154432",
        "name": "西後協",
        "name_en": "Sihousie",
        "line": "801（經台鐵新左營站－臺鐵岡山車站(捷運岡山車站)）",
        "color": "#134e4a",
        "direction": 1
      },
      "geometry": {
        "type": "Point",
        "coordinates": [
          120.27648,
          22.784335
        ]
      }
    },
    {
      "type": "Feature",
      "properties": {
        "feature_type": "station",
        "ref": "KHH108017154422",
        "name": "頂潭路口",
        "name_en": "Dingtan Rd. Intersection",
        "line": "801（經台鐵新左營站－臺鐵岡山車站(捷運岡山車站)）",
        "color": "#134e4a",
        "direction": 1
      },
      "geometry": {
        "type": "Point",
        "coordinates": [
          120.269735,
          22.779044
        ]
      }
    },
    {
      "type": "Feature",
      "properties": {
        "feature_type": "station",
        "ref": "KHH108017154412",
        "name": "福興里",
        "name_en": "Fusing Village",
        "line": "801（經台鐵新左營站－臺鐵岡山車站(捷運岡山車站)）",
        "color": "#134e4a",
        "direction": 1
      },
      "geometry": {
        "type": "Point",
        "coordinates": [
          120.26919,
          22.777152
        ]
      }
    },
    {
      "type": "Feature",
      "properties": {
        "feature_type": "station",
        "ref": "KHH108017154402",
        "name": "石螺潭",
        "name_en": "Shihluo Pond",
        "line": "801（經台鐵新左營站－臺鐵岡山車站(捷運岡山車站)）",
        "color": "#134e4a",
        "direction": 1
      },
      "geometry": {
        "type": "Point",
        "coordinates": [
          120.268436,
          22.7726
        ]
      }
    },
    {
      "type": "Feature",
      "properties": {
        "feature_type": "station",
        "ref": "KHH108017154392",
        "name": "春木工廠",
        "name_en": "Chun Mu Works Co., Ltd.",
        "line": "801（經台鐵新左營站－臺鐵岡山車站(捷運岡山車站)）",
        "color": "#134e4a",
        "direction": 1
      },
      "geometry": {
        "type": "Point",
        "coordinates": [
          120.267335,
          22.76582
        ]
      }
    },
    {
      "type": "Feature",
      "properties": {
        "feature_type": "station",
        "ref": "KHH108017154382",
        "name": "北梓官",
        "name_en": "North zihguan",
        "line": "801（經台鐵新左營站－臺鐵岡山車站(捷運岡山車站)）",
        "color": "#134e4a",
        "direction": 1
      },
      "geometry": {
        "type": "Point",
        "coordinates": [
          120.26671,
          22.762555
        ]
      }
    },
    {
      "type": "Feature",
      "properties": {
        "feature_type": "station",
        "ref": "KHH108017154372",
        "name": "梓官",
        "name_en": "Zihguan",
        "line": "801（經台鐵新左營站－臺鐵岡山車站(捷運岡山車站)）",
        "color": "#134e4a",
        "direction": 1
      },
      "geometry": {
        "type": "Point",
        "coordinates": [
          120.267031,
          22.759839
        ]
      }
    },
    {
      "type": "Feature",
      "properties": {
        "feature_type": "station",
        "ref": "KHH108017154362",
        "name": "南梓官",
        "name_en": "South Zihguan",
        "line": "801（經台鐵新左營站－臺鐵岡山車站(捷運岡山車站)）",
        "color": "#134e4a",
        "direction": 1
      },
      "geometry": {
        "type": "Point",
        "coordinates": [
          120.267384,
          22.757609
        ]
      }
    },
    {
      "type": "Feature",
      "properties": {
        "feature_type": "station",
        "ref": "KHH108017154352",
        "name": "同安",
        "name_en": "Tongan",
        "line": "801（經台鐵新左營站－臺鐵岡山車站(捷運岡山車站)）",
        "color": "#134e4a",
        "direction": 1
      },
      "geometry": {
        "type": "Point",
        "coordinates": [
          120.265754,
          22.751954
        ]
      }
    },
    {
      "type": "Feature",
      "properties": {
        "feature_type": "station",
        "ref": "KHH108017154342",
        "name": "大舍甲",
        "name_en": "Dashejia",
        "line": "801（經台鐵新左營站－臺鐵岡山車站(捷運岡山車站)）",
        "color": "#134e4a",
        "direction": 1
      },
      "geometry": {
        "type": "Point",
        "coordinates": [
          120.263113,
          22.748236
        ]
      }
    },
    {
      "type": "Feature",
      "properties": {
        "feature_type": "station",
        "ref": "KHH108017154332",
        "name": "大舍甲農會(大舍西路)",
        "name_en": "Dashejia Farmers' Association(Dashe W. Rd.)",
        "line": "801（經台鐵新左營站－臺鐵岡山車站(捷運岡山車站)）",
        "color": "#134e4a",
        "direction": 1
      },
      "geometry": {
        "type": "Point",
        "coordinates": [
          120.261245,
          22.747127
        ]
      }
    },
    {
      "type": "Feature",
      "properties": {
        "feature_type": "station",
        "ref": "KHH108017169312",
        "name": "木業公司(梓官)",
        "name_en": "Wood industry company(Zihguan)",
        "line": "801（經台鐵新左營站－臺鐵岡山車站(捷運岡山車站)）",
        "color": "#134e4a",
        "direction": 1
      },
      "geometry": {
        "type": "Point",
        "coordinates": [
          120.257247,
          22.744557
        ]
      }
    },
    {
      "type": "Feature",
      "properties": {
        "feature_type": "station",
        "ref": "KHH108017121272",
        "name": "赤崁東路(新富光)",
        "name_en": "Chihkan E. Rd.(Sinfuguang)",
        "line": "801（經台鐵新左營站－臺鐵岡山車站(捷運岡山車站)）",
        "color": "#134e4a",
        "direction": 1
      },
      "geometry": {
        "type": "Point",
        "coordinates": [
          120.253537,
          22.742236
        ]
      }
    },
    {
      "type": "Feature",
      "properties": {
        "feature_type": "station",
        "ref": "KHH108017154302",
        "name": "赤崁東路(北赤崁)",
        "name_en": "Chihkan E. Rd.(N. Chihkan)",
        "line": "801（經台鐵新左營站－臺鐵岡山車站(捷運岡山車站)）",
        "color": "#134e4a",
        "direction": 1
      },
      "geometry": {
        "type": "Point",
        "coordinates": [
          120.250806,
          22.740372
        ]
      }
    },
    {
      "type": "Feature",
      "properties": {
        "feature_type": "station",
        "ref": "KHH108017154292",
        "name": "赤崁(梓官)",
        "name_en": "Chihkan(Zihguan)",
        "line": "801（經台鐵新左營站－臺鐵岡山車站(捷運岡山車站)）",
        "color": "#134e4a",
        "direction": 1
      },
      "geometry": {
        "type": "Point",
        "coordinates": [
          120.24773,
          22.73736
        ]
      }
    },
    {
      "type": "Feature",
      "properties": {
        "feature_type": "station",
        "ref": "KHH108017154282",
        "name": "蚵寮國小(南赤崁)",
        "name_en": "Keliao Junior High School",
        "line": "801（經台鐵新左營站－臺鐵岡山車站(捷運岡山車站)）",
        "color": "#134e4a",
        "direction": 1
      },
      "geometry": {
        "type": "Point",
        "coordinates": [
          120.24928,
          22.73447
        ]
      }
    },
    {
      "type": "Feature",
      "properties": {
        "feature_type": "station",
        "ref": "KHH108017154262",
        "name": "茄冬坑",
        "name_en": "Jiadongkeng",
        "line": "801（經台鐵新左營站－臺鐵岡山車站(捷運岡山車站)）",
        "color": "#134e4a",
        "direction": 1
      },
      "geometry": {
        "type": "Point",
        "coordinates": [
          120.253911,
          22.734919
        ]
      }
    },
    {
      "type": "Feature",
      "properties": {
        "feature_type": "station",
        "ref": "KHH108017154252",
        "name": "典寶",
        "name_en": "Dianbao",
        "line": "801（經台鐵新左營站－臺鐵岡山車站(捷運岡山車站)）",
        "color": "#134e4a",
        "direction": 1
      },
      "geometry": {
        "type": "Point",
        "coordinates": [
          120.258134,
          22.736872
        ]
      }
    },
    {
      "type": "Feature",
      "properties": {
        "feature_type": "station",
        "ref": "KHH108017154242",
        "name": "典寶橋",
        "name_en": "Dianbao Bridge",
        "line": "801（經台鐵新左營站－臺鐵岡山車站(捷運岡山車站)）",
        "color": "#134e4a",
        "direction": 1
      },
      "geometry": {
        "type": "Point",
        "coordinates": [
          120.26434,
          22.73835
        ]
      }
    },
    {
      "type": "Feature",
      "properties": {
        "feature_type": "station",
        "ref": "KHH108017153602",
        "name": "東寶公司",
        "name_en": "Tong Pao frozen food co., ltd.",
        "line": "801（經台鐵新左營站－臺鐵岡山車站(捷運岡山車站)）",
        "color": "#134e4a",
        "direction": 1
      },
      "geometry": {
        "type": "Point",
        "coordinates": [
          120.267867,
          22.734543
        ]
      }
    },
    {
      "type": "Feature",
      "properties": {
        "feature_type": "station",
        "ref": "KHH108017153612",
        "name": "草橋",
        "name_en": "Cao Bridge",
        "line": "801（經台鐵新左營站－臺鐵岡山車站(捷運岡山車站)）",
        "color": "#134e4a",
        "direction": 1
      },
      "geometry": {
        "type": "Point",
        "coordinates": [
          120.271175,
          22.730945
        ]
      }
    },
    {
      "type": "Feature",
      "properties": {
        "feature_type": "station",
        "ref": "KHH108017176932",
        "name": "高雄大學(德中路)",
        "name_en": "National University of Kaohsiung(Dejhong Rd.)",
        "line": "801（經台鐵新左營站－臺鐵岡山車站(捷運岡山車站)）",
        "color": "#134e4a",
        "direction": 1
      },
      "geometry": {
        "type": "Point",
        "coordinates": [
          120.273858,
          22.727483
        ]
      }
    },
    {
      "type": "Feature",
      "properties": {
        "feature_type": "station",
        "ref": "KHH108017154202",
        "name": "援中港",
        "name_en": "Yuanjhong Harbor",
        "line": "801（經台鐵新左營站－臺鐵岡山車站(捷運岡山車站)）",
        "color": "#134e4a",
        "direction": 1
      },
      "geometry": {
        "type": "Point",
        "coordinates": [
          120.278207,
          22.722221
        ]
      }
    },
    {
      "type": "Feature",
      "properties": {
        "feature_type": "station",
        "ref": "KHH10801771392",
        "name": "五福社區",
        "name_en": "Wufu Community",
        "line": "801（經台鐵新左營站－臺鐵岡山車站(捷運岡山車站)）",
        "color": "#134e4a",
        "direction": 1
      },
      "geometry": {
        "type": "Point",
        "coordinates": [
          120.283775,
          22.718871
        ]
      }
    },
    {
      "type": "Feature",
      "properties": {
        "feature_type": "station",
        "ref": "KHH108017154172",
        "name": "興昌里",
        "name_en": "Singchang Village",
        "line": "801（經台鐵新左營站－臺鐵岡山車站(捷運岡山車站)）",
        "color": "#134e4a",
        "direction": 1
      },
      "geometry": {
        "type": "Point",
        "coordinates": [
          120.286909,
          22.716932
        ]
      }
    },
    {
      "type": "Feature",
      "properties": {
        "feature_type": "station",
        "ref": "KHH108017154162",
        "name": "北右昌(右昌街)",
        "name_en": "Beiyouchang(Youchang St.)",
        "line": "801（經台鐵新左營站－臺鐵岡山車站(捷運岡山車站)）",
        "color": "#134e4a",
        "direction": 1
      },
      "geometry": {
        "type": "Point",
        "coordinates": [
          120.28939,
          22.714264
        ]
      }
    },
    {
      "type": "Feature",
      "properties": {
        "feature_type": "station",
        "ref": "KHH10801736942",
        "name": "右昌(三山街口)",
        "name_en": "Youchang(Sanshan St. Intersection)",
        "line": "801（經台鐵新左營站－臺鐵岡山車站(捷運岡山車站)）",
        "color": "#134e4a",
        "direction": 1
      },
      "geometry": {
        "type": "Point",
        "coordinates": [
          120.289324,
          22.71083
        ]
      }
    },
    {
      "type": "Feature",
      "properties": {
        "feature_type": "station",
        "ref": "KHH108017154142",
        "name": "莒光新村(軍校路)",
        "name_en": "Jyuguang New Village(Jyunsiao Rd.)",
        "line": "801（經台鐵新左營站－臺鐵岡山車站(捷運岡山車站)）",
        "color": "#134e4a",
        "direction": 1
      },
      "geometry": {
        "type": "Point",
        "coordinates": [
          120.29278,
          22.706228
        ]
      }
    },
    {
      "type": "Feature",
      "properties": {
        "feature_type": "station",
        "ref": "KHH108017154132",
        "name": "國軍左營醫院",
        "name_en": "Zuoying Branch of Kaohsiung Armed Forces General Hospital",
        "line": "801（經台鐵新左營站－臺鐵岡山車站(捷運岡山車站)）",
        "color": "#134e4a",
        "direction": 1
      },
      "geometry": {
        "type": "Point",
        "coordinates": [
          120.292365,
          22.702212
        ]
      }
    },
    {
      "type": "Feature",
      "properties": {
        "feature_type": "station",
        "ref": "KHH108017107612",
        "name": "左營禮拜堂(海功路)",
        "name_en": "Zuoying Chapel(Haigong Rd.)",
        "line": "801（經台鐵新左營站－臺鐵岡山車站(捷運岡山車站)）",
        "color": "#134e4a",
        "direction": 1
      },
      "geometry": {
        "type": "Point",
        "coordinates": [
          120.293535,
          22.693599
        ]
      }
    },
    {
      "type": "Feature",
      "properties": {
        "feature_type": "station",
        "ref": "KHH108017177122",
        "name": "海功路(進學路口)",
        "name_en": "Haigong Rd.(Jinsyue Rd. Intersection)",
        "line": "801（經台鐵新左營站－臺鐵岡山車站(捷運岡山車站)）",
        "color": "#134e4a",
        "direction": 1
      },
      "geometry": {
        "type": "Point",
        "coordinates": [
          120.294976,
          22.693542
        ]
      }
    },
    {
      "type": "Feature",
      "properties": {
        "feature_type": "station",
        "ref": "KHH108017154122",
        "name": "左營高中",
        "name_en": "Tsoying Senior High School",
        "line": "801（經台鐵新左營站－臺鐵岡山車站(捷運岡山車站)）",
        "color": "#134e4a",
        "direction": 1
      },
      "geometry": {
        "type": "Point",
        "coordinates": [
          120.296569,
          22.693529
        ]
      }
    },
    {
      "type": "Feature",
      "properties": {
        "feature_type": "station",
        "ref": "KHH10801735082",
        "name": "菜公路口(左營大路)",
        "name_en": "Caigong Rd. Intersection(Zuoying Avenue)",
        "line": "801（經台鐵新左營站－臺鐵岡山車站(捷運岡山車站)）",
        "color": "#134e4a",
        "direction": 1
      },
      "geometry": {
        "type": "Point",
        "coordinates": [
          120.297999,
          22.692013
        ]
      }
    },
    {
      "type": "Feature",
      "properties": {
        "feature_type": "station",
        "ref": "KHH108017177132",
        "name": "豐穀宮(進學路口)",
        "name_en": "Fonggu Temple(Jinsyue Rd.Intersection)",
        "line": "801（經台鐵新左營站－臺鐵岡山車站(捷運岡山車站)）",
        "color": "#134e4a",
        "direction": 1
      },
      "geometry": {
        "type": "Point",
        "coordinates": [
          120.29621,
          22.690465
        ]
      }
    },
    {
      "type": "Feature",
      "properties": {
        "feature_type": "station",
        "ref": "KHH10801733992",
        "name": "左營市場",
        "name_en": "Zuoying Market",
        "line": "801（經台鐵新左營站－臺鐵岡山車站(捷運岡山車站)）",
        "color": "#134e4a",
        "direction": 1
      },
      "geometry": {
        "type": "Point",
        "coordinates": [
          120.293624,
          22.687811
        ]
      }
    },
    {
      "type": "Feature",
      "properties": {
        "feature_type": "station",
        "ref": "KHH108017177042",
        "name": "左營大路",
        "name_en": "Zuoying Avenue",
        "line": "801（經台鐵新左營站－臺鐵岡山車站(捷運岡山車站)）",
        "color": "#134e4a",
        "direction": 1
      },
      "geometry": {
        "type": "Point",
        "coordinates": [
          120.29061,
          22.686127
        ]
      }
    },
    {
      "type": "Feature",
      "properties": {
        "feature_type": "station",
        "ref": "KHH10801734282",
        "name": "店仔頂路口",
        "name_en": "Dianzihding Rd. Intersection",
        "line": "801（經台鐵新左營站－臺鐵岡山車站(捷運岡山車站)）",
        "color": "#134e4a",
        "direction": 1
      },
      "geometry": {
        "type": "Point",
        "coordinates": [
          120.289279,
          22.684446
        ]
      }
    },
    {
      "type": "Feature",
      "properties": {
        "feature_type": "station",
        "ref": "KHH108017154072",
        "name": "左營農會",
        "name_en": "Zuoying Farmers' Association",
        "line": "801（經台鐵新左營站－臺鐵岡山車站(捷運岡山車站)）",
        "color": "#134e4a",
        "direction": 1
      },
      "geometry": {
        "type": "Point",
        "coordinates": [
          120.288314,
          22.682465
        ]
      }
    },
    {
      "type": "Feature",
      "properties": {
        "feature_type": "station",
        "ref": "KHH108017154062",
        "name": "左營南站",
        "name_en": "Zuoying South Station",
        "line": "801（經台鐵新左營站－臺鐵岡山車站(捷運岡山車站)）",
        "color": "#134e4a",
        "direction": 1
      },
      "geometry": {
        "type": "Point",
        "coordinates": [
          120.287236,
          22.679352
        ]
      }
    },
    {
      "type": "Feature",
      "properties": {
        "feature_type": "station",
        "ref": "KHH108017154052",
        "name": "海青工商",
        "name_en": "Haicing Vocational High School",
        "line": "801（經台鐵新左營站－臺鐵岡山車站(捷運岡山車站)）",
        "color": "#134e4a",
        "direction": 1
      },
      "geometry": {
        "type": "Point",
        "coordinates": [
          120.286465,
          22.674819
        ]
      }
    },
    {
      "type": "Feature",
      "properties": {
        "feature_type": "station",
        "ref": "KHH10801754952",
        "name": "翠峰路",
        "name_en": "Cueifong Rd.",
        "line": "801（經台鐵新左營站－臺鐵岡山車站(捷運岡山車站)）",
        "color": "#134e4a",
        "direction": 1
      },
      "geometry": {
        "type": "Point",
        "coordinates": [
          120.288953,
          22.671704
        ]
      }
    },
    {
      "type": "Feature",
      "properties": {
        "feature_type": "station",
        "ref": "KHH10801751542",
        "name": "左營火車站",
        "name_en": "Zuoying Train Station",
        "line": "801（經台鐵新左營站－臺鐵岡山車站(捷運岡山車站)）",
        "color": "#134e4a",
        "direction": 1
      },
      "geometry": {
        "type": "Point",
        "coordinates": [
          120.29432,
          22.674914
        ]
      }
    },
    {
      "type": "Feature",
      "properties": {
        "feature_type": "station",
        "ref": "KHH10801751772",
        "name": "臺鐵新左營站",
        "name_en": "TRA Xin Zuoying Station",
        "line": "801（經台鐵新左營站－臺鐵岡山車站(捷運岡山車站)）",
        "color": "#134e4a",
        "direction": 1
      },
      "geometry": {
        "type": "Point",
        "coordinates": [
          120.307691,
          22.688726
        ]
      }
    }
  ]
}
