{
  "type": "FeatureCollection",
  "name": "804（經捷運都會公園站－屏東轉運站）",
  "properties": {
    "id": "kaohsiung_804_30fa86c04f",
    "name": "804（經捷運都會公園站－屏東轉運站）",
    "name_en": "804 (via 捷運都會公園站－屏東轉運站)",
    "ref": "804",
    "color": "#134e4a",
    "city_id": "Kaohsiung",
    "source": "TDX Bus Shape / StopOfRoute",
    "via": "捷運都會公園站－屏東轉運站",
    "official_map_url": "http://ibus.tbkc.gov.tw/cms/api/route/8048/map/1633/image",
    "operator_id": "10320",
    "operator": "高雄客運",
    "operator_en": "Kaohsiung Bus Co., Ltd."
  },
  "features": [
    {
      "type": "Feature",
      "properties": {
        "feature_type": "route",
        "ref": "804",
        "name": "804（經捷運都會公園站－屏東轉運站）",
        "name_en": "804 (via 捷運都會公園站－屏東轉運站)",
        "color": "#134e4a",
        "direction": 0
      },
      "geometry": {
        "type": "LineString",
        "coordinates": [
          [
            120.32057,
            22.73027
          ],
          [
            120.32163,
            22.7267
          ],
          [
            120.32193,
            22.72575
          ],
          [
            120.32256,
            22.72482
          ],
          [
            120.32399,
            22.72318
          ],
          [
            120.32434,
            22.7225
          ],
          [
            120.32456,
            22.72169
          ],
          [
            120.32463,
            22.72112
          ],
          [
            120.32455,
            22.72093
          ],
          [
            120.32437,
            22.72077
          ],
          [
            120.32412,
            22.72071
          ],
          [
            120.32391,
            22.72073
          ],
          [
            120.3237,
            22.72087
          ],
          [
            120.32362,
            22.72103
          ],
          [
            120.32361,
            22.7212
          ],
          [
            120.3237,
            22.72143
          ],
          [
            120.32382,
            22.72154
          ],
          [
            120.32397,
            22.72161
          ],
          [
            120.32443,
            22.72166
          ],
          [
            120.32511,
            22.72177
          ],
          [
            120.32668,
            22.7222
          ],
          [
            120.32722,
            22.72237
          ],
          [
            120.32769,
            22.72261
          ],
          [
            120.32796,
            22.72272
          ],
          [
            120.3279,
            22.72285
          ],
          [
            120.3271,
            22.72318
          ],
          [
            120.32412,
            22.72526
          ],
          [
            120.325,
            22.72673
          ],
          [
            120.32507,
            22.72671
          ],
          [
            120.325,
            22.72673
          ],
          [
            120.32516,
            22.727
          ],
          [
            120.32926,
            22.72678
          ],
          [
            120.32926,
            22.72688
          ],
          [
            120.33001,
            22.72798
          ],
          [
            120.33048,
            22.72834
          ],
          [
            120.33123,
            22.72882
          ],
          [
            120.33429,
            22.73044
          ],
          [
            120.33809,
            22.73144
          ],
          [
            120.34036,
            22.7318
          ],
          [
            120.34052,
            22.73191
          ],
          [
            120.34119,
            22.73143
          ],
          [
            120.3466,
            22.72969
          ],
          [
            120.34725,
            22.72923
          ],
          [
            120.34825,
            22.72808
          ],
          [
            120.34861,
            22.72508
          ],
          [
            120.34917,
            22.72412
          ],
          [
            120.34981,
            22.72354
          ],
          [
            120.35039,
            22.72286
          ],
          [
            120.35045,
            22.72256
          ],
          [
            120.35039,
            22.7216
          ],
          [
            120.35055,
            22.72064
          ],
          [
            120.35054,
            22.7195
          ],
          [
            120.35127,
            22.71769
          ],
          [
            120.35235,
            22.71377
          ],
          [
            120.3528,
            22.71184
          ],
          [
            120.35365,
            22.70439
          ],
          [
            120.35377,
            22.7039
          ],
          [
            120.35398,
            22.70314
          ],
          [
            120.35228,
            22.70241
          ],
          [
            120.35178,
            22.70229
          ],
          [
            120.35056,
            22.70229
          ],
          [
            120.34927,
            22.70174
          ],
          [
            120.34578,
            22.70109
          ],
          [
            120.34504,
            22.70104
          ],
          [
            120.34672,
            22.69845
          ],
          [
            120.34714,
            22.69794
          ],
          [
            120.35119,
            22.68921
          ],
          [
            120.35522,
            22.68166
          ],
          [
            120.35837,
            22.67613
          ],
          [
            120.36226,
            22.66892
          ],
          [
            120.3625,
            22.66827
          ],
          [
            120.36263,
            22.66764
          ],
          [
            120.3641,
            22.65914
          ],
          [
            120.36293,
            22.65898
          ],
          [
            120.36191,
            22.65883
          ],
          [
            120.36076,
            22.65857
          ],
          [
            120.36117,
            22.65708
          ],
          [
            120.35959,
            22.65645
          ],
          [
            120.36,
            22.65534
          ],
          [
            120.36026,
            22.65459
          ],
          [
            120.36022,
            22.65439
          ],
          [
            120.36013,
            22.65422
          ],
          [
            120.35991,
            22.654
          ],
          [
            120.35975,
            22.65377
          ],
          [
            120.35966,
            22.6536
          ],
          [
            120.35961,
            22.65341
          ],
          [
            120.3596,
            22.6532
          ],
          [
            120.35977,
            22.65251
          ],
          [
            120.35984,
            22.65182
          ],
          [
            120.35964,
            22.6507
          ],
          [
            120.35951,
            22.65047
          ],
          [
            120.35934,
            22.65037
          ],
          [
            120.3592,
            22.65029
          ],
          [
            120.35879,
            22.65031
          ],
          [
            120.35602,
            22.65115
          ],
          [
            120.35567,
            22.65089
          ],
          [
            120.35509,
            22.65071
          ],
          [
            120.35433,
            22.6506
          ],
          [
            120.35358,
            22.65054
          ],
          [
            120.35279,
            22.65062
          ],
          [
            120.35237,
            22.65071
          ],
          [
            120.35118,
            22.65117
          ],
          [
            120.34903,
            22.65215
          ],
          [
            120.34706,
            22.64749
          ],
          [
            120.34581,
            22.64226
          ],
          [
            120.34451,
            22.63706
          ],
          [
            120.34437,
            22.63609
          ],
          [
            120.34446,
            22.63114
          ],
          [
            120.34441,
            22.62937
          ],
          [
            120.35074,
            22.62918
          ],
          [
            120.35704,
            22.62905
          ],
          [
            120.35747,
            22.62611
          ],
          [
            120.35656,
            22.62608
          ],
          [
            120.35691,
            22.62477
          ],
          [
            120.35723,
            22.62365
          ],
          [
            120.35732,
            22.62346
          ],
          [
            120.3588,
            22.62227
          ],
          [
            120.35998,
            22.62164
          ],
          [
            120.36062,
            22.6213
          ],
          [
            120.36108,
            22.62111
          ],
          [
            120.36201,
            22.62089
          ],
          [
            120.36362,
            22.62033
          ],
          [
            120.36405,
            22.62029
          ],
          [
            120.365,
            22.62044
          ],
          [
            120.36526,
            22.62054
          ],
          [
            120.36612,
            22.62109
          ],
          [
            120.36712,
            22.62201
          ],
          [
            120.36812,
            22.6229
          ],
          [
            120.36856,
            22.623169999999998
          ],
          [
            120.37422,
            22.6256
          ],
          [
            120.3799,
            22.628
          ],
          [
            120.38182,
            22.62889
          ],
          [
            120.3921,
            22.63599
          ],
          [
            120.39356,
            22.63682
          ],
          [
            120.39508,
            22.6376
          ],
          [
            120.39622,
            22.63806
          ],
          [
            120.39743,
            22.63844
          ],
          [
            120.39842,
            22.6387
          ],
          [
            120.39939,
            22.6389
          ],
          [
            120.40138,
            22.63931
          ],
          [
            120.40997,
            22.64108
          ],
          [
            120.4115,
            22.6413
          ],
          [
            120.41307,
            22.64147
          ],
          [
            120.41552,
            22.64158
          ],
          [
            120.41753,
            22.64195
          ],
          [
            120.41954,
            22.64229
          ],
          [
            120.42023,
            22.64249
          ],
          [
            120.42098,
            22.64277
          ],
          [
            120.42236,
            22.64329
          ],
          [
            120.42514,
            22.64405
          ],
          [
            120.42802,
            22.64476
          ],
          [
            120.42953,
            22.64505
          ],
          [
            120.43086,
            22.64522
          ],
          [
            120.43219,
            22.64542
          ],
          [
            120.43338,
            22.64567
          ],
          [
            120.43623,
            22.64646
          ],
          [
            120.43904,
            22.6472
          ],
          [
            120.44025,
            22.64759
          ],
          [
            120.44138,
            22.64804
          ],
          [
            120.44257,
            22.64848
          ],
          [
            120.44316,
            22.6487
          ],
          [
            120.44374,
            22.64889
          ],
          [
            120.44704,
            22.64975
          ],
          [
            120.45031,
            22.65066
          ],
          [
            120.45685,
            22.65258
          ],
          [
            120.46092,
            22.65372
          ],
          [
            120.46502,
            22.65483
          ],
          [
            120.46566,
            22.65508
          ],
          [
            120.4662,
            22.65545
          ],
          [
            120.46657,
            22.65578
          ],
          [
            120.46693,
            22.65633
          ],
          [
            120.46712,
            22.65667
          ],
          [
            120.46719,
            22.65687
          ],
          [
            120.46749,
            22.65739
          ],
          [
            120.46922,
            22.66034
          ],
          [
            120.47008,
            22.66181
          ],
          [
            120.47095,
            22.66328
          ],
          [
            120.4716,
            22.66439
          ],
          [
            120.47187,
            22.66473
          ],
          [
            120.4722,
            22.66489
          ],
          [
            120.47278,
            22.66504
          ],
          [
            120.47338,
            22.66507
          ],
          [
            120.47871,
            22.66539
          ],
          [
            120.48267,
            22.66489
          ],
          [
            120.48306,
            22.66489
          ],
          [
            120.48358,
            22.6653
          ],
          [
            120.48582,
            22.6663
          ],
          [
            120.48721,
            22.66693
          ],
          [
            120.48775,
            22.66699
          ],
          [
            120.48895,
            22.66671
          ],
          [
            120.48932,
            22.66808
          ],
          [
            120.48961,
            22.6702
          ],
          [
            120.48955,
            22.67046
          ],
          [
            120.48916,
            22.67116
          ],
          [
            120.48897,
            22.67115
          ],
          [
            120.4875,
            22.67065
          ],
          [
            120.48655,
            22.67035
          ],
          [
            120.48481,
            22.67055
          ],
          [
            120.48464,
            22.66981
          ],
          [
            120.48465,
            22.66956
          ],
          [
            120.48533,
            22.66946
          ]
        ]
      }
    },
    {
      "type": "Feature",
      "properties": {
        "feature_type": "route",
        "ref": "804",
        "name": "804（經捷運都會公園站－屏東轉運站）",
        "name_en": "804 (via 捷運都會公園站－屏東轉運站)",
        "color": "#134e4a",
        "direction": 1
      },
      "geometry": {
        "type": "LineString",
        "coordinates": [
          [
            120.43983,
            22.64843
          ],
          [
            120.43859,
            22.64818
          ],
          [
            120.43689,
            22.64771
          ],
          [
            120.43399,
            22.64694
          ],
          [
            120.43234,
            22.64647
          ],
          [
            120.43076,
            22.64586
          ]
        ]
      }
    },
    {
      "type": "Feature",
      "properties": {
        "feature_type": "route",
        "ref": "804",
        "name": "804（經捷運都會公園站－屏東轉運站）",
        "name_en": "804 (via 捷運都會公園站－屏東轉運站)",
        "color": "#134e4a",
        "direction": 1
      },
      "geometry": {
        "type": "LineString",
        "coordinates": [
          [
            120.32627,
            22.72276
          ],
          [
            120.32572,
            22.72291
          ],
          [
            120.32507,
            22.72317
          ]
        ]
      }
    },
    {
      "type": "Feature",
      "properties": {
        "feature_type": "station",
        "ref": "KHH10804851321",
        "name": "捷運都會公園站",
        "name_en": "MRT Metropolitan Park Station",
        "line": "804（經捷運都會公園站－屏東轉運站）",
        "color": "#134e4a",
        "direction": 0
      },
      "geometry": {
        "type": "Point",
        "coordinates": [
          120.320535,
          22.730132
        ]
      }
    },
    {
      "type": "Feature",
      "properties": {
        "feature_type": "station",
        "ref": "KHH108048141201",
        "name": "朝新路",
        "name_en": "Chaosin Rd.",
        "line": "804（經捷運都會公園站－屏東轉運站）",
        "color": "#134e4a",
        "direction": 0
      },
      "geometry": {
        "type": "Point",
        "coordinates": [
          120.325067,
          22.724636
        ]
      }
    },
    {
      "type": "Feature",
      "properties": {
        "feature_type": "station",
        "ref": "KHH108048118431",
        "name": "楠梓站",
        "name_en": "Nanzih Station",
        "line": "804（經捷運都會公園站－屏東轉運站）",
        "color": "#134e4a",
        "direction": 0
      },
      "geometry": {
        "type": "Point",
        "coordinates": [
          120.324975,
          22.726545
        ]
      }
    },
    {
      "type": "Feature",
      "properties": {
        "feature_type": "station",
        "ref": "KHH108048118441",
        "name": "楠梓路口",
        "name_en": "Nanzih Rd. Intersection",
        "line": "804（經捷運都會公園站－屏東轉運站）",
        "color": "#134e4a",
        "direction": 0
      },
      "geometry": {
        "type": "Point",
        "coordinates": [
          120.330339,
          22.728135
        ]
      }
    },
    {
      "type": "Feature",
      "properties": {
        "feature_type": "station",
        "ref": "KHH108048118451",
        "name": "高雄少年法院",
        "name_en": "Kaohsiung Juvenile and Family Court",
        "line": "804（經捷運都會公園站－屏東轉運站）",
        "color": "#134e4a",
        "direction": 0
      },
      "geometry": {
        "type": "Point",
        "coordinates": [
          120.335586,
          22.730763
        ]
      }
    },
    {
      "type": "Feature",
      "properties": {
        "feature_type": "station",
        "ref": "KHH108048118461",
        "name": "外埔(楠梓)",
        "name_en": "Waipu(Nanzih)",
        "line": "804（經捷運都會公園站－屏東轉運站）",
        "color": "#134e4a",
        "direction": 0
      },
      "geometry": {
        "type": "Point",
        "coordinates": [
          120.337397,
          22.73124
        ]
      }
    },
    {
      "type": "Feature",
      "properties": {
        "feature_type": "station",
        "ref": "KHH108048118471",
        "name": "三中路口(三民路)",
        "name_en": "Sanjhong Rd. Intersection(Sanmin Rd.)",
        "line": "804（經捷運都會公園站－屏東轉運站）",
        "color": "#134e4a",
        "direction": 0
      },
      "geometry": {
        "type": "Point",
        "coordinates": [
          120.34312,
          22.73073
        ]
      }
    },
    {
      "type": "Feature",
      "properties": {
        "feature_type": "station",
        "ref": "KHH108048118481",
        "name": "大社農會",
        "name_en": "Dashe Area Farmers Association",
        "line": "804（經捷運都會公園站－屏東轉運站）",
        "color": "#134e4a",
        "direction": 0
      },
      "geometry": {
        "type": "Point",
        "coordinates": [
          120.3468,
          22.729517
        ]
      }
    },
    {
      "type": "Feature",
      "properties": {
        "feature_type": "station",
        "ref": "KHH108048118491",
        "name": "三奶里",
        "name_en": "Sannai Village",
        "line": "804（經捷運都會公園站－屏東轉運站）",
        "color": "#134e4a",
        "direction": 0
      },
      "geometry": {
        "type": "Point",
        "coordinates": [
          120.348362,
          22.726882
        ]
      }
    },
    {
      "type": "Feature",
      "properties": {
        "feature_type": "station",
        "ref": "KHH10804830961",
        "name": "三民路",
        "name_en": "Sanmin Rd.",
        "line": "804（經捷運都會公園站－屏東轉運站）",
        "color": "#134e4a",
        "direction": 0
      },
      "geometry": {
        "type": "Point",
        "coordinates": [
          120.349103,
          22.724006
        ]
      }
    },
    {
      "type": "Feature",
      "properties": {
        "feature_type": "station",
        "ref": "KHH108048118501",
        "name": "林子邊",
        "name_en": "Linzihbian",
        "line": "804（經捷運都會公園站－屏東轉運站）",
        "color": "#134e4a",
        "direction": 0
      },
      "geometry": {
        "type": "Point",
        "coordinates": [
          120.35041,
          22.722366
        ]
      }
    },
    {
      "type": "Feature",
      "properties": {
        "feature_type": "station",
        "ref": "KHH10804818601",
        "name": "中仁路口",
        "name_en": "Jhongren Rd. Intersection",
        "line": "804（經捷運都會公園站－屏東轉運站）",
        "color": "#134e4a",
        "direction": 0
      },
      "geometry": {
        "type": "Point",
        "coordinates": [
          120.351207,
          22.717456
        ]
      }
    },
    {
      "type": "Feature",
      "properties": {
        "feature_type": "station",
        "ref": "KHH108048118521",
        "name": "後庄(中正路)",
        "name_en": "Houjhuang(Jhongjheng Rd.)",
        "line": "804（經捷運都會公園站－屏東轉運站）",
        "color": "#134e4a",
        "direction": 0
      },
      "geometry": {
        "type": "Point",
        "coordinates": [
          120.351927,
          22.714866
        ]
      }
    },
    {
      "type": "Feature",
      "properties": {
        "feature_type": "station",
        "ref": "KHH108048118531",
        "name": "安樂一街口",
        "name_en": "Anle 1st St. Intersection",
        "line": "804（經捷運都會公園站－屏東轉運站）",
        "color": "#134e4a",
        "direction": 0
      },
      "geometry": {
        "type": "Point",
        "coordinates": [
          120.353047,
          22.709253
        ]
      }
    },
    {
      "type": "Feature",
      "properties": {
        "feature_type": "station",
        "ref": "KHH108048106131",
        "name": "文武里",
        "name_en": "Wunwu Village",
        "line": "804（經捷運都會公園站－屏東轉運站）",
        "color": "#134e4a",
        "direction": 0
      },
      "geometry": {
        "type": "Point",
        "coordinates": [
          120.35359,
          22.704488
        ]
      }
    },
    {
      "type": "Feature",
      "properties": {
        "feature_type": "station",
        "ref": "KHH108048118551",
        "name": "仁武里",
        "name_en": "Renwu Village",
        "line": "804（經捷運都會公園站－屏東轉運站）",
        "color": "#134e4a",
        "direction": 0
      },
      "geometry": {
        "type": "Point",
        "coordinates": [
          120.351983,
          22.702369
        ]
      }
    },
    {
      "type": "Feature",
      "properties": {
        "feature_type": "station",
        "ref": "KHH108048118561",
        "name": "仁武區公所(派出所)",
        "name_en": "Jenwu  District Office(Police Station)",
        "line": "804（經捷運都會公園站－屏東轉運站）",
        "color": "#134e4a",
        "direction": 0
      },
      "geometry": {
        "type": "Point",
        "coordinates": [
          120.348391,
          22.701588
        ]
      }
    },
    {
      "type": "Feature",
      "properties": {
        "feature_type": "station",
        "ref": "KHH108048118581",
        "name": "通法寺",
        "name_en": "Tongfa Temple",
        "line": "804（經捷運都會公園站－屏東轉運站）",
        "color": "#134e4a",
        "direction": 0
      },
      "geometry": {
        "type": "Point",
        "coordinates": [
          120.346569,
          22.698845
        ]
      }
    },
    {
      "type": "Feature",
      "properties": {
        "feature_type": "station",
        "ref": "KHH108048118591",
        "name": "八卦寮",
        "name_en": "Bagua Liao",
        "line": "804（經捷運都會公園站－屏東轉運站）",
        "color": "#134e4a",
        "direction": 0
      },
      "geometry": {
        "type": "Point",
        "coordinates": [
          120.347819,
          22.6963
        ]
      }
    },
    {
      "type": "Feature",
      "properties": {
        "feature_type": "station",
        "ref": "KHH108048118601",
        "name": "新庄(鳳仁路)",
        "name_en": "Sinjhuang(Fongren Rd.)",
        "line": "804（經捷運都會公園站－屏東轉運站）",
        "color": "#134e4a",
        "direction": 0
      },
      "geometry": {
        "type": "Point",
        "coordinates": [
          120.349576,
          22.692527
        ]
      }
    },
    {
      "type": "Feature",
      "properties": {
        "feature_type": "station",
        "ref": "KHH108048118611",
        "name": "名湖社區",
        "name_en": "Minghu Community",
        "line": "804（經捷運都會公園站－屏東轉運站）",
        "color": "#134e4a",
        "direction": 0
      },
      "geometry": {
        "type": "Point",
        "coordinates": [
          120.351613,
          22.688158
        ]
      }
    },
    {
      "type": "Feature",
      "properties": {
        "feature_type": "station",
        "ref": "KHH108048118621",
        "name": "灣子內(仁武)",
        "name_en": "Wanzihnei(Renwu)",
        "line": "804（經捷運都會公園站－屏東轉運站）",
        "color": "#134e4a",
        "direction": 0
      },
      "geometry": {
        "type": "Point",
        "coordinates": [
          120.35459,
          22.682577
        ]
      }
    },
    {
      "type": "Feature",
      "properties": {
        "feature_type": "station",
        "ref": "KHH108048118631",
        "name": "考潭",
        "name_en": "Kaotan",
        "line": "804（經捷運都會公園站－屏東轉運站）",
        "color": "#134e4a",
        "direction": 0
      },
      "geometry": {
        "type": "Point",
        "coordinates": [
          120.35789,
          22.67684
        ]
      }
    },
    {
      "type": "Feature",
      "properties": {
        "feature_type": "station",
        "ref": "KHH108048118641",
        "name": "十九灣",
        "name_en": "Shihjiouwan",
        "line": "804（經捷運都會公園站－屏東轉運站）",
        "color": "#134e4a",
        "direction": 0
      },
      "geometry": {
        "type": "Point",
        "coordinates": [
          120.361132,
          22.670895
        ]
      }
    },
    {
      "type": "Feature",
      "properties": {
        "feature_type": "station",
        "ref": "KHH10804884061",
        "name": "夢裡里",
        "name_en": "Mengli Village",
        "line": "804（經捷運都會公園站－屏東轉運站）",
        "color": "#134e4a",
        "direction": 0
      },
      "geometry": {
        "type": "Point",
        "coordinates": [
          120.36257,
          22.66742
        ]
      }
    },
    {
      "type": "Feature",
      "properties": {
        "feature_type": "station",
        "ref": "KHH10804884071",
        "name": "鳥松",
        "name_en": "Niaosong",
        "line": "804（經捷運都會公園站－屏東轉運站）",
        "color": "#134e4a",
        "direction": 0
      },
      "geometry": {
        "type": "Point",
        "coordinates": [
          120.36358,
          22.66166
        ]
      }
    },
    {
      "type": "Feature",
      "properties": {
        "feature_type": "station",
        "ref": "KHH108048118671",
        "name": "鳥松區公所(中正路)",
        "name_en": "Niaosong District Office(Jhongjheng Rd.)",
        "line": "804（經捷運都會公園站－屏東轉運站）",
        "color": "#134e4a",
        "direction": 0
      },
      "geometry": {
        "type": "Point",
        "coordinates": [
          120.363833,
          22.660161
        ]
      }
    },
    {
      "type": "Feature",
      "properties": {
        "feature_type": "station",
        "ref": "KHH10804825921",
        "name": "忠誠路口",
        "name_en": "Jhongcheng Rd. Intersection",
        "line": "804（經捷運都會公園站－屏東轉運站）",
        "color": "#134e4a",
        "direction": 0
      },
      "geometry": {
        "type": "Point",
        "coordinates": [
          120.360809,
          22.658027
        ]
      }
    },
    {
      "type": "Feature",
      "properties": {
        "feature_type": "station",
        "ref": "KHH108048118681",
        "name": "澄清湖棒球場",
        "name_en": "Chengcing Lake Baseball Field",
        "line": "804（經捷運都會公園站－屏東轉運站）",
        "color": "#134e4a",
        "direction": 0
      },
      "geometry": {
        "type": "Point",
        "coordinates": [
          120.360001,
          22.655186
        ]
      }
    },
    {
      "type": "Feature",
      "properties": {
        "feature_type": "station",
        "ref": "KHH108048118691",
        "name": "長庚醫院",
        "name_en": "Chang Gung Memorial Hospital",
        "line": "804（經捷運都會公園站－屏東轉運站）",
        "color": "#134e4a",
        "direction": 0
      },
      "geometry": {
        "type": "Point",
        "coordinates": [
          120.356797,
          22.650963
        ]
      }
    },
    {
      "type": "Feature",
      "properties": {
        "feature_type": "station",
        "ref": "KHH108048118701",
        "name": "正修科大(澄清湖)",
        "name_en": "Cheng Shiu University(Cheng Ching Lake)",
        "line": "804（經捷運都會公園站－屏東轉運站）",
        "color": "#134e4a",
        "direction": 0
      },
      "geometry": {
        "type": "Point",
        "coordinates": [
          120.348722,
          22.651528
        ]
      }
    },
    {
      "type": "Feature",
      "properties": {
        "feature_type": "station",
        "ref": "KHH108048118721",
        "name": "大華里(澄清路)",
        "name_en": "Dahua Village(Chengcing Rd.)",
        "line": "804（經捷運都會公園站－屏東轉運站）",
        "color": "#134e4a",
        "direction": 0
      },
      "geometry": {
        "type": "Point",
        "coordinates": [
          120.346829,
          22.646832
        ]
      }
    },
    {
      "type": "Feature",
      "properties": {
        "feature_type": "station",
        "ref": "KHH10804825181",
        "name": "澄清澄和路口",
        "name_en": "Chengcing Chenghe Rd.Intersection",
        "line": "804（經捷運都會公園站－屏東轉運站）",
        "color": "#134e4a",
        "direction": 0
      },
      "geometry": {
        "type": "Point",
        "coordinates": [
          120.346151,
          22.643901
        ]
      }
    },
    {
      "type": "Feature",
      "properties": {
        "feature_type": "station",
        "ref": "KHH108048118731",
        "name": "澄清路",
        "name_en": "Chengcing Rd.",
        "line": "804（經捷運都會公園站－屏東轉運站）",
        "color": "#134e4a",
        "direction": 0
      },
      "geometry": {
        "type": "Point",
        "coordinates": [
          120.345787,
          22.642403
        ]
      }
    },
    {
      "type": "Feature",
      "properties": {
        "feature_type": "station",
        "ref": "KHH10804825221",
        "name": "褒揚街口",
        "name_en": "Baoyang St. Intersection",
        "line": "804（經捷運都會公園站－屏東轉運站）",
        "color": "#134e4a",
        "direction": 0
      },
      "geometry": {
        "type": "Point",
        "coordinates": [
          120.345205,
          22.639932
        ]
      }
    },
    {
      "type": "Feature",
      "properties": {
        "feature_type": "station",
        "ref": "KHH108048118741",
        "name": "覺民路口(澄清路)",
        "name_en": "Jyuemin Rd. Intersection(Chengcing Rd)",
        "line": "804（經捷運都會公園站－屏東轉運站）",
        "color": "#134e4a",
        "direction": 0
      },
      "geometry": {
        "type": "Point",
        "coordinates": [
          120.344638,
          22.637864
        ]
      }
    },
    {
      "type": "Feature",
      "properties": {
        "feature_type": "station",
        "ref": "KHH10804835271",
        "name": "臺鐵正義站(澄清路)",
        "name_en": "TRA Jhengyi Station(Chengcing Rd.)",
        "line": "804（經捷運都會公園站－屏東轉運站）",
        "color": "#134e4a",
        "direction": 0
      },
      "geometry": {
        "type": "Point",
        "coordinates": [
          120.344571,
          22.634238
        ]
      }
    },
    {
      "type": "Feature",
      "properties": {
        "feature_type": "station",
        "ref": "KHH108048142601",
        "name": "鳳山行政中心(澄清路)",
        "name_en": "Fongshan Admin. Hall(Chengcing Rd.)",
        "line": "804（經捷運都會公園站－屏東轉運站）",
        "color": "#134e4a",
        "direction": 0
      },
      "geometry": {
        "type": "Point",
        "coordinates": [
          120.344388,
          22.630279
        ]
      }
    },
    {
      "type": "Feature",
      "properties": {
        "feature_type": "station",
        "ref": "KHH108048118761",
        "name": "婦幼館",
        "name_en": "Women and Children Center",
        "line": "804（經捷運都會公園站－屏東轉運站）",
        "color": "#134e4a",
        "direction": 0
      },
      "geometry": {
        "type": "Point",
        "coordinates": [
          120.347999,
          22.629199
        ]
      }
    },
    {
      "type": "Feature",
      "properties": {
        "feature_type": "station",
        "ref": "KHH108048118781",
        "name": "通益市場",
        "name_en": "Tongyi Market",
        "line": "804（經捷運都會公園站－屏東轉運站）",
        "color": "#134e4a",
        "direction": 0
      },
      "geometry": {
        "type": "Point",
        "coordinates": [
          120.353091,
          22.629119
        ]
      }
    },
    {
      "type": "Feature",
      "properties": {
        "feature_type": "station",
        "ref": "KHH108048118791",
        "name": "曹公路",
        "name_en": "Caogong Rd.",
        "line": "804（經捷運都會公園站－屏東轉運站）",
        "color": "#134e4a",
        "direction": 0
      },
      "geometry": {
        "type": "Point",
        "coordinates": [
          120.357089,
          22.628357
        ]
      }
    },
    {
      "type": "Feature",
      "properties": {
        "feature_type": "station",
        "ref": "KHH108048118801",
        "name": "高雄客運鳳山站(澄瀾砲台)",
        "name_en": "KBus Fongshan Station(Chenglan Fort)",
        "line": "804（經捷運都會公園站－屏東轉運站）",
        "color": "#134e4a",
        "direction": 0
      },
      "geometry": {
        "type": "Point",
        "coordinates": [
          120.356918,
          22.624538
        ]
      }
    },
    {
      "type": "Feature",
      "properties": {
        "feature_type": "station",
        "ref": "KHH108048118811",
        "name": "鳳山龍山寺",
        "name_en": "Fongshan Longshan Temple",
        "line": "804（經捷運都會公園站－屏東轉運站）",
        "color": "#134e4a",
        "direction": 0
      },
      "geometry": {
        "type": "Point",
        "coordinates": [
          120.359835,
          22.621695
        ]
      }
    },
    {
      "type": "Feature",
      "properties": {
        "feature_type": "station",
        "ref": "KHH108048118821",
        "name": "黃埔新村",
        "name_en": "Huangpu New Village",
        "line": "804（經捷運都會公園站－屏東轉運站）",
        "color": "#134e4a",
        "direction": 0
      },
      "geometry": {
        "type": "Point",
        "coordinates": [
          120.36436,
          22.620285
        ]
      }
    },
    {
      "type": "Feature",
      "properties": {
        "feature_type": "station",
        "ref": "KHH108048118831",
        "name": "東門",
        "name_en": "East Gate",
        "line": "804（經捷運都會公園站－屏東轉運站）",
        "color": "#134e4a",
        "direction": 0
      },
      "geometry": {
        "type": "Point",
        "coordinates": [
          120.369343,
          22.623425
        ]
      }
    },
    {
      "type": "Feature",
      "properties": {
        "feature_type": "station",
        "ref": "KHH108048118841",
        "name": "捷運鳳山國中站(郵局)",
        "name_en": "MRT Fongshan Junior High School Station(Chunghwa Post )",
        "line": "804（經捷運都會公園站－屏東轉運站）",
        "color": "#134e4a",
        "direction": 0
      },
      "geometry": {
        "type": "Point",
        "coordinates": [
          120.371298,
          22.624223
        ]
      }
    },
    {
      "type": "Feature",
      "properties": {
        "feature_type": "station",
        "ref": "KHH108048118851",
        "name": "中山東路",
        "name_en": "Jhongshan E. Rd.",
        "line": "804（經捷運都會公園站－屏東轉運站）",
        "color": "#134e4a",
        "direction": 0
      },
      "geometry": {
        "type": "Point",
        "coordinates": [
          120.374421,
          22.62565
        ]
      }
    },
    {
      "type": "Feature",
      "properties": {
        "feature_type": "station",
        "ref": "KHH108048118861",
        "name": "上埤頂",
        "name_en": "Shangbiding",
        "line": "804（經捷運都會公園站－屏東轉運站）",
        "color": "#134e4a",
        "direction": 0
      },
      "geometry": {
        "type": "Point",
        "coordinates": [
          120.376475,
          22.626457
        ]
      }
    },
    {
      "type": "Feature",
      "properties": {
        "feature_type": "station",
        "ref": "KHH108048118871",
        "name": "埤頂",
        "name_en": "Piding",
        "line": "804（經捷運都會公園站－屏東轉運站）",
        "color": "#134e4a",
        "direction": 0
      },
      "geometry": {
        "type": "Point",
        "coordinates": [
          120.379164,
          22.627589
        ]
      }
    },
    {
      "type": "Feature",
      "properties": {
        "feature_type": "station",
        "ref": "KHH108048191111",
        "name": "埤頂派出所",
        "name_en": "Piding Police Station",
        "line": "804（經捷運都會公園站－屏東轉運站）",
        "color": "#134e4a",
        "direction": 0
      },
      "geometry": {
        "type": "Point",
        "coordinates": [
          120.380566,
          22.628264
        ]
      }
    },
    {
      "type": "Feature",
      "properties": {
        "feature_type": "station",
        "ref": "KHH108048118881",
        "name": "中庄",
        "name_en": "Jhongjhuang",
        "line": "804（經捷運都會公園站－屏東轉運站）",
        "color": "#134e4a",
        "direction": 0
      },
      "geometry": {
        "type": "Point",
        "coordinates": [
          120.384631,
          22.630712
        ]
      }
    },
    {
      "type": "Feature",
      "properties": {
        "feature_type": "station",
        "ref": "KHH108048118891",
        "name": "新光高中(鳳屏一路)",
        "name_en": "Singuang senior High School(Fongping 1st Rd.)",
        "line": "804（經捷運都會公園站－屏東轉運站）",
        "color": "#134e4a",
        "direction": 0
      },
      "geometry": {
        "type": "Point",
        "coordinates": [
          120.390272,
          22.634611
        ]
      }
    },
    {
      "type": "Feature",
      "properties": {
        "feature_type": "station",
        "ref": "KHH108048118901",
        "name": "後庄農會",
        "name_en": "Houjhuang Farmers' Association",
        "line": "804（經捷運都會公園站－屏東轉運站）",
        "color": "#134e4a",
        "direction": 0
      },
      "geometry": {
        "type": "Point",
        "coordinates": [
          120.392738,
          22.636234
        ]
      }
    },
    {
      "type": "Feature",
      "properties": {
        "feature_type": "station",
        "ref": "KHH108048118911",
        "name": "後庄(鳳屏一路)",
        "name_en": "Houjhuang(Fongping 1st Rd.)",
        "line": "804（經捷運都會公園站－屏東轉運站）",
        "color": "#134e4a",
        "direction": 0
      },
      "geometry": {
        "type": "Point",
        "coordinates": [
          120.394841,
          22.63744
        ]
      }
    },
    {
      "type": "Feature",
      "properties": {
        "feature_type": "station",
        "ref": "KHH108048118921",
        "name": "慈惠醫院",
        "name_en": "Tsyr-Huey Mental Hospital",
        "line": "804（經捷運都會公園站－屏東轉運站）",
        "color": "#134e4a",
        "direction": 0
      },
      "geometry": {
        "type": "Point",
        "coordinates": [
          120.398744,
          22.638689
        ]
      }
    },
    {
      "type": "Feature",
      "properties": {
        "feature_type": "station",
        "ref": "KHH108048118931",
        "name": "江山村口",
        "name_en": "Jiangshan Village Intersection",
        "line": "804（經捷運都會公園站－屏東轉運站）",
        "color": "#134e4a",
        "direction": 0
      },
      "geometry": {
        "type": "Point",
        "coordinates": [
          120.404947,
          22.639928
        ]
      }
    },
    {
      "type": "Feature",
      "properties": {
        "feature_type": "station",
        "ref": "KHH108048145021",
        "name": "江山里(鳳屏二路)",
        "name_en": "Jiangshan Village(Fongbing 2nd Rd.)",
        "line": "804（經捷運都會公園站－屏東轉運站）",
        "color": "#134e4a",
        "direction": 0
      },
      "geometry": {
        "type": "Point",
        "coordinates": [
          120.40863,
          22.6407
        ]
      }
    },
    {
      "type": "Feature",
      "properties": {
        "feature_type": "station",
        "ref": "KHH108048118951",
        "name": "鳳屏二路",
        "name_en": "Fongping 2nd Rd.",
        "line": "804（經捷運都會公園站－屏東轉運站）",
        "color": "#134e4a",
        "direction": 0
      },
      "geometry": {
        "type": "Point",
        "coordinates": [
          120.413423,
          22.641394
        ]
      }
    },
    {
      "type": "Feature",
      "properties": {
        "feature_type": "station",
        "ref": "KHH108048118961",
        "name": "磚仔窯",
        "name_en": "Brick Kiln",
        "line": "804（經捷運都會公園站－屏東轉運站）",
        "color": "#134e4a",
        "direction": 0
      },
      "geometry": {
        "type": "Point",
        "coordinates": [
          120.417556,
          22.641837
        ]
      }
    },
    {
      "type": "Feature",
      "properties": {
        "feature_type": "station",
        "ref": "KHH108048118971",
        "name": "西屏東",
        "name_en": "Sipingdong",
        "line": "804（經捷運都會公園站－屏東轉運站）",
        "color": "#134e4a",
        "direction": 0
      },
      "geometry": {
        "type": "Point",
        "coordinates": [
          120.46358,
          22.65434
        ]
      }
    },
    {
      "type": "Feature",
      "properties": {
        "feature_type": "station",
        "ref": "KHH108048118981",
        "name": "建國路",
        "name_en": "Jianguo Rd.",
        "line": "804（經捷運都會公園站－屏東轉運站）",
        "color": "#134e4a",
        "direction": 0
      },
      "geometry": {
        "type": "Point",
        "coordinates": [
          120.46806,
          22.65823
        ]
      }
    },
    {
      "type": "Feature",
      "properties": {
        "feature_type": "station",
        "ref": "KHH108048118991",
        "name": "青果社",
        "name_en": "Fruit Marketing Cooperative",
        "line": "804（經捷運都會公園站－屏東轉運站）",
        "color": "#134e4a",
        "direction": 0
      },
      "geometry": {
        "type": "Point",
        "coordinates": [
          120.46988,
          22.66135
        ]
      }
    },
    {
      "type": "Feature",
      "properties": {
        "feature_type": "station",
        "ref": "KHH108048119001",
        "name": "大同國小",
        "name_en": "Ta-Tung Elementary School",
        "line": "804（經捷運都會公園站－屏東轉運站）",
        "color": "#134e4a",
        "direction": 0
      },
      "geometry": {
        "type": "Point",
        "coordinates": [
          120.47565,
          22.66513
        ]
      }
    },
    {
      "type": "Feature",
      "properties": {
        "feature_type": "station",
        "ref": "KHH108048119011",
        "name": "勞工處",
        "name_en": "Labour Department",
        "line": "804（經捷運都會公園站－屏東轉運站）",
        "color": "#134e4a",
        "direction": 0
      },
      "geometry": {
        "type": "Point",
        "coordinates": [
          120.48212,
          22.66493
        ]
      }
    },
    {
      "type": "Feature",
      "properties": {
        "feature_type": "station",
        "ref": "KHH108048119021",
        "name": "自由路(建華一街口)",
        "name_en": "Zihyou Rd.(Jianhua 1st St. Intersection)",
        "line": "804（經捷運都會公園站－屏東轉運站）",
        "color": "#134e4a",
        "direction": 0
      },
      "geometry": {
        "type": "Point",
        "coordinates": [
          120.48687,
          22.66674
        ]
      }
    },
    {
      "type": "Feature",
      "properties": {
        "feature_type": "station",
        "ref": "KHH108048119031",
        "name": "屏東電信局",
        "name_en": "Pingtung Telecom Office",
        "line": "804（經捷運都會公園站－屏東轉運站）",
        "color": "#134e4a",
        "direction": 0
      },
      "geometry": {
        "type": "Point",
        "coordinates": [
          120.489523,
          22.670624
        ]
      }
    },
    {
      "type": "Feature",
      "properties": {
        "feature_type": "station",
        "ref": "KHH108048119041",
        "name": "逢甲路",
        "name_en": "Fongjia Rd.",
        "line": "804（經捷運都會公園站－屏東轉運站）",
        "color": "#134e4a",
        "direction": 0
      },
      "geometry": {
        "type": "Point",
        "coordinates": [
          120.487335,
          22.670659
        ]
      }
    },
    {
      "type": "Feature",
      "properties": {
        "feature_type": "station",
        "ref": "KHH108048142101",
        "name": "屏東轉運站",
        "name_en": "Pingtung Bus Station",
        "line": "804（經捷運都會公園站－屏東轉運站）",
        "color": "#134e4a",
        "direction": 0
      },
      "geometry": {
        "type": "Point",
        "coordinates": [
          120.485218,
          22.669368
        ]
      }
    },
    {
      "type": "Feature",
      "properties": {
        "feature_type": "station",
        "ref": "KHH108048144252",
        "name": "屏東轉運站",
        "name_en": "Pingtung Bus Station",
        "line": "804（經捷運都會公園站－屏東轉運站）",
        "color": "#134e4a",
        "direction": 1
      },
      "geometry": {
        "type": "Point",
        "coordinates": [
          120.485218,
          22.669368
        ]
      }
    },
    {
      "type": "Feature",
      "properties": {
        "feature_type": "station",
        "ref": "KHH10804882692",
        "name": "逢甲路",
        "name_en": "Fongjia Rd.",
        "line": "804（經捷運都會公園站－屏東轉運站）",
        "color": "#134e4a",
        "direction": 1
      },
      "geometry": {
        "type": "Point",
        "coordinates": [
          120.487914,
          22.670578
        ]
      }
    },
    {
      "type": "Feature",
      "properties": {
        "feature_type": "station",
        "ref": "KHH10804882702",
        "name": "屏東電信局",
        "name_en": "Pingtung Telecom Office",
        "line": "804（經捷運都會公園站－屏東轉運站）",
        "color": "#134e4a",
        "direction": 1
      },
      "geometry": {
        "type": "Point",
        "coordinates": [
          120.489339,
          22.67047
        ]
      }
    },
    {
      "type": "Feature",
      "properties": {
        "feature_type": "station",
        "ref": "KHH10804882712",
        "name": "自由路(建華一街口)",
        "name_en": "Zihyou Rd.(Jianhua 1st St. Intersection)",
        "line": "804（經捷運都會公園站－屏東轉運站）",
        "color": "#134e4a",
        "direction": 1
      },
      "geometry": {
        "type": "Point",
        "coordinates": [
          120.48669,
          22.66687
        ]
      }
    },
    {
      "type": "Feature",
      "properties": {
        "feature_type": "station",
        "ref": "KHH10804882722",
        "name": "勞工處",
        "name_en": "Labour Department",
        "line": "804（經捷運都會公園站－屏東轉運站）",
        "color": "#134e4a",
        "direction": 1
      },
      "geometry": {
        "type": "Point",
        "coordinates": [
          120.482134,
          22.665058
        ]
      }
    },
    {
      "type": "Feature",
      "properties": {
        "feature_type": "station",
        "ref": "KHH10804882732",
        "name": "大同國小",
        "name_en": "Ta-Tung Elementary School",
        "line": "804（經捷運都會公園站－屏東轉運站）",
        "color": "#134e4a",
        "direction": 1
      },
      "geometry": {
        "type": "Point",
        "coordinates": [
          120.47653,
          22.66535
        ]
      }
    },
    {
      "type": "Feature",
      "properties": {
        "feature_type": "station",
        "ref": "KHH10804882742",
        "name": "青果社",
        "name_en": "Fruit Marketing Cooperative",
        "line": "804（經捷運都會公園站－屏東轉運站）",
        "color": "#134e4a",
        "direction": 1
      },
      "geometry": {
        "type": "Point",
        "coordinates": [
          120.469753,
          22.661444
        ]
      }
    },
    {
      "type": "Feature",
      "properties": {
        "feature_type": "station",
        "ref": "KHH10804882792",
        "name": "建國路",
        "name_en": "Jianguo Rd.",
        "line": "804（經捷運都會公園站－屏東轉運站）",
        "color": "#134e4a",
        "direction": 1
      },
      "geometry": {
        "type": "Point",
        "coordinates": [
          120.46792,
          22.65835
        ]
      }
    },
    {
      "type": "Feature",
      "properties": {
        "feature_type": "station",
        "ref": "KHH10804882802",
        "name": "西屏東",
        "name_en": "Sipingdong",
        "line": "804（經捷運都會公園站－屏東轉運站）",
        "color": "#134e4a",
        "direction": 1
      },
      "geometry": {
        "type": "Point",
        "coordinates": [
          120.46307,
          22.65452
        ]
      }
    },
    {
      "type": "Feature",
      "properties": {
        "feature_type": "station",
        "ref": "KHH10804882812",
        "name": "磚仔窯",
        "name_en": "Brick Kiln",
        "line": "804（經捷運都會公園站－屏東轉運站）",
        "color": "#134e4a",
        "direction": 1
      },
      "geometry": {
        "type": "Point",
        "coordinates": [
          120.417591,
          22.642215
        ]
      }
    },
    {
      "type": "Feature",
      "properties": {
        "feature_type": "station",
        "ref": "KHH10804882822",
        "name": "鳳屏二路",
        "name_en": "Fongping 2nd Rd.",
        "line": "804（經捷運都會公園站－屏東轉運站）",
        "color": "#134e4a",
        "direction": 1
      },
      "geometry": {
        "type": "Point",
        "coordinates": [
          120.413415,
          22.641714
        ]
      }
    },
    {
      "type": "Feature",
      "properties": {
        "feature_type": "station",
        "ref": "KHH108048146252",
        "name": "江山里(鳳屏二路)",
        "name_en": "Jiangshan Village(Fongbing 2nd Rd.)",
        "line": "804（經捷運都會公園站－屏東轉運站）",
        "color": "#134e4a",
        "direction": 1
      },
      "geometry": {
        "type": "Point",
        "coordinates": [
          120.408681,
          22.641024
        ]
      }
    },
    {
      "type": "Feature",
      "properties": {
        "feature_type": "station",
        "ref": "KHH10804882892",
        "name": "江山村口",
        "name_en": "Jiangshan Village Intersection",
        "line": "804（經捷運都會公園站－屏東轉運站）",
        "color": "#134e4a",
        "direction": 1
      },
      "geometry": {
        "type": "Point",
        "coordinates": [
          120.404834,
          22.640238
        ]
      }
    },
    {
      "type": "Feature",
      "properties": {
        "feature_type": "station",
        "ref": "KHH10804882902",
        "name": "慈惠醫院",
        "name_en": "Tsyr-Huey Mental Hospital",
        "line": "804（經捷運都會公園站－屏東轉運站）",
        "color": "#134e4a",
        "direction": 1
      },
      "geometry": {
        "type": "Point",
        "coordinates": [
          120.397481,
          22.638679
        ]
      }
    },
    {
      "type": "Feature",
      "properties": {
        "feature_type": "station",
        "ref": "KHH10804882912",
        "name": "後庄(鳳屏一路)",
        "name_en": "Houjhuang(Fongping 1st Rd.)",
        "line": "804（經捷運都會公園站－屏東轉運站）",
        "color": "#134e4a",
        "direction": 1
      },
      "geometry": {
        "type": "Point",
        "coordinates": [
          120.394168,
          22.637397
        ]
      }
    },
    {
      "type": "Feature",
      "properties": {
        "feature_type": "station",
        "ref": "KHH10804882972",
        "name": "後庄農會",
        "name_en": "Houjhuang Farmers' Association",
        "line": "804（經捷運都會公園站－屏東轉運站）",
        "color": "#134e4a",
        "direction": 1
      },
      "geometry": {
        "type": "Point",
        "coordinates": [
          120.392372,
          22.636412
        ]
      }
    },
    {
      "type": "Feature",
      "properties": {
        "feature_type": "station",
        "ref": "KHH10804882982",
        "name": "新光高中(鳳屏一路)",
        "name_en": "Singuang senior High School(Fongping 1st Rd.)",
        "line": "804（經捷運都會公園站－屏東轉運站）",
        "color": "#134e4a",
        "direction": 1
      },
      "geometry": {
        "type": "Point",
        "coordinates": [
          120.389868,
          22.634709
        ]
      }
    },
    {
      "type": "Feature",
      "properties": {
        "feature_type": "station",
        "ref": "KHH10804882992",
        "name": "中庄",
        "name_en": "Jhongjhuang",
        "line": "804（經捷運都會公園站－屏東轉運站）",
        "color": "#134e4a",
        "direction": 1
      },
      "geometry": {
        "type": "Point",
        "coordinates": [
          120.384549,
          22.631
        ]
      }
    },
    {
      "type": "Feature",
      "properties": {
        "feature_type": "station",
        "ref": "KHH108048191122",
        "name": "埤頂派出所",
        "name_en": "Piding Police Station",
        "line": "804（經捷運都會公園站－屏東轉運站）",
        "color": "#134e4a",
        "direction": 1
      },
      "geometry": {
        "type": "Point",
        "coordinates": [
          120.380583,
          22.628503
        ]
      }
    },
    {
      "type": "Feature",
      "properties": {
        "feature_type": "station",
        "ref": "KHH10804883002",
        "name": "埤頂",
        "name_en": "Piding",
        "line": "804（經捷運都會公園站－屏東轉運站）",
        "color": "#134e4a",
        "direction": 1
      },
      "geometry": {
        "type": "Point",
        "coordinates": [
          120.37918,
          22.627946
        ]
      }
    },
    {
      "type": "Feature",
      "properties": {
        "feature_type": "station",
        "ref": "KHH10804883012",
        "name": "上埤頂",
        "name_en": "Shangbiding",
        "line": "804（經捷運都會公園站－屏東轉運站）",
        "color": "#134e4a",
        "direction": 1
      },
      "geometry": {
        "type": "Point",
        "coordinates": [
          120.376346,
          22.626727
        ]
      }
    },
    {
      "type": "Feature",
      "properties": {
        "feature_type": "station",
        "ref": "KHH10804883022",
        "name": "中山東路",
        "name_en": "Jhongshan E. Rd.",
        "line": "804（經捷運都會公園站－屏東轉運站）",
        "color": "#134e4a",
        "direction": 1
      },
      "geometry": {
        "type": "Point",
        "coordinates": [
          120.375291,
          22.626245
        ]
      }
    },
    {
      "type": "Feature",
      "properties": {
        "feature_type": "station",
        "ref": "KHH10804883032",
        "name": "捷運鳳山國中站(郵局)",
        "name_en": "MRT Fongshan Junior High School Station(Chunghwa Post )",
        "line": "804（經捷運都會公園站－屏東轉運站）",
        "color": "#134e4a",
        "direction": 1
      },
      "geometry": {
        "type": "Point",
        "coordinates": [
          120.371603,
          22.624739
        ]
      }
    },
    {
      "type": "Feature",
      "properties": {
        "feature_type": "station",
        "ref": "KHH10804883042",
        "name": "東門",
        "name_en": "East Gate",
        "line": "804（經捷運都會公園站－屏東轉運站）",
        "color": "#134e4a",
        "direction": 1
      },
      "geometry": {
        "type": "Point",
        "coordinates": [
          120.369117,
          22.623672
        ]
      }
    },
    {
      "type": "Feature",
      "properties": {
        "feature_type": "station",
        "ref": "KHH10804883052",
        "name": "黃埔新村",
        "name_en": "Huangpu New Village",
        "line": "804（經捷運都會公園站－屏東轉運站）",
        "color": "#134e4a",
        "direction": 1
      },
      "geometry": {
        "type": "Point",
        "coordinates": [
          120.364376,
          22.620503
        ]
      }
    },
    {
      "type": "Feature",
      "properties": {
        "feature_type": "station",
        "ref": "KHH10804883062",
        "name": "鳳山龍山寺",
        "name_en": "Fongshan Longshan Temple",
        "line": "804（經捷運都會公園站－屏東轉運站）",
        "color": "#134e4a",
        "direction": 1
      },
      "geometry": {
        "type": "Point",
        "coordinates": [
          120.359718,
          22.621849
        ]
      }
    },
    {
      "type": "Feature",
      "properties": {
        "feature_type": "station",
        "ref": "KHH10804883072",
        "name": "高雄客運鳳山站(澄瀾砲台)",
        "name_en": "KBus Fongshan Station(Chenglan Fort)",
        "line": "804（經捷運都會公園站－屏東轉運站）",
        "color": "#134e4a",
        "direction": 1
      },
      "geometry": {
        "type": "Point",
        "coordinates": [
          120.357198,
          22.624251
        ]
      }
    },
    {
      "type": "Feature",
      "properties": {
        "feature_type": "station",
        "ref": "KHH10804883082",
        "name": "曹公路",
        "name_en": "Caogong Rd.",
        "line": "804（經捷運都會公園站－屏東轉運站）",
        "color": "#134e4a",
        "direction": 1
      },
      "geometry": {
        "type": "Point",
        "coordinates": [
          120.357279,
          22.628384
        ]
      }
    },
    {
      "type": "Feature",
      "properties": {
        "feature_type": "station",
        "ref": "KHH10804883092",
        "name": "通益市場",
        "name_en": "Tongyi Market",
        "line": "804（經捷運都會公園站－屏東轉運站）",
        "color": "#134e4a",
        "direction": 1
      },
      "geometry": {
        "type": "Point",
        "coordinates": [
          120.353901,
          22.629155
        ]
      }
    },
    {
      "type": "Feature",
      "properties": {
        "feature_type": "station",
        "ref": "KHH10804883112",
        "name": "婦幼館",
        "name_en": "Women and Children Center",
        "line": "804（經捷運都會公園站－屏東轉運站）",
        "color": "#134e4a",
        "direction": 1
      },
      "geometry": {
        "type": "Point",
        "coordinates": [
          120.347763,
          22.629336
        ]
      }
    },
    {
      "type": "Feature",
      "properties": {
        "feature_type": "station",
        "ref": "KHH108048143752",
        "name": "鳳山行政中心(澄清路)",
        "name_en": "Fongshan Admin. Hall(Chengcing Rd.)",
        "line": "804（經捷運都會公園站－屏東轉運站）",
        "color": "#134e4a",
        "direction": 1
      },
      "geometry": {
        "type": "Point",
        "coordinates": [
          120.344619,
          22.630257
        ]
      }
    },
    {
      "type": "Feature",
      "properties": {
        "feature_type": "station",
        "ref": "KHH10804835282",
        "name": "臺鐵正義站(澄清路)",
        "name_en": "TRA Jhengyi Station(Chengcing Rd.)",
        "line": "804（經捷運都會公園站－屏東轉運站）",
        "color": "#134e4a",
        "direction": 1
      },
      "geometry": {
        "type": "Point",
        "coordinates": [
          120.344571,
          22.634238
        ]
      }
    },
    {
      "type": "Feature",
      "properties": {
        "feature_type": "station",
        "ref": "KHH10804883132",
        "name": "覺民路口(澄清路)",
        "name_en": "Jyuemin Rd. Intersection(Chengcing Rd)",
        "line": "804（經捷運都會公園站－屏東轉運站）",
        "color": "#134e4a",
        "direction": 1
      },
      "geometry": {
        "type": "Point",
        "coordinates": [
          120.344898,
          22.637595
        ]
      }
    },
    {
      "type": "Feature",
      "properties": {
        "feature_type": "station",
        "ref": "KHH10804825462",
        "name": "褒揚街口",
        "name_en": "Baoyang St. Intersection",
        "line": "804（經捷運都會公園站－屏東轉運站）",
        "color": "#134e4a",
        "direction": 1
      },
      "geometry": {
        "type": "Point",
        "coordinates": [
          120.345451,
          22.639982
        ]
      }
    },
    {
      "type": "Feature",
      "properties": {
        "feature_type": "station",
        "ref": "KHH10804883142",
        "name": "澄清路",
        "name_en": "Chengcing Rd.",
        "line": "804（經捷運都會公園站－屏東轉運站）",
        "color": "#134e4a",
        "direction": 1
      },
      "geometry": {
        "type": "Point",
        "coordinates": [
          120.346035,
          22.642328
        ]
      }
    },
    {
      "type": "Feature",
      "properties": {
        "feature_type": "station",
        "ref": "KHH10804825472",
        "name": "澄清澄和路口",
        "name_en": "Chengcing Chenghe Rd.Intersection",
        "line": "804（經捷運都會公園站－屏東轉運站）",
        "color": "#134e4a",
        "direction": 1
      },
      "geometry": {
        "type": "Point",
        "coordinates": [
          120.346427,
          22.643814
        ]
      }
    },
    {
      "type": "Feature",
      "properties": {
        "feature_type": "station",
        "ref": "KHH10804883152",
        "name": "大華里(澄清路)",
        "name_en": "Dahua Village(Chengcing Rd.)",
        "line": "804（經捷運都會公園站－屏東轉運站）",
        "color": "#134e4a",
        "direction": 1
      },
      "geometry": {
        "type": "Point",
        "coordinates": [
          120.34713,
          22.646858
        ]
      }
    },
    {
      "type": "Feature",
      "properties": {
        "feature_type": "station",
        "ref": "KHH10804883172",
        "name": "正修科大(澄清湖)",
        "name_en": "Cheng Shiu University(Cheng Ching Lake)",
        "line": "804（經捷運都會公園站－屏東轉運站）",
        "color": "#134e4a",
        "direction": 1
      },
      "geometry": {
        "type": "Point",
        "coordinates": [
          120.349095,
          22.651369
        ]
      }
    },
    {
      "type": "Feature",
      "properties": {
        "feature_type": "station",
        "ref": "KHH108048132582",
        "name": "長庚復健大樓",
        "name_en": "Chang Gung Rehabilitation Building",
        "line": "804（經捷運都會公園站－屏東轉運站）",
        "color": "#134e4a",
        "direction": 1
      },
      "geometry": {
        "type": "Point",
        "coordinates": [
          120.352521,
          22.650472
        ]
      }
    },
    {
      "type": "Feature",
      "properties": {
        "feature_type": "station",
        "ref": "KHH10804879342",
        "name": "長庚醫院",
        "name_en": "Chang Gung Memorial Hospital",
        "line": "804（經捷運都會公園站－屏東轉運站）",
        "color": "#134e4a",
        "direction": 1
      },
      "geometry": {
        "type": "Point",
        "coordinates": [
          120.356891,
          22.650753
        ]
      }
    },
    {
      "type": "Feature",
      "properties": {
        "feature_type": "station",
        "ref": "KHH108048107392",
        "name": "澄清湖棒球場",
        "name_en": "Chengcing Lake Baseball Field",
        "line": "804（經捷運都會公園站－屏東轉運站）",
        "color": "#134e4a",
        "direction": 1
      },
      "geometry": {
        "type": "Point",
        "coordinates": [
          120.360146,
          22.655483
        ]
      }
    },
    {
      "type": "Feature",
      "properties": {
        "feature_type": "station",
        "ref": "KHH108048132982",
        "name": "忠誠路口",
        "name_en": "Jhongcheng Rd. Intersection",
        "line": "804（經捷運都會公園站－屏東轉運站）",
        "color": "#134e4a",
        "direction": 1
      },
      "geometry": {
        "type": "Point",
        "coordinates": [
          120.360974,
          22.658064
        ]
      }
    },
    {
      "type": "Feature",
      "properties": {
        "feature_type": "station",
        "ref": "KHH108048107692",
        "name": "鳥松區公所(中正路)",
        "name_en": "Niaosong District Office(Jhongjheng Rd.)",
        "line": "804（經捷運都會公園站－屏東轉運站）",
        "color": "#134e4a",
        "direction": 1
      },
      "geometry": {
        "type": "Point",
        "coordinates": [
          120.364228,
          22.659722
        ]
      }
    },
    {
      "type": "Feature",
      "properties": {
        "feature_type": "station",
        "ref": "KHH10804883752",
        "name": "鳥松",
        "name_en": "Niaosong",
        "line": "804（經捷運都會公園站－屏東轉運站）",
        "color": "#134e4a",
        "direction": 1
      },
      "geometry": {
        "type": "Point",
        "coordinates": [
          120.36361,
          22.66286
        ]
      }
    },
    {
      "type": "Feature",
      "properties": {
        "feature_type": "station",
        "ref": "KHH10804883762",
        "name": "夢裡里",
        "name_en": "Mengli Village",
        "line": "804（經捷運都會公園站－屏東轉運站）",
        "color": "#134e4a",
        "direction": 1
      },
      "geometry": {
        "type": "Point",
        "coordinates": [
          120.362959,
          22.667423
        ]
      }
    },
    {
      "type": "Feature",
      "properties": {
        "feature_type": "station",
        "ref": "KHH108048118192",
        "name": "十九灣",
        "name_en": "Shihjiouwan",
        "line": "804（經捷運都會公園站－屏東轉運站）",
        "color": "#134e4a",
        "direction": 1
      },
      "geometry": {
        "type": "Point",
        "coordinates": [
          120.361385,
          22.670968
        ]
      }
    },
    {
      "type": "Feature",
      "properties": {
        "feature_type": "station",
        "ref": "KHH108048118202",
        "name": "考潭",
        "name_en": "Kaotan",
        "line": "804（經捷運都會公園站－屏東轉運站）",
        "color": "#134e4a",
        "direction": 1
      },
      "geometry": {
        "type": "Point",
        "coordinates": [
          120.35811,
          22.67702
        ]
      }
    },
    {
      "type": "Feature",
      "properties": {
        "feature_type": "station",
        "ref": "KHH108048118212",
        "name": "灣子內(仁武)",
        "name_en": "Wanzihnei(Renwu)",
        "line": "804（經捷運都會公園站－屏東轉運站）",
        "color": "#134e4a",
        "direction": 1
      },
      "geometry": {
        "type": "Point",
        "coordinates": [
          120.35509,
          22.682343
        ]
      }
    },
    {
      "type": "Feature",
      "properties": {
        "feature_type": "station",
        "ref": "KHH108048118222",
        "name": "名湖社區",
        "name_en": "Minghu Community",
        "line": "804（經捷運都會公園站－屏東轉運站）",
        "color": "#134e4a",
        "direction": 1
      },
      "geometry": {
        "type": "Point",
        "coordinates": [
          120.351944,
          22.688245
        ]
      }
    },
    {
      "type": "Feature",
      "properties": {
        "feature_type": "station",
        "ref": "KHH108048118232",
        "name": "新庄(鳳仁路)",
        "name_en": "Sinjhuang(Fongren Rd.)",
        "line": "804（經捷運都會公園站－屏東轉運站）",
        "color": "#134e4a",
        "direction": 1
      },
      "geometry": {
        "type": "Point",
        "coordinates": [
          120.349758,
          22.692839
        ]
      }
    },
    {
      "type": "Feature",
      "properties": {
        "feature_type": "station",
        "ref": "KHH108048118242",
        "name": "八卦寮",
        "name_en": "Bagua Liao",
        "line": "804（經捷運都會公園站－屏東轉運站）",
        "color": "#134e4a",
        "direction": 1
      },
      "geometry": {
        "type": "Point",
        "coordinates": [
          120.348272,
          22.696036
        ]
      }
    },
    {
      "type": "Feature",
      "properties": {
        "feature_type": "station",
        "ref": "KHH108048118252",
        "name": "通法寺",
        "name_en": "Tongfa Temple",
        "line": "804（經捷運都會公園站－屏東轉運站）",
        "color": "#134e4a",
        "direction": 1
      },
      "geometry": {
        "type": "Point",
        "coordinates": [
          120.346826,
          22.699007
        ]
      }
    },
    {
      "type": "Feature",
      "properties": {
        "feature_type": "station",
        "ref": "KHH108048118272",
        "name": "仁武區公所(派出所)",
        "name_en": "Jenwu  District Office(Police Station)",
        "line": "804（經捷運都會公園站－屏東轉運站）",
        "color": "#134e4a",
        "direction": 1
      },
      "geometry": {
        "type": "Point",
        "coordinates": [
          120.348409,
          22.701525
        ]
      }
    },
    {
      "type": "Feature",
      "properties": {
        "feature_type": "station",
        "ref": "KHH108048118282",
        "name": "仁武里",
        "name_en": "Renwu Village",
        "line": "804（經捷運都會公園站－屏東轉運站）",
        "color": "#134e4a",
        "direction": 1
      },
      "geometry": {
        "type": "Point",
        "coordinates": [
          120.352142,
          22.702337
        ]
      }
    },
    {
      "type": "Feature",
      "properties": {
        "feature_type": "station",
        "ref": "KHH10804860772",
        "name": "文武里",
        "name_en": "Wunwu Village",
        "line": "804（經捷運都會公園站－屏東轉運站）",
        "color": "#134e4a",
        "direction": 1
      },
      "geometry": {
        "type": "Point",
        "coordinates": [
          120.353744,
          22.704465
        ]
      }
    },
    {
      "type": "Feature",
      "properties": {
        "feature_type": "station",
        "ref": "KHH108048118302",
        "name": "安樂一街口",
        "name_en": "Anle 1st St. Intersection",
        "line": "804（經捷運都會公園站－屏東轉運站）",
        "color": "#134e4a",
        "direction": 1
      },
      "geometry": {
        "type": "Point",
        "coordinates": [
          120.353201,
          22.709269
        ]
      }
    },
    {
      "type": "Feature",
      "properties": {
        "feature_type": "station",
        "ref": "KHH108048118312",
        "name": "後庄(中正路)",
        "name_en": "Houjhuang(Jhongjheng Rd.)",
        "line": "804（經捷運都會公園站－屏東轉運站）",
        "color": "#134e4a",
        "direction": 1
      },
      "geometry": {
        "type": "Point",
        "coordinates": [
          120.352118,
          22.71492
        ]
      }
    },
    {
      "type": "Feature",
      "properties": {
        "feature_type": "station",
        "ref": "KHH10804860752",
        "name": "中仁路口",
        "name_en": "Jhongren Rd. Intersection",
        "line": "804（經捷運都會公園站－屏東轉運站）",
        "color": "#134e4a",
        "direction": 1
      },
      "geometry": {
        "type": "Point",
        "coordinates": [
          120.351416,
          22.717498
        ]
      }
    },
    {
      "type": "Feature",
      "properties": {
        "feature_type": "station",
        "ref": "KHH108048118332",
        "name": "林子邊",
        "name_en": "Linzihbian",
        "line": "804（經捷運都會公園站－屏東轉運站）",
        "color": "#134e4a",
        "direction": 1
      },
      "geometry": {
        "type": "Point",
        "coordinates": [
          120.350515,
          22.72252
        ]
      }
    },
    {
      "type": "Feature",
      "properties": {
        "feature_type": "station",
        "ref": "KHH10804830932",
        "name": "三民路",
        "name_en": "Sanmin Rd.",
        "line": "804（經捷運都會公園站－屏東轉運站）",
        "color": "#134e4a",
        "direction": 1
      },
      "geometry": {
        "type": "Point",
        "coordinates": [
          120.349265,
          22.724148
        ]
      }
    },
    {
      "type": "Feature",
      "properties": {
        "feature_type": "station",
        "ref": "KHH108048118342",
        "name": "三奶里",
        "name_en": "Sannai Village",
        "line": "804（經捷運都會公園站－屏東轉運站）",
        "color": "#134e4a",
        "direction": 1
      },
      "geometry": {
        "type": "Point",
        "coordinates": [
          120.348519,
          22.726924
        ]
      }
    },
    {
      "type": "Feature",
      "properties": {
        "feature_type": "station",
        "ref": "KHH108048118352",
        "name": "大社農會",
        "name_en": "Dashe Area Farmers Association",
        "line": "804（經捷運都會公園站－屏東轉運站）",
        "color": "#134e4a",
        "direction": 1
      },
      "geometry": {
        "type": "Point",
        "coordinates": [
          120.346879,
          22.729594
        ]
      }
    },
    {
      "type": "Feature",
      "properties": {
        "feature_type": "station",
        "ref": "KHH108048118362",
        "name": "三中路口(三民路)",
        "name_en": "Sanjhong Rd. Intersection(Sanmin Rd.)",
        "line": "804（經捷運都會公園站－屏東轉運站）",
        "color": "#134e4a",
        "direction": 1
      },
      "geometry": {
        "type": "Point",
        "coordinates": [
          120.34332,
          22.73076
        ]
      }
    },
    {
      "type": "Feature",
      "properties": {
        "feature_type": "station",
        "ref": "KHH108048118372",
        "name": "外埔(楠梓)",
        "name_en": "Waipu(Nanzih)",
        "line": "804（經捷運都會公園站－屏東轉運站）",
        "color": "#134e4a",
        "direction": 1
      },
      "geometry": {
        "type": "Point",
        "coordinates": [
          120.337153,
          22.73138
        ]
      }
    },
    {
      "type": "Feature",
      "properties": {
        "feature_type": "station",
        "ref": "KHH108048118382",
        "name": "高雄少年法院",
        "name_en": "Kaohsiung Juvenile and Family Court",
        "line": "804（經捷運都會公園站－屏東轉運站）",
        "color": "#134e4a",
        "direction": 1
      },
      "geometry": {
        "type": "Point",
        "coordinates": [
          120.335489,
          22.731033
        ]
      }
    },
    {
      "type": "Feature",
      "properties": {
        "feature_type": "station",
        "ref": "KHH108048118392",
        "name": "楠梓路口",
        "name_en": "Nanzih Rd. Intersection",
        "line": "804（經捷運都會公園站－屏東轉運站）",
        "color": "#134e4a",
        "direction": 1
      },
      "geometry": {
        "type": "Point",
        "coordinates": [
          120.330291,
          22.728423
        ]
      }
    },
    {
      "type": "Feature",
      "properties": {
        "feature_type": "station",
        "ref": "KHH108048118402",
        "name": "楠梓站",
        "name_en": "Nanzih Station",
        "line": "804（經捷運都會公園站－屏東轉運站）",
        "color": "#134e4a",
        "direction": 1
      },
      "geometry": {
        "type": "Point",
        "coordinates": [
          120.324833,
          22.726619
        ]
      }
    },
    {
      "type": "Feature",
      "properties": {
        "feature_type": "station",
        "ref": "KHH108048141242",
        "name": "朝新路",
        "name_en": "Chaosin Rd.",
        "line": "804（經捷運都會公園站－屏東轉運站）",
        "color": "#134e4a",
        "direction": 1
      },
      "geometry": {
        "type": "Point",
        "coordinates": [
          120.325766,
          22.724063
        ]
      }
    },
    {
      "type": "Feature",
      "properties": {
        "feature_type": "station",
        "ref": "KHH10804854642",
        "name": "捷運都會公園站",
        "name_en": "MRT Metropolitan Park Station",
        "line": "804（經捷運都會公園站－屏東轉運站）",
        "color": "#134e4a",
        "direction": 1
      },
      "geometry": {
        "type": "Point",
        "coordinates": [
          120.320991,
          22.730198
        ]
      }
    }
  ]
}
