{
  "type": "FeatureCollection",
  "name": "L721",
  "properties": {
    "id": "taoyuan_l721",
    "name": "L721",
    "name_en": "L721",
    "ref": "L721",
    "color": "#65a30d",
    "city_id": "Taoyuan",
    "source": "TDX Bus Shape / StopOfRoute",
    "official_map_url": "http://ebus.tycg.gov.tw/cms/api/route/57210/map/581/image",
    "operator_id": "1",
    "operator": "桃園客運",
    "operator_en": "Taoyuan Bus Co., Ltd."
  },
  "features": [
    {
      "type": "Feature",
      "properties": {
        "feature_type": "route",
        "ref": "L721",
        "name": "L721",
        "name_en": "L721",
        "color": "#65a30d",
        "direction": 0
      },
      "geometry": {
        "type": "LineString",
        "coordinates": [
          [
            121.21661,
            24.86391
          ],
          [
            121.21708,
            24.86406
          ],
          [
            121.21705,
            24.86496
          ],
          [
            121.21743,
            24.86498
          ],
          [
            121.21773,
            24.86503
          ],
          [
            121.21847,
            24.8652
          ],
          [
            121.21899,
            24.86528
          ],
          [
            121.21948,
            24.86541
          ],
          [
            121.21986,
            24.86557
          ],
          [
            121.22042,
            24.86576
          ],
          [
            121.22059,
            24.86578
          ],
          [
            121.22076,
            24.86576
          ],
          [
            121.22202,
            24.86518
          ],
          [
            121.22231,
            24.86509
          ],
          [
            121.22269,
            24.86497
          ],
          [
            121.22238,
            24.86598
          ],
          [
            121.22208,
            24.86674
          ],
          [
            121.22234,
            24.86683
          ],
          [
            121.22286,
            24.86688
          ],
          [
            121.22325,
            24.86695
          ],
          [
            121.22448,
            24.86723
          ],
          [
            121.22515,
            24.86736
          ],
          [
            121.22583,
            24.8675
          ],
          [
            121.22612,
            24.86754
          ],
          [
            121.22643,
            24.8676
          ],
          [
            121.22723,
            24.86773
          ],
          [
            121.22797,
            24.86796
          ],
          [
            121.22878,
            24.86824
          ],
          [
            121.22961,
            24.86843
          ],
          [
            121.23052,
            24.86859
          ],
          [
            121.23142,
            24.86877
          ],
          [
            121.23189,
            24.86886
          ],
          [
            121.23233,
            24.86895
          ],
          [
            121.2332,
            24.86908
          ],
          [
            121.23424,
            24.86935
          ],
          [
            121.23528,
            24.86953
          ],
          [
            121.23494,
            24.87002
          ],
          [
            121.23478,
            24.87049
          ],
          [
            121.23467,
            24.87105
          ],
          [
            121.23439,
            24.872
          ],
          [
            121.23423,
            24.87265
          ],
          [
            121.23392,
            24.87395
          ],
          [
            121.2359,
            24.87453
          ],
          [
            121.23724,
            24.87502
          ],
          [
            121.2386,
            24.87551
          ],
          [
            121.24122,
            24.87654
          ],
          [
            121.24273,
            24.87711
          ],
          [
            121.24267999999999,
            24.87832
          ],
          [
            121.24275,
            24.88144
          ],
          [
            121.24267,
            24.88164
          ],
          [
            121.24164,
            24.88136
          ],
          [
            121.24106,
            24.88125
          ],
          [
            121.24086,
            24.8824
          ],
          [
            121.24072,
            24.88344
          ],
          [
            121.24063,
            24.88385
          ],
          [
            121.24057,
            24.88417
          ],
          [
            121.23996,
            24.88415
          ],
          [
            121.23915,
            24.88405
          ],
          [
            121.23863,
            24.88404
          ],
          [
            121.23838,
            24.884
          ],
          [
            121.23821,
            24.88409
          ],
          [
            121.2379,
            24.88416
          ],
          [
            121.23748,
            24.88422
          ],
          [
            121.23714,
            24.88423
          ],
          [
            121.23707,
            24.88286
          ],
          [
            121.23678,
            24.88243
          ],
          [
            121.23666,
            24.88214
          ],
          [
            121.2365,
            24.88191
          ],
          [
            121.2364,
            24.88177
          ],
          [
            121.23628,
            24.88165
          ],
          [
            121.23612,
            24.88147
          ],
          [
            121.23589,
            24.88137
          ],
          [
            121.23537,
            24.88103
          ],
          [
            121.23488,
            24.88084
          ],
          [
            121.23443,
            24.88058
          ],
          [
            121.23376,
            24.87991
          ],
          [
            121.23318,
            24.87961
          ],
          [
            121.23217,
            24.87893
          ],
          [
            121.23173,
            24.87856
          ],
          [
            121.2321,
            24.87818
          ],
          [
            121.23228,
            24.87748
          ],
          [
            121.23232,
            24.87691
          ],
          [
            121.23242,
            24.87641
          ],
          [
            121.23261,
            24.87557
          ],
          [
            121.23256,
            24.87461
          ],
          [
            121.2325,
            24.87421
          ],
          [
            121.23254,
            24.87363
          ],
          [
            121.23275,
            24.87354
          ],
          [
            121.23281,
            24.87233
          ],
          [
            121.23304,
            24.87038
          ],
          [
            121.23318,
            24.86915
          ],
          [
            121.23176,
            24.86887
          ],
          [
            121.23038,
            24.86862
          ],
          [
            121.22879,
            24.86829
          ],
          [
            121.22803,
            24.86802
          ],
          [
            121.22721,
            24.86777
          ],
          [
            121.22483,
            24.86735
          ],
          [
            121.22411,
            24.8672
          ],
          [
            121.22327,
            24.86698
          ],
          [
            121.22285,
            24.86693
          ],
          [
            121.22206,
            24.86683
          ],
          [
            121.22173,
            24.86752
          ],
          [
            121.22142,
            24.86818
          ],
          [
            121.22075,
            24.86951
          ],
          [
            121.2194,
            24.86897
          ],
          [
            121.21861,
            24.86855
          ],
          [
            121.21722,
            24.86782
          ],
          [
            121.21622,
            24.86731
          ],
          [
            121.21654,
            24.86683
          ],
          [
            121.21668,
            24.86653
          ],
          [
            121.21683,
            24.86624
          ],
          [
            121.21688,
            24.86585
          ],
          [
            121.21694,
            24.86538
          ],
          [
            121.21698,
            24.86441
          ],
          [
            121.21583,
            24.86393
          ],
          [
            121.21598,
            24.86366
          ],
          [
            121.21681,
            24.86398
          ]
        ]
      }
    },
    {
      "type": "Feature",
      "properties": {
        "feature_type": "station",
        "ref": "TAO2263",
        "name": "龍潭區衛生所",
        "name_en": "Longtan District Health Center",
        "line": "L721",
        "color": "#65a30d",
        "direction": 0
      },
      "geometry": {
        "type": "Point",
        "coordinates": [
          121.216717,
          24.863869
        ]
      }
    },
    {
      "type": "Feature",
      "properties": {
        "feature_type": "station",
        "ref": "TAO12855",
        "name": "五福街",
        "name_en": "Wufu St.",
        "line": "L721",
        "color": "#65a30d",
        "direction": 0
      },
      "geometry": {
        "type": "Point",
        "coordinates": [
          121.219228,
          24.865274
        ]
      }
    },
    {
      "type": "Feature",
      "properties": {
        "feature_type": "station",
        "ref": "TAO12856",
        "name": "大昌健行路口",
        "name_en": "Dachang and Jiansing Rd. Intersection",
        "line": "L721",
        "color": "#65a30d",
        "direction": 0
      },
      "geometry": {
        "type": "Point",
        "coordinates": [
          121.222364,
          24.866157
        ]
      }
    },
    {
      "type": "Feature",
      "properties": {
        "feature_type": "station",
        "ref": "TAO2264",
        "name": "永興公園",
        "name_en": "Youngxing Park",
        "line": "L721",
        "color": "#65a30d",
        "direction": 0
      },
      "geometry": {
        "type": "Point",
        "coordinates": [
          121.224272,
          24.867103
        ]
      }
    },
    {
      "type": "Feature",
      "properties": {
        "feature_type": "station",
        "ref": "TAO2265",
        "name": "花園國宅",
        "name_en": "Garden Public Housing Community",
        "line": "L721",
        "color": "#65a30d",
        "direction": 0
      },
      "geometry": {
        "type": "Point",
        "coordinates": [
          121.230321,
          24.868476
        ]
      }
    },
    {
      "type": "Feature",
      "properties": {
        "feature_type": "station",
        "ref": "TAO2266",
        "name": "武漢國小",
        "name_en": "Wuhan Elementary School",
        "line": "L721",
        "color": "#65a30d",
        "direction": 0
      },
      "geometry": {
        "type": "Point",
        "coordinates": [
          121.23502,
          24.87013
        ]
      }
    },
    {
      "type": "Feature",
      "properties": {
        "feature_type": "station",
        "ref": "TAO2267",
        "name": "東興",
        "name_en": "Dongxing",
        "line": "L721",
        "color": "#65a30d",
        "direction": 0
      },
      "geometry": {
        "type": "Point",
        "coordinates": [
          121.234258,
          24.872757
        ]
      }
    },
    {
      "type": "Feature",
      "properties": {
        "feature_type": "station",
        "ref": "TAO2268",
        "name": "中興路55巷口",
        "name_en": "Intersection of Lane 55, Zhongxing Rd.",
        "line": "L721",
        "color": "#65a30d",
        "direction": 0
      },
      "geometry": {
        "type": "Point",
        "coordinates": [
          121.24118,
          24.87646
        ]
      }
    },
    {
      "type": "Feature",
      "properties": {
        "feature_type": "station",
        "ref": "TAO3547",
        "name": "民豐一街47號",
        "name_en": "No. 47, Minfeng 1st St.",
        "line": "L721",
        "color": "#65a30d",
        "direction": 0
      },
      "geometry": {
        "type": "Point",
        "coordinates": [
          121.242799,
          24.878294
        ]
      }
    },
    {
      "type": "Feature",
      "properties": {
        "feature_type": "station",
        "ref": "TAO2269",
        "name": "民豐一街",
        "name_en": "Minfong 1st St.",
        "line": "L721",
        "color": "#65a30d",
        "direction": 0
      },
      "geometry": {
        "type": "Point",
        "coordinates": [
          121.242778,
          24.881364
        ]
      }
    },
    {
      "type": "Feature",
      "properties": {
        "feature_type": "station",
        "ref": "TAO2270",
        "name": "興中宮",
        "name_en": "Singjhong Temple",
        "line": "L721",
        "color": "#65a30d",
        "direction": 0
      },
      "geometry": {
        "type": "Point",
        "coordinates": [
          121.24083,
          24.883384
        ]
      }
    },
    {
      "type": "Feature",
      "properties": {
        "feature_type": "station",
        "ref": "TAO2271",
        "name": "龍平路",
        "name_en": "LungPing Road",
        "line": "L721",
        "color": "#65a30d",
        "direction": 0
      },
      "geometry": {
        "type": "Point",
        "coordinates": [
          121.23791,
          24.88421
        ]
      }
    },
    {
      "type": "Feature",
      "properties": {
        "feature_type": "station",
        "ref": "TAO2272",
        "name": "武中路422巷口",
        "name_en": "Intersection of Lane 422, Wujhong Rd.",
        "line": "L721",
        "color": "#65a30d",
        "direction": 0
      },
      "geometry": {
        "type": "Point",
        "coordinates": [
          121.23582,
          24.88138
        ]
      }
    },
    {
      "type": "Feature",
      "properties": {
        "feature_type": "station",
        "ref": "TAO2273",
        "name": "武漢國中",
        "name_en": "Wuhan Junior High School",
        "line": "L721",
        "color": "#65a30d",
        "direction": 0
      },
      "geometry": {
        "type": "Point",
        "coordinates": [
          121.23214,
          24.87897
        ]
      }
    },
    {
      "type": "Feature",
      "properties": {
        "feature_type": "station",
        "ref": "TAO2274",
        "name": "布查花園",
        "name_en": "Bucha Garden",
        "line": "L721",
        "color": "#65a30d",
        "direction": 0
      },
      "geometry": {
        "type": "Point",
        "coordinates": [
          121.232259,
          24.877064
        ]
      }
    },
    {
      "type": "Feature",
      "properties": {
        "feature_type": "station",
        "ref": "TAO2275",
        "name": "中興路336巷",
        "name_en": "Lane 336, Zhongxing Rd.",
        "line": "L721",
        "color": "#65a30d",
        "direction": 0
      },
      "geometry": {
        "type": "Point",
        "coordinates": [
          121.23248,
          24.87475
        ]
      }
    },
    {
      "type": "Feature",
      "properties": {
        "feature_type": "station",
        "ref": "TAO2276",
        "name": "國聯",
        "name_en": "Guolian",
        "line": "L721",
        "color": "#65a30d",
        "direction": 0
      },
      "geometry": {
        "type": "Point",
        "coordinates": [
          121.232741,
          24.872769
        ]
      }
    },
    {
      "type": "Feature",
      "properties": {
        "feature_type": "station",
        "ref": "TAO2277",
        "name": "健行路",
        "name_en": "Jianxing Raod",
        "line": "L721",
        "color": "#65a30d",
        "direction": 0
      },
      "geometry": {
        "type": "Point",
        "coordinates": [
          121.233058,
          24.869367
        ]
      }
    },
    {
      "type": "Feature",
      "properties": {
        "feature_type": "station",
        "ref": "TAO2278",
        "name": "花園國宅",
        "name_en": "Garden Public Housing Community",
        "line": "L721",
        "color": "#65a30d",
        "direction": 0
      },
      "geometry": {
        "type": "Point",
        "coordinates": [
          121.230279,
          24.868618
        ]
      }
    },
    {
      "type": "Feature",
      "properties": {
        "feature_type": "station",
        "ref": "TAO2279",
        "name": "永興公園",
        "name_en": "Youngxing Park",
        "line": "L721",
        "color": "#65a30d",
        "direction": 0
      },
      "geometry": {
        "type": "Point",
        "coordinates": [
          121.223871,
          24.867155
        ]
      }
    },
    {
      "type": "Feature",
      "properties": {
        "feature_type": "station",
        "ref": "TAO63303",
        "name": "龍潭運動公園",
        "name_en": "Longtan Sport Park",
        "line": "L721",
        "color": "#65a30d",
        "direction": 0
      },
      "geometry": {
        "type": "Point",
        "coordinates": [
          121.218659,
          24.868666
        ]
      }
    },
    {
      "type": "Feature",
      "properties": {
        "feature_type": "station",
        "ref": "TAO2280",
        "name": "龍潭區衛生所",
        "name_en": "Longtan District Health Center",
        "line": "L721",
        "color": "#65a30d",
        "direction": 0
      },
      "geometry": {
        "type": "Point",
        "coordinates": [
          121.216717,
          24.863869
        ]
      }
    }
  ]
}
