{
  "type": "FeatureCollection",
  "name": "729",
  "properties": {
    "id": "taoyuan_729",
    "name": "729",
    "name_en": "729",
    "ref": "729",
    "color": "#0e7490",
    "city_id": "Taoyuan",
    "source": "TDX Bus Shape / StopOfRoute",
    "operator_id": "6",
    "operator": "亞通客運",
    "operator_en": "Yatung Bus Co., Ltd.",
    "official_map_url": "https://ebus.tycg.gov.tw/cms/api/route/729/map/latest"
  },
  "features": [
    {
      "type": "Feature",
      "properties": {
        "feature_type": "route",
        "ref": "729",
        "name": "729",
        "name_en": "729",
        "color": "#0e7490",
        "direction": 0
      },
      "geometry": {
        "type": "LineString",
        "coordinates": [
          [
            121.26089,
            25.01884
          ],
          [
            121.26345,
            25.01868
          ],
          [
            121.26553,
            25.01984
          ],
          [
            121.26498,
            25.02014
          ],
          [
            121.26492,
            25.02032
          ],
          [
            121.26472,
            25.02049
          ],
          [
            121.26402,
            25.0209
          ],
          [
            121.26288,
            25.02162
          ],
          [
            121.25942,
            25.02395
          ],
          [
            121.25889,
            25.0243
          ],
          [
            121.25952,
            25.0247
          ],
          [
            121.26252,
            25.02673
          ],
          [
            121.26642,
            25.02874
          ],
          [
            121.26777,
            25.02944
          ],
          [
            121.26862,
            25.02996
          ],
          [
            121.2694,
            25.03051
          ],
          [
            121.27093,
            25.03166
          ],
          [
            121.27199,
            25.03236
          ],
          [
            121.27419,
            25.03293
          ],
          [
            121.27688,
            25.03359
          ],
          [
            121.27763,
            25.03444
          ],
          [
            121.27871,
            25.03523
          ],
          [
            121.27936,
            25.03598
          ],
          [
            121.27989,
            25.03681
          ],
          [
            121.28082,
            25.03783
          ],
          [
            121.28132,
            25.03792
          ],
          [
            121.282,
            25.03804
          ],
          [
            121.28273,
            25.03857
          ],
          [
            121.28328,
            25.03925
          ],
          [
            121.28358,
            25.03995
          ],
          [
            121.28385,
            25.0405
          ],
          [
            121.28413,
            25.04091
          ],
          [
            121.28486,
            25.0415
          ],
          [
            121.28561,
            25.04109
          ],
          [
            121.28865,
            25.03949
          ],
          [
            121.28886,
            25.03935
          ],
          [
            121.2903,
            25.0415
          ],
          [
            121.29123,
            25.04291
          ],
          [
            121.29173,
            25.04369
          ],
          [
            121.29203,
            25.04388
          ],
          [
            121.29228,
            25.044
          ],
          [
            121.29274,
            25.04424
          ],
          [
            121.29359,
            25.04462
          ],
          [
            121.29497,
            25.0422
          ],
          [
            121.29522,
            25.04169
          ],
          [
            121.29567,
            25.04102
          ],
          [
            121.29625,
            25.03978
          ],
          [
            121.29674,
            25.03883
          ],
          [
            121.29791,
            25.03709
          ],
          [
            121.29785,
            25.03667
          ],
          [
            121.29769,
            25.03651
          ],
          [
            121.29748,
            25.03643
          ],
          [
            121.2972,
            25.03647
          ],
          [
            121.297,
            25.03668
          ],
          [
            121.29698,
            25.03689
          ],
          [
            121.29701,
            25.03704
          ],
          [
            121.29716,
            25.03723
          ],
          [
            121.29758,
            25.03749
          ],
          [
            121.29806,
            25.03788
          ],
          [
            121.29914,
            25.03854
          ],
          [
            121.30446,
            25.04138
          ],
          [
            121.3076,
            25.04289
          ],
          [
            121.31024,
            25.04405
          ],
          [
            121.3134,
            25.04532
          ],
          [
            121.31746,
            25.04681
          ],
          [
            121.31948,
            25.04759
          ],
          [
            121.32146,
            25.04846
          ],
          [
            121.32364,
            25.04988
          ],
          [
            121.32532,
            25.05149
          ],
          [
            121.32677,
            25.05335
          ],
          [
            121.32816,
            25.05526
          ],
          [
            121.32892,
            25.05624
          ],
          [
            121.32968,
            25.05717
          ],
          [
            121.33147,
            25.059
          ],
          [
            121.33242,
            25.05978
          ],
          [
            121.33501,
            25.06168
          ],
          [
            121.33776,
            25.06331
          ],
          [
            121.34055,
            25.0644
          ],
          [
            121.34214,
            25.06483
          ],
          [
            121.34315,
            25.06506
          ],
          [
            121.34414,
            25.0652
          ],
          [
            121.34611,
            25.06545
          ],
          [
            121.34813,
            25.06547
          ],
          [
            121.35034,
            25.06541
          ],
          [
            121.3562,
            25.06485
          ],
          [
            121.36043,
            25.06468
          ],
          [
            121.36524,
            25.0648
          ],
          [
            121.36996,
            25.06525
          ],
          [
            121.37452,
            25.06593
          ],
          [
            121.37524,
            25.06602
          ],
          [
            121.37586,
            25.06609
          ],
          [
            121.37702,
            25.06589
          ],
          [
            121.37846,
            25.06552
          ],
          [
            121.38054,
            25.06476
          ],
          [
            121.38174,
            25.06445
          ],
          [
            121.38374,
            25.06441
          ],
          [
            121.38584,
            25.06476
          ],
          [
            121.38736,
            25.06492
          ],
          [
            121.38914,
            25.0648
          ],
          [
            121.39056,
            25.06453
          ],
          [
            121.39174,
            25.06401
          ],
          [
            121.39305,
            25.0631
          ],
          [
            121.39451,
            25.06182
          ],
          [
            121.39672,
            25.05923
          ],
          [
            121.39773,
            25.05777
          ],
          [
            121.3985,
            25.05705
          ],
          [
            121.39934,
            25.05633
          ],
          [
            121.40063,
            25.05561
          ],
          [
            121.40207,
            25.05536
          ],
          [
            121.40396,
            25.05524
          ],
          [
            121.40593,
            25.05561
          ],
          [
            121.40752,
            25.05637
          ],
          [
            121.41035,
            25.05804
          ],
          [
            121.41318,
            25.05961
          ],
          [
            121.41659,
            25.0619
          ],
          [
            121.42352,
            25.06616
          ],
          [
            121.42556,
            25.06721
          ],
          [
            121.42747,
            25.06785
          ],
          [
            121.42955,
            25.06801
          ],
          [
            121.43509,
            25.0682
          ],
          [
            121.43837,
            25.06872
          ],
          [
            121.44373,
            25.07002
          ],
          [
            121.45121,
            25.07235
          ],
          [
            121.45882,
            25.07462
          ],
          [
            121.46036,
            25.07505
          ],
          [
            121.46189,
            25.07538
          ],
          [
            121.46326,
            25.07557
          ],
          [
            121.46464,
            25.07569
          ],
          [
            121.46634,
            25.07571
          ],
          [
            121.46812,
            25.07562
          ],
          [
            121.46988,
            25.0754
          ],
          [
            121.47199,
            25.07494
          ],
          [
            121.47622,
            25.07384
          ],
          [
            121.47829,
            25.07339
          ],
          [
            121.47941,
            25.07327
          ],
          [
            121.48012,
            25.0732
          ],
          [
            121.48054,
            25.07319
          ],
          [
            121.4811,
            25.07318
          ],
          [
            121.48166,
            25.07318
          ],
          [
            121.48301,
            25.07321
          ],
          [
            121.48419,
            25.07334
          ],
          [
            121.4855,
            25.07356
          ],
          [
            121.48768,
            25.07407
          ],
          [
            121.48985,
            25.07458
          ],
          [
            121.49107,
            25.07486
          ],
          [
            121.49138,
            25.07487
          ],
          [
            121.49169,
            25.07492
          ],
          [
            121.49252,
            25.07505
          ],
          [
            121.49288,
            25.0751
          ],
          [
            121.49325,
            25.0751
          ],
          [
            121.49366,
            25.07503
          ],
          [
            121.49398,
            25.07487
          ],
          [
            121.49422,
            25.07461
          ],
          [
            121.49431,
            25.07438
          ],
          [
            121.49431,
            25.07414
          ],
          [
            121.49428,
            25.07381
          ],
          [
            121.49409,
            25.07326
          ],
          [
            121.49379,
            25.07272
          ],
          [
            121.49292,
            25.07165
          ],
          [
            121.49068,
            25.06878
          ],
          [
            121.49149,
            25.06829
          ],
          [
            121.49186,
            25.06804
          ],
          [
            121.4921,
            25.06785
          ],
          [
            121.49417,
            25.06663
          ],
          [
            121.49542,
            25.06628
          ],
          [
            121.49675,
            25.06645
          ],
          [
            121.49746,
            25.06678
          ],
          [
            121.49836,
            25.06777
          ],
          [
            121.4992,
            25.0687
          ],
          [
            121.49825,
            25.06938
          ],
          [
            121.49666,
            25.07045
          ]
        ]
      }
    },
    {
      "type": "Feature",
      "properties": {
        "feature_type": "route",
        "ref": "729",
        "name": "729",
        "name_en": "729",
        "color": "#0e7490",
        "direction": 1
      },
      "geometry": {
        "type": "LineString",
        "coordinates": [
          [
            121.49442,
            25.07564
          ],
          [
            121.49454,
            25.07619
          ],
          [
            121.49471,
            25.07648
          ],
          [
            121.495,
            25.07687
          ],
          [
            121.4955,
            25.07712
          ],
          [
            121.49582,
            25.07713
          ],
          [
            121.49614,
            25.07705
          ],
          [
            121.49631,
            25.07686
          ],
          [
            121.4963,
            25.07663
          ],
          [
            121.49622,
            25.07645
          ],
          [
            121.496,
            25.07634
          ],
          [
            121.49587,
            25.07629
          ],
          [
            121.49574,
            25.07624
          ],
          [
            121.49548,
            25.07612
          ],
          [
            121.49468,
            25.07593
          ]
        ]
      }
    },
    {
      "type": "Feature",
      "properties": {
        "feature_type": "route",
        "ref": "729",
        "name": "729",
        "name_en": "729",
        "color": "#0e7490",
        "direction": 1
      },
      "geometry": {
        "type": "LineString",
        "coordinates": [
          [
            121.29868,
            25.03916
          ],
          [
            121.29813,
            25.03932
          ],
          [
            121.29785,
            25.0394
          ],
          [
            121.29747,
            25.03944
          ],
          [
            121.29699,
            25.03945
          ]
        ]
      }
    },
    {
      "type": "Feature",
      "properties": {
        "feature_type": "station",
        "ref": "TAO5098",
        "name": "大竹消防隊",
        "name_en": "Dajhu Fire Brigade",
        "line": "729",
        "color": "#0e7490",
        "direction": 0
      },
      "geometry": {
        "type": "Point",
        "coordinates": [
          121.260974,
          25.018727
        ]
      }
    },
    {
      "type": "Feature",
      "properties": {
        "feature_type": "station",
        "ref": "TAO1012",
        "name": "大竹上興路口",
        "name_en": "Dajhu & Shangsing Intersection",
        "line": "729",
        "color": "#0e7490",
        "direction": 0
      },
      "geometry": {
        "type": "Point",
        "coordinates": [
          121.265209,
          25.020321
        ]
      }
    },
    {
      "type": "Feature",
      "properties": {
        "feature_type": "station",
        "ref": "TAO2446",
        "name": "上大竹",
        "name_en": "Shangdaju",
        "line": "729",
        "color": "#0e7490",
        "direction": 0
      },
      "geometry": {
        "type": "Point",
        "coordinates": [
          121.262859,
          25.021845
        ]
      }
    },
    {
      "type": "Feature",
      "properties": {
        "feature_type": "station",
        "ref": "TAO2451",
        "name": "大竹",
        "name_en": "Dazhu",
        "line": "729",
        "color": "#0e7490",
        "direction": 0
      },
      "geometry": {
        "type": "Point",
        "coordinates": [
          121.259469,
          25.024014
        ]
      }
    },
    {
      "type": "Feature",
      "properties": {
        "feature_type": "station",
        "ref": "TAO7283",
        "name": "南竹大竹路口",
        "name_en": "Nanzhu and Dazhu Road Intersection",
        "line": "729",
        "color": "#0e7490",
        "direction": 0
      },
      "geometry": {
        "type": "Point",
        "coordinates": [
          121.259594,
          25.024686
        ]
      }
    },
    {
      "type": "Feature",
      "properties": {
        "feature_type": "station",
        "ref": "TAO7284",
        "name": "南竹路五段143號",
        "name_en": "Nanzhu Rd., Sec. 5, No. 143",
        "line": "729",
        "color": "#0e7490",
        "direction": 0
      },
      "geometry": {
        "type": "Point",
        "coordinates": [
          121.262578,
          25.026661
        ]
      }
    },
    {
      "type": "Feature",
      "properties": {
        "feature_type": "station",
        "ref": "TAO9702",
        "name": "南竹路四段250號",
        "name_en": "Nanzhu Rd., Sec. 4, No. 250",
        "line": "729",
        "color": "#0e7490",
        "direction": 0
      },
      "geometry": {
        "type": "Point",
        "coordinates": [
          121.266529,
          25.028685
        ]
      }
    },
    {
      "type": "Feature",
      "properties": {
        "feature_type": "station",
        "ref": "TAO7285",
        "name": "南竹路四段137號",
        "name_en": "Nanzhu Rd., Sec. 4, No. 137",
        "line": "729",
        "color": "#0e7490",
        "direction": 0
      },
      "geometry": {
        "type": "Point",
        "coordinates": [
          121.267892,
          25.029383
        ]
      }
    },
    {
      "type": "Feature",
      "properties": {
        "feature_type": "station",
        "ref": "TAO8827",
        "name": "南竹路四段37號",
        "name_en": "Nanzhu Rd., Sec. 4, No. 37",
        "line": "729",
        "color": "#0e7490",
        "direction": 0
      },
      "geometry": {
        "type": "Point",
        "coordinates": [
          121.271003,
          25.031599
        ]
      }
    },
    {
      "type": "Feature",
      "properties": {
        "feature_type": "station",
        "ref": "TAO7286",
        "name": "南竹富國路口",
        "name_en": "Nanjhu and Fuguo Rd. Intersection",
        "line": "729",
        "color": "#0e7490",
        "direction": 0
      },
      "geometry": {
        "type": "Point",
        "coordinates": [
          121.274398,
          25.032883
        ]
      }
    },
    {
      "type": "Feature",
      "properties": {
        "feature_type": "station",
        "ref": "TAO7287",
        "name": "南竹路二段315巷",
        "name_en": "Nanzhu Rd. Sec.2 Ln.315",
        "line": "729",
        "color": "#0e7490",
        "direction": 0
      },
      "geometry": {
        "type": "Point",
        "coordinates": [
          121.279306,
          25.035806
        ]
      }
    },
    {
      "type": "Feature",
      "properties": {
        "feature_type": "station",
        "ref": "TAO7288",
        "name": "南竹蘆興街口",
        "name_en": "Nanjhu & Lusing Intersection",
        "line": "729",
        "color": "#0e7490",
        "direction": 0
      },
      "geometry": {
        "type": "Point",
        "coordinates": [
          121.279963,
          25.036692
        ]
      }
    },
    {
      "type": "Feature",
      "properties": {
        "feature_type": "station",
        "ref": "TAO7289",
        "name": "邱厝",
        "name_en": "Qiucuo",
        "line": "729",
        "color": "#0e7490",
        "direction": 0
      },
      "geometry": {
        "type": "Point",
        "coordinates": [
          121.281867,
          25.037946
        ]
      }
    },
    {
      "type": "Feature",
      "properties": {
        "feature_type": "station",
        "ref": "TAO7290",
        "name": "奉化南順一街口",
        "name_en": "Fenghua Nanshun 1st Street Intersection  ",
        "line": "729",
        "color": "#0e7490",
        "direction": 0
      },
      "geometry": {
        "type": "Point",
        "coordinates": [
          121.285546,
          25.041037
        ]
      }
    },
    {
      "type": "Feature",
      "properties": {
        "feature_type": "station",
        "ref": "TAO7291",
        "name": "奉化忠孝西路口",
        "name_en": "Fenghua Zhongxiao West Road Intersection ",
        "line": "729",
        "color": "#0e7490",
        "direction": 0
      },
      "geometry": {
        "type": "Point",
        "coordinates": [
          121.288633,
          25.039424
        ]
      }
    },
    {
      "type": "Feature",
      "properties": {
        "feature_type": "station",
        "ref": "TAO7294",
        "name": "光明國小",
        "name_en": "Guanming Elementary School",
        "line": "729",
        "color": "#0e7490",
        "direction": 0
      },
      "geometry": {
        "type": "Point",
        "coordinates": [
          121.290404,
          25.041521
        ]
      }
    },
    {
      "type": "Feature",
      "properties": {
        "feature_type": "station",
        "ref": "TAO7295",
        "name": "土地公廟",
        "name_en": "Tudigong Temple",
        "line": "729",
        "color": "#0e7490",
        "direction": 0
      },
      "geometry": {
        "type": "Point",
        "coordinates": [
          121.292288,
          25.043955
        ]
      }
    },
    {
      "type": "Feature",
      "properties": {
        "feature_type": "station",
        "ref": "TAO2869",
        "name": "長榮",
        "name_en": "Evergreen",
        "line": "729",
        "color": "#0e7490",
        "direction": 0
      },
      "geometry": {
        "type": "Point",
        "coordinates": [
          121.294134,
          25.043486
        ]
      }
    },
    {
      "type": "Feature",
      "properties": {
        "feature_type": "station",
        "ref": "TAO9428",
        "name": "忠孝路口",
        "name_en": "Zhongxiao Rd. Entrance",
        "line": "729",
        "color": "#0e7490",
        "direction": 0
      },
      "geometry": {
        "type": "Point",
        "coordinates": [
          121.492288,
          25.071096
        ]
      }
    },
    {
      "type": "Feature",
      "properties": {
        "feature_type": "station",
        "ref": "TAO9429",
        "name": "大智街口",
        "name_en": "Dazhi St. Entrance",
        "line": "729",
        "color": "#0e7490",
        "direction": 0
      },
      "geometry": {
        "type": "Point",
        "coordinates": [
          121.492033,
          25.067819
        ]
      }
    },
    {
      "type": "Feature",
      "properties": {
        "feature_type": "station",
        "ref": "TAO9430",
        "name": "三重國小",
        "name_en": "San-Chong Elementary School",
        "line": "729",
        "color": "#0e7490",
        "direction": 0
      },
      "geometry": {
        "type": "Point",
        "coordinates": [
          121.498309,
          25.069484
        ]
      }
    },
    {
      "type": "Feature",
      "properties": {
        "feature_type": "station",
        "ref": "TAO9431",
        "name": "捷運三重國小站",
        "name_en": "MRT Sanchueng Elementary School Station",
        "line": "729",
        "color": "#0e7490",
        "direction": 0
      },
      "geometry": {
        "type": "Point",
        "coordinates": [
          121.496789,
          25.070534
        ]
      }
    },
    {
      "type": "Feature",
      "properties": {
        "feature_type": "station",
        "ref": "TAO9431",
        "name": "捷運三重國小站",
        "name_en": "MRT Sanchueng Elementary School Station",
        "line": "729",
        "color": "#0e7490",
        "direction": 1
      },
      "geometry": {
        "type": "Point",
        "coordinates": [
          121.496789,
          25.070534
        ]
      }
    },
    {
      "type": "Feature",
      "properties": {
        "feature_type": "station",
        "ref": "TAO9381",
        "name": "德林寺(三和路)",
        "name_en": "Delin Temple san he road",
        "line": "729",
        "color": "#0e7490",
        "direction": 1
      },
      "geometry": {
        "type": "Point",
        "coordinates": [
          121.494398,
          25.072194
        ]
      }
    },
    {
      "type": "Feature",
      "properties": {
        "feature_type": "station",
        "ref": "TAO2217",
        "name": "長榮",
        "name_en": "Evergreen",
        "line": "729",
        "color": "#0e7490",
        "direction": 1
      },
      "geometry": {
        "type": "Point",
        "coordinates": [
          121.295269,
          25.042094
        ]
      }
    },
    {
      "type": "Feature",
      "properties": {
        "feature_type": "station",
        "ref": "TAO7249",
        "name": "土地公廟",
        "name_en": "Tudigong Temple",
        "line": "729",
        "color": "#0e7490",
        "direction": 1
      },
      "geometry": {
        "type": "Point",
        "coordinates": [
          121.292096,
          25.044085
        ]
      }
    },
    {
      "type": "Feature",
      "properties": {
        "feature_type": "station",
        "ref": "TAO6407",
        "name": "光明國小",
        "name_en": "Guanming Elementary School",
        "line": "729",
        "color": "#0e7490",
        "direction": 1
      },
      "geometry": {
        "type": "Point",
        "coordinates": [
          121.290176,
          25.041472
        ]
      }
    },
    {
      "type": "Feature",
      "properties": {
        "feature_type": "station",
        "ref": "TAO7253",
        "name": "奉化忠孝西路口",
        "name_en": "Fenghua Zhongxiao West Road Intersection ",
        "line": "729",
        "color": "#0e7490",
        "direction": 1
      },
      "geometry": {
        "type": "Point",
        "coordinates": [
          121.288399,
          25.039745
        ]
      }
    },
    {
      "type": "Feature",
      "properties": {
        "feature_type": "station",
        "ref": "TAO7254",
        "name": "奉化南順一街口",
        "name_en": "Fenghua Nanshun 1st Street Intersection  ",
        "line": "729",
        "color": "#0e7490",
        "direction": 1
      },
      "geometry": {
        "type": "Point",
        "coordinates": [
          121.285399,
          25.041356
        ]
      }
    },
    {
      "type": "Feature",
      "properties": {
        "feature_type": "station",
        "ref": "TAO7255",
        "name": "邱厝",
        "name_en": "Qiucuo",
        "line": "729",
        "color": "#0e7490",
        "direction": 1
      },
      "geometry": {
        "type": "Point",
        "coordinates": [
          121.280858,
          25.037946
        ]
      }
    },
    {
      "type": "Feature",
      "properties": {
        "feature_type": "station",
        "ref": "TAO7256",
        "name": "南竹蘆興街口",
        "name_en": "Nanjhu & Lusing Intersection",
        "line": "729",
        "color": "#0e7490",
        "direction": 1
      },
      "geometry": {
        "type": "Point",
        "coordinates": [
          121.279818,
          25.036751
        ]
      }
    },
    {
      "type": "Feature",
      "properties": {
        "feature_type": "station",
        "ref": "TAO7257",
        "name": "南竹路二段315巷",
        "name_en": "Nanzhu Rd. Sec.2 Ln.315",
        "line": "729",
        "color": "#0e7490",
        "direction": 1
      },
      "geometry": {
        "type": "Point",
        "coordinates": [
          121.278814,
          25.035456
        ]
      }
    },
    {
      "type": "Feature",
      "properties": {
        "feature_type": "station",
        "ref": "TAO7258",
        "name": "南竹富國路口",
        "name_en": "Nanjhu and Fuguo Rd. Intersection",
        "line": "729",
        "color": "#0e7490",
        "direction": 1
      },
      "geometry": {
        "type": "Point",
        "coordinates": [
          121.274098,
          25.032995
        ]
      }
    },
    {
      "type": "Feature",
      "properties": {
        "feature_type": "station",
        "ref": "TAO8826",
        "name": "南竹路四段37號",
        "name_en": "Nanzhu Rd., Sec. 4, No. 37",
        "line": "729",
        "color": "#0e7490",
        "direction": 1
      },
      "geometry": {
        "type": "Point",
        "coordinates": [
          121.270651,
          25.031554
        ]
      }
    },
    {
      "type": "Feature",
      "properties": {
        "feature_type": "station",
        "ref": "TAO7259",
        "name": "南竹路四段137號",
        "name_en": "Nanzhu Rd., Sec. 4, No. 137",
        "line": "729",
        "color": "#0e7490",
        "direction": 1
      },
      "geometry": {
        "type": "Point",
        "coordinates": [
          121.267799,
          25.029525
        ]
      }
    },
    {
      "type": "Feature",
      "properties": {
        "feature_type": "station",
        "ref": "TAO9701",
        "name": "南竹路四段250號",
        "name_en": "Nanzhu Rd., Sec. 4, No. 250",
        "line": "729",
        "color": "#0e7490",
        "direction": 1
      },
      "geometry": {
        "type": "Point",
        "coordinates": [
          121.265787,
          25.028555
        ]
      }
    },
    {
      "type": "Feature",
      "properties": {
        "feature_type": "station",
        "ref": "TAO7260",
        "name": "南竹路五段143號",
        "name_en": "Nanzhu Rd., Sec. 5, No. 143",
        "line": "729",
        "color": "#0e7490",
        "direction": 1
      },
      "geometry": {
        "type": "Point",
        "coordinates": [
          121.262327,
          25.026743
        ]
      }
    },
    {
      "type": "Feature",
      "properties": {
        "feature_type": "station",
        "ref": "TAO7261",
        "name": "南竹大竹路口",
        "name_en": "Nanzhu and Dazhu Road Intersection",
        "line": "729",
        "color": "#0e7490",
        "direction": 1
      },
      "geometry": {
        "type": "Point",
        "coordinates": [
          121.259987,
          25.025166
        ]
      }
    },
    {
      "type": "Feature",
      "properties": {
        "feature_type": "station",
        "ref": "TAO7262",
        "name": "大竹",
        "name_en": "Dazhu",
        "line": "729",
        "color": "#0e7490",
        "direction": 1
      },
      "geometry": {
        "type": "Point",
        "coordinates": [
          121.259437,
          25.023736
        ]
      }
    },
    {
      "type": "Feature",
      "properties": {
        "feature_type": "station",
        "ref": "TAO2448",
        "name": "上大竹",
        "name_en": "Shangdaju",
        "line": "729",
        "color": "#0e7490",
        "direction": 1
      },
      "geometry": {
        "type": "Point",
        "coordinates": [
          121.262658,
          25.021693
        ]
      }
    },
    {
      "type": "Feature",
      "properties": {
        "feature_type": "station",
        "ref": "TAO1013",
        "name": "大竹上興路口",
        "name_en": "Dajhu & Shangsing Intersection",
        "line": "729",
        "color": "#0e7490",
        "direction": 1
      },
      "geometry": {
        "type": "Point",
        "coordinates": [
          121.264989,
          25.020217
        ]
      }
    },
    {
      "type": "Feature",
      "properties": {
        "feature_type": "station",
        "ref": "TAO7277",
        "name": "大竹消防隊",
        "name_en": "Dajhu Fire Brigade",
        "line": "729",
        "color": "#0e7490",
        "direction": 1
      },
      "geometry": {
        "type": "Point",
        "coordinates": [
          121.261538,
          25.018846
        ]
      }
    }
  ]
}
