{
  "type": "FeatureCollection",
  "name": "706B",
  "properties": {
    "id": "taoyuan_706b",
    "name": "706B",
    "name_en": "706B",
    "ref": "706B",
    "color": "#ea580c",
    "city_id": "Taoyuan",
    "source": "TDX Bus Shape / StopOfRoute",
    "official_map_url": "http://ebus.tycg.gov.tw/cms/api/route/7062/map/2231/image",
    "operator_id": "4",
    "operator": "統聯客運",
    "operator_en": "United Highway Bus Co., Ltd."
  },
  "features": [
    {
      "type": "Feature",
      "properties": {
        "feature_type": "route",
        "ref": "706B",
        "name": "706B",
        "name_en": "706B",
        "color": "#ea580c",
        "direction": 0
      },
      "geometry": {
        "type": "LineString",
        "coordinates": [
          [
            121.31523,
            24.9899
          ],
          [
            121.31583818500843,
            24.990005284058565
          ],
          [
            121.31587640564503,
            24.99001848755439
          ],
          [
            121.31590757144473,
            24.990042829232536
          ],
          [
            121.31592782412825,
            24.99007538739072
          ],
          [
            121.31593475469758,
            24.99011228933038
          ],
          [
            121.3159275387816,
            24.99014914567271
          ],
          [
            121.31590729807557,
            24.990181284082873
          ],
          [
            121.3150863008337,
            24.991075883634743
          ],
          [
            121.31506892903667,
            24.99109138075453
          ],
          [
            121.31504883723605,
            24.9911031634061
          ],
          [
            121.31502657155549,
            24.99111104468078
          ],
          [
            121.31500302973222,
            24.99111470681088
          ],
          [
            121.31497916095668,
            24.991114002141792
          ],
          [
            121.31495568230265,
            24.991108881134906
          ],
          [
            121.31076,
            24.98978
          ],
          [
            121.30848,
            24.98904
          ],
          [
            121.30531,
            24.98927
          ],
          [
            121.3021,
            24.99112
          ],
          [
            121.30084,
            24.99183
          ],
          [
            121.29943,
            24.9918
          ],
          [
            121.29889,
            24.99172
          ],
          [
            121.29631,
            24.99095
          ],
          [
            121.29587,
            24.99089
          ],
          [
            121.29462,
            24.9911
          ],
          [
            121.29276,
            24.9913
          ],
          [
            121.29029,
            24.99075
          ],
          [
            121.28867450603556,
            24.98997668434541
          ],
          [
            121.28863564093179,
            24.98996518010843
          ],
          [
            121.28859514150574,
            24.98996629731165
          ],
          [
            121.28855740324218,
            24.989979759608836
          ],
          [
            121.28852680621686,
            24.990004004504115
          ],
          [
            121.2885069016607,
            24.990036218023878
          ],
          [
            121.28850000000001,
            24.990072661319466
          ],
          [
            121.2885,
            24.99124
          ],
          [
            121.28833,
            24.99226
          ],
          [
            121.28797,
            24.99462
          ],
          [
            121.28787,
            24.99581
          ],
          [
            121.28794,
            24.99778
          ],
          [
            121.28818,
            24.99857
          ],
          [
            121.28817,
            24.99899
          ],
          [
            121.28778,
            24.99999
          ],
          [
            121.28694711920132,
            25.00214329342245
          ],
          [
            121.28692767776866,
            25.002175290553694
          ],
          [
            121.28689791580796,
            25.002199449210845
          ],
          [
            121.28686108383019,
            25.00221328569611
          ],
          [
            121.2868213119777,
            25.002215248459517
          ],
          [
            121.28678306005484,
            25.002205117407197
          ],
          [
            121.2867503226244,
            25.00218375791037
          ],
          [
            121.28583564990865,
            25.001346745430368
          ],
          [
            121.28581998017009,
            25.0013346215644
          ],
          [
            121.28580263581615,
            25.00132530382464
          ],
          [
            121.28578381850406,
            25.001318788423394
          ],
          [
            121.28576406699132,
            25.00131526190277
          ],
          [
            121.28574394678247,
            25.001314825230416
          ],
          [
            121.28572385241281,
            25.00131752990925
          ],
          [
            121.2837579891432,
            25.001738660098052
          ],
          [
            121.28374002068404,
            25.001743939749723
          ],
          [
            121.28372303466472,
            25.001751836472472
          ],
          [
            121.28370764898833,
            25.001762108403096
          ],
          [
            121.28369425884428,
            25.0017744917015
          ],
          [
            121.28368320816567,
            25.00178866829596
          ],
          [
            121.28367467573023,
            25.0018045167923
          ],
          [
            121.28342,
            25.00239
          ],
          [
            121.28287,
            25.00467
          ],
          [
            121.28257,
            25.00569
          ],
          [
            121.28217,
            25.00673
          ],
          [
            121.28172,
            25.00773
          ],
          [
            121.28121,
            25.0087
          ],
          [
            121.28066,
            25.00963
          ],
          [
            121.27968,
            25.01106
          ],
          [
            121.27885,
            25.01212
          ],
          [
            121.27828,
            25.01279
          ],
          [
            121.27767,
            25.01345
          ],
          [
            121.27661,
            25.01474
          ],
          [
            121.27587,
            25.01571
          ],
          [
            121.27506,
            25.01678
          ],
          [
            121.27437,
            25.0177
          ],
          [
            121.27363,
            25.01874
          ],
          [
            121.27272,
            25.02002
          ],
          [
            121.27171,
            25.02144
          ],
          [
            121.27081,
            25.02281
          ],
          [
            121.27052,
            25.02324
          ],
          [
            121.27019,
            25.02366
          ],
          [
            121.26942,
            25.02461
          ],
          [
            121.26877,
            25.02526
          ],
          [
            121.26823,
            25.02571
          ],
          [
            121.26765,
            25.0261
          ],
          [
            121.26703,
            25.02647
          ],
          [
            121.26634,
            25.0268
          ],
          [
            121.26552,
            25.0271
          ],
          [
            121.26469,
            25.02734
          ],
          [
            121.26346,
            25.02756
          ],
          [
            121.26236,
            25.02764
          ],
          [
            121.26136,
            25.02766
          ],
          [
            121.25812,
            25.02756
          ],
          [
            121.25617,
            25.02753
          ],
          [
            121.25471,
            25.02762
          ],
          [
            121.25358,
            25.02781
          ],
          [
            121.25264,
            25.02803
          ],
          [
            121.25149,
            25.0284
          ],
          [
            121.24978,
            25.02919
          ],
          [
            121.24737,
            25.03047
          ],
          [
            121.24414,
            25.03218
          ],
          [
            121.24218,
            25.03325
          ],
          [
            121.24157,
            25.03356
          ],
          [
            121.23968,
            25.03441
          ],
          [
            121.23827,
            25.03489
          ],
          [
            121.23565,
            25.03564
          ],
          [
            121.23434,
            25.036
          ],
          [
            121.23009,
            25.03715
          ],
          [
            121.22704,
            25.03801
          ],
          [
            121.2261,
            25.03832
          ],
          [
            121.22516,
            25.03872
          ],
          [
            121.22439,
            25.03913
          ],
          [
            121.22365,
            25.03961
          ],
          [
            121.22279,
            25.04026
          ],
          [
            121.22173,
            25.04129
          ],
          [
            121.22102,
            25.04222
          ],
          [
            121.22038,
            25.04323
          ],
          [
            121.21989,
            25.04417
          ],
          [
            121.21942,
            25.04513
          ],
          [
            121.21901,
            25.04604
          ],
          [
            121.21791,
            25.04841
          ],
          [
            121.21676,
            25.05088
          ],
          [
            121.21625,
            25.05195
          ],
          [
            121.21558,
            25.05334
          ],
          [
            121.21452,
            25.05565
          ],
          [
            121.21387,
            25.05709
          ],
          [
            121.21356,
            25.05797
          ],
          [
            121.21339,
            25.05854
          ],
          [
            121.21325,
            25.05942
          ],
          [
            121.21327,
            25.06023
          ],
          [
            121.21333,
            25.06063
          ],
          [
            121.21341,
            25.06102
          ],
          [
            121.21361,
            25.06162
          ],
          [
            121.2139,
            25.06225
          ],
          [
            121.2142,
            25.06271
          ],
          [
            121.21477,
            25.06338
          ],
          [
            121.21562,
            25.06414
          ],
          [
            121.21765,
            25.06573
          ],
          [
            121.21817,
            25.06614
          ],
          [
            121.21855,
            25.06638
          ],
          [
            121.21915,
            25.06673
          ],
          [
            121.2197,
            25.06697
          ],
          [
            121.22038,
            25.06711
          ],
          [
            121.22168,
            25.06758
          ],
          [
            121.22369,
            25.06871
          ],
          [
            121.22526,
            25.06993
          ],
          [
            121.22565,
            25.07014
          ],
          [
            121.22656,
            25.07024
          ],
          [
            121.227,
            25.07042
          ],
          [
            121.22808,
            25.0713
          ],
          [
            121.2291,
            25.0721
          ],
          [
            121.23009,
            25.07351
          ],
          [
            121.23059,
            25.07414
          ],
          [
            121.23128,
            25.07506
          ],
          [
            121.23229,
            25.07584
          ],
          [
            121.23570727410491,
            25.07856975191968
          ],
          [
            121.23572738841011,
            25.07859069686126
          ],
          [
            121.23574113510844,
            25.07861597759145
          ],
          [
            121.23574727363827,
            25.078643635908996
          ],
          [
            121.23574538920325,
            25.07867180286954
          ],
          [
            121.2357356091395,
            25.078698575158388
          ],
          [
            121.23571886429876,
            25.078721857672768
          ],
          [
            121.23430171083685,
            25.080216908594398
          ],
          [
            121.23427837132611,
            25.080235947031156
          ],
          [
            121.23425078665699,
            25.08024865050831
          ],
          [
            121.2342205462435,
            25.08025444866733
          ],
          [
            121.23418968858226,
            25.08025295065617
          ],
          [
            121.23416029377834,
            25.080244257455288
          ],
          [
            121.2341340288207,
            25.080228710698773
          ],
          [
            121.23216416814002,
            25.078703271445747
          ],
          [
            121.23214358369741,
            25.07868245042465
          ],
          [
            121.23212939252315,
            25.078657160616093
          ],
          [
            121.23212288100997,
            25.07862937847569
          ],
          [
            121.2321244951197,
            25.07860100675219
          ],
          [
            121.23213412430484,
            25.07857398857382
          ],
          [
            121.23215084088763,
            25.07855046108113
          ],
          [
            121.23279,
            25.07787
          ],
          [
            121.23361,
            25.07699
          ],
          [
            121.2361,
            25.07881
          ],
          [
            121.23988,
            25.08182
          ],
          [
            121.24017,
            25.08241
          ],
          [
            121.24014,
            25.08294
          ],
          [
            121.23987,
            25.08336
          ],
          [
            121.23902571619246,
            25.083891791880145
          ],
          [
            121.23900301072344,
            25.08390308146084
          ],
          [
            121.23897855372232,
            25.083909569753093
          ],
          [
            121.23895314314149,
            25.083911163289557
          ],
          [
            121.23892794266168,
            25.083907789094024
          ],
          [
            121.238904106342,
            25.083899601688213
          ],
          [
            121.23888240798682,
            25.083886740028255
          ],
          [
            121.2384,
            25.08353
          ],
          [
            121.2376,
            25.0828
          ],
          [
            121.23812,
            25.08224
          ]
        ]
      }
    },
    {
      "type": "Feature",
      "properties": {
        "feature_type": "route",
        "ref": "706B",
        "name": "706B",
        "name_en": "706B",
        "color": "#ea580c",
        "direction": 1
      },
      "geometry": {
        "type": "LineString",
        "coordinates": [
          [
            121.23657,
            25.08083
          ],
          [
            121.23613388638728,
            25.08127487159576
          ],
          [
            121.23611517521248,
            25.0812904130629
          ],
          [
            121.23609366390475,
            25.08130184012198
          ],
          [
            121.2360700171176,
            25.081308936018036
          ],
          [
            121.23604526930303,
            25.081311390334093
          ],
          [
            121.23602050307858,
            25.081309095703684
          ],
          [
            121.23599651856027,
            25.081302038127294
          ],
          [
            121.23532,
            25.08103
          ],
          [
            121.23502,
            25.08093
          ],
          [
            121.23443,
            25.08052
          ],
          [
            121.23404,
            25.08022
          ],
          [
            121.23372,
            25.07996
          ],
          [
            121.23277,
            25.07922
          ],
          [
            121.23214078840506,
            25.078733472822044
          ],
          [
            121.23212917562348,
            25.07872252425592
          ],
          [
            121.23211989851691,
            25.078709524704202
          ],
          [
            121.23211353614913,
            25.07869514022762
          ],
          [
            121.23211032615536,
            25.07867990808817
          ],
          [
            121.23211038842928,
            25.078664397208183
          ],
          [
            121.23211367118883,
            25.07864933632481
          ],
          [
            121.23217,
            25.07848
          ],
          [
            121.23359794570476,
            25.07700089347206
          ],
          [
            121.2336217499809,
            25.076981881393795
          ],
          [
            121.23364981148421,
            25.076969381596008
          ],
          [
            121.23368047171346,
            25.076963970188835
          ],
          [
            121.23371161971123,
            25.076966019747783
          ],
          [
            121.23374111093729,
            25.07697538916066
          ],
          [
            121.23376722439413,
            25.0769916869288
          ],
          [
            121.23455,
            25.07763
          ],
          [
            121.23573292352735,
            25.07855008169889
          ],
          [
            121.23575354707589,
            25.078571067679125
          ],
          [
            121.23576769034638,
            25.078596544419987
          ],
          [
            121.23577406062594,
            25.078624503704415
          ],
          [
            121.23577221710632,
            25.078653010815948
          ],
          [
            121.2357622873547,
            25.078680093129787
          ],
          [
            121.23574523074402,
            25.078703591541508
          ],
          [
            121.23501,
            25.07947
          ],
          [
            121.23497,
            25.0795
          ],
          [
            121.23425945755125,
            25.08024051234674
          ],
          [
            121.23423602847225,
            25.08025940542975
          ],
          [
            121.23420840484879,
            25.080271957368552
          ],
          [
            121.23417817164517,
            25.08027760922051
          ],
          [
            121.234147361643,
            25.08027598097359
          ],
          [
            121.23411804640595,
            25.080267182105786
          ],
          [
            121.23409188314726,
            25.080251558448733
          ],
          [
            121.23277,
            25.07922
          ],
          [
            121.23264,
            25.07912
          ],
          [
            121.23215,
            25.07873
          ],
          [
            121.23169,
            25.07837
          ],
          [
            121.23136,
            25.07811
          ],
          [
            121.23126,
            25.07803
          ],
          [
            121.23089,
            25.07774
          ],
          [
            121.23074,
            25.07762
          ],
          [
            121.23057,
            25.07749
          ],
          [
            121.23026,
            25.07724
          ],
          [
            121.22934,
            25.07656
          ],
          [
            121.22893,
            25.07633
          ],
          [
            121.2287,
            25.07615
          ],
          [
            121.22852,
            25.076
          ],
          [
            121.22823,
            25.07575
          ],
          [
            121.22803,
            25.07561
          ],
          [
            121.22362,
            25.07221
          ],
          [
            121.22323,
            25.07184
          ],
          [
            121.22295,
            25.07148
          ],
          [
            121.22253,
            25.07117
          ],
          [
            121.22122,
            25.07015
          ],
          [
            121.22083,
            25.06967
          ],
          [
            121.22006827892952,
            25.068883076459336
          ],
          [
            121.22005424354845,
            25.068864208731522
          ],
          [
            121.22004560584969,
            25.068842470596433
          ],
          [
            121.22004313766467,
            25.068819458431133
          ],
          [
            121.22004699270421,
            25.068796605361186
          ],
          [
            121.2200569308885,
            25.068775334604215
          ],
          [
            121.22007208308307,
            25.068757203174197
          ],
          [
            121.22021,
            25.06863
          ],
          [
            121.22029,
            25.06855
          ],
          [
            121.22109153629218,
            25.067696969984866
          ],
          [
            121.22111195903858,
            25.06767966502628
          ],
          [
            121.22113585349886,
            25.067667314383343
          ],
          [
            121.22116221537273,
            25.06766028910757
          ],
          [
            121.22118964070413,
            25.06765896334454
          ],
          [
            121.22121666890035,
            25.067663407700493
          ],
          [
            121.22124217485755,
            25.067673552324344
          ],
          [
            121.22169,
            25.06791
          ],
          [
            121.22178884248906,
            25.067932269913374
          ],
          [
            121.22181301688886,
            25.067941930533436
          ],
          [
            121.22183246105003,
            25.06795838388233
          ],
          [
            121.2218448755883,
            25.06797976298828
          ],
          [
            121.22184887374057,
            25.068003679703338
          ],
          [
            121.22184400889422,
            25.068027462416556
          ],
          [
            121.22183099782899,
            25.06804826146628
          ],
          [
            121.2209229670523,
            25.0690575211618
          ],
          [
            121.22090482297872,
            25.06907313184309
          ],
          [
            121.22088316665167,
            25.069083806689868
          ],
          [
            121.2208592352908,
            25.06908906533531
          ],
          [
            121.22083462567943,
            25.06908855690436
          ],
          [
            121.22081097985615,
            25.069082315321292
          ],
          [
            121.22078962002993,
            25.069070571719276
          ],
          [
            121.22023935594373,
            25.06867148239064
          ],
          [
            121.22022702609144,
            25.068664556790864
          ],
          [
            121.22021341087884,
            25.068660628171333
          ],
          [
            121.22019915862896,
            25.06865981440936
          ],
          [
            121.22018511263835,
            25.068662163654725
          ],
          [
            121.22017210399936,
            25.068667536904066
          ],
          [
            121.2201607575872,
            25.068675750327156
          ],
          [
            121.2201407974904,
            25.06869348329178
          ],
          [
            121.2201246243215,
            25.068704435987975
          ],
          [
            121.22010576760107,
            25.06871028806149
          ],
          [
            121.22008585303531,
            25.068710633323718
          ],
          [
            121.22006676615868,
            25.068705439084827
          ],
          [
            121.22005031413906,
            25.06869519714146
          ],
          [
            121.2200379607954,
            25.068680723163496
          ],
          [
            121.21964,
            25.06803
          ],
          [
            121.21942,
            25.06774
          ],
          [
            121.21924,
            25.06755
          ],
          [
            121.21908,
            25.06731
          ],
          [
            121.21884,
            25.06697
          ],
          [
            121.21854,
            25.06668
          ],
          [
            121.21825,
            25.0664
          ],
          [
            121.21803,
            25.06621
          ],
          [
            121.21767,
            25.06588
          ],
          [
            121.21669,
            25.06515
          ],
          [
            121.21594,
            25.06453
          ],
          [
            121.21518,
            25.06394
          ],
          [
            121.21482,
            25.06361
          ],
          [
            121.21446,
            25.06325
          ],
          [
            121.21428,
            25.06302
          ],
          [
            121.21413,
            25.06285
          ],
          [
            121.21394,
            25.06253
          ],
          [
            121.21384,
            25.06233
          ],
          [
            121.21369,
            25.06209
          ],
          [
            121.21352,
            25.06173
          ],
          [
            121.21342,
            25.06147
          ],
          [
            121.21333,
            25.06112
          ],
          [
            121.21321,
            25.06063
          ],
          [
            121.21314,
            25.06033
          ],
          [
            121.21314,
            25.05987
          ],
          [
            121.21314,
            25.0596
          ],
          [
            121.21314,
            25.05944
          ],
          [
            121.21319,
            25.05899
          ],
          [
            121.21326,
            25.05852
          ],
          [
            121.21333,
            25.05828
          ],
          [
            121.21344,
            25.05797
          ],
          [
            121.21361,
            25.05747
          ],
          [
            121.21404,
            25.05637
          ],
          [
            121.21414,
            25.05612
          ],
          [
            121.21442,
            25.05554
          ],
          [
            121.21494,
            25.05444
          ],
          [
            121.21548,
            25.05328
          ],
          [
            121.21579,
            25.05262
          ],
          [
            121.21611,
            25.0519
          ],
          [
            121.21783,
            25.04817
          ],
          [
            121.2187,
            25.04631
          ],
          [
            121.2195,
            25.04442
          ],
          [
            121.22013,
            25.04321
          ],
          [
            121.22077,
            25.04218
          ],
          [
            121.22125,
            25.04155
          ],
          [
            121.2218,
            25.04092
          ],
          [
            121.22231,
            25.04041
          ],
          [
            121.22287,
            25.03994
          ],
          [
            121.22341,
            25.03954
          ],
          [
            121.2239,
            25.03921
          ],
          [
            121.22443,
            25.03891
          ],
          [
            121.22494,
            25.03864
          ],
          [
            121.22567,
            25.03829
          ],
          [
            121.22648,
            25.03799
          ],
          [
            121.22798,
            25.03754
          ],
          [
            121.23153,
            25.03656
          ],
          [
            121.23355,
            25.03605
          ],
          [
            121.23391,
            25.03596
          ],
          [
            121.23441,
            25.03582
          ],
          [
            121.23469,
            25.03574
          ],
          [
            121.23676,
            25.03517
          ],
          [
            121.2385,
            25.03465
          ],
          [
            121.23939,
            25.03433
          ],
          [
            121.24019,
            25.034
          ],
          [
            121.24098,
            25.03363
          ],
          [
            121.24157,
            25.03335
          ],
          [
            121.2429,
            25.03264
          ],
          [
            121.24339,
            25.03239
          ],
          [
            121.24596,
            25.03102
          ],
          [
            121.24751,
            25.03019
          ],
          [
            121.24782,
            25.03002
          ],
          [
            121.24947,
            25.02916
          ],
          [
            121.25047,
            25.02866
          ],
          [
            121.25094,
            25.02846
          ],
          [
            121.25148,
            25.02823
          ],
          [
            121.25195,
            25.02807
          ],
          [
            121.25242,
            25.02792
          ],
          [
            121.25309,
            25.02774
          ],
          [
            121.25378,
            25.02758
          ],
          [
            121.25435,
            25.02749
          ],
          [
            121.25489,
            25.02743
          ],
          [
            121.25537,
            25.02741
          ],
          [
            121.25584,
            25.02739
          ],
          [
            121.25669,
            25.02738
          ],
          [
            121.25759,
            25.02739
          ],
          [
            121.2585,
            25.02741
          ],
          [
            121.2594,
            25.02745
          ],
          [
            121.26104,
            25.02751
          ],
          [
            121.26159,
            25.02751
          ],
          [
            121.26254,
            25.02747
          ],
          [
            121.26359,
            25.02739
          ],
          [
            121.26495,
            25.02712
          ],
          [
            121.26553,
            25.02693
          ],
          [
            121.26594,
            25.02678
          ],
          [
            121.26629,
            25.02663
          ],
          [
            121.26665,
            25.02647
          ],
          [
            121.26694,
            25.02631
          ],
          [
            121.26733,
            25.02609
          ],
          [
            121.26773,
            25.02584
          ],
          [
            121.26797,
            25.02566
          ],
          [
            121.26822,
            25.02548
          ],
          [
            121.26858,
            25.0252
          ],
          [
            121.26897,
            25.02486
          ],
          [
            121.26937,
            25.02444
          ],
          [
            121.26958,
            25.02419
          ],
          [
            121.2698,
            25.02392
          ],
          [
            121.27064,
            25.02275
          ],
          [
            121.27169,
            25.02129
          ],
          [
            121.27273,
            25.0198
          ],
          [
            121.27308,
            25.01928
          ],
          [
            121.27316,
            25.01917
          ],
          [
            121.27374,
            25.01838
          ],
          [
            121.27485,
            25.01688
          ],
          [
            121.27637,
            25.01486
          ],
          [
            121.2766,
            25.01456
          ],
          [
            121.27679,
            25.01433
          ],
          [
            121.27814,
            25.01272
          ],
          [
            121.27933,
            25.0113
          ],
          [
            121.27973,
            25.01077
          ],
          [
            121.28001,
            25.01037
          ],
          [
            121.28069,
            25.0093
          ],
          [
            121.28104,
            25.00871
          ],
          [
            121.28136,
            25.0081
          ],
          [
            121.28178,
            25.00723
          ],
          [
            121.28217,
            25.00633
          ],
          [
            121.28238,
            25.00573
          ],
          [
            121.2826,
            25.00502
          ],
          [
            121.28281,
            25.00425
          ],
          [
            121.283,
            25.00349
          ],
          [
            121.2831,
            25.0029
          ],
          [
            121.28314,
            25.00266
          ],
          [
            121.28319,
            25.00239
          ],
          [
            121.28325,
            25.0014
          ],
          [
            121.28324,
            25.00112
          ],
          [
            121.28323,
            25.0008
          ],
          [
            121.2832,
            25.00048
          ],
          [
            121.28312,
            24.9997
          ],
          [
            121.2831,
            24.99944
          ],
          [
            121.28308,
            24.99926
          ],
          [
            121.28308,
            24.99908
          ],
          [
            121.28306,
            24.99812
          ],
          [
            121.28306,
            24.99794
          ],
          [
            121.2829539955159,
            24.99713165834523
          ],
          [
            121.28294875083189,
            24.997110211917107
          ],
          [
            121.28293893086114,
            24.99709024655409
          ],
          [
            121.28292492307781,
            24.997072484591367
          ],
          [
            121.28290729677491,
            24.997057647896153
          ],
          [
            121.28288676830621,
            24.997046339449327
          ],
          [
            121.28286436016019,
            24.997039061029614
          ],
          [
            121.28207742460411,
            24.996863395556755
          ],
          [
            121.28204161499296,
            24.99686044191418
          ],
          [
            121.2820066557737,
            24.996867327290722
          ],
          [
            121.28197551956269,
            24.996883386891646
          ],
          [
            121.28195102157652,
            24.99690716866952
          ],
          [
            121.28193537682903,
            24.99693652236733
          ],
          [
            121.28192999999999,
            24.99696879393647
          ],
          [
            121.28193,
            24.99746
          ],
          [
            121.28194,
            24.99753
          ],
          [
            121.28197,
            24.99762
          ],
          [
            121.282,
            24.99768
          ],
          [
            121.28207,
            24.99775
          ],
          [
            121.28216,
            24.99784
          ],
          [
            121.28226,
            24.99791
          ],
          [
            121.28271,
            24.99824
          ],
          [
            121.28342,
            24.99871
          ],
          [
            121.28414,
            24.99917
          ],
          [
            121.28462,
            24.99955
          ],
          [
            121.28499,
            24.99993
          ],
          [
            121.28516,
            25.00015
          ],
          [
            121.28534,
            25.0004
          ],
          [
            121.28562,
            25.00075
          ],
          [
            121.28576,
            25.00079
          ],
          [
            121.28669734893762,
            25.001874995056966
          ],
          [
            121.28672919909832,
            25.001900846337428
          ],
          [
            121.28676859087882,
            25.00191472020293
          ],
          [
            121.28681081117062,
            25.001915159947156
          ],
          [
            121.28685053959201,
            25.001902110155818
          ],
          [
            121.28688276977384,
            25.001877215295785
          ],
          [
            121.28690352454902,
            25.001843390188608
          ],
          [
            121.28722,
            25.00101
          ],
          [
            121.28742,
            25.00054
          ],
          [
            121.28747,
            25.00043
          ],
          [
            121.28752,
            25.00029
          ],
          [
            121.28786,
            24.9994
          ],
          [
            121.28791,
            24.99929
          ],
          [
            121.288,
            24.99907
          ],
          [
            121.28803,
            24.99894
          ],
          [
            121.28805,
            24.99877
          ],
          [
            121.28802,
            24.99857
          ],
          [
            121.28802,
            24.99855
          ],
          [
            121.28798,
            24.99843
          ],
          [
            121.28795,
            24.99833
          ],
          [
            121.28787,
            24.99809
          ],
          [
            121.28784,
            24.99792
          ],
          [
            121.28781,
            24.99769
          ],
          [
            121.28779,
            24.99743
          ],
          [
            121.28778,
            24.99694
          ],
          [
            121.28778,
            24.99671
          ],
          [
            121.28779,
            24.99623
          ],
          [
            121.28779,
            24.99616
          ],
          [
            121.28779,
            24.99613
          ],
          [
            121.28778,
            24.99603
          ],
          [
            121.28778,
            24.99592
          ],
          [
            121.28779,
            24.99582
          ],
          [
            121.28779,
            24.99579
          ],
          [
            121.28785,
            24.99531
          ],
          [
            121.28786,
            24.99523
          ],
          [
            121.28789,
            24.99497
          ],
          [
            121.28802,
            24.99402
          ],
          [
            121.28805,
            24.99378
          ],
          [
            121.28818,
            24.99289
          ],
          [
            121.28835,
            24.99176
          ],
          [
            121.28839,
            24.99131
          ],
          [
            121.28839,
            24.9912
          ],
          [
            121.28839,
            24.99088
          ],
          [
            121.28835768712283,
            24.989874408775197
          ],
          [
            121.28836373279773,
            24.989836943318615
          ],
          [
            121.28838352475738,
            24.989803635586846
          ],
          [
            121.28841465241709,
            24.98977856578811
          ],
          [
            121.28845332342351,
            24.98976478823282
          ],
          [
            121.28849482640031,
            24.989763981471768
          ],
          [
            121.28853441508512,
            24.989776400968175
          ],
          [
            121.28995,
            24.99049
          ],
          [
            121.29019,
            24.9906
          ],
          [
            121.29052,
            24.9907
          ],
          [
            121.29057,
            24.99071
          ],
          [
            121.29061,
            24.99072
          ],
          [
            121.29075,
            24.99076
          ],
          [
            121.29091,
            24.99079
          ],
          [
            121.29155,
            24.99093
          ],
          [
            121.2916,
            24.99094
          ],
          [
            121.29172,
            24.99096
          ],
          [
            121.29185,
            24.991
          ],
          [
            121.29192,
            24.99102
          ],
          [
            121.29247,
            24.99115
          ],
          [
            121.2927,
            24.99117
          ],
          [
            121.29311,
            24.99117
          ],
          [
            121.29353,
            24.99112
          ],
          [
            121.29363,
            24.99111
          ],
          [
            121.29386,
            24.99108
          ],
          [
            121.29402,
            24.99107
          ],
          [
            121.29421,
            24.99105
          ],
          [
            121.29451,
            24.99101
          ],
          [
            121.29464,
            24.99099
          ],
          [
            121.29479,
            24.99098
          ],
          [
            121.29489,
            24.991
          ],
          [
            121.29494,
            24.991
          ],
          [
            121.29504,
            24.99098
          ],
          [
            121.29511,
            24.99097
          ],
          [
            121.29538,
            24.99094
          ],
          [
            121.29545,
            24.99093
          ],
          [
            121.29574,
            24.9909
          ],
          [
            121.29584,
            24.9909
          ],
          [
            121.29596,
            24.9909
          ],
          [
            121.29618,
            24.99092
          ],
          [
            121.29683,
            24.99111
          ],
          [
            121.29754,
            24.99133
          ],
          [
            121.29768,
            24.99137
          ],
          [
            121.29798,
            24.99145
          ],
          [
            121.29828,
            24.99154
          ],
          [
            121.29847,
            24.9916
          ],
          [
            121.29863,
            24.99164
          ],
          [
            121.29873,
            24.99167
          ],
          [
            121.29881,
            24.9917
          ],
          [
            121.29907,
            24.99175
          ],
          [
            121.2994,
            24.9918
          ],
          [
            121.29973,
            24.99181
          ],
          [
            121.29994,
            24.99182
          ],
          [
            121.3009511741314,
            24.991898173749767
          ],
          [
            121.30096198994529,
            24.991897772864732
          ],
          [
            121.30097233309155,
            24.99189493825002
          ],
          [
            121.30098158189082,
            24.99188984925987
          ],
          [
            121.30098915760951,
            24.99188282433232
          ],
          [
            121.30099458620519,
            24.991874303044593
          ],
          [
            121.3009975347042,
            24.99186477813528
          ],
          [
            121.30102064664858,
            24.991725795495864
          ],
          [
            121.3010229711191,
            24.991716878826114
          ],
          [
            121.30102687309186,
            24.991708494599305
          ],
          [
            121.3010322524811,
            24.99170082186205
          ],
          [
            121.30103895857862,
            24.991694075572614
          ],
          [
            121.30104680350739,
            24.991688444734045
          ],
          [
            121.30105542566918,
            24.991684144330737
          ],
          [
            121.30124,
            24.99161
          ],
          [
            121.3014,
            24.99153
          ],
          [
            121.30148,
            24.99148
          ],
          [
            121.30153,
            24.99145
          ],
          [
            121.30166,
            24.99137
          ],
          [
            121.30176,
            24.99132
          ],
          [
            121.30263,
            24.99082
          ],
          [
            121.30267,
            24.9908
          ],
          [
            121.30327,
            24.99047
          ],
          [
            121.30333,
            24.99043
          ],
          [
            121.30335,
            24.99042
          ],
          [
            121.30396,
            24.99006
          ],
          [
            121.30408,
            24.98999
          ],
          [
            121.30411,
            24.98998
          ],
          [
            121.30497,
            24.98948
          ],
          [
            121.30503,
            24.98945
          ],
          [
            121.30521,
            24.98934
          ],
          [
            121.30529,
            24.98929
          ],
          [
            121.30536,
            24.98926
          ],
          [
            121.30546,
            24.98924
          ],
          [
            121.30566,
            24.98922
          ],
          [
            121.30583,
            24.9892
          ],
          [
            121.3061,
            24.98919
          ],
          [
            121.30686,
            24.98914
          ],
          [
            121.30703,
            24.98912
          ],
          [
            121.30746,
            24.98911
          ],
          [
            121.3079,
            24.98907
          ],
          [
            121.30818,
            24.98906
          ],
          [
            121.30833,
            24.98907
          ],
          [
            121.30852,
            24.98909
          ],
          [
            121.30855,
            24.9891
          ],
          [
            121.3089,
            24.98918
          ],
          [
            121.30963,
            24.98941
          ],
          [
            121.31012,
            24.98957
          ],
          [
            121.31068,
            24.98975
          ],
          [
            121.31092,
            24.98982
          ],
          [
            121.31112,
            24.98988
          ],
          [
            121.31126,
            24.98993
          ],
          [
            121.31141,
            24.98997
          ],
          [
            121.31171,
            24.99007
          ],
          [
            121.31177,
            24.99009
          ],
          [
            121.31239,
            24.9903
          ],
          [
            121.31254,
            24.99035
          ],
          [
            121.31291,
            24.99048
          ],
          [
            121.31297,
            24.9905
          ],
          [
            121.31304,
            24.99052
          ],
          [
            121.31309,
            24.99054
          ],
          [
            121.31315,
            24.99056
          ],
          [
            121.31416822820026,
            24.990881322175916
          ],
          [
            121.31419889224898,
            24.990887091402563
          ],
          [
            121.31422988881177,
            24.990885401778705
          ],
          [
            121.31425934974243,
            24.990876446053058
          ],
          [
            121.31428526677996,
            24.99086083470988
          ],
          [
            121.31430587323976,
            24.990839631926374
          ],
          [
            121.3143198484659,
            24.99081406080216
          ],
          [
            121.31465172525704,
            24.989936610998384
          ],
          [
            121.31466390029148,
            24.989913502811
          ],
          [
            121.31468148885448,
            24.989893808861755
          ],
          [
            121.31470361089629,
            24.98987838616038
          ],
          [
            121.31472905452748,
            24.989868079593126
          ],
          [
            121.31475642589537,
            24.98986345377422
          ],
          [
            121.31478436251489,
            24.989864783514637
          ],
          [
            121.31514,
            24.98992
          ],
          [
            121.31531,
            24.98995
          ],
          [
            121.31554,
            24.98998
          ]
        ]
      }
    },
    {
      "type": "Feature",
      "properties": {
        "feature_type": "station",
        "ref": "TAO3145",
        "name": "桃園火車站",
        "name_en": "Taoyuan Train Station",
        "line": "706B",
        "color": "#ea580c",
        "direction": 0,
        "station_id": "2775"
      },
      "geometry": {
        "type": "Point",
        "coordinates": [
          121.315521,
          24.989884
        ]
      }
    },
    {
      "type": "Feature",
      "properties": {
        "feature_type": "station",
        "ref": "TAO5",
        "name": "桃花園飯店",
        "name_en": "Tao Garden Hotel",
        "line": "706B",
        "color": "#ea580c",
        "direction": 0,
        "station_id": "1949"
      },
      "geometry": {
        "type": "Point",
        "coordinates": [
          121.310919,
          24.989936
        ]
      }
    },
    {
      "type": "Feature",
      "properties": {
        "feature_type": "station",
        "ref": "TAO447",
        "name": "新光大樓",
        "name_en": "Xinguang Building",
        "line": "706B",
        "color": "#ea580c",
        "direction": 0,
        "station_id": "2772"
      },
      "geometry": {
        "type": "Point",
        "coordinates": [
          121.30861311094957,
          24.989154083050504
        ]
      }
    },
    {
      "type": "Feature",
      "properties": {
        "feature_type": "station",
        "ref": "TAO20",
        "name": "台電大樓",
        "name_en": "Taipower Building",
        "line": "706B",
        "color": "#ea580c",
        "direction": 0,
        "station_id": "2084"
      },
      "geometry": {
        "type": "Point",
        "coordinates": [
          121.304901,
          24.989632
        ]
      }
    },
    {
      "type": "Feature",
      "properties": {
        "feature_type": "station",
        "ref": "TAO449",
        "name": "振聲中學",
        "name_en": "St. Francis Xavier High School",
        "line": "706B",
        "color": "#ea580c",
        "direction": 0,
        "station_id": "1850"
      },
      "geometry": {
        "type": "Point",
        "coordinates": [
          121.301908,
          24.991354
        ]
      }
    },
    {
      "type": "Feature",
      "properties": {
        "feature_type": "station",
        "ref": "TAO1107",
        "name": "土地改革館",
        "name_en": "Land Reform Museum",
        "line": "706B",
        "color": "#ea580c",
        "direction": 0,
        "station_id": "1695"
      },
      "geometry": {
        "type": "Point",
        "coordinates": [
          121.298257,
          24.991579
        ]
      }
    },
    {
      "type": "Feature",
      "properties": {
        "feature_type": "station",
        "ref": "TAO1110",
        "name": "中山正光路口",
        "name_en": "Zhongshan Zhenguang Road Intersection",
        "line": "706B",
        "color": "#ea580c",
        "direction": 0,
        "station_id": "2099"
      },
      "geometry": {
        "type": "Point",
        "coordinates": [
          121.294426,
          24.991219
        ]
      }
    },
    {
      "type": "Feature",
      "properties": {
        "feature_type": "station",
        "ref": "TAO1114",
        "name": "中山中平路口",
        "name_en": "Zhongshan and Zhongping Road Intersection",
        "line": "706B",
        "color": "#ea580c",
        "direction": 0,
        "station_id": "2101"
      },
      "geometry": {
        "type": "Point",
        "coordinates": [
          121.29135,
          24.991027
        ]
      }
    },
    {
      "type": "Feature",
      "properties": {
        "feature_type": "station",
        "ref": "TAO453",
        "name": "國泰駕訓班",
        "name_en": "Guotai Driving School",
        "line": "706B",
        "color": "#ea580c",
        "direction": 0,
        "station_id": "2093"
      },
      "geometry": {
        "type": "Point",
        "coordinates": [
          121.288469,
          24.992317
        ]
      }
    },
    {
      "type": "Feature",
      "properties": {
        "feature_type": "station",
        "ref": "TAO178",
        "name": "國際路二段",
        "name_en": "Sec.2  GuoJi Road",
        "line": "706B",
        "color": "#ea580c",
        "direction": 0,
        "station_id": "2095"
      },
      "geometry": {
        "type": "Point",
        "coordinates": [
          121.288109,
          24.994744
        ]
      }
    },
    {
      "type": "Feature",
      "properties": {
        "feature_type": "station",
        "ref": "TAO455",
        "name": "國際路",
        "name_en": "Guoji Road",
        "line": "706B",
        "color": "#ea580c",
        "direction": 0,
        "station_id": "2097"
      },
      "geometry": {
        "type": "Point",
        "coordinates": [
          121.287921,
          24.999875
        ]
      }
    },
    {
      "type": "Feature",
      "properties": {
        "feature_type": "station",
        "ref": "TAO2569",
        "name": "桃園機場第二航廈",
        "name_en": "Taoyuan International Airport Terminal 2",
        "line": "706B",
        "color": "#ea580c",
        "direction": 0,
        "station_id": "4592"
      },
      "geometry": {
        "type": "Point",
        "coordinates": [
          121.23272,
          25.077874
        ]
      }
    },
    {
      "type": "Feature",
      "properties": {
        "feature_type": "station",
        "ref": "TAO7892",
        "name": "桃園機場第一航廈",
        "name_en": "Taoyuan International Airport Terminal 1",
        "line": "706B",
        "color": "#ea580c",
        "direction": 0,
        "station_id": "6200"
      },
      "geometry": {
        "type": "Point",
        "coordinates": [
          121.238138,
          25.082183
        ]
      }
    },
    {
      "type": "Feature",
      "properties": {
        "feature_type": "station",
        "ref": "TAO6342",
        "name": "桃園機場第一航廈",
        "name_en": "Taoyuan International Airport Terminal 1",
        "line": "706B",
        "color": "#ea580c",
        "direction": 1,
        "station_id": "4593"
      },
      "geometry": {
        "type": "Point",
        "coordinates": [
          121.236379,
          25.081175000000002
        ]
      }
    },
    {
      "type": "Feature",
      "properties": {
        "feature_type": "station",
        "ref": "TAO2569",
        "name": "桃園機場第二航廈",
        "name_en": "Taoyuan International Airport Terminal 2",
        "line": "706B",
        "color": "#ea580c",
        "direction": 1,
        "station_id": "4592"
      },
      "geometry": {
        "type": "Point",
        "coordinates": [
          121.23272,
          25.077874
        ]
      }
    },
    {
      "type": "Feature",
      "properties": {
        "feature_type": "station",
        "ref": "TAO9729",
        "name": "機場旅館",
        "name_en": "Airport hotel",
        "line": "706B",
        "color": "#ea580c",
        "direction": 1,
        "station_id": "3755"
      },
      "geometry": {
        "type": "Point",
        "coordinates": [
          121.220988,
          25.069016
        ]
      }
    },
    {
      "type": "Feature",
      "properties": {
        "feature_type": "station",
        "ref": "TAO470",
        "name": "國際路",
        "name_en": "Guoji Road",
        "line": "706B",
        "color": "#ea580c",
        "direction": 1,
        "station_id": "2096"
      },
      "geometry": {
        "type": "Point",
        "coordinates": [
          121.287559,
          24.999871
        ]
      }
    },
    {
      "type": "Feature",
      "properties": {
        "feature_type": "station",
        "ref": "TAO471",
        "name": "國際路二段",
        "name_en": "Sec.2  GuoJi Road",
        "line": "706B",
        "color": "#ea580c",
        "direction": 1,
        "station_id": "2094"
      },
      "geometry": {
        "type": "Point",
        "coordinates": [
          121.287899,
          24.994452
        ]
      }
    },
    {
      "type": "Feature",
      "properties": {
        "feature_type": "station",
        "ref": "TAO472",
        "name": "國泰駕訓班",
        "name_en": "Guotai Driving School",
        "line": "706B",
        "color": "#ea580c",
        "direction": 1,
        "station_id": "2092"
      },
      "geometry": {
        "type": "Point",
        "coordinates": [
          121.288258,
          24.992529
        ]
      }
    },
    {
      "type": "Feature",
      "properties": {
        "feature_type": "station",
        "ref": "TAO473",
        "name": "中山國小",
        "name_en": "Zhongshan Elementary School",
        "line": "706B",
        "color": "#ea580c",
        "direction": 1,
        "station_id": "1698"
      },
      "geometry": {
        "type": "Point",
        "coordinates": [
          121.289182,
          24.990045
        ]
      }
    },
    {
      "type": "Feature",
      "properties": {
        "feature_type": "station",
        "ref": "TAO1067",
        "name": "中山中平路口",
        "name_en": "Zhongshan and Zhongping Road Intersection",
        "line": "706B",
        "color": "#ea580c",
        "direction": 1,
        "station_id": "2100"
      },
      "geometry": {
        "type": "Point",
        "coordinates": [
          121.29142,
          24.990857
        ]
      }
    },
    {
      "type": "Feature",
      "properties": {
        "feature_type": "station",
        "ref": "TAO1070",
        "name": "中山正光路口",
        "name_en": "Zhongshan Zhenguang Road Intersection",
        "line": "706B",
        "color": "#ea580c",
        "direction": 1,
        "station_id": "2098"
      },
      "geometry": {
        "type": "Point",
        "coordinates": [
          121.294389,
          24.990988
        ]
      }
    },
    {
      "type": "Feature",
      "properties": {
        "feature_type": "station",
        "ref": "TAO1074",
        "name": "土地改革館",
        "name_en": "Land Reform Museum",
        "line": "706B",
        "color": "#ea580c",
        "direction": 1,
        "station_id": "1696"
      },
      "geometry": {
        "type": "Point",
        "coordinates": [
          121.298335,
          24.991431
        ]
      }
    },
    {
      "type": "Feature",
      "properties": {
        "feature_type": "station",
        "ref": "TAO477",
        "name": "振聲中學",
        "name_en": "St. Francis Xavier High School",
        "line": "706B",
        "color": "#ea580c",
        "direction": 1,
        "station_id": "1849"
      },
      "geometry": {
        "type": "Point",
        "coordinates": [
          121.301839,
          24.991145
        ]
      }
    },
    {
      "type": "Feature",
      "properties": {
        "feature_type": "station",
        "ref": "TAO410",
        "name": "台電大樓",
        "name_en": "Taipower Building",
        "line": "706B",
        "color": "#ea580c",
        "direction": 1,
        "station_id": "2085"
      },
      "geometry": {
        "type": "Point",
        "coordinates": [
          121.305161,
          24.989253
        ]
      }
    },
    {
      "type": "Feature",
      "properties": {
        "feature_type": "station",
        "ref": "TAO13207",
        "name": "新光大樓",
        "name_en": "Xinguang Building",
        "line": "706B",
        "color": "#ea580c",
        "direction": 1,
        "station_id": "2773"
      },
      "geometry": {
        "type": "Point",
        "coordinates": [
          121.308568,
          24.989034
        ]
      }
    },
    {
      "type": "Feature",
      "properties": {
        "feature_type": "station",
        "ref": "TAO496",
        "name": "桃花園飯店",
        "name_en": "Tao Garden Hotel",
        "line": "706B",
        "color": "#ea580c",
        "direction": 1,
        "station_id": "1948"
      },
      "geometry": {
        "type": "Point",
        "coordinates": [
          121.311299,
          24.989844
        ]
      }
    },
    {
      "type": "Feature",
      "properties": {
        "feature_type": "station",
        "ref": "TAO3145",
        "name": "桃園火車站",
        "name_en": "Taoyuan Train Station",
        "line": "706B",
        "color": "#ea580c",
        "direction": 1,
        "station_id": "2775"
      },
      "geometry": {
        "type": "Point",
        "coordinates": [
          121.315521,
          24.989884
        ]
      }
    }
  ]
}
