{
  "type": "FeatureCollection",
  "name": "717",
  "properties": {
    "id": "taoyuan_717",
    "name": "717",
    "name_en": "717",
    "ref": "717",
    "color": "#1e3a8a",
    "city_id": "Taoyuan",
    "source": "TDX Bus Shape / StopOfRoute",
    "official_map_url": "http://ebus.tycg.gov.tw/cms/api/route/717/map/2080/image",
    "operator_id": "4",
    "operator": "統聯客運",
    "operator_en": "United Highway Bus Co., Ltd."
  },
  "features": [
    {
      "type": "Feature",
      "properties": {
        "feature_type": "route",
        "ref": "717",
        "name": "717",
        "name_en": "717",
        "color": "#1e3a8a",
        "direction": 0
      },
      "geometry": {
        "type": "LineString",
        "coordinates": [
          [
            121.2441,
            24.92536
          ],
          [
            121.24434841348155,
            24.92536
          ],
          [
            121.24438343314621,
            24.925364817956755
          ],
          [
            121.24441534436657,
            24.925378844171576
          ],
          [
            121.2444413146126,
            24.925400833638033
          ],
          [
            121.24445903869197,
            24.92542883450901
          ],
          [
            121.24446694336532,
            24.92546036134813
          ],
          [
            121.24446436666308,
            24.92549245535172
          ],
          [
            121.24441795862964,
            24.925677940879776
          ],
          [
            121.24441679210622,
            24.92568718784762
          ],
          [
            121.24441784271905,
            24.925696511885217
          ],
          [
            121.24442107664768,
            24.92570540771052
          ],
          [
            121.24442634080232,
            24.925713454207184
          ],
          [
            121.24443338598498,
            24.92572027046494
          ],
          [
            121.24444175728928,
            24.925725474859952
          ],
          [
            121.24596,
            24.92646
          ],
          [
            121.24802,
            24.92745
          ],
          [
            121.2503,
            24.92855
          ],
          [
            121.25189,
            24.92933
          ],
          [
            121.25386,
            24.93028
          ],
          [
            121.25432,
            24.93072
          ],
          [
            121.2551,
            24.932
          ],
          [
            121.25607,
            24.9336
          ],
          [
            121.25729,
            24.93561
          ],
          [
            121.25929,
            24.93888
          ],
          [
            121.25947,
            24.93935
          ],
          [
            121.25952,
            24.94008
          ],
          [
            121.25932,
            24.94066
          ],
          [
            121.2589,
            24.94145
          ],
          [
            121.25748,
            24.94427
          ],
          [
            121.2569,
            24.94614
          ],
          [
            121.25684,
            24.94729
          ],
          [
            121.25704,
            24.94852
          ],
          [
            121.25706658775128,
            24.949166383218856
          ],
          [
            121.25707039807897,
            24.949189892548684
          ],
          [
            121.25707970548974,
            24.949212056124935
          ],
          [
            121.25709406615552,
            24.94923184276319
          ],
          [
            121.2571127934757,
            24.949248306440644
          ],
          [
            121.25713499207473,
            24.94926066000919
          ],
          [
            121.25715942724143,
            24.949268277507485
          ],
          [
            121.25978,
            24.9498
          ],
          [
            121.26074,
            24.95035
          ],
          [
            121.26161,
            24.95069
          ],
          [
            121.26378,
            24.95204
          ],
          [
            121.26433,
            24.95213
          ],
          [
            121.26496,
            24.95216
          ],
          [
            121.26661768770813,
            24.952243300945312
          ],
          [
            121.26664710746421,
            24.952248231087335
          ],
          [
            121.26667428762221,
            24.952259731686844
          ],
          [
            121.26669745669324,
            24.95227707031968
          ],
          [
            121.26671514381243,
            24.95229914626041
          ],
          [
            121.2667262261311,
            24.952324558040445
          ],
          [
            121.26673000000001,
            24.95235169241883
          ],
          [
            121.26673,
            24.9532
          ],
          [
            121.26626,
            24.95462
          ],
          [
            121.26603,
            24.95575
          ],
          [
            121.26574,
            24.95617
          ],
          [
            121.26779,
            24.9571
          ],
          [
            121.26884,
            24.95741
          ],
          [
            121.27111,
            24.95842
          ],
          [
            121.27433,
            24.95934
          ],
          [
            121.27913,
            24.96069
          ],
          [
            121.28015,
            24.96081
          ],
          [
            121.2823,
            24.96055
          ],
          [
            121.28499,
            24.96026
          ],
          [
            121.28646,
            24.96009
          ],
          [
            121.28891,
            24.95981
          ],
          [
            121.29134,
            24.95956
          ],
          [
            121.29478,
            24.95952
          ],
          [
            121.2962,
            24.95947
          ],
          [
            121.29728,
            24.95901
          ],
          [
            121.298,
            24.95881
          ],
          [
            121.29938,
            24.95856
          ],
          [
            121.29987,
            24.96172
          ],
          [
            121.30038,
            24.96418
          ],
          [
            121.30339,
            24.96372
          ],
          [
            121.30672,
            24.96322
          ],
          [
            121.3103,
            24.96318
          ],
          [
            121.31101,
            24.9631
          ],
          [
            121.31899361828434,
            24.960335370360294
          ],
          [
            121.31901986054588,
            24.96032258103796
          ],
          [
            121.31904198430647,
            24.96030405136089
          ],
          [
            121.31905831925941,
            24.960281052976015
          ],
          [
            121.31906782396389,
            24.96025505215377
          ],
          [
            121.31906989244395,
            24.960227706586075
          ],
          [
            121.31906446689139,
            24.96020097075745
          ],
          [
            121.31899,
            24.95999
          ],
          [
            121.31843,
            24.96015
          ],
          [
            121.31855,
            24.96049
          ],
          [
            121.31966,
            24.96013
          ],
          [
            121.32004,
            24.96006
          ],
          [
            121.32166,
            24.96038
          ],
          [
            121.32305,
            24.96073
          ],
          [
            121.3237548160883,
            24.960828850093193
          ],
          [
            121.32377714781104,
            24.960830062251663
          ],
          [
            121.32379921009263,
            24.960827459318523
          ],
          [
            121.32382035519586,
            24.960821149939292
          ],
          [
            121.32383984297753,
            24.960811354961525
          ],
          [
            121.32385699130572,
            24.96079841723937
          ],
          [
            121.32387141876924,
            24.960782496156202
          ],
          [
            121.32427,
            24.96025
          ],
          [
            121.32452,
            24.95968
          ],
          [
            121.32467,
            24.95912
          ],
          [
            121.32478,
            24.9587
          ],
          [
            121.32489,
            24.95784
          ],
          [
            121.32492,
            24.95689
          ],
          [
            121.32492,
            24.95443
          ],
          [
            121.32472,
            24.95226
          ],
          [
            121.32424,
            24.94748
          ],
          [
            121.32375,
            24.94285
          ],
          [
            121.32369,
            24.94208
          ],
          [
            121.32368,
            24.94158
          ],
          [
            121.32373,
            24.94116
          ],
          [
            121.32385,
            24.94075
          ],
          [
            121.32408,
            24.94031
          ],
          [
            121.32438,
            24.93992
          ],
          [
            121.32473,
            24.93961
          ],
          [
            121.32506,
            24.9394
          ],
          [
            121.32539,
            24.93922
          ],
          [
            121.32578,
            24.93908
          ],
          [
            121.32611,
            24.939
          ],
          [
            121.32647,
            24.93895
          ],
          [
            121.32679,
            24.93895
          ],
          [
            121.32716,
            24.93898
          ],
          [
            121.32776,
            24.93907
          ],
          [
            121.32854,
            24.93923
          ],
          [
            121.32891,
            24.9393
          ],
          [
            121.32943,
            24.93935
          ],
          [
            121.33025,
            24.93934
          ],
          [
            121.33088,
            24.93925
          ],
          [
            121.33136,
            24.93926
          ],
          [
            121.33257,
            24.93903
          ],
          [
            121.33388,
            24.93869
          ],
          [
            121.33543,
            24.93824
          ],
          [
            121.33791,
            24.93737
          ],
          [
            121.34033,
            24.9365
          ],
          [
            121.3421,
            24.93589
          ],
          [
            121.3432,
            24.93555
          ],
          [
            121.34441,
            24.93522
          ],
          [
            121.34564,
            24.93495
          ],
          [
            121.34655,
            24.9348
          ],
          [
            121.34751,
            24.93469
          ],
          [
            121.34834,
            24.93461
          ],
          [
            121.34947,
            24.93459
          ],
          [
            121.35051,
            24.93464
          ],
          [
            121.35156,
            24.93477
          ],
          [
            121.35234,
            24.93491
          ],
          [
            121.35307,
            24.93507
          ],
          [
            121.35391,
            24.93529
          ],
          [
            121.35507,
            24.93569
          ],
          [
            121.3565,
            24.93635
          ],
          [
            121.35717,
            24.93672
          ],
          [
            121.35791,
            24.93717
          ],
          [
            121.35858,
            24.93761
          ],
          [
            121.35937,
            24.93821
          ],
          [
            121.35979,
            24.93853
          ],
          [
            121.36037,
            24.93903
          ],
          [
            121.36205,
            24.94058
          ],
          [
            121.36385,
            24.94237
          ],
          [
            121.36561,
            24.94404
          ],
          [
            121.36653,
            24.94482
          ],
          [
            121.36754,
            24.94562
          ],
          [
            121.36861,
            24.94638
          ],
          [
            121.36956,
            24.947
          ],
          [
            121.37073,
            24.9477
          ],
          [
            121.37184,
            24.9483
          ],
          [
            121.37286,
            24.94881
          ],
          [
            121.37419,
            24.94937
          ],
          [
            121.37505,
            24.94971
          ],
          [
            121.37579,
            24.94998
          ],
          [
            121.37737,
            24.95049
          ],
          [
            121.37898,
            24.9509
          ],
          [
            121.38056,
            24.95123
          ],
          [
            121.38267,
            24.95155
          ],
          [
            121.38463,
            24.9517
          ],
          [
            121.38571,
            24.95174
          ],
          [
            121.38684,
            24.95175
          ],
          [
            121.38882,
            24.9517
          ],
          [
            121.39084,
            24.95154
          ],
          [
            121.39288,
            24.95135
          ],
          [
            121.39484,
            24.9512
          ],
          [
            121.39679,
            24.95103
          ],
          [
            121.40487,
            24.95031
          ],
          [
            121.40684,
            24.95013
          ],
          [
            121.40884,
            24.95
          ],
          [
            121.40981,
            24.94999
          ],
          [
            121.41088,
            24.95005
          ],
          [
            121.41177,
            24.95015
          ],
          [
            121.41283,
            24.9504
          ],
          [
            121.4137,
            24.95067
          ],
          [
            121.41449,
            24.951
          ],
          [
            121.41525,
            24.95139
          ],
          [
            121.41577,
            24.95171
          ],
          [
            121.41645,
            24.95219
          ],
          [
            121.41697,
            24.95262
          ],
          [
            121.41751,
            24.95314
          ],
          [
            121.41827,
            24.95397
          ],
          [
            121.41896,
            24.95481
          ],
          [
            121.41951,
            24.95546
          ],
          [
            121.41984,
            24.95582
          ],
          [
            121.42026,
            24.95624
          ],
          [
            121.42077,
            24.9567
          ],
          [
            121.4214,
            24.95719
          ],
          [
            121.42246,
            24.95785
          ],
          [
            121.42322,
            24.95824
          ],
          [
            121.42395,
            24.95855
          ],
          [
            121.42467,
            24.95879
          ],
          [
            121.42527,
            24.95898
          ],
          [
            121.42687,
            24.95925
          ],
          [
            121.42798,
            24.95932
          ],
          [
            121.42842,
            24.95929
          ],
          [
            121.42888,
            24.95916
          ],
          [
            121.42946,
            24.9589
          ],
          [
            121.43022,
            24.95857
          ],
          [
            121.43058,
            24.9585
          ],
          [
            121.4309,
            24.9585
          ],
          [
            121.43125,
            24.95859
          ],
          [
            121.43157,
            24.95877
          ],
          [
            121.43187,
            24.9591
          ],
          [
            121.43207,
            24.95948
          ],
          [
            121.43216,
            24.95985
          ],
          [
            121.43228,
            24.9606
          ],
          [
            121.43238,
            24.96097
          ],
          [
            121.43262,
            24.96173
          ],
          [
            121.43284,
            24.96383
          ],
          [
            121.43285,
            24.96434
          ],
          [
            121.43271374295433,
            24.965210835026678
          ],
          [
            121.43271326341156,
            24.965237807063435
          ],
          [
            121.43272012390592,
            24.965264153992138
          ],
          [
            121.43273391389711,
            24.965288130839397
          ],
          [
            121.43275377521054,
            24.965308245485332
          ],
          [
            121.43277847184301,
            24.965323246161407
          ],
          [
            121.43280629831219,
            24.96533216611199
          ],
          [
            121.43468,
            24.9657
          ],
          [
            121.43481889360565,
            24.96539219270808
          ],
          [
            121.43484084863343,
            24.965360311671205
          ],
          [
            121.43487315416633,
            24.96533732208132
          ],
          [
            121.43491208764323,
            24.965325704362986
          ],
          [
            121.43495302919274,
            24.965326837082124
          ],
          [
            121.43499112066425,
            24.965340585829548
          ],
          [
            121.43502209606125,
            24.96536561021405
          ],
          [
            121.43536,
            24.96575
          ],
          [
            121.43508362597392,
            24.965993463429665
          ],
          [
            121.43506388726529,
            24.96600730915593
          ],
          [
            121.43504153334963,
            24.96601650652248
          ],
          [
            121.43501747157048,
            24.96602080995441
          ],
          [
            121.43499296876398,
            24.966019992878977
          ],
          [
            121.43496931498613,
            24.966014098314645
          ],
          [
            121.43494746636145,
            24.96600325090852
          ],
          [
            121.43477,
            24.96589
          ],
          [
            121.43305,
            24.96549
          ],
          [
            121.43246,
            24.96551
          ],
          [
            121.43246,
            24.96392
          ],
          [
            121.43228,
            24.96252
          ],
          [
            121.43201,
            24.96174
          ],
          [
            121.43171,
            24.96116
          ],
          [
            121.43132,
            24.96073
          ],
          [
            121.43105,
            24.96052
          ],
          [
            121.43033,
            24.96016
          ],
          [
            121.42951,
            24.95995
          ],
          [
            121.42825,
            24.95974
          ],
          [
            121.42595,
            24.95931
          ],
          [
            121.42483,
            24.95906
          ],
          [
            121.42369,
            24.95864
          ],
          [
            121.42264,
            24.95818
          ],
          [
            121.42159,
            24.95754
          ],
          [
            121.42026,
            24.95651
          ],
          [
            121.4191,
            24.95531
          ],
          [
            121.41802,
            24.95401
          ],
          [
            121.41746,
            24.95336
          ],
          [
            121.41685,
            24.95279
          ],
          [
            121.41561,
            24.95181
          ],
          [
            121.41436,
            24.95114
          ],
          [
            121.41297,
            24.95062
          ],
          [
            121.41156,
            24.95031
          ],
          [
            121.41008,
            24.95018
          ],
          [
            121.40863,
            24.95019
          ],
          [
            121.40575,
            24.95043
          ],
          [
            121.40284,
            24.95069
          ],
          [
            121.39991,
            24.95096
          ],
          [
            121.3984,
            24.95113
          ],
          [
            121.39688,
            24.95125
          ],
          [
            121.39377,
            24.95155
          ],
          [
            121.39,
            24.95182
          ],
          [
            121.38624,
            24.95195
          ],
          [
            121.38446,
            24.95188
          ],
          [
            121.38271,
            24.95174
          ],
          [
            121.38096,
            24.9515
          ],
          [
            121.37914,
            24.95115
          ],
          [
            121.37748,
            24.95071
          ],
          [
            121.37583,
            24.9502
          ],
          [
            121.37425,
            24.9496
          ],
          [
            121.37274,
            24.94894
          ],
          [
            121.37091,
            24.94801
          ],
          [
            121.3692,
            24.94701
          ],
          [
            121.36765,
            24.94593
          ],
          [
            121.36617,
            24.94479
          ],
          [
            121.36456,
            24.94333
          ],
          [
            121.36305,
            24.94186
          ],
          [
            121.36227,
            24.94107
          ],
          [
            121.36146,
            24.94029
          ],
          [
            121.35977,
            24.93876
          ],
          [
            121.35838,
            24.93771
          ],
          [
            121.35696,
            24.93674
          ],
          [
            121.35647,
            24.93647
          ],
          [
            121.35508,
            24.93589
          ],
          [
            121.35354,
            24.93537
          ],
          [
            121.35248,
            24.93513
          ],
          [
            121.35081,
            24.93485
          ],
          [
            121.34905,
            24.93477
          ],
          [
            121.34746,
            24.93486
          ],
          [
            121.34601,
            24.93507
          ],
          [
            121.34406,
            24.9355
          ],
          [
            121.34258,
            24.93594
          ],
          [
            121.33948,
            24.93699
          ],
          [
            121.33686,
            24.93792
          ],
          [
            121.33424,
            24.93879
          ],
          [
            121.33248,
            24.93923
          ],
          [
            121.33051,
            24.93962
          ],
          [
            121.32958,
            24.93974
          ],
          [
            121.32874,
            24.93985
          ],
          [
            121.3279,
            24.94001
          ],
          [
            121.32696,
            24.94034
          ],
          [
            121.32632,
            24.94066
          ],
          [
            121.32579,
            24.94099
          ],
          [
            121.32496,
            24.94169
          ],
          [
            121.32442,
            24.94247
          ],
          [
            121.32411,
            24.94326
          ],
          [
            121.32405,
            24.94406
          ],
          [
            121.32417,
            24.94571
          ],
          [
            121.32452,
            24.94899
          ],
          [
            121.32512,
            24.95524
          ],
          [
            121.3252,
            24.9569
          ],
          [
            121.32518,
            24.95777
          ],
          [
            121.32513,
            24.95939
          ],
          [
            121.32488,
            24.96053
          ],
          [
            121.32453,
            24.962
          ],
          [
            121.32418829430442,
            24.963060240359024
          ],
          [
            121.32418361116483,
            24.96308660467189
          ],
          [
            121.3241861676448,
            24.96311341644697
          ],
          [
            121.3241958700387,
            24.96313883009716
          ],
          [
            121.32421212201858,
            24.963161283650358
          ],
          [
            121.32423392470632,
            24.963179397067726
          ],
          [
            121.32425967687047,
            24.96319196546736
          ],
          [
            121.32512791551812,
            24.963495159954284
          ],
          [
            121.32516078802787,
            24.96350204924281
          ],
          [
            121.32519418260654,
            24.963500285432456
          ],
          [
            121.3252257176724,
            24.963490099732464
          ],
          [
            121.32525289753538,
            24.963472298240724
          ],
          [
            121.3252735711769,
            24.963448289770085
          ],
          [
            121.3252861492583,
            24.96341980193857
          ],
          [
            121.32546,
            24.96278
          ],
          [
            121.32542,
            24.96254
          ],
          [
            121.32533,
            24.96236
          ],
          [
            121.32498,
            24.96196
          ],
          [
            121.32394,
            24.96123
          ],
          [
            121.3229,
            24.96083
          ],
          [
            121.32233,
            24.96065
          ],
          [
            121.32166,
            24.96051
          ],
          [
            121.31982000000001,
            24.96017
          ],
          [
            121.31957,
            24.96019
          ],
          [
            121.31859,
            24.96054
          ],
          [
            121.3185,
            24.96031
          ],
          [
            121.31906,
            24.96016
          ],
          [
            121.31899,
            24.95998
          ],
          [
            121.31843,
            24.96013
          ],
          [
            121.31858,
            24.96054
          ],
          [
            121.31146,
            24.96301
          ],
          [
            121.31055,
            24.96318
          ],
          [
            121.30677,
            24.96325
          ],
          [
            121.30575,
            24.96337
          ],
          [
            121.30311,
            24.96376
          ],
          [
            121.30034,
            24.96418
          ],
          [
            121.29995,
            24.9624
          ],
          [
            121.29932,
            24.95859
          ],
          [
            121.29784,
            24.95884
          ],
          [
            121.29724,
            24.95903
          ],
          [
            121.29615,
            24.95949
          ],
          [
            121.29476,
            24.95953
          ],
          [
            121.29123,
            24.95959
          ],
          [
            121.28907,
            24.95981
          ],
          [
            121.28634,
            24.96013
          ],
          [
            121.2839,
            24.96039
          ],
          [
            121.28155,
            24.96068
          ],
          [
            121.28006,
            24.96083
          ],
          [
            121.27906,
            24.96071
          ],
          [
            121.27804,
            24.96045
          ],
          [
            121.27232,
            24.95881
          ],
          [
            121.27115,
            24.95849
          ],
          [
            121.26954,
            24.95778
          ],
          [
            121.26879,
            24.95744
          ],
          [
            121.26769,
            24.95712
          ],
          [
            121.26567,
            24.95615
          ],
          [
            121.26602,
            24.95562
          ],
          [
            121.26618,
            24.95441
          ],
          [
            121.26686901184785,
            24.952468323023904
          ],
          [
            121.26687471419059,
            24.952436174446916
          ],
          [
            121.26686964611001,
            24.95240371462245
          ],
          [
            121.26685419486681,
            24.952374116953614
          ],
          [
            121.26682976997665,
            24.952350081441743
          ],
          [
            121.26679859956218,
            24.952333800689043
          ],
          [
            121.26676358121475,
            24.95232676309411
          ],
          [
            121.26513,
            24.95223
          ],
          [
            121.26375,
            24.95208
          ],
          [
            121.26247,
            24.95132
          ],
          [
            121.26144,
            24.95068
          ],
          [
            121.26063,
            24.95039
          ],
          [
            121.25967,
            24.9498
          ],
          [
            121.25707273805142,
            24.949269095193028
          ],
          [
            121.257047673795,
            24.949261164468833
          ],
          [
            121.25702501899094,
            24.94924825552902
          ],
          [
            121.25700609103731,
            24.94923105541629
          ],
          [
            121.25699184483649,
            24.9492104318646
          ],
          [
            121.25698299909952,
            24.949187425318037
          ],
          [
            121.25697999999996,
            24.949163196441184
          ],
          [
            121.25698,
            24.94858
          ],
          [
            121.25669,
            24.9467
          ],
          [
            121.25697,
            24.94539
          ],
          [
            121.25742,
            24.94409
          ],
          [
            121.25795,
            24.94299
          ],
          [
            121.25912,
            24.94072
          ],
          [
            121.25932,
            24.94016
          ],
          [
            121.25936,
            24.9397
          ],
          [
            121.25922,
            24.93911
          ],
          [
            121.2588,
            24.93835
          ],
          [
            121.25703,
            24.93522
          ],
          [
            121.2557,
            24.93311
          ],
          [
            121.25506,
            24.93192
          ],
          [
            121.25428,
            24.93074
          ],
          [
            121.25359,
            24.93019
          ],
          [
            121.25135,
            24.92909
          ],
          [
            121.24956,
            24.92822
          ],
          [
            121.24533,
            24.92619
          ],
          [
            121.24398599120609,
            24.925545859912003
          ],
          [
            121.24397119840374,
            24.92553602422536
          ],
          [
            121.24395995310861,
            24.925522628956816
          ],
          [
            121.24395335179645,
            24.92550686324858
          ],
          [
            121.24395194143464,
            24.92549003340586
          ],
          [
            121.24395583888209,
            24.925473533905294
          ],
          [
            121.24396459103123,
            24.92545889015911
          ],
          [
            121.24403,
            24.92538
          ],
          [
            121.24424,
            24.92537
          ]
        ]
      }
    },
    {
      "type": "Feature",
      "properties": {
        "feature_type": "station",
        "ref": "TAO5683",
        "name": "龍岡圓環",
        "name_en": "Longgang Circle",
        "line": "717",
        "color": "#1e3a8a",
        "direction": 0,
        "station_id": "585"
      },
      "geometry": {
        "type": "Point",
        "coordinates": [
          121.244162,
          24.925245
        ]
      }
    },
    {
      "type": "Feature",
      "properties": {
        "feature_type": "station",
        "ref": "TAO44347",
        "name": "供應站",
        "name_en": "Fareware Service",
        "line": "717",
        "color": "#1e3a8a",
        "direction": 0,
        "station_id": "4496"
      },
      "geometry": {
        "type": "Point",
        "coordinates": [
          121.2457420053712,
          24.926310999617847
        ]
      }
    },
    {
      "type": "Feature",
      "properties": {
        "feature_type": "station",
        "ref": "TAO44348",
        "name": "龍東路",
        "name_en": "Longdong Road",
        "line": "717",
        "color": "#1e3a8a",
        "direction": 0,
        "station_id": "583"
      },
      "geometry": {
        "type": "Point",
        "coordinates": [
          121.250034,
          24.928372
        ]
      }
    },
    {
      "type": "Feature",
      "properties": {
        "feature_type": "station",
        "ref": "TAO44349",
        "name": "貿易七村",
        "name_en": "MauYi 7th Village",
        "line": "717",
        "color": "#1e3a8a",
        "direction": 0,
        "station_id": "4498"
      },
      "geometry": {
        "type": "Point",
        "coordinates": [
          121.251466,
          24.929058
        ]
      }
    },
    {
      "type": "Feature",
      "properties": {
        "feature_type": "station",
        "ref": "TAO44350",
        "name": "忠貞",
        "name_en": "Zhongzhen",
        "line": "717",
        "color": "#1e3a8a",
        "direction": 0,
        "station_id": "2927"
      },
      "geometry": {
        "type": "Point",
        "coordinates": [
          121.253968,
          24.930325
        ]
      }
    },
    {
      "type": "Feature",
      "properties": {
        "feature_type": "station",
        "ref": "TAO828",
        "name": "龍文街口",
        "name_en": "Longwen Street Intersection",
        "line": "717",
        "color": "#1e3a8a",
        "direction": 0,
        "station_id": "627"
      },
      "geometry": {
        "type": "Point",
        "coordinates": [
          121.255063,
          24.931729
        ]
      }
    },
    {
      "type": "Feature",
      "properties": {
        "feature_type": "station",
        "ref": "TAO44352",
        "name": "基安二村",
        "name_en": "Jian 2nd Village",
        "line": "717",
        "color": "#1e3a8a",
        "direction": 0,
        "station_id": "4500"
      },
      "geometry": {
        "type": "Point",
        "coordinates": [
          121.2558706750207,
          24.933230250080676
        ]
      }
    },
    {
      "type": "Feature",
      "properties": {
        "feature_type": "station",
        "ref": "TAO1278",
        "name": "龍東中山東路口",
        "name_en": "Longdong and Zhongshan East Road Intersection",
        "line": "717",
        "color": "#1e3a8a",
        "direction": 0,
        "station_id": "581"
      },
      "geometry": {
        "type": "Point",
        "coordinates": [
          121.257131,
          24.935191
        ]
      }
    },
    {
      "type": "Feature",
      "properties": {
        "feature_type": "station",
        "ref": "TAO44354",
        "name": "陸軍專科學校",
        "name_en": "Army Academy R.O.C.",
        "line": "717",
        "color": "#1e3a8a",
        "direction": 0,
        "station_id": "3572"
      },
      "geometry": {
        "type": "Point",
        "coordinates": [
          121.259019,
          24.938276
        ]
      }
    },
    {
      "type": "Feature",
      "properties": {
        "feature_type": "station",
        "ref": "TAO44355",
        "name": "榮民南華勛街口",
        "name_en": "Rongmin S. Rd and Huaxun St intersection",
        "line": "717",
        "color": "#1e3a8a",
        "direction": 0,
        "station_id": "4533"
      },
      "geometry": {
        "type": "Point",
        "coordinates": [
          121.25776399999998,
          24.943922
        ]
      }
    },
    {
      "type": "Feature",
      "properties": {
        "feature_type": "station",
        "ref": "TAO44356",
        "name": "榮民南仁慈路口",
        "name_en": "Rongmin S. Rd and Renci Rd intersection",
        "line": "717",
        "color": "#1e3a8a",
        "direction": 0,
        "station_id": "4531"
      },
      "geometry": {
        "type": "Point",
        "coordinates": [
          121.25695054640896,
          24.946257457835873
        ]
      }
    },
    {
      "type": "Feature",
      "properties": {
        "feature_type": "station",
        "ref": "TAO44357",
        "name": "金車公司",
        "name_en": "King Car Company",
        "line": "717",
        "color": "#1e3a8a",
        "direction": 0,
        "station_id": "2940"
      },
      "geometry": {
        "type": "Point",
        "coordinates": [
          121.257088,
          24.948118
        ]
      }
    },
    {
      "type": "Feature",
      "properties": {
        "feature_type": "station",
        "ref": "TAO44358",
        "name": "晉元榮民南路口",
        "name_en": "Jinyuan Rd and Rongmin S. Rd intersection",
        "line": "717",
        "color": "#1e3a8a",
        "direction": 0,
        "station_id": "4502"
      },
      "geometry": {
        "type": "Point",
        "coordinates": [
          121.257505,
          24.949261
        ]
      }
    },
    {
      "type": "Feature",
      "properties": {
        "feature_type": "station",
        "ref": "TAO44359",
        "name": "晉元華勛街口",
        "name_en": "Jinyuan Rd. and Huaxun St. intersection",
        "line": "717",
        "color": "#1e3a8a",
        "direction": 0,
        "station_id": "4504"
      },
      "geometry": {
        "type": "Point",
        "coordinates": [
          121.260788,
          24.950337
        ]
      }
    },
    {
      "type": "Feature",
      "properties": {
        "feature_type": "station",
        "ref": "TAO44360",
        "name": "晉元仁德三街口",
        "name_en": "Jinyuan Rd. and Rende 3rd St. intersection",
        "line": "717",
        "color": "#1e3a8a",
        "direction": 0,
        "station_id": "4506"
      },
      "geometry": {
        "type": "Point",
        "coordinates": [
          121.262704,
          24.951338
        ]
      }
    },
    {
      "type": "Feature",
      "properties": {
        "feature_type": "station",
        "ref": "TAO44361",
        "name": "仁美新村",
        "name_en": "Renmei New Village",
        "line": "717",
        "color": "#1e3a8a",
        "direction": 0,
        "station_id": "4508"
      },
      "geometry": {
        "type": "Point",
        "coordinates": [
          121.265049,
          24.952109
        ]
      }
    },
    {
      "type": "Feature",
      "properties": {
        "feature_type": "station",
        "ref": "TAO44362",
        "name": "仁德公園",
        "name_en": "Rende Park",
        "line": "717",
        "color": "#1e3a8a",
        "direction": 0,
        "station_id": "4510"
      },
      "geometry": {
        "type": "Point",
        "coordinates": [
          121.266829,
          24.953096
        ]
      }
    },
    {
      "type": "Feature",
      "properties": {
        "feature_type": "station",
        "ref": "TAO44363",
        "name": "崁頂廣福路口",
        "name_en": "Kanding and Guangfu Rd intersection",
        "line": "717",
        "color": "#1e3a8a",
        "direction": 0,
        "station_id": "4514"
      },
      "geometry": {
        "type": "Point",
        "coordinates": [
          121.266181,
          24.955515
        ]
      }
    },
    {
      "type": "Feature",
      "properties": {
        "feature_type": "station",
        "ref": "TAO44364",
        "name": "廣福路1142巷",
        "name_en": "Guangfu Road 1142 lane",
        "line": "717",
        "color": "#1e3a8a",
        "direction": 0,
        "station_id": "4516"
      },
      "geometry": {
        "type": "Point",
        "coordinates": [
          121.271283,
          24.958392
        ]
      }
    },
    {
      "type": "Feature",
      "properties": {
        "feature_type": "station",
        "ref": "TAO4688",
        "name": "廣福路1008巷",
        "name_en": "Guangfu Rd., Ln. 1008",
        "line": "717",
        "color": "#1e3a8a",
        "direction": 0,
        "station_id": "5722"
      },
      "geometry": {
        "type": "Point",
        "coordinates": [
          121.273587,
          24.959048
        ]
      }
    },
    {
      "type": "Feature",
      "properties": {
        "feature_type": "station",
        "ref": "TAO44365",
        "name": "廣福路879巷",
        "name_en": "Guangfu Road 879 lane",
        "line": "717",
        "color": "#1e3a8a",
        "direction": 0,
        "station_id": "4518"
      },
      "geometry": {
        "type": "Point",
        "coordinates": [
          121.277686,
          24.960125
        ]
      }
    },
    {
      "type": "Feature",
      "properties": {
        "feature_type": "station",
        "ref": "TAO44366",
        "name": "廣興路口",
        "name_en": "Guangxing Rd. Intersection",
        "line": "717",
        "color": "#1e3a8a",
        "direction": 0,
        "station_id": "1123"
      },
      "geometry": {
        "type": "Point",
        "coordinates": [
          121.281292,
          24.960576
        ]
      }
    },
    {
      "type": "Feature",
      "properties": {
        "feature_type": "station",
        "ref": "TAO44367",
        "name": "中祥食品",
        "name_en": "Chung Hsiang Foods",
        "line": "717",
        "color": "#1e3a8a",
        "direction": 0,
        "station_id": "4520"
      },
      "geometry": {
        "type": "Point",
        "coordinates": [
          121.2841660030173,
          24.960328668129613
        ]
      }
    },
    {
      "type": "Feature",
      "properties": {
        "feature_type": "station",
        "ref": "TAO44368",
        "name": "廣福路530巷",
        "name_en": "Guangfu Rd., Ln. 530",
        "line": "717",
        "color": "#1e3a8a",
        "direction": 0,
        "station_id": "4522"
      },
      "geometry": {
        "type": "Point",
        "coordinates": [
          121.286543,
          24.960003
        ]
      }
    },
    {
      "type": "Feature",
      "properties": {
        "feature_type": "station",
        "ref": "TAO44369",
        "name": "廣福路389巷",
        "name_en": "Guangfu Rd., Ln. 389",
        "line": "717",
        "color": "#1e3a8a",
        "direction": 0,
        "station_id": "4524"
      },
      "geometry": {
        "type": "Point",
        "coordinates": [
          121.289009,
          24.959731
        ]
      }
    },
    {
      "type": "Feature",
      "properties": {
        "feature_type": "station",
        "ref": "TAO44370",
        "name": "廣福路(廣隆街口)",
        "name_en": "Guanfu Rd.(Guanlung St. Intersection)",
        "line": "717",
        "color": "#1e3a8a",
        "direction": 0,
        "station_id": "4526"
      },
      "geometry": {
        "type": "Point",
        "coordinates": [
          121.291876,
          24.959489
        ]
      }
    },
    {
      "type": "Feature",
      "properties": {
        "feature_type": "station",
        "ref": "TAO44371",
        "name": "景雲新村",
        "name_en": "JingYun New Village",
        "line": "717",
        "color": "#1e3a8a",
        "direction": 0,
        "station_id": "4528"
      },
      "geometry": {
        "type": "Point",
        "coordinates": [
          121.294851,
          24.959393
        ]
      }
    },
    {
      "type": "Feature",
      "properties": {
        "feature_type": "station",
        "ref": "TAO44372",
        "name": "大湳市場",
        "name_en": "Danan Market",
        "line": "717",
        "color": "#1e3a8a",
        "direction": 0,
        "station_id": "3767"
      },
      "geometry": {
        "type": "Point",
        "coordinates": [
          121.298083,
          24.958754
        ]
      }
    },
    {
      "type": "Feature",
      "properties": {
        "feature_type": "station",
        "ref": "TAO44373",
        "name": "大湳站(G04)",
        "name_en": "Danan Station(G04)",
        "line": "717",
        "color": "#1e3a8a",
        "direction": 0,
        "station_id": "1724"
      },
      "geometry": {
        "type": "Point",
        "coordinates": [
          121.299604,
          24.959175
        ]
      }
    },
    {
      "type": "Feature",
      "properties": {
        "feature_type": "station",
        "ref": "TAO9408",
        "name": "陸光四村",
        "name_en": "Luguang 4th Village",
        "line": "717",
        "color": "#1e3a8a",
        "direction": 0,
        "station_id": "1257"
      },
      "geometry": {
        "type": "Point",
        "coordinates": [
          121.300131,
          24.962123
        ]
      }
    },
    {
      "type": "Feature",
      "properties": {
        "feature_type": "station",
        "ref": "TAO1236",
        "name": "介壽大智路口",
        "name_en": "Jieshou & Dazhi Rd. Intersection",
        "line": "717",
        "color": "#1e3a8a",
        "direction": 0,
        "station_id": "3144"
      },
      "geometry": {
        "type": "Point",
        "coordinates": [
          121.300429,
          24.963761
        ]
      }
    },
    {
      "type": "Feature",
      "properties": {
        "feature_type": "station",
        "ref": "TAO44375",
        "name": "大義里",
        "name_en": "Dayi Village",
        "line": "717",
        "color": "#1e3a8a",
        "direction": 0,
        "station_id": "1259"
      },
      "geometry": {
        "type": "Point",
        "coordinates": [
          121.303266,
          24.963691
        ]
      }
    },
    {
      "type": "Feature",
      "properties": {
        "feature_type": "station",
        "ref": "TAO44376",
        "name": "大成龍門社區",
        "name_en": "Dacheng Lungmen Community",
        "line": "717",
        "color": "#1e3a8a",
        "direction": 0,
        "station_id": "1271"
      },
      "geometry": {
        "type": "Point",
        "coordinates": [
          121.305841,
          24.963335
        ]
      }
    },
    {
      "type": "Feature",
      "properties": {
        "feature_type": "station",
        "ref": "TAO60008",
        "name": "八德轉運站",
        "name_en": "Bade Bus Station",
        "line": "717",
        "color": "#1e3a8a",
        "direction": 0,
        "station_id": "6882"
      },
      "geometry": {
        "type": "Point",
        "coordinates": [
          121.318738,
          24.960143
        ]
      }
    },
    {
      "type": "Feature",
      "properties": {
        "feature_type": "station",
        "ref": "TAO9566",
        "name": "永寧轉運站",
        "name_en": "Yongning Bus Station",
        "line": "717",
        "color": "#1e3a8a",
        "direction": 0,
        "station_id": "6954"
      },
      "geometry": {
        "type": "Point",
        "coordinates": [
          121.435078,
          24.965422
        ]
      }
    },
    {
      "type": "Feature",
      "properties": {
        "feature_type": "station",
        "ref": "TAO44389",
        "name": "大成龍門社區",
        "name_en": "Dacheng Lungmen Community",
        "line": "717",
        "color": "#1e3a8a",
        "direction": 0,
        "station_id": "1272"
      },
      "geometry": {
        "type": "Point",
        "coordinates": [
          121.3058743763612,
          24.963390542911533
        ]
      }
    },
    {
      "type": "Feature",
      "properties": {
        "feature_type": "station",
        "ref": "TAO44390",
        "name": "大義里",
        "name_en": "Dayi Village",
        "line": "717",
        "color": "#1e3a8a",
        "direction": 0,
        "station_id": "1260"
      },
      "geometry": {
        "type": "Point",
        "coordinates": [
          121.30308888320414,
          24.963857346079383
        ]
      }
    },
    {
      "type": "Feature",
      "properties": {
        "feature_type": "station",
        "ref": "TAO9664",
        "name": "介壽大智路口",
        "name_en": "Jieshou & Dazhi Rd. Intersection",
        "line": "717",
        "color": "#1e3a8a",
        "direction": 0,
        "station_id": "7014"
      },
      "geometry": {
        "type": "Point",
        "coordinates": [
          121.300151,
          24.963574
        ]
      }
    },
    {
      "type": "Feature",
      "properties": {
        "feature_type": "station",
        "ref": "TAO9409",
        "name": "陸光四村",
        "name_en": "The 4th village of Lu guang",
        "line": "717",
        "color": "#1e3a8a",
        "direction": 0,
        "station_id": "1258"
      },
      "geometry": {
        "type": "Point",
        "coordinates": [
          121.299929,
          24.962435
        ]
      }
    },
    {
      "type": "Feature",
      "properties": {
        "feature_type": "station",
        "ref": "TAO44392",
        "name": "大湳站(G04)",
        "name_en": "Danan Station(G04)",
        "line": "717",
        "color": "#1e3a8a",
        "direction": 0,
        "station_id": "1723"
      },
      "geometry": {
        "type": "Point",
        "coordinates": [
          121.299299,
          24.958995
        ]
      }
    },
    {
      "type": "Feature",
      "properties": {
        "feature_type": "station",
        "ref": "TAO44393",
        "name": "大湳市場",
        "name_en": "Danan Market",
        "line": "717",
        "color": "#1e3a8a",
        "direction": 0,
        "station_id": "3766"
      },
      "geometry": {
        "type": "Point",
        "coordinates": [
          121.297939,
          24.958888
        ]
      }
    },
    {
      "type": "Feature",
      "properties": {
        "feature_type": "station",
        "ref": "TAO44394",
        "name": "景雲新村",
        "name_en": "JingYun New Village",
        "line": "717",
        "color": "#1e3a8a",
        "direction": 0,
        "station_id": "4529"
      },
      "geometry": {
        "type": "Point",
        "coordinates": [
          121.29475336355043,
          24.959545335573132
        ]
      }
    },
    {
      "type": "Feature",
      "properties": {
        "feature_type": "station",
        "ref": "TAO44395",
        "name": "廣福路(廣隆街口)",
        "name_en": "Guanfu Rd.(Guanlung St. Intersection)",
        "line": "717",
        "color": "#1e3a8a",
        "direction": 0,
        "station_id": "4527"
      },
      "geometry": {
        "type": "Point",
        "coordinates": [
          121.292039,
          24.959598
        ]
      }
    },
    {
      "type": "Feature",
      "properties": {
        "feature_type": "station",
        "ref": "TAO44396",
        "name": "廣福路389巷",
        "name_en": "Guangfu Rd., Ln. 389",
        "line": "717",
        "color": "#1e3a8a",
        "direction": 0,
        "station_id": "4525"
      },
      "geometry": {
        "type": "Point",
        "coordinates": [
          121.28905334657195,
          24.959848666477544
        ]
      }
    },
    {
      "type": "Feature",
      "properties": {
        "feature_type": "station",
        "ref": "TAO44397",
        "name": "廣福路530巷",
        "name_en": "Guangfu Rd., Ln. 530",
        "line": "717",
        "color": "#1e3a8a",
        "direction": 0,
        "station_id": "4523"
      },
      "geometry": {
        "type": "Point",
        "coordinates": [
          121.28662203547381,
          24.960152803250157
        ]
      }
    },
    {
      "type": "Feature",
      "properties": {
        "feature_type": "station",
        "ref": "TAO44398",
        "name": "中祥食品",
        "name_en": "Chung Hsiang Foods",
        "line": "717",
        "color": "#1e3a8a",
        "direction": 0,
        "station_id": "4521"
      },
      "geometry": {
        "type": "Point",
        "coordinates": [
          121.283995,
          24.960459
        ]
      }
    },
    {
      "type": "Feature",
      "properties": {
        "feature_type": "station",
        "ref": "TAO44399",
        "name": "廣興路口",
        "name_en": "Guangxing Rd. Intersection",
        "line": "717",
        "color": "#1e3a8a",
        "direction": 0,
        "station_id": "1122"
      },
      "geometry": {
        "type": "Point",
        "coordinates": [
          121.281492,
          24.960739
        ]
      }
    },
    {
      "type": "Feature",
      "properties": {
        "feature_type": "station",
        "ref": "TAO44400",
        "name": "廣福路879巷",
        "name_en": "Guangfu Road 879 lane",
        "line": "717",
        "color": "#1e3a8a",
        "direction": 0,
        "station_id": "4519"
      },
      "geometry": {
        "type": "Point",
        "coordinates": [
          121.2776678164547,
          24.9603530310155
        ]
      }
    },
    {
      "type": "Feature",
      "properties": {
        "feature_type": "station",
        "ref": "TAO4689",
        "name": "廣福路1008巷",
        "name_en": "Guangfu Rd., Ln. 1008",
        "line": "717",
        "color": "#1e3a8a",
        "direction": 0,
        "station_id": "5723"
      },
      "geometry": {
        "type": "Point",
        "coordinates": [
          121.27343499998781,
          24.95915000000813
        ]
      }
    },
    {
      "type": "Feature",
      "properties": {
        "feature_type": "station",
        "ref": "TAO44401",
        "name": "廣福路1142巷",
        "name_en": "Guangfu Road 1142 lane",
        "line": "717",
        "color": "#1e3a8a",
        "direction": 0,
        "station_id": "4517"
      },
      "geometry": {
        "type": "Point",
        "coordinates": [
          121.270407,
          24.958183
        ]
      }
    },
    {
      "type": "Feature",
      "properties": {
        "feature_type": "station",
        "ref": "TAO44402",
        "name": "崁頂廣福路口",
        "name_en": "Kanding and Guangfu Rd intersection",
        "line": "717",
        "color": "#1e3a8a",
        "direction": 0,
        "station_id": "4515"
      },
      "geometry": {
        "type": "Point",
        "coordinates": [
          121.265935,
          24.955613
        ]
      }
    },
    {
      "type": "Feature",
      "properties": {
        "feature_type": "station",
        "ref": "TAO44403",
        "name": "仁德公園",
        "name_en": "Rende Park",
        "line": "717",
        "color": "#1e3a8a",
        "direction": 0,
        "station_id": "4511"
      },
      "geometry": {
        "type": "Point",
        "coordinates": [
          121.266601,
          24.953083
        ]
      }
    },
    {
      "type": "Feature",
      "properties": {
        "feature_type": "station",
        "ref": "TAO44404",
        "name": "仁美新村",
        "name_en": "Renmei New Village",
        "line": "717",
        "color": "#1e3a8a",
        "direction": 0,
        "station_id": "4509"
      },
      "geometry": {
        "type": "Point",
        "coordinates": [
          121.265112,
          24.952284
        ]
      }
    },
    {
      "type": "Feature",
      "properties": {
        "feature_type": "station",
        "ref": "TAO44405",
        "name": "晉元仁德三街口",
        "name_en": "Jinyuan Rd. and Rende 3rd St. intersection",
        "line": "717",
        "color": "#1e3a8a",
        "direction": 0,
        "station_id": "4507"
      },
      "geometry": {
        "type": "Point",
        "coordinates": [
          121.262457,
          24.951374
        ]
      }
    },
    {
      "type": "Feature",
      "properties": {
        "feature_type": "station",
        "ref": "TAO44406",
        "name": "晉元華勛街口",
        "name_en": "Jinyuan Rd. and Huaxun St. intersection",
        "line": "717",
        "color": "#1e3a8a",
        "direction": 0,
        "station_id": "4505"
      },
      "geometry": {
        "type": "Point",
        "coordinates": [
          121.260579,
          24.950425
        ]
      }
    },
    {
      "type": "Feature",
      "properties": {
        "feature_type": "station",
        "ref": "TAO44407",
        "name": "晉元榮民南路口",
        "name_en": "Jinyuan Rd and Rongmin S. Rd intersection",
        "line": "717",
        "color": "#1e3a8a",
        "direction": 0,
        "station_id": "4503"
      },
      "geometry": {
        "type": "Point",
        "coordinates": [
          121.258933,
          24.949685
        ]
      }
    },
    {
      "type": "Feature",
      "properties": {
        "feature_type": "station",
        "ref": "TAO44408",
        "name": "金車公司",
        "name_en": "King Car Company",
        "line": "717",
        "color": "#1e3a8a",
        "direction": 0,
        "station_id": "2941"
      },
      "geometry": {
        "type": "Point",
        "coordinates": [
          121.25688362844544,
          24.94796998566235
        ]
      }
    },
    {
      "type": "Feature",
      "properties": {
        "feature_type": "station",
        "ref": "TAO44409",
        "name": "榮民南仁慈路口",
        "name_en": "Rongmin S. Rd / Renci Rd intersection",
        "line": "717",
        "color": "#1e3a8a",
        "direction": 0,
        "station_id": "4530"
      },
      "geometry": {
        "type": "Point",
        "coordinates": [
          121.256855,
          24.945482999999996
        ]
      }
    },
    {
      "type": "Feature",
      "properties": {
        "feature_type": "station",
        "ref": "TAO44410",
        "name": "榮民南華勛街口",
        "name_en": "Rongmin S. Rd and Huaxun St intersection",
        "line": "717",
        "color": "#1e3a8a",
        "direction": 0,
        "station_id": "4532"
      },
      "geometry": {
        "type": "Point",
        "coordinates": [
          121.258088,
          24.942604
        ]
      }
    },
    {
      "type": "Feature",
      "properties": {
        "feature_type": "station",
        "ref": "TAO44411",
        "name": "陸軍專科學校",
        "name_en": "Army Academy R.O.C.",
        "line": "717",
        "color": "#1e3a8a",
        "direction": 0,
        "station_id": "3573"
      },
      "geometry": {
        "type": "Point",
        "coordinates": [
          121.258909,
          24.938585
        ]
      }
    },
    {
      "type": "Feature",
      "properties": {
        "feature_type": "station",
        "ref": "TAO1275",
        "name": "龍東中山東路口",
        "name_en": "Longdong and Zhongshan East Road Intersection",
        "line": "717",
        "color": "#1e3a8a",
        "direction": 0,
        "station_id": "582"
      },
      "geometry": {
        "type": "Point",
        "coordinates": [
          121.256986,
          24.935279
        ]
      }
    },
    {
      "type": "Feature",
      "properties": {
        "feature_type": "station",
        "ref": "TAO44413",
        "name": "基安二村",
        "name_en": "Jian 2nd Village",
        "line": "717",
        "color": "#1e3a8a",
        "direction": 0,
        "station_id": "4501"
      },
      "geometry": {
        "type": "Point",
        "coordinates": [
          121.255721,
          24.933188
        ]
      }
    },
    {
      "type": "Feature",
      "properties": {
        "feature_type": "station",
        "ref": "TAO829",
        "name": "龍文街口",
        "name_en": "Longwen Street Intersection",
        "line": "717",
        "color": "#1e3a8a",
        "direction": 0,
        "station_id": "628"
      },
      "geometry": {
        "type": "Point",
        "coordinates": [
          121.255027,
          24.932033
        ]
      }
    },
    {
      "type": "Feature",
      "properties": {
        "feature_type": "station",
        "ref": "TAO44415",
        "name": "忠貞",
        "name_en": "Zhongzhen",
        "line": "717",
        "color": "#1e3a8a",
        "direction": 0,
        "station_id": "2926"
      },
      "geometry": {
        "type": "Point",
        "coordinates": [
          121.253577,
          24.930218
        ]
      }
    },
    {
      "type": "Feature",
      "properties": {
        "feature_type": "station",
        "ref": "TAO44416",
        "name": "貿易七村",
        "name_en": "MauYi 7th Village",
        "line": "717",
        "color": "#1e3a8a",
        "direction": 0,
        "station_id": "4499"
      },
      "geometry": {
        "type": "Point",
        "coordinates": [
          121.251265,
          24.929084
        ]
      }
    },
    {
      "type": "Feature",
      "properties": {
        "feature_type": "station",
        "ref": "TAO44417",
        "name": "龍東路",
        "name_en": "Longdong Road",
        "line": "717",
        "color": "#1e3a8a",
        "direction": 0,
        "station_id": "584"
      },
      "geometry": {
        "type": "Point",
        "coordinates": [
          121.249786,
          24.928359
        ]
      }
    },
    {
      "type": "Feature",
      "properties": {
        "feature_type": "station",
        "ref": "TAO5676",
        "name": "供應站",
        "name_en": "Fareware Service",
        "line": "717",
        "color": "#1e3a8a",
        "direction": 0,
        "station_id": "4497"
      },
      "geometry": {
        "type": "Point",
        "coordinates": [
          121.245313,
          24.926272
        ]
      }
    }
  ]
}
