{
  "type": "FeatureCollection",
  "name": "安坑2線",
  "properties": {
    "id": "new_taipei_2_afe972c4d7",
    "name": "安坑2線",
    "name_en": "安坑2線",
    "ref": "安坑2線",
    "color": "#0891b2",
    "city_id": "NewTaipei",
    "source": "TDX Bus Shape / StopOfRoute",
    "official_map_url": "https://ebus.gov.taipei/File/Get/13cecd7b-f2ef-40f8-8313-91e51a97649d?v=639234359025382391",
    "operator_id": "16176",
    "operator": "臺北客運",
    "operator_en": "Taipei Bus Co., Ltd."
  },
  "features": [
    {
      "type": "Feature",
      "properties": {
        "feature_type": "route",
        "ref": "安坑2線",
        "name": "安坑2線",
        "name_en": "安坑2線",
        "color": "#0891b2",
        "direction": 0
      },
      "geometry": {
        "type": "LineString",
        "coordinates": [
          [
            121.501827261312,
            24.9448794555975
          ],
          [
            121.502542494322,
            24.9447157579014
          ],
          [
            121.502631142921,
            24.944721802124
          ],
          [
            121.503120724953,
            24.9449111877663
          ],
          [
            121.50318116718,
            24.9450335832745
          ],
          [
            121.503189226143,
            24.9451524529861
          ],
          [
            121.503154975548,
            24.9452713226978
          ],
          [
            121.503060282727,
            24.945331764924
          ],
          [
            121.503030061614,
            24.945331764924
          ],
          [
            121.5024921258,
            24.9451907330627
          ],
          [
            121.502441757278,
            24.9451907330627
          ],
          [
            121.501815172866,
            24.9453861629277
          ],
          [
            121.50175473064,
            24.9454727967853
          ],
          [
            121.501760774863,
            24.9455831038482
          ],
          [
            121.50177890753,
            24.9456495902971
          ],
          [
            121.501829276052,
            24.9457120472642
          ],
          [
            121.501921954133,
            24.9457241357095
          ],
          [
            121.502393403497,
            24.945619369184
          ],
          [
            121.502453845724,
            24.9456495902971
          ],
          [
            121.502506228986,
            24.945732194673
          ],
          [
            121.502433698315,
            24.9463804375496
          ],
          [
            121.502443772019,
            24.9464887298716
          ],
          [
            121.502435713056,
            24.9466579681052
          ],
          [
            121.502407506684,
            24.9468413095248
          ],
          [
            121.502449816242,
            24.9470583978541
          ],
          [
            121.502397432979,
            24.9472492945521
          ],
          [
            121.50242160987,
            24.9473500315958
          ],
          [
            121.502395418238,
            24.9475535204242
          ],
          [
            121.502322887567,
            24.9477282991952
          ],
          [
            121.502389374016,
            24.9478250067572
          ],
          [
            121.502332961271,
            24.948054687217
          ],
          [
            121.502371241348,
            24.948482819653
          ],
          [
            121.50230676964,
            24.948595645142
          ],
          [
            121.50228460749,
            24.9486903379631
          ],
          [
            121.502131487184,
            24.9488233108609
          ],
          [
            121.502093207107,
            24.9488998710142
          ],
          [
            121.502018661695,
            24.9489522542769
          ],
          [
            121.501960234209,
            24.9490993303608
          ],
          [
            121.501996499545,
            24.9499127819892
          ],
          [
            121.502046868067,
            24.9500094895512
          ],
          [
            121.502131487184,
            24.9500598580731
          ],
          [
            121.502431683574,
            24.9501061971132
          ],
          [
            121.502580774399,
            24.9504864794534
          ],
          [
            121.502778219005,
            24.9510259263228
          ],
          [
            121.502953501461,
            24.9516343780671
          ],
          [
            121.503026032132,
            24.9518086531528
          ],
          [
            121.503287948446,
            24.9521708028252
          ],
          [
            121.503445098234,
            24.9523234194465
          ],
          [
            121.503612321727,
            24.9524181122676
          ],
          [
            121.503890355968,
            24.9525228787931
          ],
          [
            121.504253009325,
            24.9525954094646
          ],
          [
            121.504414188595,
            24.9526901022858
          ],
          [
            121.504436350745,
            24.9530804583304
          ],
          [
            121.504510896157,
            24.9533801510356
          ],
          [
            121.50463178061,
            24.9535775956414
          ],
          [
            121.504829225216,
            24.9537830992106
          ],
          [
            121.504676104909,
            24.9545260349084
          ],
          [
            121.503152960807,
            24.9544482155421
          ],
          [
            121.501475689029,
            24.9543756848706
          ],
          [
            121.501055615556,
            24.9542971099765
          ],
          [
            121.500702028533,
            24.9542124908597
          ],
          [
            121.49985476325,
            24.9539453145386
          ],
          [
            121.499787896417,
            24.9541247991973
          ],
          [
            121.499665893773,
            24.9543054569583
          ],
          [
            121.499553275948,
            24.9546210214888
          ],
          [
            121.499898168037,
            24.9548263143991
          ],
          [
            121.500041286523,
            24.9549506632475
          ],
          [
            121.500167981576,
            24.9550914355288
          ],
          [
            121.500328110046,
            24.9554902903258
          ],
          [
            121.500478267146,
            24.9561143807729
          ],
          [
            121.500604962199,
            24.9564651383738
          ],
          [
            121.500726964843,
            24.9567232208895
          ],
          [
            121.500553345696,
            24.9570235350896
          ],
          [
            121.499828368447,
            24.9568358387145
          ],
          [
            121.499633046907,
            24.9567654525739
          ],
          [
            121.499254721401,
            24.9565554672543
          ],
          [
            121.497717370779,
            24.9555900040251
          ],
          [
            121.495596988292,
            24.9548486033436
          ],
          [
            121.494642082984,
            24.9544251133974
          ],
          [
            121.494100109701,
            24.9540426820332
          ],
          [
            121.493009711073,
            24.9530631415759
          ],
          [
            121.492424333003,
            24.9523170484851
          ],
          [
            121.493095347544,
            24.9517703827927
          ],
          [
            121.493440239633,
            24.9515287237098
          ],
          [
            121.493592742938,
            24.9514606837739
          ],
          [
            121.493888364728,
            24.9513597969723
          ],
          [
            121.494029206754,
            24.9511382481266
          ],
          [
            121.494264931436,
            24.9507370628498
          ],
          [
            121.494328395774,
            24.9506554658444
          ],
          [
            121.494399415389,
            24.9506059787716
          ],
          [
            121.495191208553,
            24.9502267038019
          ],
          [
            121.495851539875,
            24.9499022045996
          ],
          [
            121.495960335883,
            24.9497737648688
          ],
          [
            121.49633356663,
            24.9490650797659
          ],
          [
            121.496341121908,
            24.9489532616474
          ],
          [
            121.495813763484,
            24.9480896933397
          ],
          [
            121.495467731739,
            24.9468808488145
          ],
          [
            121.495451110126,
            24.9467535423755
          ]
        ]
      }
    },
    {
      "type": "Feature",
      "properties": {
        "feature_type": "route",
        "ref": "安坑2線",
        "name": "安坑2線",
        "name_en": "安坑2線",
        "color": "#0891b2",
        "direction": 1
      },
      "geometry": {
        "type": "LineString",
        "coordinates": [
          [
            121.495501730491,
            24.951993883392
          ],
          [
            121.496042688416,
            24.9523436927764
          ],
          [
            121.49657004684,
            24.9526179493781
          ],
          [
            121.497111004765,
            24.9528597182831
          ],
          [
            121.498510242303,
            24.9533062352296
          ]
        ]
      }
    },
    {
      "type": "Feature",
      "properties": {
        "feature_type": "station",
        "ref": "NWT215165",
        "name": "觀天下",
        "name_en": "Guantianxia",
        "line": "安坑2線",
        "color": "#0891b2",
        "direction": 0
      },
      "geometry": {
        "type": "Point",
        "coordinates": [
          121.501893,
          24.944807
        ]
      }
    },
    {
      "type": "Feature",
      "properties": {
        "feature_type": "station",
        "ref": "NWT215166",
        "name": "服務中心",
        "name_en": "Service Center",
        "line": "安坑2線",
        "color": "#0891b2",
        "direction": 0
      },
      "geometry": {
        "type": "Point",
        "coordinates": [
          121.502191,
          24.945325
        ]
      }
    },
    {
      "type": "Feature",
      "properties": {
        "feature_type": "station",
        "ref": "NWT215167",
        "name": "黎明魚池",
        "name_en": "Limingyuchin",
        "line": "安坑2線",
        "color": "#0891b2",
        "direction": 0
      },
      "geometry": {
        "type": "Point",
        "coordinates": [
          121.502456,
          24.945611
        ]
      }
    },
    {
      "type": "Feature",
      "properties": {
        "feature_type": "station",
        "ref": "NWT215168",
        "name": "黎明路59巷口",
        "name_en": "Liming Rd. Lane 59 Entrance",
        "line": "安坑2線",
        "color": "#0891b2",
        "direction": 0
      },
      "geometry": {
        "type": "Point",
        "coordinates": [
          121.502467,
          24.947287
        ]
      }
    },
    {
      "type": "Feature",
      "properties": {
        "feature_type": "station",
        "ref": "NWT215169",
        "name": "黎明清境",
        "name_en": "Limingqingjing",
        "line": "安坑2線",
        "color": "#0891b2",
        "direction": 0
      },
      "geometry": {
        "type": "Point",
        "coordinates": [
          121.5022075,
          24.948798
        ]
      }
    },
    {
      "type": "Feature",
      "properties": {
        "feature_type": "station",
        "ref": "NWT222768",
        "name": "黎明路9號",
        "name_en": "No. 9 Liming Rd.",
        "line": "安坑2線",
        "color": "#0891b2",
        "direction": 0
      },
      "geometry": {
        "type": "Point",
        "coordinates": [
          121.502481,
          24.950221
        ]
      }
    },
    {
      "type": "Feature",
      "properties": {
        "feature_type": "station",
        "ref": "NWT214823",
        "name": "黎明路口",
        "name_en": "LiMing Rd. Entrance",
        "line": "安坑2線",
        "color": "#0891b2",
        "direction": 0
      },
      "geometry": {
        "type": "Point",
        "coordinates": [
          121.5039722,
          24.952519
        ]
      }
    },
    {
      "type": "Feature",
      "properties": {
        "feature_type": "station",
        "ref": "NWT214824",
        "name": "輕軌耕莘安康院區站",
        "name_en": "LRT Cardinal Tien Hospital An Kang Branch Sta.",
        "line": "安坑2線",
        "color": "#0891b2",
        "direction": 0
      },
      "geometry": {
        "type": "Point",
        "coordinates": [
          121.5041588,
          24.954638
        ]
      }
    },
    {
      "type": "Feature",
      "properties": {
        "feature_type": "station",
        "ref": "NWT214825",
        "name": "輕軌台北小城站(達觀國中小)",
        "name_en": "LRT Taipei Xiaocheng Sta.(DaGuan Elementary and Junior High School)",
        "line": "安坑2線",
        "color": "#0891b2",
        "direction": 0
      },
      "geometry": {
        "type": "Point",
        "coordinates": [
          121.5004344,
          24.954242
        ]
      }
    },
    {
      "type": "Feature",
      "properties": {
        "feature_type": "station",
        "ref": "NWT221336",
        "name": "安豐路",
        "name_en": "Anfeng Rd.",
        "line": "安坑2線",
        "color": "#0891b2",
        "direction": 0
      },
      "geometry": {
        "type": "Point",
        "coordinates": [
          121.4997026,
          24.954374
        ]
      }
    },
    {
      "type": "Feature",
      "properties": {
        "feature_type": "station",
        "ref": "NWT221337",
        "name": "立青市場",
        "name_en": "Liqing Market",
        "line": "安坑2線",
        "color": "#0891b2",
        "direction": 0
      },
      "geometry": {
        "type": "Point",
        "coordinates": [
          121.500672,
          24.95646
        ]
      }
    },
    {
      "type": "Feature",
      "properties": {
        "feature_type": "station",
        "ref": "NWT221338",
        "name": "仁康醫院",
        "name_en": "Jen-Kang Hospital",
        "line": "安坑2線",
        "color": "#0891b2",
        "direction": 0
      },
      "geometry": {
        "type": "Point",
        "coordinates": [
          121.499692,
          24.956813
        ]
      }
    },
    {
      "type": "Feature",
      "properties": {
        "feature_type": "station",
        "ref": "NWT221339",
        "name": "康樂新村",
        "name_en": "Kangle New Village",
        "line": "安坑2線",
        "color": "#0891b2",
        "direction": 0
      },
      "geometry": {
        "type": "Point",
        "coordinates": [
          121.4972383,
          24.95549
        ]
      }
    },
    {
      "type": "Feature",
      "properties": {
        "feature_type": "station",
        "ref": "NWT221340",
        "name": "大茅埔",
        "name_en": "Damaopu",
        "line": "安坑2線",
        "color": "#0891b2",
        "direction": 0
      },
      "geometry": {
        "type": "Point",
        "coordinates": [
          121.494847,
          24.954594
        ]
      }
    },
    {
      "type": "Feature",
      "properties": {
        "feature_type": "station",
        "ref": "NWT214826",
        "name": "輕軌玫瑰中國城站",
        "name_en": "LRT Rose China Town Sta.",
        "line": "安坑2線",
        "color": "#0891b2",
        "direction": 0
      },
      "geometry": {
        "type": "Point",
        "coordinates": [
          121.494962,
          24.950291
        ]
      }
    },
    {
      "type": "Feature",
      "properties": {
        "feature_type": "station",
        "ref": "NWT214827",
        "name": "滿堂彩",
        "name_en": "Mantangcai",
        "line": "安坑2線",
        "color": "#0891b2",
        "direction": 0
      },
      "geometry": {
        "type": "Point",
        "coordinates": [
          121.49542,
          24.94692
        ]
      }
    },
    {
      "type": "Feature",
      "properties": {
        "feature_type": "station",
        "ref": "NWT214829",
        "name": "賓士特區",
        "name_en": "Benz Car Sale Center",
        "line": "安坑2線",
        "color": "#0891b2",
        "direction": 1
      },
      "geometry": {
        "type": "Point",
        "coordinates": [
          121.49595,
          24.94818
        ]
      }
    },
    {
      "type": "Feature",
      "properties": {
        "feature_type": "station",
        "ref": "NWT214830",
        "name": "輕軌玫瑰中國城站",
        "name_en": "LRT Rose China Town Sta.",
        "line": "安坑2線",
        "color": "#0891b2",
        "direction": 1
      },
      "geometry": {
        "type": "Point",
        "coordinates": [
          121.495196,
          24.950275
        ]
      }
    },
    {
      "type": "Feature",
      "properties": {
        "feature_type": "station",
        "ref": "NWT214831",
        "name": "輕軌台北小城站(達觀國中小)",
        "name_en": "LRT Taipei Xiaocheng Sta.(DaGuan Elementary and Junior High School)",
        "line": "安坑2線",
        "color": "#0891b2",
        "direction": 1
      },
      "geometry": {
        "type": "Point",
        "coordinates": [
          121.500919,
          24.954019
        ]
      }
    },
    {
      "type": "Feature",
      "properties": {
        "feature_type": "station",
        "ref": "NWT214832",
        "name": "輕軌耕莘安康院區站",
        "name_en": "LRT Cardinal Tien Hospital An Kang Branch Sta.",
        "line": "安坑2線",
        "color": "#0891b2",
        "direction": 1
      },
      "geometry": {
        "type": "Point",
        "coordinates": [
          121.50381,
          24.954258
        ]
      }
    },
    {
      "type": "Feature",
      "properties": {
        "feature_type": "station",
        "ref": "NWT214833",
        "name": "輕軌耕莘安康院區站(車子路)",
        "name_en": "LRT Cardinal Tien Hospital An Kang Branch Sta.(Chezi Rd.)",
        "line": "安坑2線",
        "color": "#0891b2",
        "direction": 1
      },
      "geometry": {
        "type": "Point",
        "coordinates": [
          121.504641,
          24.954194
        ]
      }
    },
    {
      "type": "Feature",
      "properties": {
        "feature_type": "station",
        "ref": "NWT214834",
        "name": "黎明路口",
        "name_en": "LiMing Rd. Entrance",
        "line": "安坑2線",
        "color": "#0891b2",
        "direction": 1
      },
      "geometry": {
        "type": "Point",
        "coordinates": [
          121.5038568,
          24.952567
        ]
      }
    },
    {
      "type": "Feature",
      "properties": {
        "feature_type": "station",
        "ref": "NWT222769",
        "name": "黎明路9號",
        "name_en": "No. 9 Liming Rd.",
        "line": "安坑2線",
        "color": "#0891b2",
        "direction": 1
      },
      "geometry": {
        "type": "Point",
        "coordinates": [
          121.502395,
          24.950281
        ]
      }
    },
    {
      "type": "Feature",
      "properties": {
        "feature_type": "station",
        "ref": "NWT216535",
        "name": "黎明清境",
        "name_en": "Limingqingjing",
        "line": "安坑2線",
        "color": "#0891b2",
        "direction": 1
      },
      "geometry": {
        "type": "Point",
        "coordinates": [
          121.502078,
          24.948829
        ]
      }
    },
    {
      "type": "Feature",
      "properties": {
        "feature_type": "station",
        "ref": "NWT216536",
        "name": "黎明魚池",
        "name_en": "Limingyuchin",
        "line": "安坑2線",
        "color": "#0891b2",
        "direction": 1
      },
      "geometry": {
        "type": "Point",
        "coordinates": [
          121.502214,
          24.945745
        ]
      }
    },
    {
      "type": "Feature",
      "properties": {
        "feature_type": "station",
        "ref": "NWT215170",
        "name": "服務中心",
        "name_en": "Service Center",
        "line": "安坑2線",
        "color": "#0891b2",
        "direction": 1
      },
      "geometry": {
        "type": "Point",
        "coordinates": [
          121.502126,
          24.945213
        ]
      }
    },
    {
      "type": "Feature",
      "properties": {
        "feature_type": "station",
        "ref": "NWT215171",
        "name": "觀天下",
        "name_en": "Guantianxia",
        "line": "安坑2線",
        "color": "#0891b2",
        "direction": 1
      },
      "geometry": {
        "type": "Point",
        "coordinates": [
          121.501853,
          24.944933
        ]
      }
    }
  ]
}
