{
  "type": "FeatureCollection",
  "name": "352",
  "properties": {
    "id": "taichung_352",
    "name": "352",
    "name_en": "352",
    "ref": "352",
    "color": "#db2777",
    "city_id": "Taichung",
    "source": "TDX Bus Shape / StopOfRoute",
    "official_map_url": "https://citybus.taichung.gov.tw/ebus/strapi/uploads/352_1150706_31031c213a.jpeg",
    "operator_id": "19",
    "operator": "中鹿客運",
    "operator_en": "Chung-Lu Bus Co., Ltd."
  },
  "features": [
    {
      "type": "Feature",
      "properties": {
        "feature_type": "route",
        "ref": "352",
        "name": "352",
        "name_en": "352",
        "color": "#db2777",
        "direction": 0
      },
      "geometry": {
        "type": "LineString",
        "coordinates": [
          [
            120.5475,
            24.14429
          ],
          [
            120.54668,
            24.1461
          ],
          [
            120.54645,
            24.14679
          ],
          [
            120.54599,
            24.14862
          ],
          [
            120.5453,
            24.15127
          ],
          [
            120.5447,
            24.15322
          ],
          [
            120.54411,
            24.15512
          ],
          [
            120.54406,
            24.15575
          ],
          [
            120.54393,
            24.15806
          ],
          [
            120.54387,
            24.1587
          ],
          [
            120.54335,
            24.16124
          ],
          [
            120.54323,
            24.16185
          ],
          [
            120.54317,
            24.16215
          ],
          [
            120.54294,
            24.1635
          ],
          [
            120.54283,
            24.16408
          ],
          [
            120.54243,
            24.16612
          ],
          [
            120.5424,
            24.16641
          ],
          [
            120.54236,
            24.16939
          ],
          [
            120.54237,
            24.16959
          ],
          [
            120.54239,
            24.16972
          ],
          [
            120.5425,
            24.17014
          ],
          [
            120.54268,
            24.17073
          ],
          [
            120.54278,
            24.17145
          ],
          [
            120.54303,
            24.173
          ],
          [
            120.54332,
            24.17363
          ],
          [
            120.54379,
            24.17549
          ],
          [
            120.54461,
            24.17876
          ],
          [
            120.54504,
            24.18042
          ],
          [
            120.54548,
            24.18212
          ],
          [
            120.54552,
            24.18276
          ],
          [
            120.54545,
            24.18607
          ],
          [
            120.54574,
            24.18898
          ],
          [
            120.54587,
            24.19018
          ],
          [
            120.54591,
            24.19117
          ],
          [
            120.54607,
            24.1926
          ],
          [
            120.54631,
            24.19478
          ],
          [
            120.54653,
            24.19679
          ],
          [
            120.54669,
            24.19807
          ],
          [
            120.54683,
            24.19873
          ],
          [
            120.54699,
            24.19933
          ],
          [
            120.54798,
            24.20249
          ],
          [
            120.54848,
            24.20416
          ],
          [
            120.54855,
            24.20452
          ],
          [
            120.54872,
            24.20594
          ],
          [
            120.54882,
            24.20636
          ],
          [
            120.54923,
            24.20742
          ],
          [
            120.55056,
            24.21021
          ],
          [
            120.55131,
            24.21199
          ],
          [
            120.55220481412212,
            24.215092189790685
          ],
          [
            120.55222064461672,
            24.215124612106298
          ],
          [
            120.55224686366375,
            24.215150487711146
          ],
          [
            120.55228074385587,
            24.21516725535268
          ],
          [
            120.5523186932019,
            24.215173137319006
          ],
          [
            120.55235668829734,
            24.215167510001763
          ],
          [
            120.55239101958955,
            24.21515074665908
          ],
          [
            120.55587,
            24.21272
          ],
          [
            120.55605,
            24.21204
          ],
          [
            120.55608,
            24.21189
          ],
          [
            120.55608,
            24.2116
          ],
          [
            120.55603,
            24.21124
          ],
          [
            120.55597,
            24.21085
          ],
          [
            120.55595,
            24.2106
          ],
          [
            120.55597,
            24.21028
          ],
          [
            120.55601,
            24.20999
          ],
          [
            120.55604,
            24.20983
          ],
          [
            120.55619,
            24.20949
          ],
          [
            120.55681,
            24.20862
          ],
          [
            120.55711,
            24.20838
          ],
          [
            120.55788,
            24.20784
          ],
          [
            120.5587,
            24.20741
          ],
          [
            120.55928,
            24.20717
          ],
          [
            120.55988,
            24.20695
          ],
          [
            120.56023,
            24.20686
          ],
          [
            120.56073,
            24.20678
          ],
          [
            120.56166,
            24.20664
          ],
          [
            120.56197,
            24.20657
          ],
          [
            120.56231,
            24.20646
          ],
          [
            120.5625,
            24.20639
          ],
          [
            120.56305,
            24.20605
          ],
          [
            120.56332,
            24.20582
          ],
          [
            120.56385,
            24.20634
          ],
          [
            120.56465,
            24.20571
          ],
          [
            120.56743,
            24.20333
          ],
          [
            120.5676,
            24.20295
          ],
          [
            120.56795,
            24.20216
          ],
          [
            120.56791,
            24.20195
          ],
          [
            120.56821,
            24.20147
          ],
          [
            120.5685,
            24.20083
          ],
          [
            120.56894,
            24.19969
          ],
          [
            120.56897741971463,
            24.198568016374605
          ],
          [
            120.56898437393373,
            24.198534485495355
          ],
          [
            120.5690023038975,
            24.19850461408289
          ],
          [
            120.56902944008739,
            24.198481328196987
          ],
          [
            120.56906310325337,
            24.198466926933804
          ],
          [
            120.56909996971449,
            24.19846283217994
          ],
          [
            120.56913665299368,
            24.198469534364083
          ],
          [
            120.57096536335632,
            24.199087754423488
          ],
          [
            120.57099707522305,
            24.199094187737945
          ],
          [
            120.57102923097112,
            24.199092497540775
          ],
          [
            120.57105969577331,
            24.199082895421544
          ],
          [
            120.57108620691267,
            24.199066094559928
          ],
          [
            120.57110679532325,
            24.19904334280892
          ],
          [
            120.57111999397232,
            24.199016133812446
          ],
          [
            120.57136,
            24.19826
          ],
          [
            120.57157,
            24.1975
          ],
          [
            120.57208,
            24.1951
          ],
          [
            120.57254,
            24.19221
          ],
          [
            120.57273,
            24.19111
          ],
          [
            120.57312,
            24.18888
          ],
          [
            120.57353,
            24.18647
          ],
          [
            120.57399,
            24.18379
          ],
          [
            120.57415,
            24.18296
          ],
          [
            120.57422,
            24.18244
          ],
          [
            120.57426,
            24.18203
          ],
          [
            120.57425,
            24.18122
          ],
          [
            120.57421,
            24.18055
          ],
          [
            120.57407,
            24.17951
          ],
          [
            120.57405,
            24.17905
          ],
          [
            120.57407,
            24.17878
          ],
          [
            120.57411,
            24.17856
          ],
          [
            120.57417,
            24.17838
          ],
          [
            120.57428,
            24.17817
          ],
          [
            120.57441,
            24.17803
          ],
          [
            120.57452,
            24.1779
          ],
          [
            120.57472,
            24.17772
          ],
          [
            120.575,
            24.17758
          ],
          [
            120.57595,
            24.17731
          ],
          [
            120.5769,
            24.17706
          ],
          [
            120.57698,
            24.17715
          ],
          [
            120.58168213991985,
            24.175911650351235
          ],
          [
            120.58171174398288,
            24.17590742920467
          ],
          [
            120.58174133690376,
            24.175910138360212
          ],
          [
            120.58176925625747,
            24.17591955011563
          ],
          [
            120.58179373346981,
            24.17593506827562
          ],
          [
            120.58181321801193,
            24.175955709829747
          ],
          [
            120.58182656022628,
            24.175980390985664
          ],
          [
            120.58465,
            24.18341
          ],
          [
            120.58605,
            24.18699
          ],
          [
            120.58684,
            24.18909
          ],
          [
            120.5873,
            24.19029
          ],
          [
            120.58751,
            24.19082
          ],
          [
            120.58795195481105,
            24.19196267406682
          ],
          [
            120.58796597699337,
            24.19198801428878
          ],
          [
            120.5879864809606,
            24.192008985853533
          ],
          [
            120.58801217145675,
            24.192024401067464
          ],
          [
            120.58804131634332,
            24.19203322058569
          ],
          [
            120.58807195057531,
            24.192034849767012
          ],
          [
            120.58810225175704,
            24.19202910136597
          ],
          [
            120.59062,
            24.19123
          ],
          [
            120.59117,
            24.1911
          ],
          [
            120.59183,
            24.19098
          ],
          [
            120.59263,
            24.19089
          ],
          [
            120.59371,
            24.19081
          ],
          [
            120.59445,
            24.19077
          ],
          [
            120.59488,
            24.1908
          ],
          [
            120.59513,
            24.19087
          ],
          [
            120.5962,
            24.19099
          ],
          [
            120.59668,
            24.19113
          ],
          [
            120.59714,
            24.19138
          ],
          [
            120.59749,
            24.19162
          ],
          [
            120.59779,
            24.19178
          ],
          [
            120.59898,
            24.19209
          ],
          [
            120.59933,
            24.19208
          ],
          [
            120.59983,
            24.19201
          ],
          [
            120.60032,
            24.19191
          ],
          [
            120.60059,
            24.1919
          ],
          [
            120.60103,
            24.19195
          ],
          [
            120.60223,
            24.19231
          ],
          [
            120.60296,
            24.19259
          ],
          [
            120.60377,
            24.19307
          ],
          [
            120.60404,
            24.19318
          ],
          [
            120.60449,
            24.19331
          ],
          [
            120.60487,
            24.19341
          ],
          [
            120.6055,
            24.1932
          ],
          [
            120.60641501808391,
            24.192813659888618
          ],
          [
            120.60644653378812,
            24.19280489187387
          ],
          [
            120.60647914590291,
            24.192804416620763
          ],
          [
            120.60651065735308,
            24.192812148556012
          ],
          [
            120.60653866780363,
            24.192827498711654
          ],
          [
            120.6065610436027,
            24.192849297813815
          ],
          [
            120.60657616711462,
            24.192876111448957
          ],
          [
            120.60784,
            24.19615
          ],
          [
            120.60915,
            24.19939
          ],
          [
            120.6101,
            24.20154
          ],
          [
            120.61047,
            24.20249
          ],
          [
            120.61091,
            24.20392
          ],
          [
            120.61718,
            24.20219
          ],
          [
            120.61924,
            24.20842
          ],
          [
            120.61752,
            24.20887
          ],
          [
            120.61775,
            24.20959
          ]
        ]
      }
    },
    {
      "type": "Feature",
      "properties": {
        "feature_type": "route",
        "ref": "352",
        "name": "352",
        "name_en": "352",
        "color": "#db2777",
        "direction": 1
      },
      "geometry": {
        "type": "LineString",
        "coordinates": [
          [
            120.61775,
            24.20959
          ],
          [
            120.61752,
            24.20887
          ],
          [
            120.61496,
            24.20948
          ],
          [
            120.61242,
            24.21023
          ],
          [
            120.61181,
            24.2082
          ],
          [
            120.61072,
            24.20405
          ],
          [
            120.60981,
            24.20143
          ],
          [
            120.60877,
            24.19892
          ],
          [
            120.60784,
            24.19615
          ],
          [
            120.60657616725071,
            24.192876112386852
          ],
          [
            120.60656104382116,
            24.192849298569563
          ],
          [
            120.60653866810682,
            24.19282749923191
          ],
          [
            120.6065106576494,
            24.192812148856692
          ],
          [
            120.60647914611802,
            24.192804416743716
          ],
          [
            120.60644653387278,
            24.192804891879117
          ],
          [
            120.60641501804014,
            24.192813659885097
          ],
          [
            120.6055,
            24.1932
          ],
          [
            120.60487,
            24.19341
          ],
          [
            120.60449,
            24.19331
          ],
          [
            120.60404,
            24.19318
          ],
          [
            120.60377,
            24.19307
          ],
          [
            120.60296,
            24.19259
          ],
          [
            120.60223,
            24.19231
          ],
          [
            120.60103,
            24.19195
          ],
          [
            120.60059,
            24.1919
          ],
          [
            120.60032,
            24.19191
          ],
          [
            120.59983,
            24.19201
          ],
          [
            120.59933,
            24.19208
          ],
          [
            120.59898,
            24.19209
          ],
          [
            120.59779,
            24.19178
          ],
          [
            120.59749,
            24.19162
          ],
          [
            120.59714,
            24.19138
          ],
          [
            120.59668,
            24.19113
          ],
          [
            120.5962,
            24.19099
          ],
          [
            120.59513,
            24.19087
          ],
          [
            120.59488,
            24.1908
          ],
          [
            120.59445,
            24.19077
          ],
          [
            120.59371,
            24.19081
          ],
          [
            120.59263,
            24.19089
          ],
          [
            120.59183,
            24.19098
          ],
          [
            120.59117,
            24.1911
          ],
          [
            120.59062,
            24.19123
          ],
          [
            120.5881022508328,
            24.192029101273953
          ],
          [
            120.58807194962483,
            24.192034849619226
          ],
          [
            120.58804131537902,
            24.19203322034382
          ],
          [
            120.58801217050708,
            24.19202440072692
          ],
          [
            120.58798648005555,
            24.192008985417125
          ],
          [
            120.58796597616215,
            24.191988013767123
          ],
          [
            120.5879519539926,
            24.19196267350883
          ],
          [
            120.58751,
            24.19082
          ],
          [
            120.5873,
            24.19029
          ],
          [
            120.58684,
            24.18909
          ],
          [
            120.58605,
            24.18699
          ],
          [
            120.58465,
            24.18341
          ],
          [
            120.58187944637498,
            24.17611120584647
          ],
          [
            120.58186277607147,
            24.17608215444526
          ],
          [
            120.58183762043237,
            24.17605915206872
          ],
          [
            120.58180616450427,
            24.17604405045809
          ],
          [
            120.58177124626373,
            24.176038212091605
          ],
          [
            120.58173601605971,
            24.176042163710928
          ],
          [
            120.58170333421035,
            24.176055738499183
          ],
          [
            120.58151,
            24.17617
          ],
          [
            120.58119,
            24.17628
          ],
          [
            120.57971,
            24.17667
          ],
          [
            120.57776,
            24.17717
          ],
          [
            120.57675,
            24.17742
          ],
          [
            120.57571,
            24.17768
          ],
          [
            120.57532,
            24.17779
          ],
          [
            120.57511,
            24.17787
          ],
          [
            120.57493,
            24.17799
          ],
          [
            120.57474,
            24.17816
          ],
          [
            120.5746,
            24.17831
          ],
          [
            120.57452,
            24.17845
          ],
          [
            120.57443,
            24.1787
          ],
          [
            120.5744,
            24.17891
          ],
          [
            120.57441,
            24.17926
          ],
          [
            120.57452,
            24.18037
          ],
          [
            120.57462,
            24.18129
          ],
          [
            120.57461,
            24.1819
          ],
          [
            120.57456,
            24.18244
          ],
          [
            120.57444,
            24.18307
          ],
          [
            120.57439,
            24.18358
          ],
          [
            120.57427,
            24.18419
          ],
          [
            120.57404,
            24.18471
          ],
          [
            120.57393,
            24.18538
          ],
          [
            120.5737,
            24.18646
          ],
          [
            120.57334,
            24.1885
          ],
          [
            120.57288,
            24.19101
          ],
          [
            120.5727,
            24.19212
          ],
          [
            120.57217,
            24.19505
          ],
          [
            120.57182,
            24.19711
          ],
          [
            120.57169,
            24.19766
          ],
          [
            120.57124921471554,
            24.199059909428154
          ],
          [
            120.57123605408917,
            24.199087174914663
          ],
          [
            120.57121547551631,
            24.199109984518397
          ],
          [
            120.5711889502326,
            24.199126834749574
          ],
          [
            120.57115845351764,
            24.199136470808504
          ],
          [
            120.57112625639469,
            24.199138175119067
          ],
          [
            120.57109450294844,
            24.199131734685682
          ],
          [
            120.56913665316397,
            24.198469534598303
          ],
          [
            120.56909996983295,
            24.198462832354796
          ],
          [
            120.56906310330858,
            24.198466927033127
          ],
          [
            120.56902944006406,
            24.198481328256555
          ],
          [
            120.56900230379756,
            24.198504614138358
          ],
          [
            120.56898437377434,
            24.19853448557623
          ],
          [
            120.56897741968054,
            24.19856801650412
          ],
          [
            120.56894,
            24.19969
          ],
          [
            120.5685,
            24.20083
          ],
          [
            120.56821,
            24.20147
          ],
          [
            120.56791,
            24.20195
          ],
          [
            120.56795,
            24.20216
          ],
          [
            120.5676,
            24.20295
          ],
          [
            120.56743,
            24.20333
          ],
          [
            120.56725,
            24.20378
          ],
          [
            120.56402,
            24.20647
          ],
          [
            120.56332,
            24.20582
          ],
          [
            120.56305,
            24.20605
          ],
          [
            120.5625,
            24.20639
          ],
          [
            120.56231,
            24.20646
          ],
          [
            120.56197,
            24.20657
          ],
          [
            120.56166,
            24.20664
          ],
          [
            120.56073,
            24.20678
          ],
          [
            120.56023,
            24.20686
          ],
          [
            120.55988,
            24.20695
          ],
          [
            120.55928,
            24.20717
          ],
          [
            120.5587,
            24.20741
          ],
          [
            120.55788,
            24.20784
          ],
          [
            120.55711,
            24.20838
          ],
          [
            120.55681,
            24.20862
          ],
          [
            120.55619,
            24.20949
          ],
          [
            120.55604,
            24.20983
          ],
          [
            120.55601,
            24.20999
          ],
          [
            120.55597,
            24.21028
          ],
          [
            120.55595,
            24.2106
          ],
          [
            120.55597,
            24.21085
          ],
          [
            120.55603,
            24.21124
          ],
          [
            120.55608,
            24.2116
          ],
          [
            120.55608,
            24.21189
          ],
          [
            120.55605,
            24.21204
          ],
          [
            120.55589,
            24.213
          ],
          [
            120.55244058519887,
            24.215343776666717
          ],
          [
            120.552406243757,
            24.215360046710433
          ],
          [
            120.55236842181856,
            24.215365280026983
          ],
          [
            120.55233076060217,
            24.215359146405454
          ],
          [
            120.55229720388778,
            24.21534228814198
          ],
          [
            120.55227126564297,
            24.21531647058794
          ],
          [
            120.55225560997926,
            24.215284215951577
          ],
          [
            120.55131,
            24.21199
          ],
          [
            120.55056,
            24.21021
          ],
          [
            120.54923,
            24.20742
          ],
          [
            120.54882,
            24.20636
          ],
          [
            120.54872,
            24.20594
          ],
          [
            120.54855,
            24.20452
          ],
          [
            120.54848,
            24.20416
          ],
          [
            120.54798,
            24.20249
          ],
          [
            120.54699,
            24.19933
          ],
          [
            120.54683,
            24.19873
          ],
          [
            120.54669,
            24.19807
          ],
          [
            120.54653,
            24.19679
          ],
          [
            120.54631,
            24.19478
          ],
          [
            120.54607,
            24.1926
          ],
          [
            120.54591,
            24.19117
          ],
          [
            120.54587,
            24.19018
          ],
          [
            120.54574,
            24.18898
          ],
          [
            120.54545,
            24.18607
          ],
          [
            120.54552,
            24.18276
          ],
          [
            120.54548,
            24.18212
          ],
          [
            120.54504,
            24.18042
          ],
          [
            120.54461,
            24.17876
          ],
          [
            120.54379,
            24.17549
          ],
          [
            120.54332,
            24.17363
          ],
          [
            120.54279,
            24.17276
          ],
          [
            120.54265,
            24.17131
          ],
          [
            120.54252,
            24.17061
          ],
          [
            120.54236,
            24.17003
          ],
          [
            120.54227,
            24.16961
          ],
          [
            120.54225,
            24.16926
          ],
          [
            120.54229,
            24.16708
          ],
          [
            120.54232,
            24.16624
          ],
          [
            120.5424,
            24.16579
          ],
          [
            120.54288,
            24.16337
          ],
          [
            120.54317,
            24.16215
          ],
          [
            120.54323,
            24.16185
          ],
          [
            120.54328,
            24.16162
          ],
          [
            120.54333,
            24.16134
          ],
          [
            120.54335,
            24.16124
          ],
          [
            120.54342,
            24.16086
          ],
          [
            120.54387,
            24.1587
          ],
          [
            120.54393,
            24.15806
          ],
          [
            120.54406,
            24.15575
          ],
          [
            120.54411,
            24.15512
          ],
          [
            120.5447,
            24.15322
          ],
          [
            120.5453,
            24.15127
          ],
          [
            120.54599,
            24.14862
          ],
          [
            120.54645,
            24.14679
          ],
          [
            120.54668,
            24.1461
          ],
          [
            120.54773,
            24.14378
          ]
        ]
      }
    },
    {
      "type": "Feature",
      "properties": {
        "feature_type": "station",
        "ref": "TXG9639",
        "name": "沙田自由路口",
        "name_en": "Shatian-Ziyou Intersection",
        "line": "352",
        "color": "#db2777",
        "direction": 0,
        "station_id": "1839"
      },
      "geometry": {
        "type": "Point",
        "coordinates": [
          120.5474,
          24.14427
        ]
      }
    },
    {
      "type": "Feature",
      "properties": {
        "feature_type": "station",
        "ref": "TXG9641",
        "name": "大道國中(沙田路)",
        "name_en": "Da Dau Junior High School(Shatian Road)",
        "line": "352",
        "color": "#db2777",
        "direction": 0,
        "station_id": "1840"
      },
      "geometry": {
        "type": "Point",
        "coordinates": [
          120.546706,
          24.146106
        ]
      }
    },
    {
      "type": "Feature",
      "properties": {
        "feature_type": "station",
        "ref": "TXG9642",
        "name": "大肚",
        "name_en": "Dadu",
        "line": "352",
        "color": "#db2777",
        "direction": 0,
        "station_id": "1842"
      },
      "geometry": {
        "type": "Point",
        "coordinates": [
          120.5456636653,
          24.150099213329
        ]
      }
    },
    {
      "type": "Feature",
      "properties": {
        "feature_type": "station",
        "ref": "TXG9644",
        "name": "大肚區公所",
        "name_en": "Dadu District Office",
        "line": "352",
        "color": "#db2777",
        "direction": 0,
        "station_id": "1844"
      },
      "geometry": {
        "type": "Point",
        "coordinates": [
          120.545361,
          24.151198
        ]
      }
    },
    {
      "type": "Feature",
      "properties": {
        "feature_type": "station",
        "ref": "TXG9645",
        "name": "大肚車站(沙田路)",
        "name_en": "Dadu Station(Shatian Road)",
        "line": "352",
        "color": "#db2777",
        "direction": 0,
        "station_id": "1846"
      },
      "geometry": {
        "type": "Point",
        "coordinates": [
          120.54429028278,
          24.154585324648
        ]
      }
    },
    {
      "type": "Feature",
      "properties": {
        "feature_type": "station",
        "ref": "TXG9646",
        "name": "頂街(沙田路)",
        "name_en": "Dingjie(Shatian Road)",
        "line": "352",
        "color": "#db2777",
        "direction": 0,
        "station_id": "1848"
      },
      "geometry": {
        "type": "Point",
        "coordinates": [
          120.543934,
          24.158521
        ]
      }
    },
    {
      "type": "Feature",
      "properties": {
        "feature_type": "station",
        "ref": "TXG9647",
        "name": "北頂街",
        "name_en": "Beiding Street",
        "line": "352",
        "color": "#db2777",
        "direction": 0,
        "station_id": "1850"
      },
      "geometry": {
        "type": "Point",
        "coordinates": [
          120.543607,
          24.160115
        ]
      }
    },
    {
      "type": "Feature",
      "properties": {
        "feature_type": "station",
        "ref": "TXG19647",
        "name": "榮華",
        "name_en": "Ronghua",
        "line": "352",
        "color": "#db2777",
        "direction": 0,
        "station_id": "4347"
      },
      "geometry": {
        "type": "Point",
        "coordinates": [
          120.543236,
          24.161852
        ]
      }
    },
    {
      "type": "Feature",
      "properties": {
        "feature_type": "station",
        "ref": "TXG14872",
        "name": "山陽",
        "name_en": "Shanyang",
        "line": "352",
        "color": "#db2777",
        "direction": 0,
        "station_id": "2064"
      },
      "geometry": {
        "type": "Point",
        "coordinates": [
          120.542617,
          24.165241
        ]
      }
    },
    {
      "type": "Feature",
      "properties": {
        "feature_type": "station",
        "ref": "TXG9649",
        "name": "山陽一站",
        "name_en": "Shanyang 1st Stop",
        "line": "352",
        "color": "#db2777",
        "direction": 0,
        "station_id": "1852"
      },
      "geometry": {
        "type": "Point",
        "coordinates": [
          120.542378,
          24.168897
        ]
      }
    },
    {
      "type": "Feature",
      "properties": {
        "feature_type": "station",
        "ref": "TXG9656",
        "name": "沙田中華路口",
        "name_en": "Shatian-Zhonghua Intersection",
        "line": "352",
        "color": "#db2777",
        "direction": 0,
        "station_id": "2061"
      },
      "geometry": {
        "type": "Point",
        "coordinates": [
          120.543414,
          24.17384
        ]
      }
    },
    {
      "type": "Feature",
      "properties": {
        "feature_type": "station",
        "ref": "TXG9663",
        "name": "竹坑口",
        "name_en": "Zhukengkou",
        "line": "352",
        "color": "#db2777",
        "direction": 0,
        "station_id": "1854"
      },
      "geometry": {
        "type": "Point",
        "coordinates": [
          120.544143,
          24.176727
        ]
      }
    },
    {
      "type": "Feature",
      "properties": {
        "feature_type": "station",
        "ref": "TXG9667",
        "name": "村內入口",
        "name_en": "Village Entrance",
        "line": "352",
        "color": "#db2777",
        "direction": 0,
        "station_id": "1045"
      },
      "geometry": {
        "type": "Point",
        "coordinates": [
          120.544792,
          24.179316
        ]
      }
    },
    {
      "type": "Feature",
      "properties": {
        "feature_type": "station",
        "ref": "TXG9668",
        "name": "深水",
        "name_en": "Shenshui",
        "line": "352",
        "color": "#db2777",
        "direction": 0,
        "station_id": "1859"
      },
      "geometry": {
        "type": "Point",
        "coordinates": [
          120.545492,
          24.18282
        ]
      }
    },
    {
      "type": "Feature",
      "properties": {
        "feature_type": "station",
        "ref": "TXG9674",
        "name": "龍崗",
        "name_en": "Longgang",
        "line": "352",
        "color": "#db2777",
        "direction": 0,
        "station_id": "1861"
      },
      "geometry": {
        "type": "Point",
        "coordinates": [
          120.545543,
          24.186965
        ]
      }
    },
    {
      "type": "Feature",
      "properties": {
        "feature_type": "station",
        "ref": "TXG9676",
        "name": "龍井加油站",
        "name_en": "Longjing Gas Station",
        "line": "352",
        "color": "#db2777",
        "direction": 0,
        "station_id": "1863"
      },
      "geometry": {
        "type": "Point",
        "coordinates": [
          120.545828,
          24.189426
        ]
      }
    },
    {
      "type": "Feature",
      "properties": {
        "feature_type": "station",
        "ref": "TXG9679",
        "name": "龍井區公所",
        "name_en": "Longjing District Office",
        "line": "352",
        "color": "#db2777",
        "direction": 0,
        "station_id": "1865"
      },
      "geometry": {
        "type": "Point",
        "coordinates": [
          120.546053,
          24.192074
        ]
      }
    },
    {
      "type": "Feature",
      "properties": {
        "feature_type": "station",
        "ref": "TXG9680",
        "name": "龍井車站",
        "name_en": "Longjing Station",
        "line": "352",
        "color": "#db2777",
        "direction": 0,
        "station_id": "1867"
      },
      "geometry": {
        "type": "Point",
        "coordinates": [
          120.546627,
          24.197241000000002
        ]
      }
    },
    {
      "type": "Feature",
      "properties": {
        "feature_type": "station",
        "ref": "TXG9681",
        "name": "龍泉",
        "name_en": "Longquan",
        "line": "352",
        "color": "#db2777",
        "direction": 0,
        "station_id": "1869"
      },
      "geometry": {
        "type": "Point",
        "coordinates": [
          120.546954,
          24.198978
        ]
      }
    },
    {
      "type": "Feature",
      "properties": {
        "feature_type": "station",
        "ref": "TXG9682",
        "name": "龍目井",
        "name_en": "Longmujing",
        "line": "352",
        "color": "#db2777",
        "direction": 0,
        "station_id": "1873"
      },
      "geometry": {
        "type": "Point",
        "coordinates": [
          120.54821,
          24.203005
        ]
      }
    },
    {
      "type": "Feature",
      "properties": {
        "feature_type": "station",
        "ref": "TXG9683",
        "name": "鷺山",
        "name_en": "Lushan",
        "line": "352",
        "color": "#db2777",
        "direction": 0,
        "station_id": "1875"
      },
      "geometry": {
        "type": "Point",
        "coordinates": [
          120.549535,
          24.207775
        ]
      }
    },
    {
      "type": "Feature",
      "properties": {
        "feature_type": "station",
        "ref": "TXG9684",
        "name": "南山腳",
        "name_en": "Nanshanjiao",
        "line": "352",
        "color": "#db2777",
        "direction": 0,
        "station_id": "1877"
      },
      "geometry": {
        "type": "Point",
        "coordinates": [
          120.550704,
          24.210505
        ]
      }
    },
    {
      "type": "Feature",
      "properties": {
        "feature_type": "station",
        "ref": "TXG9685",
        "name": "龍山國小(山腳里)",
        "name_en": "Longshan Elementary School(shanjiao Village)",
        "line": "352",
        "color": "#db2777",
        "direction": 0,
        "station_id": "109"
      },
      "geometry": {
        "type": "Point",
        "coordinates": [
          120.551841,
          24.213676
        ]
      }
    },
    {
      "type": "Feature",
      "properties": {
        "feature_type": "station",
        "ref": "TXG19212",
        "name": "自強向上路口",
        "name_en": "Ziqiang-Xiangshang Intersection",
        "line": "352",
        "color": "#db2777",
        "direction": 0,
        "station_id": "4016"
      },
      "geometry": {
        "type": "Point",
        "coordinates": [
          120.555891,
          24.210735
        ]
      }
    },
    {
      "type": "Feature",
      "properties": {
        "feature_type": "station",
        "ref": "TXG21117",
        "name": "舞衫生態公園(自強路)",
        "name_en": "Dance Shirt Ecological Park(Ziqiang Road)",
        "line": "352",
        "color": "#db2777",
        "direction": 0,
        "station_id": "4704"
      },
      "geometry": {
        "type": "Point",
        "coordinates": [
          120.556919,
          24.208538
        ]
      }
    },
    {
      "type": "Feature",
      "properties": {
        "feature_type": "station",
        "ref": "TXG19213",
        "name": "自強路832巷口",
        "name_en": "Ziqiang Road 832nd Lane",
        "line": "352",
        "color": "#db2777",
        "direction": 0,
        "station_id": "4018"
      },
      "geometry": {
        "type": "Point",
        "coordinates": [
          120.558284,
          24.207599
        ]
      }
    },
    {
      "type": "Feature",
      "properties": {
        "feature_type": "station",
        "ref": "TXG19214",
        "name": "自強路780巷口",
        "name_en": "Ziqiang Road 780th Lane",
        "line": "352",
        "color": "#db2777",
        "direction": 0,
        "station_id": "4020"
      },
      "geometry": {
        "type": "Point",
        "coordinates": [
          120.559649,
          24.207034
        ]
      }
    },
    {
      "type": "Feature",
      "properties": {
        "feature_type": "station",
        "ref": "TXG19215",
        "name": "自強保寧路口",
        "name_en": "Ziqiang-Baoning Intersection",
        "line": "352",
        "color": "#db2777",
        "direction": 0,
        "station_id": "4022"
      },
      "geometry": {
        "type": "Point",
        "coordinates": [
          120.56297,
          24.206068
        ]
      }
    },
    {
      "type": "Feature",
      "properties": {
        "feature_type": "station",
        "ref": "TXG19251",
        "name": "向上保寧路口",
        "name_en": "Xiangshang-Baoning Intersection",
        "line": "352",
        "color": "#db2777",
        "direction": 0,
        "station_id": "2918"
      },
      "geometry": {
        "type": "Point",
        "coordinates": [
          120.564402,
          24.205916
        ]
      }
    },
    {
      "type": "Feature",
      "properties": {
        "feature_type": "station",
        "ref": "TXG19121",
        "name": "向上屏西路口",
        "name_en": "Xiangshang-Pingxi Intersection",
        "line": "352",
        "color": "#db2777",
        "direction": 0,
        "station_id": "3861"
      },
      "geometry": {
        "type": "Point",
        "coordinates": [
          120.567028,
          24.203695
        ]
      }
    },
    {
      "type": "Feature",
      "properties": {
        "feature_type": "station",
        "ref": "TXG6320",
        "name": "鹿港寮",
        "name_en": "Lugangliao",
        "line": "352",
        "color": "#db2777",
        "direction": 0,
        "station_id": "5927"
      },
      "geometry": {
        "type": "Point",
        "coordinates": [
          120.568471,
          24.200896
        ]
      }
    },
    {
      "type": "Feature",
      "properties": {
        "feature_type": "station",
        "ref": "TXG18141",
        "name": "中正新城",
        "name_en": "Zhongzheng Community",
        "line": "352",
        "color": "#db2777",
        "direction": 0,
        "station_id": "3174"
      },
      "geometry": {
        "type": "Point",
        "coordinates": [
          120.568927,
          24.198542
        ]
      }
    },
    {
      "type": "Feature",
      "properties": {
        "feature_type": "station",
        "ref": "TXG19379",
        "name": "向上西屯路口",
        "name_en": "Xiangshang-Xitun Intersection",
        "line": "352",
        "color": "#db2777",
        "direction": 0,
        "station_id": "4152"
      },
      "geometry": {
        "type": "Point",
        "coordinates": [
          120.573969,
          24.183322
        ]
      }
    },
    {
      "type": "Feature",
      "properties": {
        "feature_type": "station",
        "ref": "TXG19380",
        "name": "向上南新路口",
        "name_en": "Xiangshang-Nanxin Intersection",
        "line": "352",
        "color": "#db2777",
        "direction": 0,
        "station_id": "4154"
      },
      "geometry": {
        "type": "Point",
        "coordinates": [
          120.574149,
          24.180696
        ]
      }
    },
    {
      "type": "Feature",
      "properties": {
        "feature_type": "station",
        "ref": "TXG17973",
        "name": "向上中沙路口",
        "name_en": "Xiangshang-Zhongsha Intersection",
        "line": "352",
        "color": "#db2777",
        "direction": 0,
        "station_id": "2920"
      },
      "geometry": {
        "type": "Point",
        "coordinates": [
          120.576029,
          24.17729
        ]
      }
    },
    {
      "type": "Feature",
      "properties": {
        "feature_type": "station",
        "ref": "TXG7580",
        "name": "磐頂教會",
        "name_en": "Panding Church",
        "line": "352",
        "color": "#db2777",
        "direction": 0,
        "station_id": "6267"
      },
      "geometry": {
        "type": "Point",
        "coordinates": [
          120.582193,
          24.176908
        ]
      }
    },
    {
      "type": "Feature",
      "properties": {
        "feature_type": "station",
        "ref": "TXG7519",
        "name": "新庄里",
        "name_en": "Xinzhuang Village",
        "line": "352",
        "color": "#db2777",
        "direction": 0,
        "station_id": "6250"
      },
      "geometry": {
        "type": "Point",
        "coordinates": [
          120.583245,
          24.179478
        ]
      }
    },
    {
      "type": "Feature",
      "properties": {
        "feature_type": "station",
        "ref": "TXG18758",
        "name": "東海停車場",
        "name_en": "Donghai Parking Lot",
        "line": "352",
        "color": "#db2777",
        "direction": 0,
        "station_id": "3434"
      },
      "geometry": {
        "type": "Point",
        "coordinates": [
          120.584908,
          24.18397
        ]
      }
    },
    {
      "type": "Feature",
      "properties": {
        "feature_type": "station",
        "ref": "TXG20812",
        "name": "坪頂(遊園北路口)",
        "name_en": "Pingding(Youyuan N. Intersection)",
        "line": "352",
        "color": "#db2777",
        "direction": 0,
        "station_id": "6550"
      },
      "geometry": {
        "type": "Point",
        "coordinates": [
          120.586007,
          24.186873
        ]
      }
    },
    {
      "type": "Feature",
      "properties": {
        "feature_type": "station",
        "ref": "TXG20813",
        "name": "遊園北遠東街口",
        "name_en": "Youyuan N.-Yuandong Intersection",
        "line": "352",
        "color": "#db2777",
        "direction": 0,
        "station_id": "6379"
      },
      "geometry": {
        "type": "Point",
        "coordinates": [
          120.587692,
          24.191242
        ]
      }
    },
    {
      "type": "Feature",
      "properties": {
        "feature_type": "station",
        "ref": "TXG9628",
        "name": "遊園北路都會皇家",
        "name_en": "Youyuan N. Road Douhui Huangjia",
        "line": "352",
        "color": "#db2777",
        "direction": 0,
        "station_id": "3957"
      },
      "geometry": {
        "type": "Point",
        "coordinates": [
          120.590183,
          24.191362
        ]
      }
    },
    {
      "type": "Feature",
      "properties": {
        "feature_type": "station",
        "ref": "TXG9629",
        "name": "遊園北路寶莊",
        "name_en": "Youyuan N. Road Baozhuang",
        "line": "352",
        "color": "#db2777",
        "direction": 0,
        "station_id": "3955"
      },
      "geometry": {
        "type": "Point",
        "coordinates": [
          120.592927,
          24.190836
        ]
      }
    },
    {
      "type": "Feature",
      "properties": {
        "feature_type": "station",
        "ref": "TXG1779",
        "name": "國安社區(宜寧中學)",
        "name_en": "Guoan Community(I-Ning High School)",
        "line": "352",
        "color": "#db2777",
        "direction": 0,
        "station_id": "327"
      },
      "geometry": {
        "type": "Point",
        "coordinates": [
          120.606725,
          24.193052
        ]
      }
    },
    {
      "type": "Feature",
      "properties": {
        "feature_type": "station",
        "ref": "TXG935",
        "name": "中科站",
        "name_en": "Central Taiwan Science Park Stop",
        "line": "352",
        "color": "#db2777",
        "direction": 0,
        "station_id": "405"
      },
      "geometry": {
        "type": "Point",
        "coordinates": [
          120.608726,
          24.198288
        ]
      }
    },
    {
      "type": "Feature",
      "properties": {
        "feature_type": "station",
        "ref": "TXG14181",
        "name": "東大科園路口(格網中心)",
        "name_en": "Dongda-Keyuan Road(Grid Computing Centre)",
        "line": "352",
        "color": "#db2777",
        "direction": 0,
        "station_id": "2708"
      },
      "geometry": {
        "type": "Point",
        "coordinates": [
          120.610576,
          24.202868
        ]
      }
    },
    {
      "type": "Feature",
      "properties": {
        "feature_type": "station",
        "ref": "TXG21202",
        "name": "中科管理局(中科路)",
        "name_en": "Central Taiwan Science Park(Zhongke Road)",
        "line": "352",
        "color": "#db2777",
        "direction": 0,
        "station_id": "192"
      },
      "geometry": {
        "type": "Point",
        "coordinates": [
          120.617759,
          24.209546
        ]
      }
    },
    {
      "type": "Feature",
      "properties": {
        "feature_type": "station",
        "ref": "TXG21201",
        "name": "中科管理局(中科路)",
        "name_en": "Central Taiwan Science Park(Zhongke Road)",
        "line": "352",
        "color": "#db2777",
        "direction": 1,
        "station_id": "192"
      },
      "geometry": {
        "type": "Point",
        "coordinates": [
          120.617759,
          24.209546
        ]
      }
    },
    {
      "type": "Feature",
      "properties": {
        "feature_type": "station",
        "ref": "TXG14182",
        "name": "東大科園路口(格網中心)",
        "name_en": "Dongda-Keyuan Road(Grid Computing Centre)",
        "line": "352",
        "color": "#db2777",
        "direction": 1,
        "station_id": "2709"
      },
      "geometry": {
        "type": "Point",
        "coordinates": [
          120.610252,
          24.202709
        ]
      }
    },
    {
      "type": "Feature",
      "properties": {
        "feature_type": "station",
        "ref": "TXG935",
        "name": "中科站",
        "name_en": "Central Taiwan Science Park Stop",
        "line": "352",
        "color": "#db2777",
        "direction": 1,
        "station_id": "405"
      },
      "geometry": {
        "type": "Point",
        "coordinates": [
          120.608726,
          24.198288
        ]
      }
    },
    {
      "type": "Feature",
      "properties": {
        "feature_type": "station",
        "ref": "TXG1785",
        "name": "國安社區(宜寧中學)",
        "name_en": "Guoan Community(I-Ning High School)",
        "line": "352",
        "color": "#db2777",
        "direction": 1,
        "station_id": "326"
      },
      "geometry": {
        "type": "Point",
        "coordinates": [
          120.606725,
          24.193052
        ]
      }
    },
    {
      "type": "Feature",
      "properties": {
        "feature_type": "station",
        "ref": "TXG9445",
        "name": "遊園北路寶莊",
        "name_en": "Youyuan N. Road Baozhuang",
        "line": "352",
        "color": "#db2777",
        "direction": 1,
        "station_id": "3954"
      },
      "geometry": {
        "type": "Point",
        "coordinates": [
          120.593011,
          24.190885
        ]
      }
    },
    {
      "type": "Feature",
      "properties": {
        "feature_type": "station",
        "ref": "TXG9446",
        "name": "遊園北路都會皇家",
        "name_en": "Youyuan N. Road Douhui Huangjia",
        "line": "352",
        "color": "#db2777",
        "direction": 1,
        "station_id": "3956"
      },
      "geometry": {
        "type": "Point",
        "coordinates": [
          120.590058,
          24.191457
        ]
      }
    },
    {
      "type": "Feature",
      "properties": {
        "feature_type": "station",
        "ref": "TXG20813",
        "name": "遊園北遠東街口",
        "name_en": "Youyuan N.-Yuandong Intersection",
        "line": "352",
        "color": "#db2777",
        "direction": 1,
        "station_id": "6379"
      },
      "geometry": {
        "type": "Point",
        "coordinates": [
          120.587692,
          24.191242
        ]
      }
    },
    {
      "type": "Feature",
      "properties": {
        "feature_type": "station",
        "ref": "TXG20812",
        "name": "坪頂(遊園北路口)",
        "name_en": "Pingding(Youyuan N. Intersection)",
        "line": "352",
        "color": "#db2777",
        "direction": 1,
        "station_id": "6550"
      },
      "geometry": {
        "type": "Point",
        "coordinates": [
          120.586007,
          24.186873
        ]
      }
    },
    {
      "type": "Feature",
      "properties": {
        "feature_type": "station",
        "ref": "TXG18758",
        "name": "東海停車場",
        "name_en": "Donghai Parking Lot",
        "line": "352",
        "color": "#db2777",
        "direction": 1,
        "station_id": "3434"
      },
      "geometry": {
        "type": "Point",
        "coordinates": [
          120.584908,
          24.18397
        ]
      }
    },
    {
      "type": "Feature",
      "properties": {
        "feature_type": "station",
        "ref": "TXG7519",
        "name": "新庄里",
        "name_en": "Xinzhuang Village",
        "line": "352",
        "color": "#db2777",
        "direction": 1,
        "station_id": "6250"
      },
      "geometry": {
        "type": "Point",
        "coordinates": [
          120.583245,
          24.179478
        ]
      }
    },
    {
      "type": "Feature",
      "properties": {
        "feature_type": "station",
        "ref": "TXG7580",
        "name": "磐頂教會",
        "name_en": "Panding Church",
        "line": "352",
        "color": "#db2777",
        "direction": 1,
        "station_id": "6267"
      },
      "geometry": {
        "type": "Point",
        "coordinates": [
          120.582193,
          24.176908
        ]
      }
    },
    {
      "type": "Feature",
      "properties": {
        "feature_type": "station",
        "ref": "TXG23097",
        "name": "向上中沙路口",
        "name_en": "Xiangshang-Zhongsha Intersection",
        "line": "352",
        "color": "#db2777",
        "direction": 1,
        "station_id": "2919"
      },
      "geometry": {
        "type": "Point",
        "coordinates": [
          120.576305,
          24.177591
        ]
      }
    },
    {
      "type": "Feature",
      "properties": {
        "feature_type": "station",
        "ref": "TXG19382",
        "name": "向上南新路口",
        "name_en": "Xiangshang-Nanxin Intersection",
        "line": "352",
        "color": "#db2777",
        "direction": 1,
        "station_id": "4155"
      },
      "geometry": {
        "type": "Point",
        "coordinates": [
          120.574602,
          24.180865
        ]
      }
    },
    {
      "type": "Feature",
      "properties": {
        "feature_type": "station",
        "ref": "TXG19381",
        "name": "向上西屯路口",
        "name_en": "Xiangshang-Xitun Intersection",
        "line": "352",
        "color": "#db2777",
        "direction": 1,
        "station_id": "4153"
      },
      "geometry": {
        "type": "Point",
        "coordinates": [
          120.574377,
          24.183733
        ]
      }
    },
    {
      "type": "Feature",
      "properties": {
        "feature_type": "station",
        "ref": "TXG18140",
        "name": "中正新城",
        "name_en": "Zhongzheng Community",
        "line": "352",
        "color": "#db2777",
        "direction": 1,
        "station_id": "3172"
      },
      "geometry": {
        "type": "Point",
        "coordinates": [
          120.569035,
          24.198518
        ]
      }
    },
    {
      "type": "Feature",
      "properties": {
        "feature_type": "station",
        "ref": "TXG6320",
        "name": "鹿港寮",
        "name_en": "Lugangliao",
        "line": "352",
        "color": "#db2777",
        "direction": 1,
        "station_id": "5927"
      },
      "geometry": {
        "type": "Point",
        "coordinates": [
          120.568471,
          24.200896
        ]
      }
    },
    {
      "type": "Feature",
      "properties": {
        "feature_type": "station",
        "ref": "TXG19121",
        "name": "向上屏西路口",
        "name_en": "Xiangshang-Pingxi Intersection",
        "line": "352",
        "color": "#db2777",
        "direction": 1,
        "station_id": "3861"
      },
      "geometry": {
        "type": "Point",
        "coordinates": [
          120.567028,
          24.203695
        ]
      }
    },
    {
      "type": "Feature",
      "properties": {
        "feature_type": "station",
        "ref": "TXG19252",
        "name": "向上保寧路口",
        "name_en": "Xiangshang-Baoning Intersection",
        "line": "352",
        "color": "#db2777",
        "direction": 1,
        "station_id": "2917"
      },
      "geometry": {
        "type": "Point",
        "coordinates": [
          120.564622,
          24.206026
        ]
      }
    },
    {
      "type": "Feature",
      "properties": {
        "feature_type": "station",
        "ref": "TXG19221",
        "name": "自強保寧路口",
        "name_en": "Ziqiang-Baoning Intersection",
        "line": "352",
        "color": "#db2777",
        "direction": 1,
        "station_id": "4023"
      },
      "geometry": {
        "type": "Point",
        "coordinates": [
          120.56301,
          24.20609
        ]
      }
    },
    {
      "type": "Feature",
      "properties": {
        "feature_type": "station",
        "ref": "TXG19220",
        "name": "自強路780巷口",
        "name_en": "Ziqiang Road 780th Lane",
        "line": "352",
        "color": "#db2777",
        "direction": 1,
        "station_id": "4021"
      },
      "geometry": {
        "type": "Point",
        "coordinates": [
          120.559405,
          24.207149
        ]
      }
    },
    {
      "type": "Feature",
      "properties": {
        "feature_type": "station",
        "ref": "TXG19219",
        "name": "自強路832巷口",
        "name_en": "Ziqiang Road 832nd Lane",
        "line": "352",
        "color": "#db2777",
        "direction": 1,
        "station_id": "4019"
      },
      "geometry": {
        "type": "Point",
        "coordinates": [
          120.558102,
          24.207743
        ]
      }
    },
    {
      "type": "Feature",
      "properties": {
        "feature_type": "station",
        "ref": "TXG21118",
        "name": "舞衫生態公園(自強路)",
        "name_en": "Dance Shirt Ecological Park(Ziqiang Road)",
        "line": "352",
        "color": "#db2777",
        "direction": 1,
        "station_id": "4705"
      },
      "geometry": {
        "type": "Point",
        "coordinates": [
          120.556862,
          24.208641
        ]
      }
    },
    {
      "type": "Feature",
      "properties": {
        "feature_type": "station",
        "ref": "TXG19218",
        "name": "自強向上路口",
        "name_en": "Ziqiang-Xiangshang Intersection",
        "line": "352",
        "color": "#db2777",
        "direction": 1,
        "station_id": "4017"
      },
      "geometry": {
        "type": "Point",
        "coordinates": [
          120.555956,
          24.210755
        ]
      }
    },
    {
      "type": "Feature",
      "properties": {
        "feature_type": "station",
        "ref": "TXG9685",
        "name": "龍山國小(山腳里)",
        "name_en": "Longshan Elementary School(shanjiao Village)",
        "line": "352",
        "color": "#db2777",
        "direction": 1,
        "station_id": "109"
      },
      "geometry": {
        "type": "Point",
        "coordinates": [
          120.551841,
          24.213676
        ]
      }
    },
    {
      "type": "Feature",
      "properties": {
        "feature_type": "station",
        "ref": "TXG14859",
        "name": "南山腳",
        "name_en": "Nanshanjiao",
        "line": "352",
        "color": "#db2777",
        "direction": 1,
        "station_id": "1878"
      },
      "geometry": {
        "type": "Point",
        "coordinates": [
          120.550548,
          24.210539
        ]
      }
    },
    {
      "type": "Feature",
      "properties": {
        "feature_type": "station",
        "ref": "TXG9697",
        "name": "鷺山",
        "name_en": "Lushan",
        "line": "352",
        "color": "#db2777",
        "direction": 1,
        "station_id": "1876"
      },
      "geometry": {
        "type": "Point",
        "coordinates": [
          120.549293,
          24.207839
        ]
      }
    },
    {
      "type": "Feature",
      "properties": {
        "feature_type": "station",
        "ref": "TXG9698",
        "name": "龍目井",
        "name_en": "Longmujing",
        "line": "352",
        "color": "#db2777",
        "direction": 1,
        "station_id": "1874"
      },
      "geometry": {
        "type": "Point",
        "coordinates": [
          120.547974,
          24.202941
        ]
      }
    },
    {
      "type": "Feature",
      "properties": {
        "feature_type": "station",
        "ref": "TXG7881",
        "name": "龍泉",
        "name_en": "Longquan",
        "line": "352",
        "color": "#db2777",
        "direction": 1,
        "station_id": "1870"
      },
      "geometry": {
        "type": "Point",
        "coordinates": [
          120.5467,
          24.19878
        ]
      }
    },
    {
      "type": "Feature",
      "properties": {
        "feature_type": "station",
        "ref": "TXG9702",
        "name": "龍井車站",
        "name_en": "Longjing Station",
        "line": "352",
        "color": "#db2777",
        "direction": 1,
        "station_id": "1868"
      },
      "geometry": {
        "type": "Point",
        "coordinates": [
          120.546429,
          24.196888
        ]
      }
    },
    {
      "type": "Feature",
      "properties": {
        "feature_type": "station",
        "ref": "TXG9704",
        "name": "龍井區公所",
        "name_en": "Longjing District Office",
        "line": "352",
        "color": "#db2777",
        "direction": 1,
        "station_id": "1866"
      },
      "geometry": {
        "type": "Point",
        "coordinates": [
          120.545914,
          24.192352
        ]
      }
    },
    {
      "type": "Feature",
      "properties": {
        "feature_type": "station",
        "ref": "TXG9705",
        "name": "龍井加油站",
        "name_en": "Longjing Gas Station",
        "line": "352",
        "color": "#db2777",
        "direction": 1,
        "station_id": "1864"
      },
      "geometry": {
        "type": "Point",
        "coordinates": [
          120.545661,
          24.189279
        ]
      }
    },
    {
      "type": "Feature",
      "properties": {
        "feature_type": "station",
        "ref": "TXG9708",
        "name": "龍崗",
        "name_en": "Longgang",
        "line": "352",
        "color": "#db2777",
        "direction": 1,
        "station_id": "1862"
      },
      "geometry": {
        "type": "Point",
        "coordinates": [
          120.545399,
          24.186329
        ]
      }
    },
    {
      "type": "Feature",
      "properties": {
        "feature_type": "station",
        "ref": "TXG9709",
        "name": "深水",
        "name_en": "Shenshui",
        "line": "352",
        "color": "#db2777",
        "direction": 1,
        "station_id": "1860"
      },
      "geometry": {
        "type": "Point",
        "coordinates": [
          120.545412,
          24.182355
        ]
      }
    },
    {
      "type": "Feature",
      "properties": {
        "feature_type": "station",
        "ref": "TXG9710",
        "name": "村內入口",
        "name_en": "Village Entrance",
        "line": "352",
        "color": "#db2777",
        "direction": 1,
        "station_id": "1044"
      },
      "geometry": {
        "type": "Point",
        "coordinates": [
          120.544594,
          24.178915
        ]
      }
    },
    {
      "type": "Feature",
      "properties": {
        "feature_type": "station",
        "ref": "TXG9711",
        "name": "竹坑口",
        "name_en": "Zhukengkou",
        "line": "352",
        "color": "#db2777",
        "direction": 1,
        "station_id": "1857"
      },
      "geometry": {
        "type": "Point",
        "coordinates": [
          120.544004,
          24.176576
        ]
      }
    },
    {
      "type": "Feature",
      "properties": {
        "feature_type": "station",
        "ref": "TXG9713",
        "name": "沙田中華路口",
        "name_en": "Shatian-Zhonghua Intersection",
        "line": "352",
        "color": "#db2777",
        "direction": 1,
        "station_id": "2062"
      },
      "geometry": {
        "type": "Point",
        "coordinates": [
          120.543435,
          24.174285
        ]
      }
    },
    {
      "type": "Feature",
      "properties": {
        "feature_type": "station",
        "ref": "TXG9714",
        "name": "山陽一站",
        "name_en": "Shanyang 1st Stop",
        "line": "352",
        "color": "#db2777",
        "direction": 1,
        "station_id": "1853"
      },
      "geometry": {
        "type": "Point",
        "coordinates": [
          120.542264,
          24.168886
        ]
      }
    },
    {
      "type": "Feature",
      "properties": {
        "feature_type": "station",
        "ref": "TXG14872",
        "name": "山陽",
        "name_en": "Shanyang",
        "line": "352",
        "color": "#db2777",
        "direction": 1,
        "station_id": "2064"
      },
      "geometry": {
        "type": "Point",
        "coordinates": [
          120.542617,
          24.165241
        ]
      }
    },
    {
      "type": "Feature",
      "properties": {
        "feature_type": "station",
        "ref": "TXG19648",
        "name": "榮華",
        "name_en": "Ronghua",
        "line": "352",
        "color": "#db2777",
        "direction": 1,
        "station_id": "4348"
      },
      "geometry": {
        "type": "Point",
        "coordinates": [
          120.543075,
          24.16188
        ]
      }
    },
    {
      "type": "Feature",
      "properties": {
        "feature_type": "station",
        "ref": "TXG9719",
        "name": "北頂街",
        "name_en": "Beiding Street",
        "line": "352",
        "color": "#db2777",
        "direction": 1,
        "station_id": "1851"
      },
      "geometry": {
        "type": "Point",
        "coordinates": [
          120.54359,
          24.159895
        ]
      }
    },
    {
      "type": "Feature",
      "properties": {
        "feature_type": "station",
        "ref": "TXG9720",
        "name": "頂街(沙田路)",
        "name_en": "Dingjie(Shatian Road)",
        "line": "352",
        "color": "#db2777",
        "direction": 1,
        "station_id": "1849"
      },
      "geometry": {
        "type": "Point",
        "coordinates": [
          120.543757,
          24.158731
        ]
      }
    },
    {
      "type": "Feature",
      "properties": {
        "feature_type": "station",
        "ref": "TXG9721",
        "name": "大肚車站(沙田路)",
        "name_en": "Dadu Station(Shatian Road)",
        "line": "352",
        "color": "#db2777",
        "direction": 1,
        "station_id": "1847"
      },
      "geometry": {
        "type": "Point",
        "coordinates": [
          120.54419876578,
          24.154597668802
        ]
      }
    },
    {
      "type": "Feature",
      "properties": {
        "feature_type": "station",
        "ref": "TXG9728",
        "name": "大肚區公所",
        "name_en": "Dadu District Office",
        "line": "352",
        "color": "#db2777",
        "direction": 1,
        "station_id": "1845"
      },
      "geometry": {
        "type": "Point",
        "coordinates": [
          120.545277,
          24.151171
        ]
      }
    },
    {
      "type": "Feature",
      "properties": {
        "feature_type": "station",
        "ref": "TXG9731",
        "name": "大肚",
        "name_en": "Dadu",
        "line": "352",
        "color": "#db2777",
        "direction": 1,
        "station_id": "1843"
      },
      "geometry": {
        "type": "Point",
        "coordinates": [
          120.545542,
          24.150086
        ]
      }
    },
    {
      "type": "Feature",
      "properties": {
        "feature_type": "station",
        "ref": "TXG9733",
        "name": "大道國中(沙田路)",
        "name_en": "Da Dau Junior High School(Shatian Road)",
        "line": "352",
        "color": "#db2777",
        "direction": 1,
        "station_id": "1841"
      },
      "geometry": {
        "type": "Point",
        "coordinates": [
          120.546638,
          24.146089
        ]
      }
    },
    {
      "type": "Feature",
      "properties": {
        "feature_type": "station",
        "ref": "TXG9734",
        "name": "沙田自由路口",
        "name_en": "Shatian-Ziyou Intersection",
        "line": "352",
        "color": "#db2777",
        "direction": 1,
        "station_id": "1838"
      },
      "geometry": {
        "type": "Point",
        "coordinates": [
          120.547711,
          24.143726
        ]
      }
    }
  ]
}
