{
  "type": "FeatureCollection",
  "name": "31先繞西吳",
  "properties": {
    "id": "kinmen_county_31_f5338b2e11",
    "name": "31先繞西吳",
    "name_en": "31先繞西吳",
    "ref": "31先繞西吳",
    "color": "#155e75",
    "city_id": "KinmenCounty",
    "source": "TDX Bus Shape / StopOfRoute",
    "official_map_url": "http://ebus.kinmen.gov.tw/api/route/3111/map/144/image",
    "operator_id": "0001",
    "operator": "金門",
    "operator_en": "City Bus and Ferry Management Office, Kinmen County"
  },
  "features": [
    {
      "type": "Feature",
      "properties": {
        "feature_type": "route",
        "ref": "31先繞西吳",
        "name": "31先繞西吳",
        "name_en": "31先繞西吳",
        "color": "#155e75",
        "direction": 0
      },
      "geometry": {
        "type": "LineString",
        "coordinates": [
          [
            118.41285,
            24.48889
          ],
          [
            118.41314,
            24.48926
          ],
          [
            118.4128,
            24.48934
          ],
          [
            118.41247,
            24.48907
          ],
          [
            118.41606,
            24.48663
          ],
          [
            118.41954,
            24.4857
          ],
          [
            118.41992,
            24.48547
          ],
          [
            118.42429,
            24.48113
          ],
          [
            118.42676,
            24.47833
          ],
          [
            118.42752,
            24.47769
          ],
          [
            118.42852,
            24.47747
          ],
          [
            118.42881,
            24.47857
          ],
          [
            118.4297,
            24.48014
          ],
          [
            118.42983,
            24.4806
          ],
          [
            118.42925,
            24.48165
          ],
          [
            118.42914,
            24.48247
          ],
          [
            118.42876,
            24.48339
          ],
          [
            118.42871,
            24.4838
          ],
          [
            118.42885,
            24.48451
          ],
          [
            118.42887,
            24.48522
          ],
          [
            118.42866,
            24.4859
          ],
          [
            118.42864,
            24.48601
          ],
          [
            118.42873,
            24.48643
          ],
          [
            118.42917,
            24.48695
          ],
          [
            118.42928,
            24.48728
          ],
          [
            118.42924,
            24.4878
          ],
          [
            118.42933,
            24.48807
          ],
          [
            118.42941,
            24.48858
          ],
          [
            118.42917,
            24.49041
          ],
          [
            118.42892,
            24.491
          ],
          [
            118.42844,
            24.49183
          ],
          [
            118.42846,
            24.49205
          ],
          [
            118.43011,
            24.49462
          ],
          [
            118.43124,
            24.49656
          ],
          [
            118.43169,
            24.49756
          ],
          [
            118.43187,
            24.49836
          ],
          [
            118.43239,
            24.49911
          ],
          [
            118.43254,
            24.50011
          ],
          [
            118.43235,
            24.50059
          ],
          [
            118.43155,
            24.50133
          ],
          [
            118.43076,
            24.50212
          ],
          [
            118.42977,
            24.5029
          ],
          [
            118.42952,
            24.50318
          ],
          [
            118.42869,
            24.50442
          ],
          [
            118.43044,
            24.50506
          ],
          [
            118.43081,
            24.50507
          ],
          [
            118.43343,
            24.50403
          ],
          [
            118.4349,
            24.50357
          ],
          [
            118.43666,
            24.50343
          ],
          [
            118.43756,
            24.50417
          ],
          [
            118.43815,
            24.50341
          ],
          [
            118.43926,
            24.50296
          ],
          [
            118.43964,
            24.503050000000002
          ],
          [
            118.44006,
            24.50331
          ],
          [
            118.44114,
            24.50334
          ],
          [
            118.44178,
            24.50282
          ],
          [
            118.44267,
            24.50226
          ],
          [
            118.44307,
            24.50132
          ],
          [
            118.44264,
            24.50062
          ],
          [
            118.44285,
            24.50027
          ],
          [
            118.44322,
            24.50003
          ],
          [
            118.44344,
            24.49978
          ],
          [
            118.44356,
            24.4993
          ],
          [
            118.44412,
            24.4984
          ],
          [
            118.44392,
            24.49713
          ],
          [
            118.44391,
            24.49632
          ],
          [
            118.44406,
            24.49595
          ],
          [
            118.44486,
            24.49529
          ],
          [
            118.44515,
            24.49446
          ],
          [
            118.44525,
            24.49361
          ],
          [
            118.44449,
            24.49134
          ],
          [
            118.44365,
            24.49055
          ],
          [
            118.44321,
            24.48969
          ],
          [
            118.44196,
            24.48878
          ],
          [
            118.44129,
            24.48868
          ],
          [
            118.44076,
            24.48844
          ],
          [
            118.44039,
            24.48761
          ],
          [
            118.4397,
            24.48687
          ],
          [
            118.43946,
            24.48597
          ],
          [
            118.43835,
            24.48395
          ],
          [
            118.43765,
            24.48343
          ],
          [
            118.43695,
            24.48323
          ],
          [
            118.43583,
            24.48244
          ],
          [
            118.43532,
            24.48209
          ],
          [
            118.4337,
            24.48161
          ],
          [
            118.43312,
            24.4816
          ],
          [
            118.43227,
            24.48145
          ],
          [
            118.43183,
            24.48094
          ],
          [
            118.43078,
            24.4802
          ],
          [
            118.42919,
            24.47918
          ],
          [
            118.42878,
            24.4786
          ],
          [
            118.4285,
            24.47751
          ],
          [
            118.42755,
            24.4777
          ],
          [
            118.42679,
            24.47834
          ],
          [
            118.42429,
            24.48117
          ],
          [
            118.41995,
            24.48551
          ],
          [
            118.41955,
            24.48574
          ],
          [
            118.41608,
            24.48664
          ],
          [
            118.41285,
            24.48885
          ],
          [
            118.41313,
            24.48921
          ]
        ]
      }
    },
    {
      "type": "Feature",
      "properties": {
        "feature_type": "station",
        "ref": "KIN3111-4501",
        "name": "沙美站",
        "name_en": "Shamei Station",
        "line": "31先繞西吳",
        "color": "#155e75",
        "direction": 0
      },
      "geometry": {
        "type": "Point",
        "coordinates": [
          118.41298374884,
          24.488861816123
        ]
      }
    },
    {
      "type": "Feature",
      "properties": {
        "feature_type": "station",
        "ref": "KIN3111-4503",
        "name": "后浦頭",
        "name_en": "Houputou",
        "line": "31先繞西吳",
        "color": "#155e75",
        "direction": 0
      },
      "geometry": {
        "type": "Point",
        "coordinates": [
          118.41479955133,
          24.487405058177
        ]
      }
    },
    {
      "type": "Feature",
      "properties": {
        "feature_type": "station",
        "ref": "KIN3111-4505",
        "name": "后水頭",
        "name_en": "Houshuitou",
        "line": "31先繞西吳",
        "color": "#155e75",
        "direction": 0
      },
      "geometry": {
        "type": "Point",
        "coordinates": [
          118.41728217985,
          24.486222060986
        ]
      }
    },
    {
      "type": "Feature",
      "properties": {
        "feature_type": "station",
        "ref": "KIN3111-4507",
        "name": "東蕭",
        "name_en": "Dongxiao",
        "line": "31先繞西吳",
        "color": "#155e75",
        "direction": 0
      },
      "geometry": {
        "type": "Point",
        "coordinates": [
          118.4184412077,
          24.485937620919
        ]
      }
    },
    {
      "type": "Feature",
      "properties": {
        "feature_type": "station",
        "ref": "KIN3111-4509",
        "name": "蔡店",
        "name_en": "Caidian",
        "line": "31先繞西吳",
        "color": "#155e75",
        "direction": 0
      },
      "geometry": {
        "type": "Point",
        "coordinates": [
          118.42044967247,
          24.484863598644
        ]
      }
    },
    {
      "type": "Feature",
      "properties": {
        "feature_type": "station",
        "ref": "KIN3111-4511",
        "name": "金沙公墓",
        "name_en": "Jinsha Cemetary",
        "line": "31先繞西吳",
        "color": "#155e75",
        "direction": 0
      },
      "geometry": {
        "type": "Point",
        "coordinates": [
          118.42317112678,
          24.482118322562
        ]
      }
    },
    {
      "type": "Feature",
      "properties": {
        "feature_type": "station",
        "ref": "KIN3111-41022",
        "name": "陽翟一",
        "name_en": "YangZhai 1",
        "line": "31先繞西吳",
        "color": "#155e75",
        "direction": 0
      },
      "geometry": {
        "type": "Point",
        "coordinates": [
          118.42414577193,
          24.481131566536
        ]
      }
    },
    {
      "type": "Feature",
      "properties": {
        "feature_type": "station",
        "ref": "KIN3111-4555",
        "name": "陽翟",
        "name_en": "YangZhai",
        "line": "31先繞西吳",
        "color": "#155e75",
        "direction": 0
      },
      "geometry": {
        "type": "Point",
        "coordinates": [
          118.42687556176,
          24.478111129149
        ]
      }
    },
    {
      "type": "Feature",
      "properties": {
        "feature_type": "station",
        "ref": "KIN3111-4515",
        "name": "陽翟東",
        "name_en": "YangZhaidong",
        "line": "31先繞西吳",
        "color": "#155e75",
        "direction": 0
      },
      "geometry": {
        "type": "Point",
        "coordinates": [
          118.42925151292,
          24.479057130721
        ]
      }
    },
    {
      "type": "Feature",
      "properties": {
        "feature_type": "station",
        "ref": "KIN3111-4551",
        "name": "西吳",
        "name_en": "Xiwu",
        "line": "31先繞西吳",
        "color": "#155e75",
        "direction": 0
      },
      "geometry": {
        "type": "Point",
        "coordinates": [
          118.42880845442,
          24.485739011657
        ]
      }
    },
    {
      "type": "Feature",
      "properties": {
        "feature_type": "station",
        "ref": "KIN3111-4549",
        "name": "東珩",
        "name_en": "Dongheng",
        "line": "31先繞西吳",
        "color": "#155e75",
        "direction": 0
      },
      "geometry": {
        "type": "Point",
        "coordinates": [
          118.42942039958,
          24.488164234027
        ]
      }
    },
    {
      "type": "Feature",
      "properties": {
        "feature_type": "station",
        "ref": "KIN3111-4545",
        "name": "東山前一",
        "name_en": "DongShangqian 1",
        "line": "31先繞西吳",
        "color": "#155e75",
        "direction": 0
      },
      "geometry": {
        "type": "Point",
        "coordinates": [
          118.42901607616,
          24.490958205623
        ]
      }
    },
    {
      "type": "Feature",
      "properties": {
        "feature_type": "station",
        "ref": "KIN3111-4543",
        "name": "西山前",
        "name_en": "Xishanqian",
        "line": "31先繞西吳",
        "color": "#155e75",
        "direction": 0
      },
      "geometry": {
        "type": "Point",
        "coordinates": [
          118.42862202827,
          24.492190897835
        ]
      }
    },
    {
      "type": "Feature",
      "properties": {
        "feature_type": "station",
        "ref": "KIN3111-4541",
        "name": "西山前一",
        "name_en": "Xishanqian 1",
        "line": "31先繞西吳",
        "color": "#155e75",
        "direction": 0
      },
      "geometry": {
        "type": "Point",
        "coordinates": [
          118.42929697959,
          24.49329552565
        ]
      }
    },
    {
      "type": "Feature",
      "properties": {
        "feature_type": "station",
        "ref": "KIN3111-4535",
        "name": "山西二",
        "name_en": "Shanxi 2",
        "line": "31先繞西吳",
        "color": "#155e75",
        "direction": 0
      },
      "geometry": {
        "type": "Point",
        "coordinates": [
          118.43077561398,
          24.502160870423
        ]
      }
    },
    {
      "type": "Feature",
      "properties": {
        "feature_type": "station",
        "ref": "KIN3111-4533",
        "name": "山西一",
        "name_en": "Shanxi 1",
        "line": "31先繞西吳",
        "color": "#155e75",
        "direction": 0
      },
      "geometry": {
        "type": "Point",
        "coordinates": [
          118.42896467617,
          24.504150777113
        ]
      }
    },
    {
      "type": "Feature",
      "properties": {
        "feature_type": "station",
        "ref": "KIN3111-5037",
        "name": "獅山",
        "name_en": "Shi Mountain",
        "line": "31先繞西吳",
        "color": "#155e75",
        "direction": 0
      },
      "geometry": {
        "type": "Point",
        "coordinates": [
          118.43697434896,
          24.503581685338
        ]
      }
    },
    {
      "type": "Feature",
      "properties": {
        "feature_type": "station",
        "ref": "KIN3111-4527",
        "name": "山后",
        "name_en": "ShanHou",
        "line": "31先繞西吳",
        "color": "#155e75",
        "direction": 0
      },
      "geometry": {
        "type": "Point",
        "coordinates": [
          118.44009316889,
          24.503250006797
        ]
      }
    },
    {
      "type": "Feature",
      "properties": {
        "feature_type": "station",
        "ref": "KIN3111-4525",
        "name": "民俗文化村",
        "name_en": "Folk Culture Village",
        "line": "31先繞西吳",
        "color": "#155e75",
        "direction": 0
      },
      "geometry": {
        "type": "Point",
        "coordinates": [
          118.44107479178,
          24.503302613765
        ]
      }
    },
    {
      "type": "Feature",
      "properties": {
        "feature_type": "station",
        "ref": "KIN3111-4521",
        "name": "碧山一",
        "name_en": "Bishan 1",
        "line": "31先繞西吳",
        "color": "#155e75",
        "direction": 0
      },
      "geometry": {
        "type": "Point",
        "coordinates": [
          118.4396289552,
          24.486890384364
        ]
      }
    },
    {
      "type": "Feature",
      "properties": {
        "feature_type": "station",
        "ref": "KIN3111-4519",
        "name": "碧山",
        "name_en": "Bishan",
        "line": "31先繞西吳",
        "color": "#155e75",
        "direction": 0
      },
      "geometry": {
        "type": "Point",
        "coordinates": [
          118.43936503394,
          24.486095018041
        ]
      }
    },
    {
      "type": "Feature",
      "properties": {
        "feature_type": "station",
        "ref": "KIN3111-4517",
        "name": "安瀾國小",
        "name_en": "An Lan Elementary School",
        "line": "31先繞西吳",
        "color": "#155e75",
        "direction": 0
      },
      "geometry": {
        "type": "Point",
        "coordinates": [
          118.43636000707,
          24.482978925874
        ]
      }
    },
    {
      "type": "Feature",
      "properties": {
        "feature_type": "station",
        "ref": "KIN3111-4553",
        "name": "陽翟東",
        "name_en": "YangZhaidong",
        "line": "31先繞西吳",
        "color": "#155e75",
        "direction": 0
      },
      "geometry": {
        "type": "Point",
        "coordinates": [
          118.4288633474,
          24.478898549268
        ]
      }
    },
    {
      "type": "Feature",
      "properties": {
        "feature_type": "station",
        "ref": "KIN3111-4513",
        "name": "陽翟",
        "name_en": "YangZhai",
        "line": "31先繞西吳",
        "color": "#155e75",
        "direction": 0
      },
      "geometry": {
        "type": "Point",
        "coordinates": [
          118.42625327048,
          24.479017040808
        ]
      }
    },
    {
      "type": "Feature",
      "properties": {
        "feature_type": "station",
        "ref": "KIN3111-4557",
        "name": "金沙公墓",
        "name_en": "Jinsha Cemetary",
        "line": "31先繞西吳",
        "color": "#155e75",
        "direction": 0
      },
      "geometry": {
        "type": "Point",
        "coordinates": [
          118.42331722867,
          24.482237684164
        ]
      }
    },
    {
      "type": "Feature",
      "properties": {
        "feature_type": "station",
        "ref": "KIN3111-4559",
        "name": "蔡店",
        "name_en": "Caidian",
        "line": "31先繞西吳",
        "color": "#155e75",
        "direction": 0
      },
      "geometry": {
        "type": "Point",
        "coordinates": [
          118.42053840113,
          24.484997616686
        ]
      }
    },
    {
      "type": "Feature",
      "properties": {
        "feature_type": "station",
        "ref": "KIN3111-4561",
        "name": "東蕭",
        "name_en": "Dongxiao",
        "line": "31先繞西吳",
        "color": "#155e75",
        "direction": 0
      },
      "geometry": {
        "type": "Point",
        "coordinates": [
          118.41848454728,
          24.486086241855
        ]
      }
    },
    {
      "type": "Feature",
      "properties": {
        "feature_type": "station",
        "ref": "KIN3111-4563",
        "name": "后水頭",
        "name_en": "Houshuitou",
        "line": "31先繞西吳",
        "color": "#155e75",
        "direction": 0
      },
      "geometry": {
        "type": "Point",
        "coordinates": [
          118.41733120997,
          24.486383863436
        ]
      }
    },
    {
      "type": "Feature",
      "properties": {
        "feature_type": "station",
        "ref": "KIN3111-4565",
        "name": "后浦頭",
        "name_en": "Houputou",
        "line": "31先繞西吳",
        "color": "#155e75",
        "direction": 0
      },
      "geometry": {
        "type": "Point",
        "coordinates": [
          118.41488409643,
          24.487534796249
        ]
      }
    },
    {
      "type": "Feature",
      "properties": {
        "feature_type": "station",
        "ref": "KIN3111-4567",
        "name": "沙美站",
        "name_en": "Shamei Station",
        "line": "31先繞西吳",
        "color": "#155e75",
        "direction": 0
      },
      "geometry": {
        "type": "Point",
        "coordinates": [
          118.41298374884,
          24.488861816123
        ]
      }
    }
  ]
}
