{
  "type": "FeatureCollection",
  "name": "黃25",
  "properties": {
    "id": "taichung_huang25",
    "name": "黃25",
    "name_en": "黃25",
    "ref": "黃25",
    "color": "#1d4ed8",
    "city_id": "Taichung",
    "source": "TDX Bus Shape / StopOfRoute",
    "operator_id": "8102",
    "operator": "怡美車隊",
    "official_map_url": "https://citybus.taichung.gov.tw/ebus/strapi/uploads/25_1150806_70fd4d4597.jpeg"
  },
  "features": [
    {
      "type": "Feature",
      "properties": {
        "feature_type": "route",
        "ref": "黃25",
        "name": "黃25",
        "name_en": "黃25",
        "color": "#1d4ed8",
        "direction": 0
      },
      "geometry": {
        "type": "LineString",
        "coordinates": [
          [
            120.63448,
            24.11014
          ],
          [
            120.63558705250878,
            24.11076264541315
          ],
          [
            120.63561217456342,
            24.110773374112416
          ],
          [
            120.63563895525559,
            24.11077840019678
          ],
          [
            120.63566627568949,
            24.11077763264471
          ],
          [
            120.63569267246325,
            24.11077111256965
          ],
          [
            120.63571673165033,
            24.110759189215333
          ],
          [
            120.63573743854974,
            24.110742218012838
          ],
          [
            120.63607,
            24.1104
          ],
          [
            120.63662231641858,
            24.110792920617882
          ],
          [
            120.63665266695148,
            24.11080869462077
          ],
          [
            120.63668630415759,
            24.110815608734637
          ],
          [
            120.6367206805753,
            24.110813301119283
          ],
          [
            120.63675286809762,
            24.11080196833226
          ],
          [
            120.6367801250629,
            24.110782575675206
          ],
          [
            120.63680028247803,
            24.110756499899317
          ],
          [
            120.6376,
            24.10932
          ],
          [
            120.63809,
            24.10784
          ],
          [
            120.63539,
            24.10698
          ],
          [
            120.63423718495667,
            24.106515206234768
          ],
          [
            120.63421353355672,
            24.106502390401804
          ],
          [
            120.6341935461414,
            24.10648468323362
          ],
          [
            120.63417860733983,
            24.10646317652031
          ],
          [
            120.63416954252007,
            24.106439058506655
          ],
          [
            120.63416685251288,
            24.106413661711628
          ],
          [
            120.63417063456716,
            24.106388569870422
          ],
          [
            120.63437,
            24.10569
          ],
          [
            120.6347,
            24.1052
          ],
          [
            120.63528,
            24.10454
          ],
          [
            120.63558,
            24.10435
          ],
          [
            120.63629,
            24.10423
          ],
          [
            120.63793,
            24.1044
          ],
          [
            120.6386,
            24.10456
          ],
          [
            120.63988,
            24.1051
          ],
          [
            120.64065,
            24.10398
          ],
          [
            120.64092,
            24.10386
          ],
          [
            120.64117,
            24.10384
          ],
          [
            120.64115,
            24.10318
          ],
          [
            120.64158519337184,
            24.10317033821649
          ],
          [
            120.64162232328871,
            24.103163950495173
          ],
          [
            120.64165537544945,
            24.103147100905367
          ],
          [
            120.64168094434488,
            24.103121515705816
          ],
          [
            120.64169641109747,
            24.103089815444037
          ],
          [
            120.64170019153505,
            24.103055246998817
          ],
          [
            120.64169200497444,
            24.103021595470878
          ],
          [
            120.6409,
            24.10121
          ],
          [
            120.64072,
            24.09994
          ],
          [
            120.64033,
            24.09829
          ],
          [
            120.64164286580163,
            24.098138517399722
          ],
          [
            120.64167613604917,
            24.09812996621742
          ],
          [
            120.64170536858599,
            24.09811286776588
          ],
          [
            120.64172794464295,
            24.098088705847353
          ],
          [
            120.64174192070969,
            24.098059560494605
          ],
          [
            120.64174609362531,
            24.098027940750466
          ],
          [
            120.64174018218752,
            24.0979967849656
          ],
          [
            120.64143,
            24.09714
          ],
          [
            120.6411229646754,
            24.096759235664894
          ],
          [
            120.64110478507094,
            24.096725359634046
          ],
          [
            120.64110035979523,
            24.096687444145278
          ],
          [
            120.64111047005927,
            24.096650461053407
          ],
          [
            120.64113386835488,
            24.096618973712
          ],
          [
            120.64116766756015,
            24.096596867352503
          ],
          [
            120.64120762393061,
            24.096586875687443
          ],
          [
            120.64166,
            24.09655
          ],
          [
            120.64158,
            24.095580000000002
          ],
          [
            120.64207,
            24.09508
          ],
          [
            120.64255,
            24.09415
          ],
          [
            120.64422,
            24.08743
          ],
          [
            120.64398,
            24.08464
          ],
          [
            120.64387,
            24.08364
          ],
          [
            120.64169,
            24.08353
          ],
          [
            120.63944,
            24.08347
          ],
          [
            120.63907,
            24.0825
          ],
          [
            120.639,
            24.08206
          ],
          [
            120.6384,
            24.08092
          ],
          [
            120.63819,
            24.08034
          ],
          [
            120.63798,
            24.08002
          ],
          [
            120.63781,
            24.07962
          ],
          [
            120.63768,
            24.07934
          ],
          [
            120.63741676672518,
            24.0784915226624
          ],
          [
            120.63740359318464,
            24.078464007822774
          ],
          [
            120.63738287829568,
            24.07844100522768
          ],
          [
            120.63735613016733,
            24.078424062725087
          ],
          [
            120.63732537307176,
            24.078414462507
          ],
          [
            120.63729293467584,
            24.078412931108513
          ],
          [
            120.63726101188162,
            24.078419674803527
          ],
          [
            120.63617,
            24.0788
          ],
          [
            120.63585235641365,
            24.078786812586237
          ],
          [
            120.63581615687175,
            24.07877997034952
          ],
          [
            120.63578400175382,
            24.078763152395567
          ],
          [
            120.63575908530068,
            24.078738011281718
          ],
          [
            120.63574385350887,
            24.078707015059
          ],
          [
            120.63573980165185,
            24.078673206562332
          ],
          [
            120.63574723051099,
            24.078640140656415
          ],
          [
            120.63644,
            24.07696
          ],
          [
            120.63564,
            24.07561
          ],
          [
            120.6352317942621,
            24.07509075113742
          ],
          [
            120.63522748347538,
            24.07508235197647
          ],
          [
            120.6352267043361,
            24.075073007583818
          ],
          [
            120.63522961463644,
            24.075064025907853
          ],
          [
            120.6352358287128,
            24.075056597171194
          ],
          [
            120.6352445230959,
            24.07505170580595
          ],
          [
            120.63525454563421,
            24.07505
          ],
          [
            120.63534564503962,
            24.07505
          ],
          [
            120.6353572387335,
            24.075050964171407
          ],
          [
            120.63536845611527,
            24.075053825390224
          ],
          [
            120.63537893308727,
            24.075058490786013
          ],
          [
            120.6353883295843,
            24.075064808927753
          ],
          [
            120.6353963406116,
            24.07507257473901
          ],
          [
            120.63540279402828,
            24.075081688830718
          ],
          [
            120.63613,
            24.07634
          ],
          [
            120.63788,
            24.07658
          ],
          [
            120.63818,
            24.07656
          ],
          [
            120.6394621890401,
            24.076747685088318
          ],
          [
            120.63948280483444,
            24.07674904065303
          ],
          [
            120.6395032348237,
            24.076747092617737
          ],
          [
            120.63952298850104,
            24.07674191870735
          ],
          [
            120.63954146806614,
            24.076733675498538
          ],
          [
            120.63955811427685,
            24.07672261245334
          ],
          [
            120.63957267947362,
            24.076708774423082
          ],
          [
            120.63982,
            24.07643
          ],
          [
            120.6406,
            24.07661
          ],
          [
            120.64111,
            24.07668
          ],
          [
            120.64165,
            24.07684
          ],
          [
            120.64184,
            24.0768
          ],
          [
            120.64209,
            24.07669
          ],
          [
            120.64293615819453,
            24.076288353617016
          ],
          [
            120.64295534589036,
            24.076276876287775
          ],
          [
            120.64297198310514,
            24.07626197212454
          ],
          [
            120.64298512473546,
            24.07624436151425
          ],
          [
            120.64299426213351,
            24.07622472607693
          ],
          [
            120.6429990416356,
            24.07620382580367
          ],
          [
            120.64299928471442,
            24.07618253622721
          ],
          [
            120.64292,
            24.07536
          ],
          [
            120.64254,
            24.07033
          ],
          [
            120.64206,
            24.06808
          ],
          [
            120.64208,
            24.06724
          ],
          [
            120.64248,
            24.06569
          ],
          [
            120.6423,
            24.06489
          ],
          [
            120.64227,
            24.06437
          ],
          [
            120.64249,
            24.06367
          ],
          [
            120.64309,
            24.06223
          ],
          [
            120.64391,
            24.06048
          ],
          [
            120.64428,
            24.05985
          ],
          [
            120.64495,
            24.05923
          ],
          [
            120.64759,
            24.05786
          ],
          [
            120.64798575780016,
            24.05786
          ],
          [
            120.64801133775637,
            24.05785742085832
          ],
          [
            120.6480357022455,
            24.057849805984763
          ],
          [
            120.64805769355503,
            24.057837517210608
          ],
          [
            120.64807626673742,
            24.05782113845401
          ],
          [
            120.6480905392621,
            24.0578014479743
          ],
          [
            120.64809988583636,
            24.057779198487665
          ],
          [
            120.64843,
            24.05664
          ],
          [
            120.64831,
            24.05656
          ],
          [
            120.64870221045088,
            24.05598583788345
          ],
          [
            120.64871633641496,
            24.055955485607083
          ],
          [
            120.64871986728383,
            24.055922289780803
          ],
          [
            120.64871227196893,
            24.05588967504236
          ],
          [
            120.64869426747893,
            24.055860720270157
          ],
          [
            120.64866755346367,
            24.05583815883652
          ],
          [
            120.64863486433387,
            24.055824177000073
          ],
          [
            120.6479,
            24.05563
          ],
          [
            120.6470352072426,
            24.05516290502879
          ],
          [
            120.64700061454212,
            24.05515033050699
          ],
          [
            120.64696384591903,
            24.055148246507088
          ],
          [
            120.64692816904073,
            24.055156686162064
          ],
          [
            120.64689705814105,
            24.055174827613733
          ],
          [
            120.64687354281628,
            24.055200904237665
          ],
          [
            120.64685987407093,
            24.05523253636503
          ],
          [
            120.64648916039918,
            24.056740638975462
          ],
          [
            120.64647673256526,
            24.05677029881865
          ],
          [
            120.6464556241394,
            24.056795264019115
          ],
          [
            120.64642758721683,
            24.056813575726864
          ],
          [
            120.64639500098033,
            24.056823680030256
          ],
          [
            120.6463606306626,
            24.05682471948906
          ],
          [
            120.64632711579848,
            24.056816496146585
          ],
          [
            120.64436,
            24.05604
          ],
          [
            120.64338,
            24.05442
          ],
          [
            120.64235,
            24.05315
          ],
          [
            120.64001,
            24.051
          ],
          [
            120.63787,
            24.0492
          ],
          [
            120.63533,
            24.04731
          ],
          [
            120.63375,
            24.04624
          ],
          [
            120.63209601115452,
            24.045303362504058
          ],
          [
            120.63207614103375,
            24.045289117254736
          ],
          [
            120.63205980526746,
            24.045271034062154
          ],
          [
            120.63204808577107,
            24.045250140507573
          ],
          [
            120.6320415321871,
            24.04522741649533
          ],
          [
            120.63204045187759,
            24.04520392777793
          ],
          [
            120.63204483360445,
            24.045180972074785
          ],
          [
            120.63277,
            24.04289
          ],
          [
            120.6338,
            24.03886
          ],
          [
            120.63414,
            24.03831
          ],
          [
            120.63485,
            24.03637
          ],
          [
            120.63633,
            24.03407
          ],
          [
            120.63739,
            24.03344
          ],
          [
            120.63861,
            24.03326
          ],
          [
            120.64027,
            24.03072
          ],
          [
            120.64164,
            24.03006
          ],
          [
            120.64323,
            24.02915
          ],
          [
            120.64380366408058,
            24.02869969705993
          ],
          [
            120.64384120967571,
            24.028679646047234
          ],
          [
            120.64388368725945,
            24.028673427923447
          ],
          [
            120.6439257665668,
            24.02868162280094
          ],
          [
            120.64396185901796,
            24.028703142312775
          ],
          [
            120.6439871711514,
            24.028735128438807
          ],
          [
            120.64399834613852,
            24.028773393108644
          ],
          [
            120.64418,
            24.03087
          ],
          [
            120.64388,
            24.03398
          ],
          [
            120.64333,
            24.03497
          ],
          [
            120.64362,
            24.03729
          ],
          [
            120.64385,
            24.0379
          ],
          [
            120.64196,
            24.04044
          ],
          [
            120.64093,
            24.04049
          ],
          [
            120.64023,
            24.04073
          ]
        ]
      }
    },
    {
      "type": "Feature",
      "properties": {
        "feature_type": "route",
        "ref": "黃25",
        "name": "黃25",
        "name_en": "黃25",
        "color": "#1d4ed8",
        "direction": 1
      },
      "geometry": {
        "type": "LineString",
        "coordinates": [
          [
            120.64021,
            24.04071
          ],
          [
            120.6409,
            24.04049
          ],
          [
            120.64193,
            24.04044
          ],
          [
            120.64382,
            24.0379
          ],
          [
            120.64359,
            24.03729
          ],
          [
            120.64331,
            24.035
          ],
          [
            120.64333,
            24.03485
          ],
          [
            120.64381,
            24.03411
          ],
          [
            120.64389,
            24.03358
          ],
          [
            120.64415,
            24.03087
          ],
          [
            120.64396834579131,
            24.02877339290567
          ],
          [
            120.64395717061468,
            24.028735128280616
          ],
          [
            120.64393185858637,
            24.028703142138053
          ],
          [
            120.64389576623645,
            24.028681622562587
          ],
          [
            120.6438536870025,
            24.02867342757654
          ],
          [
            120.64381120944222,
            24.028679645558864
          ],
          [
            120.64377366392323,
            24.028699696543256
          ],
          [
            120.6432,
            24.02915
          ],
          [
            120.64161,
            24.03006
          ],
          [
            120.64024,
            24.03072
          ],
          [
            120.63858,
            24.03326
          ],
          [
            120.63736,
            24.03344
          ],
          [
            120.6363,
            24.03407
          ],
          [
            120.63482,
            24.03637
          ],
          [
            120.63411,
            24.03831
          ],
          [
            120.63377,
            24.03886
          ],
          [
            120.63274,
            24.04289
          ],
          [
            120.63201483424263,
            24.04518097150253
          ],
          [
            120.63201045229198,
            24.04520392732594
          ],
          [
            120.63201153253608,
            24.04522741621198
          ],
          [
            120.63201808613364,
            24.04525014039259
          ],
          [
            120.63202980571764,
            24.045271034092323
          ],
          [
            120.63204614163372,
            24.04528911738621
          ],
          [
            120.63206601197427,
            24.045303362640762
          ],
          [
            120.63372,
            24.04624
          ],
          [
            120.6353,
            24.04731
          ],
          [
            120.63784,
            24.0492
          ],
          [
            120.63998,
            24.051
          ],
          [
            120.64232,
            24.05315
          ],
          [
            120.64335,
            24.05442
          ],
          [
            120.64433,
            24.05604
          ],
          [
            120.64627843198737,
            24.05680907720982
          ],
          [
            120.64631099289186,
            24.05681719620994
          ],
          [
            120.64634442378716,
            24.05681655980599
          ],
          [
            120.64637631953336,
            24.05680732883732
          ],
          [
            120.64640412109796,
            24.056790243915202
          ],
          [
            120.64642559792932,
            24.056766675782658
          ],
          [
            120.64643908407706,
            24.05673832610444
          ],
          [
            120.64688416963968,
            24.05526663427282
          ],
          [
            120.64689887500067,
            24.05523652965204
          ],
          [
            120.64692257281312,
            24.055212004875532
          ],
          [
            120.6469531557152,
            24.055195110514717
          ],
          [
            120.64698783040235,
            24.05518738962439
          ],
          [
            120.64702342984495,
            24.05518954739589
          ],
          [
            120.64705701355918,
            24.05520155152129
          ],
          [
            120.64787,
            24.05563
          ],
          [
            120.64806,
            24.05568
          ],
          [
            120.64846,
            24.05558
          ],
          [
            120.64840728517595,
            24.055595714353476
          ],
          [
            120.64839715924532,
            24.055600473590772
          ],
          [
            120.64838905058998,
            24.055607904352197
          ],
          [
            120.64838381594127,
            24.055617266292163
          ],
          [
            120.64838196141204,
            24.05562765424999
          ],
          [
            120.64838366630774,
            24.05563806386431
          ],
          [
            120.64838869524021,
            24.055647397051427
          ],
          [
            120.64853,
            24.05583
          ],
          [
            120.64871,
            24.05593
          ],
          [
            120.64828,
            24.05656
          ],
          [
            120.6484,
            24.05664
          ],
          [
            120.64811,
            24.05764
          ],
          [
            120.64771,
            24.05786
          ],
          [
            120.64766,
            24.05795
          ],
          [
            120.645,
            24.05932
          ],
          [
            120.64455,
            24.05964
          ],
          [
            120.64413,
            24.06007
          ],
          [
            120.64346493818707,
            24.06135400083895
          ],
          [
            120.64346176767975,
            24.061363415987042
          ],
          [
            120.64346159348464,
            24.06137336517067
          ],
          [
            120.64346447410124,
            24.06138295659175
          ],
          [
            120.64347017623324,
            24.061391413457113
          ],
          [
            120.64347823807447,
            24.061398050859356
          ],
          [
            120.64348793405418,
            24.0614023103643
          ],
          [
            120.64355,
            24.06142
          ],
          [
            120.64348,
            24.0614
          ],
          [
            120.64306,
            24.06223
          ],
          [
            120.64248346655604,
            24.063613283494764
          ],
          [
            120.64248053498521,
            24.06362635798667
          ],
          [
            120.64248226055474,
            24.063639710301914
          ],
          [
            120.64248850305886,
            24.06365186974343
          ],
          [
            120.64249861773193,
            24.06366158040652
          ],
          [
            120.64251155986595,
            24.06366783931194
          ],
          [
            120.6425259927149,
            24.06367
          ],
          [
            120.64259,
            24.06367
          ],
          [
            120.64232431226934,
            24.06367
          ],
          [
            120.64229275467201,
            24.063673950273902
          ],
          [
            120.64226349374867,
            24.063685513605698
          ],
          [
            120.64223865902774,
            24.06370384844832
          ],
          [
            120.64222005791102,
            24.06372762044302
          ],
          [
            120.64220904413592,
            24.063755099530287
          ],
          [
            120.64220641706208,
            24.06378424583029
          ],
          [
            120.64227,
            24.06489
          ],
          [
            120.64245,
            24.06569
          ],
          [
            120.6425,
            24.0657
          ],
          [
            120.64245,
            24.06569
          ],
          [
            120.64208,
            24.06707
          ],
          [
            120.642,
            24.0677
          ],
          [
            120.64203,
            24.06808
          ],
          [
            120.64251,
            24.07033
          ],
          [
            120.64275,
            24.07291
          ],
          [
            120.64288,
            24.0753
          ],
          [
            120.64293,
            24.07564
          ],
          [
            120.64262,
            24.07646
          ],
          [
            120.64232,
            24.07656
          ],
          [
            120.64201,
            24.07669
          ],
          [
            120.64174,
            24.0768
          ],
          [
            120.64152,
            24.07684
          ],
          [
            120.64105,
            24.07667
          ],
          [
            120.63935,
            24.07674
          ],
          [
            120.63816,
            24.07656
          ],
          [
            120.63783,
            24.07658
          ],
          [
            120.63603,
            24.07632
          ],
          [
            120.63518,
            24.07502
          ],
          [
            120.63522999999999,
            24.07501
          ],
          [
            120.63609,
            24.07636
          ],
          [
            120.63638,
            24.07694
          ],
          [
            120.6361,
            24.07755
          ],
          [
            120.63572639571267,
            24.078719634229216
          ],
          [
            120.63572208842142,
            24.078758958650155
          ],
          [
            120.63573347535502,
            24.07879727967001
          ],
          [
            120.6357590943848,
            24.07882926840747
          ],
          [
            120.63579551486046,
            24.078850641243267
          ],
          [
            120.6358378597077,
            24.078858536136
          ],
          [
            120.63588071130411,
            24.078851810306432
          ],
          [
            120.63725110155562,
            24.078389657468026
          ],
          [
            120.63728270236403,
            24.078383277427456
          ],
          [
            120.63731473642176,
            24.078384975466964
          ],
          [
            120.6373450902992,
            24.078394540797163
          ],
          [
            120.63737152221807,
            24.078411266972886
          ],
          [
            120.63739208005528,
            24.078433918686436
          ],
          [
            120.63740530858882,
            24.0784610209809
          ],
          [
            120.6377,
            24.07938
          ],
          [
            120.638,
            24.08003
          ],
          [
            120.63822,
            24.08043
          ],
          [
            120.63843,
            24.08097
          ],
          [
            120.63878,
            24.08157
          ],
          [
            120.63904,
            24.08216
          ],
          [
            120.63908,
            24.08252
          ],
          [
            120.63939376447907,
            24.083377732287165
          ],
          [
            120.63940376555692,
            24.083398047186343
          ],
          [
            120.63941790312141,
            24.083415883876608
          ],
          [
            120.63943567227261,
            24.083430723095773
          ],
          [
            120.63945633856878,
            24.083441951503232
          ],
          [
            120.63947904782218,
            24.083449105001904
          ],
          [
            120.63950284092128,
            24.083451887454054
          ],
          [
            120.64163,
            24.0835
          ],
          [
            120.64396,
            24.0836
          ],
          [
            120.64432,
            24.08722
          ],
          [
            120.64429,
            24.08763
          ],
          [
            120.64405,
            24.08838
          ],
          [
            120.64302,
            24.09278
          ],
          [
            120.64254,
            24.09439
          ],
          [
            120.64219,
            24.09504
          ],
          [
            120.64157,
            24.09571
          ],
          [
            120.64165,
            24.09654
          ],
          [
            120.6411976241273,
            24.096576875675375
          ],
          [
            120.64115766767341,
            24.096586867325193
          ],
          [
            120.64112386840561,
            24.096608973727594
          ],
          [
            120.64110047009041,
            24.096640461144816
          ],
          [
            120.64109035986334,
            24.09667744432103
          ],
          [
            120.64109478523282,
            24.09671535987464
          ],
          [
            120.64111296504858,
            24.096749235873656
          ],
          [
            120.64142,
            24.09713
          ],
          [
            120.64173018215155,
            24.0979867846762
          ],
          [
            120.64173609379314,
            24.09801794048715
          ],
          [
            120.6417319209363,
            24.098049560312298
          ],
          [
            120.64171794487919,
            24.09807870574933
          ],
          [
            120.64169536878745,
            24.098102867736486
          ],
          [
            120.64166613618349,
            24.098119966225447
          ],
          [
            120.64163286585121,
            24.09812851739136
          ],
          [
            120.64032,
            24.09828
          ],
          [
            120.64071,
            24.09993
          ],
          [
            120.64089,
            24.1012
          ],
          [
            120.64168200553301,
            24.103011594840844
          ],
          [
            120.64169019244514,
            24.103045246413423
          ],
          [
            120.64168641216624,
            24.103079815008513
          ],
          [
            120.64167094547035,
            24.10311151544065
          ],
          [
            120.64164537653606,
            24.103137100788423
          ],
          [
            120.64161232426518,
            24.103153950468847
          ],
          [
            120.64157519420345,
            24.103160338197785
          ],
          [
            120.64114,
            24.10317
          ],
          [
            120.64116,
            24.10383
          ],
          [
            120.64091,
            24.10385
          ],
          [
            120.64064,
            24.10397
          ],
          [
            120.63987,
            24.10509
          ],
          [
            120.63859,
            24.10455
          ],
          [
            120.63792,
            24.10439
          ],
          [
            120.63628,
            24.10422
          ],
          [
            120.63557,
            24.10434
          ],
          [
            120.63527,
            24.10453
          ],
          [
            120.63448,
            24.10548
          ],
          [
            120.63411,
            24.1063
          ],
          [
            120.63556,
            24.10691
          ],
          [
            120.63811,
            24.10772
          ],
          [
            120.63742,
            24.10965
          ],
          [
            120.63665,
            24.1108
          ],
          [
            120.63606,
            24.11038
          ],
          [
            120.63572743848631,
            24.110722218159353
          ],
          [
            120.63570673157737,
            24.11073918935761
          ],
          [
            120.63568267235166,
            24.110751112663753
          ],
          [
            120.63565627555207,
            24.11075763268039
          ],
          [
            120.6356289551078,
            24.110758400166617
          ],
          [
            120.63560217442263,
            24.11075337401247
          ],
          [
            120.63557705237358,
            24.11074264527102
          ],
          [
            120.63447,
            24.11012
          ]
        ]
      }
    },
    {
      "type": "Feature",
      "properties": {
        "feature_type": "station",
        "ref": "TXG30557",
        "name": "捷運九德站(興華街)",
        "name_en": "MRT Jiude Station (Xinghua Street)",
        "line": "黃25",
        "color": "#1d4ed8",
        "direction": 0,
        "station_id": "11042"
      },
      "geometry": {
        "type": "Point",
        "coordinates": [
          120.634442,
          24.11021
        ]
      }
    },
    {
      "type": "Feature",
      "properties": {
        "feature_type": "station",
        "ref": "TXG30558",
        "name": "九德國小(興祥街)",
        "name_en": "Kowloon German Primary School (Hing Cheung Street)",
        "line": "黃25",
        "color": "#1d4ed8",
        "direction": 0,
        "station_id": "11028"
      },
      "geometry": {
        "type": "Point",
        "coordinates": [
          120.637597,
          24.109172
        ]
      }
    },
    {
      "type": "Feature",
      "properties": {
        "feature_type": "station",
        "ref": "TXG30559",
        "name": "明道中學",
        "name_en": "Mingdao High School",
        "line": "黃25",
        "color": "#1d4ed8",
        "direction": 0,
        "station_id": "1108"
      },
      "geometry": {
        "type": "Point",
        "coordinates": [
          120.63657,
          24.107394
        ]
      }
    },
    {
      "type": "Feature",
      "properties": {
        "feature_type": "station",
        "ref": "TXG30560",
        "name": "光德國中(信義仁德街口)",
        "name_en": "Light German Center (Xinyi And Rende St. Intersection)",
        "line": "黃25",
        "color": "#1d4ed8",
        "direction": 0,
        "station_id": "11029"
      },
      "geometry": {
        "type": "Point",
        "coordinates": [
          120.639967,
          24.105035
        ]
      }
    },
    {
      "type": "Feature",
      "properties": {
        "feature_type": "station",
        "ref": "TXG30561",
        "name": "永興宮",
        "name_en": "Yongxing Temple",
        "line": "黃25",
        "color": "#1d4ed8",
        "direction": 0,
        "station_id": "11030"
      },
      "geometry": {
        "type": "Point",
        "coordinates": [
          120.641234,
          24.096582
        ]
      }
    },
    {
      "type": "Feature",
      "properties": {
        "feature_type": "station",
        "ref": "TXG30562",
        "name": "福泰社區",
        "name_en": "Futai Community",
        "line": "黃25",
        "color": "#1d4ed8",
        "direction": 0,
        "station_id": "6044"
      },
      "geometry": {
        "type": "Point",
        "coordinates": [
          120.644018,
          24.08538
        ]
      }
    },
    {
      "type": "Feature",
      "properties": {
        "feature_type": "station",
        "ref": "TXG30563",
        "name": "東園里",
        "name_en": "Dongyuan Village",
        "line": "黃25",
        "color": "#1d4ed8",
        "direction": 0,
        "station_id": "3566"
      },
      "geometry": {
        "type": "Point",
        "coordinates": [
          120.643852,
          24.083974
        ]
      }
    },
    {
      "type": "Feature",
      "properties": {
        "feature_type": "station",
        "ref": "TXG19010",
        "name": "東園國小",
        "name_en": "Tongyuan Elementary School",
        "line": "黃25",
        "color": "#1d4ed8",
        "direction": 0,
        "station_id": "11089"
      },
      "geometry": {
        "type": "Point",
        "coordinates": [
          120.639642,
          24.083502
        ]
      }
    },
    {
      "type": "Feature",
      "properties": {
        "feature_type": "station",
        "ref": "TXG19012",
        "name": "東園里社區活動中心",
        "name_en": "Tongyuan Village Community Activity Center",
        "line": "黃25",
        "color": "#1d4ed8",
        "direction": 0,
        "station_id": "11091"
      },
      "geometry": {
        "type": "Point",
        "coordinates": [
          120.635263,
          24.075198
        ]
      }
    },
    {
      "type": "Feature",
      "properties": {
        "feature_type": "station",
        "ref": "TXG19014",
        "name": "南興宮",
        "name_en": "Nanxing Temple",
        "line": "黃25",
        "color": "#1d4ed8",
        "direction": 0,
        "station_id": "11092"
      },
      "geometry": {
        "type": "Point",
        "coordinates": [
          120.641923,
          24.076738
        ]
      }
    },
    {
      "type": "Feature",
      "properties": {
        "feature_type": "station",
        "ref": "TXG30566",
        "name": "溪心壩",
        "name_en": "Xixinba",
        "line": "黃25",
        "color": "#1d4ed8",
        "direction": 0,
        "station_id": "6005"
      },
      "geometry": {
        "type": "Point",
        "coordinates": [
          120.642843,
          24.075151
        ]
      }
    },
    {
      "type": "Feature",
      "properties": {
        "feature_type": "station",
        "ref": "TXG30567",
        "name": "溪南國中",
        "name_en": "Shinan Junior High School",
        "line": "黃25",
        "color": "#1d4ed8",
        "direction": 0,
        "station_id": "6008"
      },
      "geometry": {
        "type": "Point",
        "coordinates": [
          120.642559,
          24.071622
        ]
      }
    },
    {
      "type": "Feature",
      "properties": {
        "feature_type": "station",
        "ref": "TXG30568",
        "name": "北螺潭",
        "name_en": "Beiluotan",
        "line": "黃25",
        "color": "#1d4ed8",
        "direction": 0,
        "station_id": "5487"
      },
      "geometry": {
        "type": "Point",
        "coordinates": [
          120.642462,
          24.065868
        ]
      }
    },
    {
      "type": "Feature",
      "properties": {
        "feature_type": "station",
        "ref": "TXG30569",
        "name": "石螺潭",
        "name_en": "Shiluotan",
        "line": "黃25",
        "color": "#1d4ed8",
        "direction": 0,
        "station_id": "5553"
      },
      "geometry": {
        "type": "Point",
        "coordinates": [
          120.642382,
          24.063822
        ]
      }
    },
    {
      "type": "Feature",
      "properties": {
        "feature_type": "station",
        "ref": "TXG30570",
        "name": "南螺潭",
        "name_en": "Nanluotan",
        "line": "黃25",
        "color": "#1d4ed8",
        "direction": 0,
        "station_id": "5788"
      },
      "geometry": {
        "type": "Point",
        "coordinates": [
          120.643479,
          24.061253
        ]
      }
    },
    {
      "type": "Feature",
      "properties": {
        "feature_type": "station",
        "ref": "TXG30571",
        "name": "集會所(太明路)",
        "name_en": "Assembly Room(Taiming Road)",
        "line": "黃25",
        "color": "#1d4ed8",
        "direction": 0,
        "station_id": "4999"
      },
      "geometry": {
        "type": "Point",
        "coordinates": [
          120.648205,
          24.055677
        ]
      }
    },
    {
      "type": "Feature",
      "properties": {
        "feature_type": "station",
        "ref": "TXG30572",
        "name": "喀哩",
        "name_en": "Kali",
        "line": "黃25",
        "color": "#1d4ed8",
        "direction": 0,
        "station_id": "5932"
      },
      "geometry": {
        "type": "Point",
        "coordinates": [
          120.646834,
          24.055443
        ]
      }
    },
    {
      "type": "Feature",
      "properties": {
        "feature_type": "station",
        "ref": "TXG30573",
        "name": "溪南派出所",
        "name_en": "Xinan Police Station",
        "line": "黃25",
        "color": "#1d4ed8",
        "direction": 0,
        "station_id": "3228"
      },
      "geometry": {
        "type": "Point",
        "coordinates": [
          120.646492,
          24.056498
        ]
      }
    },
    {
      "type": "Feature",
      "properties": {
        "feature_type": "station",
        "ref": "TXG30574",
        "name": "溪尾里活動中心",
        "name_en": "Xiweili Activity Center",
        "line": "黃25",
        "color": "#1d4ed8",
        "direction": 0,
        "station_id": "11031"
      },
      "geometry": {
        "type": "Point",
        "coordinates": [
          120.639252,
          24.032262
        ]
      }
    },
    {
      "type": "Feature",
      "properties": {
        "feature_type": "station",
        "ref": "TXG30575",
        "name": "芬園花卉生產休憩園區",
        "name_en": "Fenyuan Flower Production and Recreation Park",
        "line": "黃25",
        "color": "#1d4ed8",
        "direction": 0,
        "station_id": "11032"
      },
      "geometry": {
        "type": "Point",
        "coordinates": [
          120.64399,
          24.029264
        ]
      }
    },
    {
      "type": "Feature",
      "properties": {
        "feature_type": "station",
        "ref": "TXG30576",
        "name": "後溪仔(CFT照顧學校)",
        "name_en": "Houxizai",
        "line": "黃25",
        "color": "#1d4ed8",
        "direction": 0,
        "station_id": "11033"
      },
      "geometry": {
        "type": "Point",
        "coordinates": [
          120.643466,
          24.036313
        ]
      }
    },
    {
      "type": "Feature",
      "properties": {
        "feature_type": "station",
        "ref": "TXG30577",
        "name": "溪尾國小",
        "name_en": "Xiwei Elementary School",
        "line": "黃25",
        "color": "#1d4ed8",
        "direction": 0,
        "station_id": "11034"
      },
      "geometry": {
        "type": "Point",
        "coordinates": [
          120.640143,
          24.040737
        ]
      }
    },
    {
      "type": "Feature",
      "properties": {
        "feature_type": "station",
        "ref": "TXG30578",
        "name": "溪尾國小",
        "name_en": "Xiwei Elementary School",
        "line": "黃25",
        "color": "#1d4ed8",
        "direction": 1,
        "station_id": "11035"
      },
      "geometry": {
        "type": "Point",
        "coordinates": [
          120.640216,
          24.040714
        ]
      }
    },
    {
      "type": "Feature",
      "properties": {
        "feature_type": "station",
        "ref": "TXG30579",
        "name": "後溪仔(CFT照顧學校)",
        "name_en": "Houxizai",
        "line": "黃25",
        "color": "#1d4ed8",
        "direction": 1,
        "station_id": "11036"
      },
      "geometry": {
        "type": "Point",
        "coordinates": [
          120.643462,
          24.036325
        ]
      }
    },
    {
      "type": "Feature",
      "properties": {
        "feature_type": "station",
        "ref": "TXG30580",
        "name": "芬園花卉生產休憩園區",
        "name_en": "Fenyuan Flower Production and Recreation Park",
        "line": "黃25",
        "color": "#1d4ed8",
        "direction": 1,
        "station_id": "11037"
      },
      "geometry": {
        "type": "Point",
        "coordinates": [
          120.643953,
          24.028825
        ]
      }
    },
    {
      "type": "Feature",
      "properties": {
        "feature_type": "station",
        "ref": "TXG30581",
        "name": "溪尾里活動中心",
        "name_en": "Xiweili Activity Center",
        "line": "黃25",
        "color": "#1d4ed8",
        "direction": 1,
        "station_id": "11038"
      },
      "geometry": {
        "type": "Point",
        "coordinates": [
          120.639251,
          24.032272
        ]
      }
    },
    {
      "type": "Feature",
      "properties": {
        "feature_type": "station",
        "ref": "TXG30582",
        "name": "溪南派出所",
        "name_en": "Xinan Police Station",
        "line": "黃25",
        "color": "#1d4ed8",
        "direction": 1,
        "station_id": "3227"
      },
      "geometry": {
        "type": "Point",
        "coordinates": [
          120.646411,
          24.056448
        ]
      }
    },
    {
      "type": "Feature",
      "properties": {
        "feature_type": "station",
        "ref": "TXG30583",
        "name": "喀哩",
        "name_en": "Kali",
        "line": "黃25",
        "color": "#1d4ed8",
        "direction": 1,
        "station_id": "5931"
      },
      "geometry": {
        "type": "Point",
        "coordinates": [
          120.646818,
          24.055336
        ]
      }
    },
    {
      "type": "Feature",
      "properties": {
        "feature_type": "station",
        "ref": "TXG30584",
        "name": "集會所(太明路)",
        "name_en": "Assembly Room(Taiming Road)",
        "line": "黃25",
        "color": "#1d4ed8",
        "direction": 1,
        "station_id": "4998"
      },
      "geometry": {
        "type": "Point",
        "coordinates": [
          120.648427,
          24.05558
        ]
      }
    },
    {
      "type": "Feature",
      "properties": {
        "feature_type": "station",
        "ref": "TXG30585",
        "name": "南螺潭",
        "name_en": "Nanluotan",
        "line": "黃25",
        "color": "#1d4ed8",
        "direction": 1,
        "station_id": "5789"
      },
      "geometry": {
        "type": "Point",
        "coordinates": [
          120.643522,
          24.06128
        ]
      }
    },
    {
      "type": "Feature",
      "properties": {
        "feature_type": "station",
        "ref": "TXG30586",
        "name": "石螺潭",
        "name_en": "Shiluotan",
        "line": "黃25",
        "color": "#1d4ed8",
        "direction": 1,
        "station_id": "5554"
      },
      "geometry": {
        "type": "Point",
        "coordinates": [
          120.642575,
          24.063491
        ]
      }
    },
    {
      "type": "Feature",
      "properties": {
        "feature_type": "station",
        "ref": "TXG30587",
        "name": "北螺潭",
        "name_en": "Beiluotan",
        "line": "黃25",
        "color": "#1d4ed8",
        "direction": 1,
        "station_id": "5489"
      },
      "geometry": {
        "type": "Point",
        "coordinates": [
          120.642438,
          24.065635
        ]
      }
    },
    {
      "type": "Feature",
      "properties": {
        "feature_type": "station",
        "ref": "TXG30588",
        "name": "溪南國中",
        "name_en": "Shinan Junior High School",
        "line": "黃25",
        "color": "#1d4ed8",
        "direction": 1,
        "station_id": "6009"
      },
      "geometry": {
        "type": "Point",
        "coordinates": [
          120.64274,
          24.07147
        ]
      }
    },
    {
      "type": "Feature",
      "properties": {
        "feature_type": "station",
        "ref": "TXG30589",
        "name": "溪心壩",
        "name_en": "Xixinba",
        "line": "黃25",
        "color": "#1d4ed8",
        "direction": 1,
        "station_id": "6006"
      },
      "geometry": {
        "type": "Point",
        "coordinates": [
          120.642943,
          24.075357
        ]
      }
    },
    {
      "type": "Feature",
      "properties": {
        "feature_type": "station",
        "ref": "TXG19015",
        "name": "南興宮",
        "name_en": "Nanxing Temple",
        "line": "黃25",
        "color": "#1d4ed8",
        "direction": 1,
        "station_id": "11093"
      },
      "geometry": {
        "type": "Point",
        "coordinates": [
          120.641961,
          24.076757
        ]
      }
    },
    {
      "type": "Feature",
      "properties": {
        "feature_type": "station",
        "ref": "TXG19013",
        "name": "東園里社區活動中心",
        "name_en": "Tongyuan Village Community Activity Center",
        "line": "黃25",
        "color": "#1d4ed8",
        "direction": 1,
        "station_id": "11091"
      },
      "geometry": {
        "type": "Point",
        "coordinates": [
          120.635263,
          24.075198
        ]
      }
    },
    {
      "type": "Feature",
      "properties": {
        "feature_type": "station",
        "ref": "TXG19011",
        "name": "東園國小",
        "name_en": "Tongyuan Elementary School",
        "line": "黃25",
        "color": "#1d4ed8",
        "direction": 1,
        "station_id": "11090"
      },
      "geometry": {
        "type": "Point",
        "coordinates": [
          120.639662,
          24.083484
        ]
      }
    },
    {
      "type": "Feature",
      "properties": {
        "feature_type": "station",
        "ref": "TXG30592",
        "name": "東園里",
        "name_en": "Dongyuan Village",
        "line": "黃25",
        "color": "#1d4ed8",
        "direction": 1,
        "station_id": "3567"
      },
      "geometry": {
        "type": "Point",
        "coordinates": [
          120.643991,
          24.083842
        ]
      }
    },
    {
      "type": "Feature",
      "properties": {
        "feature_type": "station",
        "ref": "TXG30593",
        "name": "福泰社區",
        "name_en": "Futai Community",
        "line": "黃25",
        "color": "#1d4ed8",
        "direction": 1,
        "station_id": "6045"
      },
      "geometry": {
        "type": "Point",
        "coordinates": [
          120.644163,
          24.085247
        ]
      }
    },
    {
      "type": "Feature",
      "properties": {
        "feature_type": "station",
        "ref": "TXG30594",
        "name": "永興宮",
        "name_en": "Yongxing Temple",
        "line": "黃25",
        "color": "#1d4ed8",
        "direction": 1,
        "station_id": "11039"
      },
      "geometry": {
        "type": "Point",
        "coordinates": [
          120.641232,
          24.096586
        ]
      }
    },
    {
      "type": "Feature",
      "properties": {
        "feature_type": "station",
        "ref": "TXG30595",
        "name": "光德國中(信義仁德街口)",
        "name_en": "Light German Center (Xinyi And Rende St. Intersection)",
        "line": "黃25",
        "color": "#1d4ed8",
        "direction": 1,
        "station_id": "11040"
      },
      "geometry": {
        "type": "Point",
        "coordinates": [
          120.639969,
          24.105044
        ]
      }
    },
    {
      "type": "Feature",
      "properties": {
        "feature_type": "station",
        "ref": "TXG30596",
        "name": "明道中學",
        "name_en": "Mingdao High School",
        "line": "黃25",
        "color": "#1d4ed8",
        "direction": 1,
        "station_id": "1107"
      },
      "geometry": {
        "type": "Point",
        "coordinates": [
          120.63571957657,
          24.106873563399
        ]
      }
    },
    {
      "type": "Feature",
      "properties": {
        "feature_type": "station",
        "ref": "TXG30597",
        "name": "九德國小(興祥街)",
        "name_en": "Kowloon German Primary School (Hing Cheung Street)",
        "line": "黃25",
        "color": "#1d4ed8",
        "direction": 1,
        "station_id": "11041"
      },
      "geometry": {
        "type": "Point",
        "coordinates": [
          120.637671,
          24.109306
        ]
      }
    },
    {
      "type": "Feature",
      "properties": {
        "feature_type": "station",
        "ref": "TXG30598",
        "name": "捷運九德站(興華街)",
        "name_en": "MRT Jiude Station (Xinghua Street)",
        "line": "黃25",
        "color": "#1d4ed8",
        "direction": 1,
        "station_id": "11043"
      },
      "geometry": {
        "type": "Point",
        "coordinates": [
          120.634444,
          24.110214
        ]
      }
    }
  ]
}
