{
  "type": "FeatureCollection",
  "name": "102",
  "properties": {
    "id": "yunlin_county_102",
    "name": "102",
    "name_en": "102",
    "ref": "102",
    "color": "#1e3a8a",
    "city_id": "YunlinCounty",
    "source": "TDX Bus Shape / StopOfRoute",
    "official_map_url": "https://web.taiwanbus.tw/MISUploadData/Schematic/file/0141.jpg",
    "operator_id": "34",
    "operator": "統聯客運",
    "operator_en": "United Highway Bus Co., Ltd."
  },
  "features": [
    {
      "type": "Feature",
      "properties": {
        "feature_type": "route",
        "ref": "102",
        "name": "102",
        "name_en": "102",
        "color": "#1e3a8a",
        "direction": 0
      },
      "geometry": {
        "type": "LineString",
        "coordinates": [
          [
            120.53219,
            23.71218
          ],
          [
            120.53252,
            23.71258
          ],
          [
            120.53321706031122,
            23.71349109799966
          ],
          [
            120.53324011086355,
            23.713513722902004
          ],
          [
            120.53326880307506,
            23.713529272214068
          ],
          [
            120.53330106817896,
            23.713536797264453
          ],
          [
            120.533334328078,
            23.713535696774702
          ],
          [
            120.53336592518725,
            23.71352605867789
          ],
          [
            120.53339363776422,
            23.713508394724656
          ],
          [
            120.53371,
            23.71324
          ],
          [
            120.53404,
            23.713
          ],
          [
            120.53416,
            23.7129
          ],
          [
            120.53429,
            23.71281
          ],
          [
            120.53438,
            23.71274
          ],
          [
            120.53465,
            23.71255
          ],
          [
            120.5349,
            23.71238
          ],
          [
            120.53502,
            23.71228
          ],
          [
            120.53525,
            23.71211
          ],
          [
            120.5363240844098,
            23.711313800625156
          ],
          [
            120.53634500462874,
            23.711301307021746
          ],
          [
            120.5363679173066,
            23.71129324936213
          ],
          [
            120.53639214326357,
            23.71128974286987
          ],
          [
            120.53641663152057,
            23.71129093966486
          ],
          [
            120.53644031971926,
            23.711296787827315
          ],
          [
            120.5364624973393,
            23.71130722370592
          ],
          [
            120.53760403813222,
            23.711990292949704
          ],
          [
            120.5376313320022,
            23.712002455455455
          ],
          [
            120.53766071128518,
            23.712007766623977
          ],
          [
            120.53769059357923,
            23.712006073702582
          ],
          [
            120.53771904667607,
            23.711997486156644
          ],
          [
            120.53774423078028,
            23.711982559262378
          ],
          [
            120.53776474282297,
            23.711961964459213
          ],
          [
            120.53869,
            23.71076
          ],
          [
            120.53968,
            23.71156
          ],
          [
            120.54041796585985,
            23.71201556076327
          ],
          [
            120.54044062563571,
            23.712033969164295
          ],
          [
            120.54045763164929,
            23.712057403531187
          ],
          [
            120.54046751852512,
            23.71208408564467
          ],
          [
            120.54046961926697,
            23.71211221545475
          ],
          [
            120.54046379215288,
            23.71213989524577
          ],
          [
            120.54045063863825,
            23.712164964903128
          ],
          [
            120.540138,
            23.712602
          ],
          [
            120.541155,
            23.713256
          ],
          [
            120.542028,
            23.713808
          ],
          [
            120.54287342317724,
            23.714275868981986
          ],
          [
            120.54290976074023,
            23.714289153254825
          ],
          [
            120.5429484492352,
            23.71429077712711
          ],
          [
            120.5429856161372,
            23.714280739221678
          ],
          [
            120.54301724002538,
            23.71426012562967
          ],
          [
            120.54303989922721,
            23.71423116672072
          ],
          [
            120.54305115579744,
            23.714196899364907
          ],
          [
            120.543175,
            23.71332
          ],
          [
            120.5432,
            23.71314
          ],
          [
            120.54327,
            23.71243
          ],
          [
            120.5434227991337,
            23.711308161420952
          ],
          [
            120.54342105446479,
            23.711271849219344
          ],
          [
            120.54340635436243,
            23.711238023327446
          ],
          [
            120.54338034257026,
            23.711210588446594
          ],
          [
            120.5433459500755,
            23.71119263591652
          ],
          [
            120.54330705219613,
            23.711186188613496
          ],
          [
            120.5432677923126,
            23.711192048532507
          ],
          [
            120.54282659828704,
            23.711330023634304
          ],
          [
            120.5427873953444,
            23.711335893288094
          ],
          [
            120.54274854459723,
            23.711329489426163
          ],
          [
            120.54271417184592,
            23.711311607194958
          ],
          [
            120.54268813947262,
            23.711284255977148
          ],
          [
            120.54267337267156,
            23.71125050916231
          ],
          [
            120.54267151856516,
            23.711214249785737
          ],
          [
            120.54273726787437,
            23.710720170857787
          ],
          [
            120.54274654366448,
            23.710689202552444
          ],
          [
            120.54276517850549,
            23.710662163039892
          ],
          [
            120.54279156148658,
            23.71064131618426
          ],
          [
            120.54282339486387,
            23.710628477577757
          ],
          [
            120.54285790620816,
            23.710624765358975
          ],
          [
            120.54289232952463,
            23.71063057838582
          ],
          [
            120.54325397140876,
            23.71074379221181
          ],
          [
            120.5432693573934,
            23.710750163191324
          ],
          [
            120.54328336273694,
            23.710759148153944
          ],
          [
            120.54329531390235,
            23.71077037580194
          ],
          [
            120.54330479477672,
            23.710783455213676
          ],
          [
            120.54331147525718,
            23.71079793099324
          ],
          [
            120.54331513208571,
            23.710813369975497
          ],
          [
            120.54333476156609,
            23.710960412854167
          ],
          [
            120.54333831358859,
            23.710973649400998
          ],
          [
            120.5433451763268,
            23.71098567431455
          ],
          [
            120.54335495804486,
            23.710995837640976
          ],
          [
            120.54336709138946,
            23.711003549893135
          ],
          [
            120.54338087260965,
            23.71100836374961
          ],
          [
            120.54339550237555,
            23.71101
          ],
          [
            120.54449,
            23.71101
          ],
          [
            120.54522,
            23.71096
          ],
          [
            120.54587,
            23.71097
          ],
          [
            120.54629,
            23.71097
          ],
          [
            120.54663,
            23.71097
          ],
          [
            120.54704,
            23.71096
          ],
          [
            120.54792,
            23.71098
          ],
          [
            120.54831,
            23.71099
          ],
          [
            120.54843,
            23.71099
          ],
          [
            120.54937,
            23.71103
          ],
          [
            120.54997,
            23.71115
          ],
          [
            120.55008,
            23.71118
          ],
          [
            120.5514304172193,
            23.711419577873333
          ],
          [
            120.551458198796,
            23.711427951610062
          ],
          [
            120.55148300609443,
            23.711442467795088
          ],
          [
            120.55150314283343,
            23.71146219544992
          ],
          [
            120.55151735497988,
            23.711485906017483
          ],
          [
            120.55152475745983,
            23.71151212290133
          ],
          [
            120.55152490101389,
            23.711539123200996
          ],
          [
            120.55148,
            23.71188
          ],
          [
            120.55145,
            23.71209
          ],
          [
            120.55143,
            23.71227
          ],
          [
            120.55136,
            23.71284
          ],
          [
            120.55131,
            23.71325
          ],
          [
            120.5512,
            23.71416
          ],
          [
            120.55119,
            23.71425
          ],
          [
            120.55118,
            23.71442
          ],
          [
            120.55117,
            23.71446
          ],
          [
            120.55116,
            23.71457
          ],
          [
            120.55117,
            23.71497
          ],
          [
            120.55115,
            23.7153
          ],
          [
            120.55114,
            23.71546
          ],
          [
            120.55113,
            23.71561
          ],
          [
            120.55106,
            23.71598
          ],
          [
            120.55108,
            23.71642
          ],
          [
            120.55108,
            23.71653
          ],
          [
            120.55102200176609,
            23.71734543838299
          ],
          [
            120.55101899352054,
            23.717363740296005
          ],
          [
            120.55101267600601,
            23.717381258781984
          ],
          [
            120.55100322862016,
            23.7173975361375
          ],
          [
            120.55099092489377,
            23.717412101083333
          ],
          [
            120.55097612105727,
            23.717424531919768
          ],
          [
            120.55095954753763,
            23.717434322213826
          ],
          [
            120.55072,
            23.71755
          ],
          [
            120.55025,
            23.71773
          ],
          [
            120.55007,
            23.7178
          ],
          [
            120.54996,
            23.71784
          ],
          [
            120.54966,
            23.71794
          ],
          [
            120.54949,
            23.718
          ],
          [
            120.5491,
            23.718139999999998
          ],
          [
            120.54823,
            23.71835
          ],
          [
            120.54763,
            23.71845
          ],
          [
            120.54734,
            23.71849
          ],
          [
            120.54699,
            23.71854
          ],
          [
            120.54666,
            23.71856
          ],
          [
            120.54629,
            23.71859
          ],
          [
            120.54546,
            23.7186
          ],
          [
            120.54503,
            23.71858
          ],
          [
            120.54497,
            23.71858
          ],
          [
            120.54408,
            23.7185
          ],
          [
            120.54268044140792,
            23.718330428105403
          ],
          [
            120.54266169413634,
            23.718330403547224
          ],
          [
            120.54264363295036,
            23.71833480711068
          ],
          [
            120.54262740192196,
            23.718343336005777
          ],
          [
            120.54261408784056,
            23.718355419158836
          ],
          [
            120.5426045821841,
            23.718370247511885
          ],
          [
            120.54259951111213,
            23.71838689401631
          ],
          [
            120.54258,
            23.71851
          ],
          [
            120.54257,
            23.71858
          ],
          [
            120.54255,
            23.71869
          ],
          [
            120.54253,
            23.71875
          ],
          [
            120.5425,
            23.71883
          ],
          [
            120.54245,
            23.71894
          ],
          [
            120.54239,
            23.71909
          ],
          [
            120.54237,
            23.71911
          ],
          [
            120.5418692352647,
            23.720158845153342
          ],
          [
            120.54186385061973,
            23.72017467050271
          ],
          [
            120.541862273389,
            23.720191391016915
          ],
          [
            120.54186466526022,
            23.72020802913742
          ],
          [
            120.54187091246685,
            23.72022379349146
          ],
          [
            120.54188071786778,
            23.720237934265935
          ],
          [
            120.54189339161975,
            23.720249613642522
          ],
          [
            120.54203,
            23.72035
          ],
          [
            120.54226,
            23.72051
          ],
          [
            120.54255,
            23.72071
          ],
          [
            120.54274,
            23.72083
          ],
          [
            120.54302,
            23.72097
          ],
          [
            120.54319,
            23.72105
          ],
          [
            120.5432,
            23.72105
          ],
          [
            120.54333,
            23.72112
          ],
          [
            120.54354,
            23.72128
          ],
          [
            120.54381,
            23.72154
          ],
          [
            120.54422,
            23.72194
          ],
          [
            120.54453,
            23.72222
          ],
          [
            120.54467,
            23.72233
          ],
          [
            120.54481,
            23.72243
          ],
          [
            120.54487,
            23.72249
          ],
          [
            120.54499,
            23.7226
          ],
          [
            120.54511,
            23.72272
          ],
          [
            120.54523,
            23.72284
          ],
          [
            120.54529,
            23.72289
          ],
          [
            120.54557,
            23.72318
          ],
          [
            120.54561,
            23.72322
          ],
          [
            120.54578,
            23.72338
          ],
          [
            120.5459,
            23.72349
          ],
          [
            120.54613,
            23.72371
          ],
          [
            120.54716,
            23.72484
          ],
          [
            120.5472,
            23.72488
          ],
          [
            120.54807,
            23.72578
          ],
          [
            120.54816,
            23.72588
          ],
          [
            120.54825,
            23.72598
          ],
          [
            120.54833,
            23.72605
          ],
          [
            120.54864,
            23.72639
          ],
          [
            120.54891,
            23.72668
          ],
          [
            120.5494,
            23.72716
          ],
          [
            120.54981,
            23.7276
          ],
          [
            120.55021,
            23.72803
          ],
          [
            120.55079,
            23.72868
          ],
          [
            120.55092,
            23.72882
          ],
          [
            120.55101,
            23.7289
          ],
          [
            120.55113,
            23.72905
          ],
          [
            120.55122,
            23.72915
          ],
          [
            120.55124,
            23.72919
          ],
          [
            120.55129,
            23.72927
          ],
          [
            120.55137,
            23.72938
          ],
          [
            120.55159,
            23.72975
          ],
          [
            120.55183,
            23.73018
          ],
          [
            120.55194,
            23.7304
          ],
          [
            120.55239,
            23.73122
          ],
          [
            120.55259,
            23.73158
          ],
          [
            120.55286,
            23.73208
          ],
          [
            120.55287,
            23.7321
          ],
          [
            120.55298,
            23.73229
          ],
          [
            120.55303,
            23.73243
          ],
          [
            120.55324163163279,
            23.733097660274215
          ],
          [
            120.5532453030279,
            23.733125163722697
          ],
          [
            120.55323936267418,
            23.733152493622256
          ],
          [
            120.55322436822243,
            23.733176697592157
          ],
          [
            120.55320185290135,
            23.73319530070222
          ],
          [
            120.55317411897163,
            23.733206400727365
          ],
          [
            120.55314395448045,
            23.733208859464376
          ],
          [
            120.55301,
            23.7332
          ],
          [
            120.55294,
            23.73319
          ],
          [
            120.55254,
            23.73313
          ],
          [
            120.55195,
            23.73304
          ],
          [
            120.55156,
            23.73296
          ],
          [
            120.55117,
            23.73286
          ],
          [
            120.55088,
            23.73278
          ],
          [
            120.55058,
            23.73267
          ],
          [
            120.55006,
            23.73249
          ],
          [
            120.54971,
            23.73234
          ],
          [
            120.54937,
            23.73219
          ],
          [
            120.54903,
            23.73203
          ],
          [
            120.5487,
            23.73185
          ],
          [
            120.54775764003598,
            23.73130594153408
          ],
          [
            120.54774,
            23.73135
          ],
          [
            120.54761,
            23.73161
          ],
          [
            120.54662,
            23.73382
          ],
          [
            120.54605,
            23.73502
          ],
          [
            120.54557,
            23.73602
          ],
          [
            120.54271,
            23.73493
          ],
          [
            120.53464,
            23.73183
          ],
          [
            120.53517,
            23.73068
          ],
          [
            120.53534340288371,
            23.730334226844665
          ],
          [
            120.5353538668761,
            23.73029538035759
          ],
          [
            120.5353482526345,
            23.730255403321156
          ],
          [
            120.53532720337907,
            23.730220070917976
          ],
          [
            120.53529362148709,
            23.730194254957567
          ],
          [
            120.53525213739877,
            23.730181515074452
          ],
          [
            120.53520828580285,
            23.730183649677986
          ],
          [
            120.535,
            23.73023
          ],
          [
            120.53469,
            23.73031
          ],
          [
            120.53404,
            23.73045
          ],
          [
            120.5332,
            23.73055
          ],
          [
            120.5328,
            23.73054
          ],
          [
            120.53231,
            23.73049
          ],
          [
            120.5314,
            23.73035
          ],
          [
            120.53024,
            23.73017
          ],
          [
            120.52864,
            23.72989
          ],
          [
            120.52624,
            23.72946
          ],
          [
            120.5248,
            23.72915
          ],
          [
            120.52387318773648,
            23.72891527356756
          ],
          [
            120.52384874463985,
            23.728906216101155
          ],
          [
            120.52382693774489,
            23.728892246546188
          ],
          [
            120.52380908067826,
            23.728874127371054
          ],
          [
            120.52379608157634,
            23.728852780041844
          ],
          [
            120.52378860151948,
            23.72882929019517
          ],
          [
            120.52378701849129,
            23.728804892936992
          ],
          [
            120.523973,
            23.7256
          ],
          [
            120.52427,
            23.72498
          ],
          [
            120.52445,
            23.72465
          ],
          [
            120.52468,
            23.72418
          ],
          [
            120.52472,
            23.72411
          ],
          [
            120.52499,
            23.72357
          ],
          [
            120.52508,
            23.72339
          ],
          [
            120.52554087656684,
            23.722502978589624
          ],
          [
            120.5255517446209,
            23.72246660569295
          ],
          [
            120.52554837256535,
            23.722428713264158
          ],
          [
            120.52553103559434,
            23.72239421673274
          ],
          [
            120.52550186022171,
            23.72236734736553
          ],
          [
            120.5254644250329,
            23.722351400898564
          ],
          [
            120.52542324345046,
            23.722348340223576
          ],
          [
            120.5237,
            23.7225
          ],
          [
            120.5236,
            23.72249
          ],
          [
            120.5235,
            23.72249
          ],
          [
            120.5233,
            23.72249
          ],
          [
            120.52312,
            23.72248
          ],
          [
            120.52299,
            23.72248
          ],
          [
            120.52297,
            23.72248
          ],
          [
            120.52286,
            23.72249
          ],
          [
            120.5228,
            23.72248
          ],
          [
            120.52233,
            23.72245
          ],
          [
            120.5221,
            23.72241
          ],
          [
            120.52199,
            23.72238
          ],
          [
            120.52191,
            23.72235
          ],
          [
            120.52173,
            23.72228
          ],
          [
            120.5215,
            23.72218
          ],
          [
            120.52131,
            23.72208
          ],
          [
            120.5212,
            23.72202
          ],
          [
            120.52114,
            23.72199
          ],
          [
            120.52107,
            23.72196
          ],
          [
            120.52039,
            23.72163
          ],
          [
            120.51978,
            23.72134
          ],
          [
            120.5196,
            23.72125
          ],
          [
            120.51953,
            23.72122
          ],
          [
            120.51945,
            23.7212
          ],
          [
            120.51938,
            23.72119
          ],
          [
            120.5191,
            23.72113
          ],
          [
            120.51763,
            23.72086
          ],
          [
            120.51729,
            23.7208
          ],
          [
            120.51721,
            23.72079
          ],
          [
            120.51712,
            23.7208
          ],
          [
            120.51693,
            23.72083
          ],
          [
            120.51673,
            23.72086
          ],
          [
            120.51662,
            23.72087
          ],
          [
            120.51643,
            23.72091
          ],
          [
            120.51622,
            23.72097
          ],
          [
            120.51598,
            23.72104
          ],
          [
            120.51572,
            23.72108
          ],
          [
            120.51543,
            23.72113
          ],
          [
            120.51460549614005,
            23.721248148739246
          ],
          [
            120.51458117215638,
            23.721249310438033
          ],
          [
            120.51455723130184,
            23.721245862872003
          ],
          [
            120.51453456284686,
            23.721237969982614
          ],
          [
            120.51451412681735,
            23.72122596603958
          ],
          [
            120.5144967886943,
            23.721210359418787
          ],
          [
            120.51448312260648,
            23.721191532194236
          ],
          [
            120.51405,
            23.72044
          ],
          [
            120.51398,
            23.72034
          ],
          [
            120.51392,
            23.72027
          ],
          [
            120.51383,
            23.72019
          ],
          [
            120.51374,
            23.72013
          ],
          [
            120.51369,
            23.7201
          ],
          [
            120.51359,
            23.72006
          ],
          [
            120.51349,
            23.72002
          ],
          [
            120.51343,
            23.72
          ],
          [
            120.51321,
            23.71997
          ],
          [
            120.51285,
            23.71995
          ],
          [
            120.51262,
            23.71994
          ],
          [
            120.51233,
            23.71993
          ],
          [
            120.51212,
            23.71991
          ],
          [
            120.51196,
            23.71988
          ],
          [
            120.51187,
            23.71985
          ],
          [
            120.5118,
            23.71983
          ],
          [
            120.51175,
            23.7198
          ],
          [
            120.51164,
            23.71974
          ],
          [
            120.51156,
            23.7197
          ],
          [
            120.51148,
            23.71966
          ]
        ]
      }
    },
    {
      "type": "Feature",
      "properties": {
        "feature_type": "route",
        "ref": "102",
        "name": "102",
        "name_en": "102",
        "color": "#1e3a8a",
        "direction": 1
      },
      "geometry": {
        "type": "LineString",
        "coordinates": [
          [
            120.51171,
            23.71978
          ],
          [
            120.51175,
            23.7198
          ],
          [
            120.5118,
            23.71983
          ],
          [
            120.51187,
            23.71985
          ],
          [
            120.51196,
            23.71988
          ],
          [
            120.51212,
            23.71991
          ],
          [
            120.51233,
            23.71993
          ],
          [
            120.51262,
            23.71994
          ],
          [
            120.51285,
            23.71995
          ],
          [
            120.51321,
            23.71997
          ],
          [
            120.51343,
            23.72
          ],
          [
            120.51349,
            23.72002
          ],
          [
            120.51359,
            23.72006
          ],
          [
            120.51369,
            23.7201
          ],
          [
            120.51374,
            23.72013
          ],
          [
            120.51383,
            23.72019
          ],
          [
            120.51392,
            23.72027
          ],
          [
            120.51398,
            23.72034
          ],
          [
            120.51405,
            23.72044
          ],
          [
            120.5144909472343,
            23.72120515197042
          ],
          [
            120.5145052463812,
            23.721224675414586
          ],
          [
            120.51452350493483,
            23.721240703677864
          ],
          [
            120.51454504591017,
            23.721252780823384
          ],
          [
            120.51456888174269,
            23.721260353164038
          ],
          [
            120.51459391965822,
            23.72126307353936
          ],
          [
            120.51461917346253,
            23.721260786221915
          ],
          [
            120.51499,
            23.72119
          ],
          [
            120.51501,
            23.72119
          ],
          [
            120.51543,
            23.72113
          ],
          [
            120.51572,
            23.72108
          ],
          [
            120.51598,
            23.72104
          ],
          [
            120.51622,
            23.72097
          ],
          [
            120.51643,
            23.72091
          ],
          [
            120.51662,
            23.72087
          ],
          [
            120.51673,
            23.72086
          ],
          [
            120.51693,
            23.72083
          ],
          [
            120.51712,
            23.7208
          ],
          [
            120.51721,
            23.72079
          ],
          [
            120.51729,
            23.7208
          ],
          [
            120.51793,
            23.72092
          ],
          [
            120.5191,
            23.72113
          ],
          [
            120.51938,
            23.72119
          ],
          [
            120.51945,
            23.7212
          ],
          [
            120.51953,
            23.72122
          ],
          [
            120.5196,
            23.72125
          ],
          [
            120.51978,
            23.72134
          ],
          [
            120.52039,
            23.72163
          ],
          [
            120.52107,
            23.72196
          ],
          [
            120.52114,
            23.72199
          ],
          [
            120.5212,
            23.72202
          ],
          [
            120.52131,
            23.72208
          ],
          [
            120.5215,
            23.72218
          ],
          [
            120.52173,
            23.72228
          ],
          [
            120.52191,
            23.72235
          ],
          [
            120.52199,
            23.72238
          ],
          [
            120.5221,
            23.72241
          ],
          [
            120.52233,
            23.72245
          ],
          [
            120.5228,
            23.72248
          ],
          [
            120.52286,
            23.72249
          ],
          [
            120.52297,
            23.72248
          ],
          [
            120.52312,
            23.72248
          ],
          [
            120.5233,
            23.72249
          ],
          [
            120.5235,
            23.72249
          ],
          [
            120.52354,
            23.72249
          ],
          [
            120.5236,
            23.72249
          ],
          [
            120.5237,
            23.7225
          ],
          [
            120.5254232426637,
            23.722348340317275
          ],
          [
            120.525464424348,
            23.722351400977548
          ],
          [
            120.52550185962588,
            23.722367347479544
          ],
          [
            120.52553103504468,
            23.722394216930404
          ],
          [
            120.52554837199649,
            23.722428713568355
          ],
          [
            120.52555174395987,
            23.722466606093644
          ],
          [
            120.52554087563546,
            23.722502978991002
          ],
          [
            120.52508,
            23.72339
          ],
          [
            120.52499,
            23.72357
          ],
          [
            120.52472,
            23.72411
          ],
          [
            120.52468,
            23.72418
          ],
          [
            120.52445,
            23.72465
          ],
          [
            120.52433,
            23.72486
          ],
          [
            120.52392999999999,
            23.7256
          ],
          [
            120.52395,
            23.72563
          ],
          [
            120.52396,
            23.72566
          ],
          [
            120.52397,
            23.7257
          ],
          [
            120.52396,
            23.72577
          ],
          [
            120.52386,
            23.72685
          ],
          [
            120.52385,
            23.72697
          ],
          [
            120.52388,
            23.72746
          ],
          [
            120.52385,
            23.72782
          ],
          [
            120.5238026960864,
            23.72864182717938
          ],
          [
            120.52380385968372,
            23.728663784859652
          ],
          [
            120.52380981293152,
            23.728685113920772
          ],
          [
            120.5238203130977,
            23.728704896310578
          ],
          [
            120.52383492800634,
            23.728722317806405
          ],
          [
            120.52385305612292,
            23.72873666135755
          ],
          [
            120.52387367545052,
            23.728747227343373
          ],
          [
            120.52416,
            23.72886
          ],
          [
            120.52438,
            23.72894
          ],
          [
            120.5246,
            23.72901
          ],
          [
            120.5248,
            23.72906
          ],
          [
            120.52505,
            23.72912
          ],
          [
            120.52547,
            23.72921
          ],
          [
            120.52642,
            23.72938
          ],
          [
            120.52787,
            23.72964
          ],
          [
            120.52864,
            23.72979
          ],
          [
            120.52883,
            23.72982
          ],
          [
            120.52939,
            23.72992
          ],
          [
            120.52963,
            23.72997
          ],
          [
            120.52987,
            23.73001
          ],
          [
            120.53045,
            23.73011
          ],
          [
            120.53103,
            23.7302
          ],
          [
            120.53123,
            23.73023
          ],
          [
            120.53201,
            23.73036
          ],
          [
            120.53231,
            23.7304
          ],
          [
            120.53234,
            23.7304
          ],
          [
            120.53264,
            23.73044
          ],
          [
            120.53292,
            23.73045
          ],
          [
            120.53297,
            23.73046
          ],
          [
            120.53312,
            23.73046
          ],
          [
            120.53326,
            23.73046
          ],
          [
            120.53332,
            23.73045
          ],
          [
            120.53368,
            23.73042
          ],
          [
            120.53371,
            23.73041
          ],
          [
            120.53385,
            23.73039
          ],
          [
            120.53409,
            23.73035
          ],
          [
            120.53424,
            23.73032
          ],
          [
            120.53428,
            23.73031
          ],
          [
            120.53526388961093,
            23.73006712683141
          ],
          [
            120.53530813926716,
            23.730064091147522
          ],
          [
            120.5353502828805,
            23.730076277085608
          ],
          [
            120.53538459187607,
            23.73010192038764
          ],
          [
            120.535406239275,
            23.73013741326285
          ],
          [
            120.5354121794755,
            23.730177762170715
          ],
          [
            120.53540170728098,
            23.730217027490728
          ],
          [
            120.53517,
            23.73068
          ],
          [
            120.53473891608716,
            23.731613272688683
          ],
          [
            120.53473077704513,
            23.73164041454375
          ],
          [
            120.5347305205452,
            23.731668845484656
          ],
          [
            120.5347382803218,
            23.731696362722026
          ],
          [
            120.53475352409743,
            23.731721078726277
          ],
          [
            120.53477520623375,
            23.731741298116848
          ],
          [
            120.53480156659538,
            23.731755528051146
          ],
          [
            120.5404,
            23.73392
          ],
          [
            120.5454052979969,
            23.735845556281724
          ],
          [
            120.54543492980333,
            23.735853030522172
          ],
          [
            120.54546535754845,
            23.735853218562756
          ],
          [
            120.54549482174167,
            23.735846212913035
          ],
          [
            120.54552135508389,
            23.735832481334267
          ],
          [
            120.54554318596651,
            23.735812940672254
          ],
          [
            120.54555897761414,
            23.73578863970118
          ],
          [
            120.54589,
            23.73509
          ],
          [
            120.54604,
            23.73476
          ],
          [
            120.54649,
            23.73377
          ],
          [
            120.54772143119528,
            23.73111083129952
          ],
          [
            120.54773067079597,
            23.73109707753607
          ],
          [
            120.54774386607558,
            23.731086614415027
          ],
          [
            120.54775985836123,
            23.731080282557787
          ],
          [
            120.54777717448897,
            23.73107866523707
          ],
          [
            120.54779421934623,
            23.731081911435872
          ],
          [
            120.54780957697658,
            23.731089833023702
          ],
          [
            120.54788,
            23.73114
          ],
          [
            120.54799,
            23.73122
          ],
          [
            120.54831,
            23.73141
          ],
          [
            120.54853,
            23.73154
          ],
          [
            120.54867,
            23.73162
          ],
          [
            120.54909,
            23.73184
          ],
          [
            120.54945,
            23.73201
          ],
          [
            120.54977,
            23.73215
          ],
          [
            120.55006,
            23.73227
          ],
          [
            120.55067,
            23.73248
          ],
          [
            120.55088,
            23.73255
          ],
          [
            120.55127,
            23.73268
          ],
          [
            120.55165,
            23.73279
          ],
          [
            120.55211,
            23.73289
          ],
          [
            120.55306326551566,
            23.7330330909538
          ],
          [
            120.55310340852324,
            23.733032774890827
          ],
          [
            120.553140989231,
            23.733020106144508
          ],
          [
            120.55317179841512,
            23.732996567216105
          ],
          [
            120.5531922785393,
            23.732964876145562
          ],
          [
            120.55320006476369,
            23.73292869230062
          ],
          [
            120.55319433383171,
            23.732892407755447
          ],
          [
            120.55298,
            23.73229
          ],
          [
            120.55287,
            23.7321
          ],
          [
            120.55286,
            23.73208
          ],
          [
            120.55259,
            23.73158
          ],
          [
            120.55239,
            23.73122
          ],
          [
            120.55194,
            23.7304
          ],
          [
            120.55183,
            23.73018
          ],
          [
            120.55153,
            23.72965
          ],
          [
            120.55137,
            23.72938
          ],
          [
            120.55129,
            23.72927
          ],
          [
            120.55124,
            23.72919
          ],
          [
            120.55122,
            23.72915
          ],
          [
            120.55113,
            23.72905
          ],
          [
            120.55101,
            23.7289
          ],
          [
            120.55092,
            23.72882
          ],
          [
            120.55079,
            23.72868
          ],
          [
            120.55021,
            23.72803
          ],
          [
            120.54981,
            23.7276
          ],
          [
            120.5494,
            23.72716
          ],
          [
            120.54891,
            23.72668
          ],
          [
            120.54864,
            23.72639
          ],
          [
            120.54833,
            23.72605
          ],
          [
            120.54825,
            23.72598
          ],
          [
            120.54816,
            23.72588
          ],
          [
            120.54807,
            23.72578
          ],
          [
            120.5472,
            23.72488
          ],
          [
            120.54716,
            23.72484
          ],
          [
            120.54613,
            23.72371
          ],
          [
            120.5459,
            23.72349
          ],
          [
            120.5457,
            23.7233
          ],
          [
            120.54561,
            23.72322
          ],
          [
            120.54557,
            23.72318
          ],
          [
            120.54529,
            23.72289
          ],
          [
            120.54523,
            23.72284
          ],
          [
            120.54511,
            23.72272
          ],
          [
            120.54499,
            23.7226
          ],
          [
            120.54487,
            23.72249
          ],
          [
            120.54481,
            23.72243
          ],
          [
            120.54467,
            23.72233
          ],
          [
            120.54453,
            23.72222
          ],
          [
            120.54422,
            23.72194
          ],
          [
            120.54381,
            23.72154
          ],
          [
            120.54354,
            23.72128
          ],
          [
            120.54333,
            23.72112
          ],
          [
            120.5432,
            23.72105
          ],
          [
            120.54319,
            23.72105
          ],
          [
            120.54302,
            23.72097
          ],
          [
            120.54274,
            23.72083
          ],
          [
            120.54255,
            23.72071
          ],
          [
            120.5419114182522,
            23.72026811828646
          ],
          [
            120.54189256323019,
            23.720251658163306
          ],
          [
            120.54187789619141,
            23.7202314624758
          ],
          [
            120.54186847014269,
            23.720208764394567
          ],
          [
            120.54186475757685,
            23.72018470169011
          ],
          [
            120.54186694459105,
            23.720160480536435
          ],
          [
            120.5418747966837,
            23.720137573932202
          ],
          [
            120.54214,
            23.71959
          ],
          [
            120.54237,
            23.71911
          ],
          [
            120.54239,
            23.71909
          ],
          [
            120.54245,
            23.71894
          ],
          [
            120.5425,
            23.71883
          ],
          [
            120.54253,
            23.71875
          ],
          [
            120.54255,
            23.71869
          ],
          [
            120.54262275992164,
            23.718288350653975
          ],
          [
            120.54263160137154,
            23.718261426281323
          ],
          [
            120.54264756508172,
            23.718237596245913
          ],
          [
            120.5426696102858,
            23.718218325147486
          ],
          [
            120.54269626945917,
            23.718204895841488
          ],
          [
            120.54272576793056,
            23.71819820230178
          ],
          [
            120.5427562609038,
            23.718198706387525
          ],
          [
            120.54306,
            23.71824
          ],
          [
            120.54314,
            23.71825
          ],
          [
            120.54383,
            23.71835
          ],
          [
            120.54398,
            23.71837
          ],
          [
            120.54461,
            23.71843
          ],
          [
            120.54486,
            23.71845
          ],
          [
            120.54504,
            23.71846
          ],
          [
            120.54532,
            23.71846
          ],
          [
            120.54566,
            23.71847
          ],
          [
            120.54611,
            23.71847
          ],
          [
            120.54619,
            23.71847
          ],
          [
            120.54646,
            23.71846
          ],
          [
            120.54653,
            23.71846
          ],
          [
            120.54664,
            23.71845
          ],
          [
            120.54695,
            23.71843
          ],
          [
            120.54763,
            23.71834
          ],
          [
            120.54824,
            23.71823
          ],
          [
            120.54899,
            23.71804
          ],
          [
            120.54949,
            23.71788
          ],
          [
            120.54994,
            23.71773
          ],
          [
            120.55004,
            23.7177
          ],
          [
            120.55013,
            23.71766
          ],
          [
            120.55095319297135,
            23.717334455456193
          ],
          [
            120.55097168015486,
            23.71732520112725
          ],
          [
            120.55098830270923,
            23.71731286886763
          ],
          [
            120.55100223856533,
            23.71729797330239
          ],
          [
            120.55101303011962,
            23.71728100354843
          ],
          [
            120.55102032301625,
            23.717262516831575
          ],
          [
            120.55102388266613,
            23.717243062276367
          ],
          [
            120.55106,
            23.71681
          ],
          [
            120.55108,
            23.71653
          ],
          [
            120.55108,
            23.71642
          ],
          [
            120.55106,
            23.71598
          ],
          [
            120.55113,
            23.71561
          ],
          [
            120.55114,
            23.71546
          ],
          [
            120.55115,
            23.7153
          ],
          [
            120.55117,
            23.71497
          ],
          [
            120.55116,
            23.71457
          ],
          [
            120.55117,
            23.71446
          ],
          [
            120.55118,
            23.71442
          ],
          [
            120.55119,
            23.71425
          ],
          [
            120.5512,
            23.71416
          ],
          [
            120.55131,
            23.71326
          ],
          [
            120.55136,
            23.71284
          ],
          [
            120.5515240205263,
            23.711498996391885
          ],
          [
            120.55147,
            23.71149
          ],
          [
            120.55104,
            23.71135
          ],
          [
            120.55008,
            23.71118
          ],
          [
            120.54976,
            23.71111
          ],
          [
            120.54937,
            23.71103
          ],
          [
            120.54843,
            23.71099
          ],
          [
            120.54831,
            23.71099
          ],
          [
            120.54792,
            23.71098
          ],
          [
            120.54704,
            23.71096
          ],
          [
            120.54663,
            23.71097
          ],
          [
            120.54629,
            23.71097
          ],
          [
            120.54568,
            23.71096
          ],
          [
            120.54522,
            23.71096
          ],
          [
            120.54458,
            23.711
          ],
          [
            120.54333877636523,
            23.711024929076455
          ],
          [
            120.54333,
            23.71106
          ],
          [
            120.54328557024508,
            23.711149116081465
          ],
          [
            120.54328311235615,
            23.71115535359467
          ],
          [
            120.5432817381341,
            23.711161981303594
          ],
          [
            120.54328153344683,
            23.711168726408065
          ],
          [
            120.5432825035839,
            23.711175414599577
          ],
          [
            120.54328462347483,
            23.71118187304038
          ],
          [
            120.54328776701252,
            23.71118782353542
          ],
          [
            120.54336,
            23.7113
          ],
          [
            120.54339,
            23.71137
          ],
          [
            120.54339,
            23.71144
          ],
          [
            120.54337,
            23.71166
          ],
          [
            120.543179,
            23.71311
          ],
          [
            120.543139,
            23.71351
          ],
          [
            120.54307084856686,
            23.71423523135632
          ],
          [
            120.54306060362893,
            23.714271112909053
          ],
          [
            120.54303790104767,
            23.7143016707482
          ],
          [
            120.54300537767514,
            23.714323412518322
          ],
          [
            120.54296681975077,
            23.714333807130522
          ],
          [
            120.54292671603213,
            23.714331644486098
          ],
          [
            120.54288941813783,
            23.714316987311765
          ],
          [
            120.541721,
            23.713623
          ],
          [
            120.540314,
            23.712747
          ],
          [
            120.53975,
            23.712378
          ],
          [
            120.53830206555757,
            23.71147182253625
          ],
          [
            120.53827992869233,
            23.71145370868601
          ],
          [
            120.53826321776747,
            23.711430759399533
          ],
          [
            120.53825333462382,
            23.711404662633097
          ],
          [
            120.53825092004539,
            23.71137711039799
          ],
          [
            120.53825613058389,
            23.711349889072313
          ],
          [
            120.53826843244256,
            23.711325054216566
          ],
          [
            120.5385912329974,
            23.710847230128657
          ],
          [
            120.53861314230242,
            23.71082315727927
          ],
          [
            120.53864127642707,
            23.7108060246414
          ],
          [
            120.53867352320252,
            23.71079694673907
          ],
          [
            120.53870723810607,
            23.71079666804112
          ],
          [
            120.53873965621533,
            23.71080521140325
          ],
          [
            120.53876842902103,
            23.71082212265523
          ],
          [
            120.539484,
            23.711388
          ],
          [
            120.54041263970835,
            23.71203430586771
          ],
          [
            120.54043384087612,
            23.71205352414722
          ],
          [
            120.54044930457955,
            23.712077363189533
          ],
          [
            120.5404577007681,
            23.712104040175362
          ],
          [
            120.54045847971426,
            23.71213180847015
          ],
          [
            120.5404515904177,
            23.71215884998758
          ],
          [
            120.54043770848844,
            23.712183100402743
          ],
          [
            120.53966525506671,
            23.713191466934884
          ],
          [
            120.53964446134322,
            23.71321237326005
          ],
          [
            120.5396188563623,
            23.713227446943097
          ],
          [
            120.539589920727,
            23.71323597822283
          ],
          [
            120.5395595808413,
            23.71323739912516
          ],
          [
            120.5395298565978,
            23.713231615052816
          ],
          [
            120.53950240851177,
            23.713218811303403
          ],
          [
            120.538383,
            23.712519
          ],
          [
            120.537536,
            23.711971
          ],
          [
            120.53642331273225,
            23.711322098228642
          ],
          [
            120.53640656600396,
            23.71131441729847
          ],
          [
            120.53638872296732,
            23.711310185823773
          ],
          [
            120.5363703166242,
            23.711309447277646
          ],
          [
            120.53635214237501,
            23.71131223357518
          ],
          [
            120.53633498559056,
            23.711318424311013
          ],
          [
            120.53631935145077,
            23.711327930718575
          ],
          [
            120.536173,
            23.711438
          ],
          [
            120.53598,
            23.71157
          ],
          [
            120.53554,
            23.71191
          ],
          [
            120.53528,
            23.71209
          ],
          [
            120.53502,
            23.71228
          ],
          [
            120.5349,
            23.71238
          ],
          [
            120.53465,
            23.71255
          ],
          [
            120.53438,
            23.71274
          ],
          [
            120.53429,
            23.71281
          ],
          [
            120.53416,
            23.7129
          ],
          [
            120.53404,
            23.713
          ],
          [
            120.53326781006335,
            23.71356358664698
          ],
          [
            120.53324283104234,
            23.71357745818725
          ],
          [
            120.53321518027475,
            23.713584823507365
          ],
          [
            120.53318640577604,
            23.713585409579448
          ],
          [
            120.53315842923324,
            23.713579177263043
          ],
          [
            120.53313311904247,
            23.713566542779528
          ],
          [
            120.53311192304695,
            23.713548075909376
          ],
          [
            120.53298,
            23.7134
          ],
          [
            120.53285,
            23.71324
          ],
          [
            120.5324,
            23.71266
          ],
          [
            120.53217,
            23.71235
          ]
        ]
      }
    },
    {
      "type": "Feature",
      "properties": {
        "feature_type": "station",
        "ref": "YUN307415",
        "name": "台電公司雲林區處",
        "name_en": "Taipower Company Yunlin Branch",
        "line": "102",
        "color": "#1e3a8a",
        "direction": 0,
        "station_id": "141773"
      },
      "geometry": {
        "type": "Point",
        "coordinates": [
          120.532229,
          23.712152
        ]
      }
    },
    {
      "type": "Feature",
      "properties": {
        "feature_type": "station",
        "ref": "YUN307417",
        "name": "台電大樓",
        "name_en": "Taipower Building",
        "line": "102",
        "color": "#1e3a8a",
        "direction": 0,
        "station_id": "141775"
      },
      "geometry": {
        "type": "Point",
        "coordinates": [
          120.535235,
          23.7121
        ]
      }
    },
    {
      "type": "Feature",
      "properties": {
        "feature_type": "station",
        "ref": "YUN307324",
        "name": "斗六火車站",
        "name_en": "Douliou Train Station",
        "line": "102",
        "color": "#1e3a8a",
        "direction": 0,
        "station_id": "141702"
      },
      "geometry": {
        "type": "Point",
        "coordinates": [
          120.540291,
          23.71192
        ]
      }
    },
    {
      "type": "Feature",
      "properties": {
        "feature_type": "station",
        "ref": "YUN307419",
        "name": "斗六高中(文化路)",
        "name_en": "Tou-Liu Senior High School(Wenhua Rd)",
        "line": "102",
        "color": "#1e3a8a",
        "direction": 0,
        "station_id": "141777"
      },
      "geometry": {
        "type": "Point",
        "coordinates": [
          120.545873,
          23.71095
        ]
      }
    },
    {
      "type": "Feature",
      "properties": {
        "feature_type": "station",
        "ref": "YUN307421",
        "name": "洪揚醫院",
        "name_en": "Hong yang Hospital",
        "line": "102",
        "color": "#1e3a8a",
        "direction": 0,
        "station_id": "141779"
      },
      "geometry": {
        "type": "Point",
        "coordinates": [
          120.549978,
          23.711139
        ]
      }
    },
    {
      "type": "Feature",
      "properties": {
        "feature_type": "station",
        "ref": "YUN307423",
        "name": "斗六國中",
        "name_en": "Douliu Junior High School",
        "line": "102",
        "color": "#1e3a8a",
        "direction": 0,
        "station_id": "141781"
      },
      "geometry": {
        "type": "Point",
        "coordinates": [
          120.551327,
          23.713256
        ]
      }
    },
    {
      "type": "Feature",
      "properties": {
        "feature_type": "station",
        "ref": "YUN307425",
        "name": "育英北街路口",
        "name_en": "Yuying North Street Intersection",
        "line": "102",
        "color": "#1e3a8a",
        "direction": 0,
        "station_id": "141783"
      },
      "geometry": {
        "type": "Point",
        "coordinates": [
          120.550309,
          23.717855
        ]
      }
    },
    {
      "type": "Feature",
      "properties": {
        "feature_type": "station",
        "ref": "YUN307427",
        "name": "明德北路一段路口",
        "name_en": "Mingde North Road 1 Section",
        "line": "102",
        "color": "#1e3a8a",
        "direction": 0,
        "station_id": "141785"
      },
      "geometry": {
        "type": "Point",
        "coordinates": [
          120.543164,
          23.718409
        ]
      }
    },
    {
      "type": "Feature",
      "properties": {
        "feature_type": "station",
        "ref": "YUN307429",
        "name": "萬年路173巷口",
        "name_en": "Lane 173, Wannian Rd",
        "line": "102",
        "color": "#1e3a8a",
        "direction": 0,
        "station_id": "141787"
      },
      "geometry": {
        "type": "Point",
        "coordinates": [
          120.545823,
          23.72334
        ]
      }
    },
    {
      "type": "Feature",
      "properties": {
        "feature_type": "station",
        "ref": "YUN307431",
        "name": "萬年庄",
        "name_en": "Wannianzhuang",
        "line": "102",
        "color": "#1e3a8a",
        "direction": 0,
        "station_id": "141789"
      },
      "geometry": {
        "type": "Point",
        "coordinates": [
          120.551611,
          23.729742
        ]
      }
    },
    {
      "type": "Feature",
      "properties": {
        "feature_type": "station",
        "ref": "YUN307433",
        "name": "雲科工業區服務中心",
        "name_en": "Yunlin Technology-based Industrial Park Service Center",
        "line": "102",
        "color": "#1e3a8a",
        "direction": 0,
        "station_id": "141791"
      },
      "geometry": {
        "type": "Point",
        "coordinates": [
          120.546098,
          23.735037
        ]
      }
    },
    {
      "type": "Feature",
      "properties": {
        "feature_type": "station",
        "ref": "YUN307435",
        "name": "虎溪豐泰",
        "name_en": "Huxi Fengtai",
        "line": "102",
        "color": "#1e3a8a",
        "direction": 0,
        "station_id": "141793"
      },
      "geometry": {
        "type": "Point",
        "coordinates": [
          120.524234,
          23.724965
        ]
      }
    },
    {
      "type": "Feature",
      "properties": {
        "feature_type": "station",
        "ref": "YUN307437",
        "name": "虎溪里",
        "name_en": "Huxi village",
        "line": "102",
        "color": "#1e3a8a",
        "direction": 0,
        "station_id": "141795"
      },
      "geometry": {
        "type": "Point",
        "coordinates": [
          120.522994,
          23.7225
        ]
      }
    },
    {
      "type": "Feature",
      "properties": {
        "feature_type": "station",
        "ref": "YUN307438",
        "name": "紅厝社區",
        "name_en": "Hongcuo Community",
        "line": "102",
        "color": "#1e3a8a",
        "direction": 0,
        "station_id": "141797"
      },
      "geometry": {
        "type": "Point",
        "coordinates": [
          120.517612,
          23.720929
        ]
      }
    },
    {
      "type": "Feature",
      "properties": {
        "feature_type": "station",
        "ref": "YUN307440",
        "name": "崙仔集會所",
        "name_en": "Lunzi convocation office",
        "line": "102",
        "color": "#1e3a8a",
        "direction": 0,
        "station_id": "141799"
      },
      "geometry": {
        "type": "Point",
        "coordinates": [
          120.511454,
          23.7197
        ]
      }
    },
    {
      "type": "Feature",
      "properties": {
        "feature_type": "station",
        "ref": "YUN307441",
        "name": "崙仔集會所",
        "name_en": "Lunzi convocation office",
        "line": "102",
        "color": "#1e3a8a",
        "direction": 1,
        "station_id": "141800"
      },
      "geometry": {
        "type": "Point",
        "coordinates": [
          120.511729,
          23.719752
        ]
      }
    },
    {
      "type": "Feature",
      "properties": {
        "feature_type": "station",
        "ref": "YUN307439",
        "name": "紅厝社區",
        "name_en": "Hongcuo Community",
        "line": "102",
        "color": "#1e3a8a",
        "direction": 1,
        "station_id": "141798"
      },
      "geometry": {
        "type": "Point",
        "coordinates": [
          120.517939,
          23.720891
        ]
      }
    },
    {
      "type": "Feature",
      "properties": {
        "feature_type": "station",
        "ref": "YUN307442",
        "name": "虎溪里",
        "name_en": "Huxi village",
        "line": "102",
        "color": "#1e3a8a",
        "direction": 1,
        "station_id": "141796"
      },
      "geometry": {
        "type": "Point",
        "coordinates": [
          120.52354,
          23.722476
        ]
      }
    },
    {
      "type": "Feature",
      "properties": {
        "feature_type": "station",
        "ref": "YUN307436",
        "name": "虎溪豐泰",
        "name_en": "Huxi Fengtai",
        "line": "102",
        "color": "#1e3a8a",
        "direction": 1,
        "station_id": "141794"
      },
      "geometry": {
        "type": "Point",
        "coordinates": [
          120.524358,
          23.724875
        ]
      }
    },
    {
      "type": "Feature",
      "properties": {
        "feature_type": "station",
        "ref": "YUN307434",
        "name": "雲科工業區服務中心",
        "name_en": "Yunlin Technology-based Industrial Park Service Center",
        "line": "102",
        "color": "#1e3a8a",
        "direction": 1,
        "station_id": "141792"
      },
      "geometry": {
        "type": "Point",
        "coordinates": [
          120.545711,
          23.735498
        ]
      }
    },
    {
      "type": "Feature",
      "properties": {
        "feature_type": "station",
        "ref": "YUN307432",
        "name": "萬年庄",
        "name_en": "Wannianzhuang",
        "line": "102",
        "color": "#1e3a8a",
        "direction": 1,
        "station_id": "141790"
      },
      "geometry": {
        "type": "Point",
        "coordinates": [
          120.551507,
          23.729658
        ]
      }
    },
    {
      "type": "Feature",
      "properties": {
        "feature_type": "station",
        "ref": "YUN307430",
        "name": "萬年路173巷口",
        "name_en": "Lane 173, Wannian Rd",
        "line": "102",
        "color": "#1e3a8a",
        "direction": 1,
        "station_id": "141788"
      },
      "geometry": {
        "type": "Point",
        "coordinates": [
          120.545641,
          23.723352
        ]
      }
    },
    {
      "type": "Feature",
      "properties": {
        "feature_type": "station",
        "ref": "YUN307428",
        "name": "明德北路一段路口",
        "name_en": "Mingde North Road 1 Section",
        "line": "102",
        "color": "#1e3a8a",
        "direction": 1,
        "station_id": "141786"
      },
      "geometry": {
        "type": "Point",
        "coordinates": [
          120.54314,
          23.71824
        ]
      }
    },
    {
      "type": "Feature",
      "properties": {
        "feature_type": "station",
        "ref": "YUN307426",
        "name": "育英北街路口",
        "name_en": "Yuying North Street Intersection",
        "line": "102",
        "color": "#1e3a8a",
        "direction": 1,
        "station_id": "141784"
      },
      "geometry": {
        "type": "Point",
        "coordinates": [
          120.550451,
          23.717513
        ]
      }
    },
    {
      "type": "Feature",
      "properties": {
        "feature_type": "station",
        "ref": "YUN307424",
        "name": "斗六國中",
        "name_en": "Douliu Junior High School",
        "line": "102",
        "color": "#1e3a8a",
        "direction": 1,
        "station_id": "141782"
      },
      "geometry": {
        "type": "Point",
        "coordinates": [
          120.55128,
          23.713258
        ]
      }
    },
    {
      "type": "Feature",
      "properties": {
        "feature_type": "station",
        "ref": "YUN307422",
        "name": "洪揚醫院",
        "name_en": "Hong yang Hospital",
        "line": "102",
        "color": "#1e3a8a",
        "direction": 1,
        "station_id": "141780"
      },
      "geometry": {
        "type": "Point",
        "coordinates": [
          120.549756,
          23.711139
        ]
      }
    },
    {
      "type": "Feature",
      "properties": {
        "feature_type": "station",
        "ref": "YUN307420",
        "name": "斗六高中(文化路)",
        "name_en": "Tou-Liu Senior High School(Wenhua Rd)",
        "line": "102",
        "color": "#1e3a8a",
        "direction": 1,
        "station_id": "141778"
      },
      "geometry": {
        "type": "Point",
        "coordinates": [
          120.545684,
          23.710981
        ]
      }
    },
    {
      "type": "Feature",
      "properties": {
        "feature_type": "station",
        "ref": "YUN307325",
        "name": "斗六火車站",
        "name_en": "Douliou Train Station",
        "line": "102",
        "color": "#1e3a8a",
        "direction": 1,
        "station_id": "141703"
      },
      "geometry": {
        "type": "Point",
        "coordinates": [
          120.540291,
          23.71192
        ]
      }
    },
    {
      "type": "Feature",
      "properties": {
        "feature_type": "station",
        "ref": "YUN307418",
        "name": "台電大樓",
        "name_en": "Taipower Building",
        "line": "102",
        "color": "#1e3a8a",
        "direction": 1,
        "station_id": "141776"
      },
      "geometry": {
        "type": "Point",
        "coordinates": [
          120.535289,
          23.712108
        ]
      }
    },
    {
      "type": "Feature",
      "properties": {
        "feature_type": "station",
        "ref": "YUN307416",
        "name": "台電公司雲林區處",
        "name_en": "Taipower Company Yunlin Branch",
        "line": "102",
        "color": "#1e3a8a",
        "direction": 1,
        "station_id": "141774"
      },
      "geometry": {
        "type": "Point",
        "coordinates": [
          120.532151,
          23.712357
        ]
      }
    }
  ]
}
