{
  "type": "FeatureCollection",
  "name": "250",
  "properties": {
    "id": "taipei_250",
    "name": "250",
    "name_en": "250",
    "ref": "250",
    "color": "#115e59",
    "city_id": "Taipei",
    "source": "TDX Bus Shape / StopOfRoute",
    "official_map_url": "https://ebus.gov.taipei/File/Get/d82b2ed9-018f-4acc-b24a-d8e129ac094e?v=639248448642416755",
    "operator_id": "5300",
    "operator": "光華巴士",
    "operator_en": "Kuang-Hua Bus Co., Ltd."
  },
  "features": [
    {
      "type": "Feature",
      "properties": {
        "feature_type": "route",
        "ref": "250",
        "name": "250",
        "name_en": "250",
        "color": "#115e59",
        "direction": 0
      },
      "geometry": {
        "type": "LineString",
        "coordinates": [
          [
            121.504477893592,
            25.1004159050935
          ],
          [
            121.504761785693,
            25.1004221259171
          ],
          [
            121.508173656137,
            25.1005332856799
          ],
          [
            121.5081453288,
            25.1012985751504
          ],
          [
            121.509861493338,
            25.1013762439258
          ],
          [
            121.51207880605529,
            25.101461991097857
          ],
          [
            121.51210807709992,
            25.101459824915917
          ],
          [
            121.51213584387963,
            25.10145120372827
          ],
          [
            121.51216045605565,
            25.101436652354064
          ],
          [
            121.51218041928723,
            25.101417054287353
          ],
          [
            121.51219452149667,
            25.101393599434694
          ],
          [
            121.5122019206303,
            25.10136761420414
          ],
          [
            121.512423543653,
            25.0998342601076
          ],
          [
            121.512505378184,
            25.0995406824273
          ],
          [
            121.512678489692,
            25.0990960391619
          ],
          [
            121.513421295434,
            25.0972461918174
          ],
          [
            121.513939623222,
            25.0960710552746
          ],
          [
            121.513877253422,
            25.0958116563739
          ],
          [
            121.514588731138,
            25.094110906408
          ],
          [
            121.514720400716,
            25.0940627913664
          ],
          [
            121.514914775624,
            25.0935948702003
          ],
          [
            121.515569451872,
            25.0919359199271
          ],
          [
            121.515821250428,
            25.0914142865848
          ],
          [
            121.515962887117,
            25.0913088194639
          ],
          [
            121.516693102931,
            25.0907244729578
          ],
          [
            121.517465809752,
            25.090178605286
          ],
          [
            121.517966259384,
            25.0899049579129
          ],
          [
            121.51837857952,
            25.0898080409881
          ],
          [
            121.51818327321627,
            25.089009159819273
          ],
          [
            121.51818061294864,
            25.088980287421634
          ],
          [
            121.51818647651362,
            25.088951648255037
          ],
          [
            121.5182004799774,
            25.08892546268967
          ],
          [
            121.51822161474276,
            25.0889036167366
          ],
          [
            121.5182483585817,
            25.088887683847034
          ],
          [
            121.5182786436281,
            25.088878834472286
          ],
          [
            121.520597554302,
            25.0885053560501
          ],
          [
            121.520855647823,
            25.088445494921
          ],
          [
            121.521478849251,
            25.0887690297225
          ],
          [
            121.521714910398,
            25.0889429115092
          ],
          [
            121.52267735232222,
            25.089771374150615
          ],
          [
            121.52269510911567,
            25.08979085395298
          ],
          [
            121.5227075720677,
            25.089813915879013
          ],
          [
            121.52271373880201,
            25.089839004133292
          ],
          [
            121.52271326340482,
            25.089864711427364
          ],
          [
            121.52270617254278,
            25.08988959574865
          ],
          [
            121.52269308843123,
            25.08991196746226
          ],
          [
            121.521258525513,
            25.0917819955656
          ],
          [
            121.5201024209212,
            25.093338377177275
          ],
          [
            121.52008118958472,
            25.093360161142858
          ],
          [
            121.52005471947301,
            25.09337585709441
          ],
          [
            121.52002465584434,
            25.093384654065567
          ],
          [
            121.5199931138953,
            25.093385933124946
          ],
          [
            121.51996231283314,
            25.09337960428134
          ],
          [
            121.51993409757875,
            25.093365902138196
          ],
          [
            121.51522569551,
            25.0902965614439
          ],
          [
            121.514561335044,
            25.089845079713
          ],
          [
            121.513293128331,
            25.0889999572061
          ],
          [
            121.512507350534,
            25.088482040461
          ],
          [
            121.511397291774,
            25.0876705170798
          ],
          [
            121.51067955221853,
            25.087150297118267
          ],
          [
            121.5106621245872,
            25.087134628362826
          ],
          [
            121.5106483895738,
            25.087115710343408
          ],
          [
            121.51063926613922,
            25.087094601597876
          ],
          [
            121.51063515283978,
            25.087072224259707
          ],
          [
            121.5106362293646,
            25.087049555880718
          ],
          [
            121.51064235323528,
            25.08702782053323
          ],
          [
            121.510947716361,
            25.0862824812998
          ],
          [
            121.511183226448,
            25.0857245889069
          ],
          [
            121.511266066121,
            25.0854342270975
          ],
          [
            121.51144482917,
            25.0848739284597
          ],
          [
            121.512453120022,
            25.0822361981296
          ],
          [
            121.513569254384,
            25.0796618747138
          ],
          [
            121.513736813346,
            25.079219378541
          ],
          [
            121.513799676858,
            25.0789487770825
          ],
          [
            121.513855938949,
            25.0783397306278
          ],
          [
            121.513819989443,
            25.0775547939515
          ],
          [
            121.513796571844,
            25.0773639176994
          ],
          [
            121.513741933879,
            25.074854475072
          ],
          [
            121.513696611808,
            25.0723283672593
          ],
          [
            121.513771282512,
            25.071934143365
          ],
          [
            121.513782543726,
            25.0711264986378
          ],
          [
            121.513754823815,
            25.0698773588683
          ],
          [
            121.513722483919,
            25.0688405841205
          ],
          [
            121.513678305311,
            25.0660168715096
          ],
          [
            121.513663867857,
            25.0657804257953
          ],
          [
            121.513635859197,
            25.0632223886505
          ],
          [
            121.513558474445,
            25.0627813964817
          ],
          [
            121.513527578294,
            25.0615944239129
          ],
          [
            121.513518049575,
            25.0602405601417
          ],
          [
            121.513608716784,
            25.0594045888894
          ],
          [
            121.51364105668,
            25.0583436609568
          ],
          [
            121.513646831662,
            25.0580674415265
          ],
          [
            121.513713243948,
            25.0575819634429
          ],
          [
            121.513762331291,
            25.0571017149123
          ],
          [
            121.513822968596,
            25.056417435977
          ],
          [
            121.514323659489,
            25.0541511270856
          ],
          [
            121.514217419836,
            25.0539063980439
          ],
          [
            121.514171,
            25.0535307619428
          ],
          [
            121.514082542775,
            25.052987868183
          ],
          [
            121.513926052015,
            25.0517490137968
          ],
          [
            121.513298889029,
            25.0495822841984
          ],
          [
            121.512023409013,
            25.049978272306
          ],
          [
            121.51061426714243,
            25.05026396629946
          ],
          [
            121.5105834620293,
            25.050266501126043
          ],
          [
            121.51055315143059,
            25.050261754830444
          ],
          [
            121.51052518653229,
            25.050250079796772
          ],
          [
            121.51050143539796,
            25.050232255920736
          ],
          [
            121.51048348461038,
            25.050209473842557
          ],
          [
            121.51047248951592,
            25.05018308814646
          ],
          [
            121.510113221688,
            25.048811768902
          ],
          [
            121.510027193388,
            25.048584579173
          ],
          [
            121.509883276242,
            25.0480708088237
          ],
          [
            121.509850358848,
            25.0478589182632
          ],
          [
            121.50967191192,
            25.0471023874966
          ],
          [
            121.509444955149,
            25.0463489912227
          ],
          [
            121.509309820583,
            25.0459236341984
          ],
          [
            121.508864569512,
            25.0443665951614
          ],
          [
            121.508712110001,
            25.0437858396516
          ],
          [
            121.507871742978,
            25.0411563907681
          ],
          [
            121.507087020626,
            25.0385296826795
          ],
          [
            121.50668,
            25.037231
          ],
          [
            121.506354226448,
            25.035994487151
          ],
          [
            121.506254889943,
            25.0356765962986
          ],
          [
            121.506153,
            25.035438
          ],
          [
            121.505999905793,
            25.0350996341857
          ],
          [
            121.50562619693443,
            25.034599662284602
          ],
          [
            121.50562295372012,
            25.034594367555076
          ],
          [
            121.50562071382582,
            25.03458853399942
          ],
          [
            121.50561961661985,
            25.03458243439825
          ],
          [
            121.50561969535315,
            25.034576253600807
          ],
          [
            121.50562094763967,
            25.034570178917004
          ],
          [
            121.50562328958856,
            25.03456448209788
          ],
          [
            121.505661806612,
            25.0344913668856
          ],
          [
            121.505675,
            25.0343181223437
          ],
          [
            121.505667,
            25.0341996830596
          ],
          [
            121.504071,
            25.031229
          ],
          [
            121.504077871041,
            25.0301838461779
          ],
          [
            121.50406925028,
            25.030054466393
          ],
          [
            121.504074890836,
            25.0299522648591
          ],
          [
            121.504122064429,
            25.0298559421436
          ],
          [
            121.505281890815,
            25.028633349585
          ],
          [
            121.505967453691,
            25.0278577945561
          ],
          [
            121.507075455256,
            25.0266892046514
          ],
          [
            121.508651670756,
            25.0253640359503
          ],
          [
            121.509342737977,
            25.0248046082604
          ],
          [
            121.510114564249,
            25.024600526801
          ],
          [
            121.50968152962787,
            25.023294079558777
          ],
          [
            121.50967430631016,
            25.02327732067214
          ],
          [
            121.50966428105482,
            25.023262053335763
          ],
          [
            121.50965165671037,
            25.023248486047958
          ],
          [
            121.509636772627,
            25.023236983505853
          ],
          [
            121.50962002889811,
            25.023227854904903
          ],
          [
            121.50960209724114,
            25.02322140670419
          ],
          [
            121.509001436572,
            25.0230565610723
          ],
          [
            121.508679192607,
            25.0229254761531
          ],
          [
            121.50806762207,
            25.0225424248085
          ],
          [
            121.506303942731,
            25.0213728549044
          ],
          [
            121.50430138441008,
            25.020068341875
          ],
          [
            121.5042797088696,
            25.0200570602203
          ],
          [
            121.50425631901624,
            25.020050226475668
          ],
          [
            121.5042318898577,
            25.020047921385594
          ],
          [
            121.50420746260075,
            25.020050243196412
          ],
          [
            121.50418407837097,
            25.020057092949113
          ],
          [
            121.50416241196376,
            25.02006838956707
          ],
          [
            121.503836524784,
            25.0202807516979
          ]
        ]
      }
    },
    {
      "type": "Feature",
      "properties": {
        "feature_type": "route",
        "ref": "250",
        "name": "250",
        "name_en": "250",
        "color": "#115e59",
        "direction": 1
      },
      "geometry": {
        "type": "LineString",
        "coordinates": [
          [
            121.503836524784,
            25.0202807516979
          ],
          [
            121.50261165365193,
            25.0211701928413
          ],
          [
            121.5025976442588,
            25.021182265465384
          ],
          [
            121.50258573468916,
            25.021196557218918
          ],
          [
            121.50257656940978,
            25.021212444826062
          ],
          [
            121.50257039913208,
            25.02122949368966
          ],
          [
            121.50256739264074,
            25.021247237446964
          ],
          [
            121.50256762480932,
            25.021265119236197
          ],
          [
            121.502877151936,
            25.0242300915557
          ],
          [
            121.503102420443,
            25.0246210636895
          ],
          [
            121.50368465289,
            25.0251486385704
          ],
          [
            121.505012004243,
            25.0256165453469
          ],
          [
            121.50639272702612,
            25.02601288729386
          ],
          [
            121.50641549815326,
            25.026017292599015
          ],
          [
            121.50643853409191,
            25.026017585837362
          ],
          [
            121.50646120002831,
            25.026013822015283
          ],
          [
            121.50648264595634,
            25.026006142281663
          ],
          [
            121.50650206762198,
            25.025994834637878
          ],
          [
            121.5065190063588,
            25.025980037061064
          ],
          [
            121.50821031954277,
            25.024191910894853
          ],
          [
            121.5082359161358,
            25.024171467568635
          ],
          [
            121.50826641016076,
            25.024158578059236
          ],
          [
            121.50829963768452,
            25.02415398481639
          ],
          [
            121.50833294708609,
            25.0241580543898
          ],
          [
            121.50836368021052,
            25.0241704620196
          ],
          [
            121.50838966060863,
            25.02419050079644
          ],
          [
            121.509210662637,
            25.0250285212287
          ],
          [
            121.508725143128,
            25.0253974581598
          ],
          [
            121.507520499026,
            25.0264636404931
          ],
          [
            121.507147939573,
            25.0267839492751
          ],
          [
            121.506051495584,
            25.027865950804
          ],
          [
            121.505327597062,
            25.0286747436872
          ],
          [
            121.504200807407,
            25.0298960890873
          ],
          [
            121.504164693982,
            25.0299829884893
          ],
          [
            121.504162039861,
            25.0300737994107
          ],
          [
            121.504161807407,
            25.0302132868949
          ],
          [
            121.504154,
            25.031235
          ],
          [
            121.50572551653,
            25.0341993169445
          ],
          [
            121.50572648347,
            25.0343142928672
          ],
          [
            121.505718771065,
            25.0344647071744
          ],
          [
            121.505868063634,
            25.0346215856013
          ],
          [
            121.506069,
            25.034854
          ],
          [
            121.506170488048,
            25.0350020246224
          ],
          [
            121.506372288759,
            25.0353175789917
          ],
          [
            121.506485593336,
            25.0355465741726
          ],
          [
            121.506566290082,
            25.035764097778
          ],
          [
            121.506609709918,
            25.0359245849988
          ],
          [
            121.50691948347,
            25.0371086120112
          ],
          [
            121.507319689277,
            25.0385275343707
          ],
          [
            121.508077676858,
            25.0411621456429
          ],
          [
            121.508836,
            25.043788
          ],
          [
            121.509553160328,
            25.046353
          ],
          [
            121.509660933879,
            25.0466713912469
          ],
          [
            121.509794052778,
            25.0469407216029
          ],
          [
            121.5098790896351,
            25.046973064598088
          ],
          [
            121.50988490185459,
            25.046975827558125
          ],
          [
            121.50989021415539,
            25.046979482448247
          ],
          [
            121.50989478647786,
            25.046983892284107
          ],
          [
            121.50989849154531,
            25.04698893431201
          ],
          [
            121.50990122622224,
            25.046994468180376
          ],
          [
            121.50990292250758,
            25.047000382447635
          ],
          [
            121.510131889194,
            25.0481955886491
          ],
          [
            121.510166129754,
            25.0485629276059
          ],
          [
            121.510496,
            25.050101
          ],
          [
            121.510570290082,
            25.0503090903304
          ],
          [
            121.510461324241,
            25.0520133975228
          ],
          [
            121.510285386776,
            25.0537536395301
          ],
          [
            121.512471350296,
            25.0539030043038
          ],
          [
            121.51430686242841,
            25.0540048867085
          ],
          [
            121.5143402535577,
            25.0540112215127
          ],
          [
            121.51437034446327,
            25.054025964724598
          ],
          [
            121.51439460507808,
            25.05404789879386
          ],
          [
            121.51441103653052,
            25.054075216536827
          ],
          [
            121.51441828500653,
            25.05410566720022
          ],
          [
            121.51441579123276,
            25.054136584860753
          ],
          [
            121.513944243207,
            25.0560758182291
          ],
          [
            121.513866858455,
            25.056413773924
          ],
          [
            121.513822968596,
            25.056863682536
          ],
          [
            121.513680904052,
            25.0580742423994
          ],
          [
            121.513661269115,
            25.0591205247664
          ],
          [
            121.513634704201,
            25.0594563795149
          ],
          [
            121.513589659345,
            25.059914647126
          ],
          [
            121.513555009456,
            25.0602463146247
          ],
          [
            121.513559629442,
            25.0606993479596
          ],
          [
            121.513583884364,
            25.0609117394544
          ],
          [
            121.513595434327,
            25.0617592092413
          ],
          [
            121.513600054312,
            25.0623639433574
          ],
          [
            121.51361622426,
            25.0627740727549
          ],
          [
            121.513677727812,
            25.063245405992
          ],
          [
            121.513689277775,
            25.0637538788827
          ],
          [
            121.513689277775,
            25.0646902586229
          ],
          [
            121.513705447723,
            25.0658023964351
          ],
          [
            121.513712377701,
            25.0660765059912
          ],
          [
            121.513743562601,
            25.0671373669663
          ],
          [
            121.51374702759,
            25.0678027543687
          ],
          [
            121.513753957568,
            25.0684932469082
          ],
          [
            121.513802467412,
            25.0704130049524
          ],
          [
            121.513822102349,
            25.0714497664021
          ],
          [
            121.513830187323,
            25.0719351895335
          ],
          [
            121.513905903039,
            25.0723267512885
          ],
          [
            121.513940242136,
            25.0749080723971
          ],
          [
            121.513981838763,
            25.0773466168297
          ],
          [
            121.513997918431,
            25.0775299061524
          ],
          [
            121.514032917042,
            25.0783052993847
          ],
          [
            121.513956475893,
            25.0789587982602
          ],
          [
            121.513898040623,
            25.0792483744032
          ],
          [
            121.513800068607,
            25.0796747475753
          ],
          [
            121.512798209179,
            25.082240397975
          ],
          [
            121.511689223961,
            25.0848768279064
          ],
          [
            121.511458452896,
            25.0854315081458
          ],
          [
            121.511339096694,
            25.0857354050649
          ],
          [
            121.511150443415,
            25.0863402790159
          ],
          [
            121.511148576054,
            25.0865189255578
          ],
          [
            121.511179129754,
            25.0867137630046
          ],
          [
            121.511214742978,
            25.0868810701832
          ],
          [
            121.511296066121,
            25.0870859561198
          ],
          [
            121.511389615711,
            25.0873401750163
          ],
          [
            121.511410081281,
            25.0874180858947
          ],
          [
            121.51140613243624,
            25.08751219864256
          ],
          [
            121.51140644018388,
            25.087518723994705
          ],
          [
            121.51140789995677,
            25.087525129239655
          ],
          [
            121.51141047393745,
            25.087531235671907
          ],
          [
            121.51141409464982,
            25.087536883213232
          ],
          [
            121.511418667178,
            25.087541923815074
          ],
          [
            121.51142395193853,
            25.087546144356683
          ],
          [
            121.514354718981,
            25.0895215786307
          ],
          [
            121.514869269533,
            25.0898634426678
          ],
          [
            121.518408967273,
            25.0921782438623
          ],
          [
            121.51997670576213,
            25.093203065932947
          ],
          [
            121.52000505886521,
            25.09321685955493
          ],
          [
            121.52003602912035,
            25.09322320258596
          ],
          [
            121.52006773631994,
            25.093221855328416
          ],
          [
            121.52009792575228,
            25.093212913586328
          ],
          [
            121.52012445063471,
            25.093197013210567
          ],
          [
            121.52014563841146,
            25.093174991893402
          ],
          [
            121.521245935586,
            25.0916708278507
          ],
          [
            121.5226099464167,
            25.089886910954508
          ],
          [
            121.52262302366543,
            25.08986444712977
          ],
          [
            121.52263006365332,
            25.08983947031443
          ],
          [
            121.5226304453109,
            25.089813683773574
          ],
          [
            121.52262414709968,
            25.089788542747847
          ],
          [
            121.52261152445362,
            25.089765466048835
          ],
          [
            121.52259359453048,
            25.08974601629338
          ],
          [
            121.521585863637,
            25.0888887516349
          ],
          [
            121.520858795305,
            25.088481126549
          ],
          [
            121.520023138844,
            25.0886279287469
          ],
          [
            121.519417248567,
            25.0887376739642
          ],
          [
            121.5183325495555,
            25.08891393184864
          ],
          [
            121.51830239521455,
            25.088922775598114
          ],
          [
            121.51827575623737,
            25.088938646306293
          ],
          [
            121.5182546791378,
            25.088960386508123
          ],
          [
            121.51824067012508,
            25.088986442607816
          ],
          [
            121.51823473030964,
            25.08901495258738
          ],
          [
            121.51823724746332,
            25.089043724462588
          ],
          [
            121.51843075474505,
            25.089852557026994
          ],
          [
            121.5184333781572,
            25.089879117147408
          ],
          [
            121.51842877468219,
            25.0899056112141
          ],
          [
            121.51841718863253,
            25.089930266931038
          ],
          [
            121.51839932743384,
            25.089951578859775
          ],
          [
            121.51837628166216,
            25.089968245728183
          ],
          [
            121.51834968408032,
            25.089979186248577
          ],
          [
            121.517908030968,
            25.0901030672702
          ],
          [
            121.51726909213,
            25.0905363412937
          ],
          [
            121.516850477029,
            25.0908356415324
          ],
          [
            121.516113966251,
            25.0913829315043
          ],
          [
            121.515914101146,
            25.0917449396719
          ],
          [
            121.515805513019,
            25.0920670405268
          ],
          [
            121.51457170009,
            25.095008665738
          ],
          [
            121.513413426729,
            25.0978362077992
          ],
          [
            121.512859469905,
            25.0992100504097
          ],
          [
            121.512689505879,
            25.0996945970271
          ],
          [
            121.512513246889,
            25.1007919455059
          ],
          [
            121.512430625488,
            25.1016206508515
          ],
          [
            121.511417136297,
            25.1015835979379
          ],
          [
            121.50820910237077,
            25.10144941326416
          ],
          [
            121.50817883571284,
            25.101444514673954
          ],
          [
            121.50815092118387,
            25.101432692737706
          ],
          [
            121.50812726324018,
            25.101414739345774
          ],
          [
            121.50810944337788,
            25.101391854653944
          ],
          [
            121.50809865282645,
            25.101365568467575
          ],
          [
            121.50809561203319,
            25.101337661305568
          ],
          [
            121.508121722685,
            25.100563213291
          ],
          [
            121.505213449355,
            25.1004677299346
          ],
          [
            121.504489443555,
            25.1004472828409
          ]
        ]
      }
    },
    {
      "type": "Feature",
      "properties": {
        "feature_type": "station",
        "ref": "TPE207167",
        "name": "福美站",
        "name_en": "Fu Mei Stop",
        "line": "250",
        "color": "#115e59",
        "direction": 0,
        "station_id": "1165604734"
      },
      "geometry": {
        "type": "Point",
        "coordinates": [
          121.504476019722,
          25.1003822071101
        ]
      }
    },
    {
      "type": "Feature",
      "properties": {
        "feature_type": "station",
        "ref": "TPE207168",
        "name": "三王宮",
        "name_en": "Sanwang Temple",
        "line": "250",
        "color": "#115e59",
        "direction": 0,
        "station_id": "1165604736"
      },
      "geometry": {
        "type": "Point",
        "coordinates": [
          121.50562988182526,
          25.10041172252245
        ]
      }
    },
    {
      "type": "Feature",
      "properties": {
        "feature_type": "station",
        "ref": "TPE208422",
        "name": "福美承平路口",
        "name_en": "FuMei ChengPing Intersection",
        "line": "250",
        "color": "#115e59",
        "direction": 0,
        "station_id": "1165606676"
      },
      "geometry": {
        "type": "Point",
        "coordinates": [
          121.507447,
          25.100501
        ]
      }
    },
    {
      "type": "Feature",
      "properties": {
        "feature_type": "station",
        "ref": "TPE207169",
        "name": "士林監理站",
        "name_en": "Shilin Motor Vehicles Office",
        "line": "250",
        "color": "#115e59",
        "direction": 0,
        "station_id": "654"
      },
      "geometry": {
        "type": "Point",
        "coordinates": [
          121.51404308646119,
          25.095130545514156
        ]
      }
    },
    {
      "type": "Feature",
      "properties": {
        "feature_type": "station",
        "ref": "TPE207170",
        "name": "福港街",
        "name_en": "Fugang St.",
        "line": "250",
        "color": "#115e59",
        "direction": 0,
        "station_id": "20379"
      },
      "geometry": {
        "type": "Point",
        "coordinates": [
          121.517833,
          25.089884
        ]
      }
    },
    {
      "type": "Feature",
      "properties": {
        "feature_type": "station",
        "ref": "TPE28144",
        "name": "後港里",
        "name_en": "Hougang Village",
        "line": "250",
        "color": "#115e59",
        "direction": 0,
        "station_id": "761"
      },
      "geometry": {
        "type": "Point",
        "coordinates": [
          121.5181604458413,
          25.089126426302588
        ]
      }
    },
    {
      "type": "Feature",
      "properties": {
        "feature_type": "station",
        "ref": "TPE207171",
        "name": "公教住宅",
        "name_en": "Civil Service Housing",
        "line": "250",
        "color": "#115e59",
        "direction": 0,
        "station_id": "1000171"
      },
      "geometry": {
        "type": "Point",
        "coordinates": [
          121.522119,
          25.090677
        ]
      }
    },
    {
      "type": "Feature",
      "properties": {
        "feature_type": "station",
        "ref": "TPE223954",
        "name": "士林區行政中心(中正)",
        "name_en": "Shilin Admin. Center",
        "line": "250",
        "color": "#115e59",
        "direction": 0,
        "station_id": "575"
      },
      "geometry": {
        "type": "Point",
        "coordinates": [
          121.519396,
          25.093132
        ]
      }
    },
    {
      "type": "Feature",
      "properties": {
        "feature_type": "station",
        "ref": "TPE28155",
        "name": "陽明高中",
        "name_en": "Yangming High School",
        "line": "250",
        "color": "#115e59",
        "direction": 0,
        "station_id": "1000115"
      },
      "geometry": {
        "type": "Point",
        "coordinates": [
          121.517889,
          25.092141
        ]
      }
    },
    {
      "type": "Feature",
      "properties": {
        "feature_type": "station",
        "ref": "TPE28156",
        "name": "葫東重慶路口",
        "name_en": "Hudong & Chongqing Intersection",
        "line": "250",
        "color": "#115e59",
        "direction": 0,
        "station_id": "887"
      },
      "geometry": {
        "type": "Point",
        "coordinates": [
          121.51144611421903,
          25.084340383790973
        ]
      }
    },
    {
      "type": "Feature",
      "properties": {
        "feature_type": "station",
        "ref": "TPE28157",
        "name": "士林簡易庭",
        "name_en": "Shilin Small Claims Court",
        "line": "250",
        "color": "#115e59",
        "direction": 0,
        "station_id": "591"
      },
      "geometry": {
        "type": "Point",
        "coordinates": [
          121.51261,
          25.08192
        ]
      }
    },
    {
      "type": "Feature",
      "properties": {
        "feature_type": "station",
        "ref": "TPE28158",
        "name": "啟聰學校",
        "name_en": "Taipei School for the Hearing Impaired",
        "line": "250",
        "color": "#115e59",
        "direction": 0,
        "station_id": "1000383"
      },
      "geometry": {
        "type": "Point",
        "coordinates": [
          121.5136892,
          25.07451003
        ]
      }
    },
    {
      "type": "Feature",
      "properties": {
        "feature_type": "station",
        "ref": "TPE28159",
        "name": "酒泉重慶路口",
        "name_en": "Jiuquan and Chongqing Intersection",
        "line": "250",
        "color": "#115e59",
        "direction": 0,
        "station_id": "1505"
      },
      "geometry": {
        "type": "Point",
        "coordinates": [
          121.51367,
          25.07328
        ]
      }
    },
    {
      "type": "Feature",
      "properties": {
        "feature_type": "station",
        "ref": "TPE28160",
        "name": "民族重慶路口",
        "name_en": "Minzu and Chongqing Intersection",
        "line": "250",
        "color": "#115e59",
        "direction": 0,
        "station_id": "1000066"
      },
      "geometry": {
        "type": "Point",
        "coordinates": [
          121.5137100606,
          25.0688798965403
        ]
      }
    },
    {
      "type": "Feature",
      "properties": {
        "feature_type": "station",
        "ref": "TPE28161",
        "name": "昌吉重慶路口",
        "name_en": "Changji & Chongqing Intersection",
        "line": "250",
        "color": "#115e59",
        "direction": 0,
        "station_id": "1001006"
      },
      "geometry": {
        "type": "Point",
        "coordinates": [
          121.5136438,
          25.06615028
        ]
      }
    },
    {
      "type": "Feature",
      "properties": {
        "feature_type": "station",
        "ref": "TPE28162",
        "name": "捷運大橋頭站",
        "name_en": "MRT Daqiaotou Sta.",
        "line": "250",
        "color": "#115e59",
        "direction": 0,
        "station_id": "8622"
      },
      "geometry": {
        "type": "Point",
        "coordinates": [
          121.513516380874,
          25.0633249732882
        ]
      }
    },
    {
      "type": "Feature",
      "properties": {
        "feature_type": "station",
        "ref": "TPE28163",
        "name": "涼州重慶路口",
        "name_en": "Liangzhou and Chongqing Intersection",
        "line": "250",
        "color": "#115e59",
        "direction": 0,
        "station_id": "8624"
      },
      "geometry": {
        "type": "Point",
        "coordinates": [
          121.513509342762,
          25.060980060423
        ]
      }
    },
    {
      "type": "Feature",
      "properties": {
        "feature_type": "station",
        "ref": "TPE28164",
        "name": "民生重慶路口",
        "name_en": "Minsheng and Chongqing Intersection",
        "line": "250",
        "color": "#115e59",
        "direction": 0,
        "station_id": "1421"
      },
      "geometry": {
        "type": "Point",
        "coordinates": [
          121.51369271164,
          25.0571504842388
        ]
      }
    },
    {
      "type": "Feature",
      "properties": {
        "feature_type": "station",
        "ref": "TPE28165",
        "name": "朝陽公園(鈕釦街)",
        "name_en": "Zhaoyang Park (Button St.)",
        "line": "250",
        "color": "#115e59",
        "direction": 0,
        "station_id": "1165605935"
      },
      "geometry": {
        "type": "Point",
        "coordinates": [
          121.514022,
          25.055504
        ]
      }
    },
    {
      "type": "Feature",
      "properties": {
        "feature_type": "station",
        "ref": "TPE28166",
        "name": "圓環(重慶)",
        "name_en": "Taipei Circle (Chongqing)",
        "line": "250",
        "color": "#115e59",
        "direction": 0,
        "station_id": "16018"
      },
      "geometry": {
        "type": "Point",
        "coordinates": [
          121.514023920514,
          25.0530178614119
        ]
      }
    },
    {
      "type": "Feature",
      "properties": {
        "feature_type": "station",
        "ref": "TPE28167",
        "name": "後車站",
        "name_en": "Old Taipei Railway Sta.",
        "line": "250",
        "color": "#115e59",
        "direction": 0,
        "station_id": "1000683"
      },
      "geometry": {
        "type": "Point",
        "coordinates": [
          121.51344796988172,
          25.050402129064192
        ]
      }
    },
    {
      "type": "Feature",
      "properties": {
        "feature_type": "station",
        "ref": "TPE28168",
        "name": "捷運北門站",
        "name_en": "MRT Beimen Station",
        "line": "250",
        "color": "#115e59",
        "direction": 0,
        "station_id": "1000077"
      },
      "geometry": {
        "type": "Point",
        "coordinates": [
          121.510134,
          25.049002
        ]
      }
    },
    {
      "type": "Feature",
      "properties": {
        "feature_type": "station",
        "ref": "TPE28169",
        "name": "中華路北站",
        "name_en": "Zhonghua Rd. N. Stop",
        "line": "250",
        "color": "#115e59",
        "direction": 0,
        "station_id": "1000078"
      },
      "geometry": {
        "type": "Point",
        "coordinates": [
          121.509144127644,
          25.0455115050969
        ]
      }
    },
    {
      "type": "Feature",
      "properties": {
        "feature_type": "station",
        "ref": "TPE28170",
        "name": "捷運西門站",
        "name_en": "MRT Ximen Sta.",
        "line": "250",
        "color": "#115e59",
        "direction": 0,
        "station_id": "1000079"
      },
      "geometry": {
        "type": "Point",
        "coordinates": [
          121.508266771006,
          25.0425165606871
        ]
      }
    },
    {
      "type": "Feature",
      "properties": {
        "feature_type": "station",
        "ref": "TPE28171",
        "name": "小南門",
        "name_en": "Xiaonanmen",
        "line": "250",
        "color": "#115e59",
        "direction": 0,
        "station_id": "1000080"
      },
      "geometry": {
        "type": "Point",
        "coordinates": [
          121.506903709074,
          25.0378687908132
        ]
      }
    },
    {
      "type": "Feature",
      "properties": {
        "feature_type": "station",
        "ref": "TPE28172",
        "name": "聯合醫院和平院區",
        "name_en": "TCUH, Heping Branch",
        "line": "250",
        "color": "#115e59",
        "direction": 0,
        "station_id": "1926"
      },
      "geometry": {
        "type": "Point",
        "coordinates": [
          121.506507520259,
          25.0364933609706
        ]
      }
    },
    {
      "type": "Feature",
      "properties": {
        "feature_type": "station",
        "ref": "TPE28173",
        "name": "大埔街",
        "name_en": "Dapu St.",
        "line": "250",
        "color": "#115e59",
        "direction": 0,
        "station_id": "4606"
      },
      "geometry": {
        "type": "Point",
        "coordinates": [
          121.50448356536738,
          25.03205520434067
        ]
      }
    },
    {
      "type": "Feature",
      "properties": {
        "feature_type": "station",
        "ref": "TPE28174",
        "name": "廈安里",
        "name_en": "Shaan Village",
        "line": "250",
        "color": "#115e59",
        "direction": 0,
        "station_id": "20344"
      },
      "geometry": {
        "type": "Point",
        "coordinates": [
          121.50438,
          25.02966
        ]
      }
    },
    {
      "type": "Feature",
      "properties": {
        "feature_type": "station",
        "ref": "TPE28175",
        "name": "南機場公寓",
        "name_en": "Nanjichang Apartment",
        "line": "250",
        "color": "#115e59",
        "direction": 0,
        "station_id": "1777"
      },
      "geometry": {
        "type": "Point",
        "coordinates": [
          121.505465333891,
          25.028384629531
        ]
      }
    },
    {
      "type": "Feature",
      "properties": {
        "feature_type": "station",
        "ref": "TPE28176",
        "name": "中華南海路口",
        "name_en": "Zhonghua and Nanhai Intersection",
        "line": "250",
        "color": "#115e59",
        "direction": 0,
        "station_id": "1743"
      },
      "geometry": {
        "type": "Point",
        "coordinates": [
          121.506437964545,
          25.0273435686053
        ]
      }
    },
    {
      "type": "Feature",
      "properties": {
        "feature_type": "station",
        "ref": "TPE28177",
        "name": "國興路口",
        "name_en": "Guoxing Rd. Entrance",
        "line": "250",
        "color": "#115e59",
        "direction": 0,
        "station_id": "1788"
      },
      "geometry": {
        "type": "Point",
        "coordinates": [
          121.508316077824,
          25.0256215629554
        ]
      }
    },
    {
      "type": "Feature",
      "properties": {
        "feature_type": "station",
        "ref": "TPE28178",
        "name": "古亭國中",
        "name_en": "Guting Junior High School",
        "line": "250",
        "color": "#115e59",
        "direction": 0,
        "station_id": "1748"
      },
      "geometry": {
        "type": "Point",
        "coordinates": [
          121.509856,
          25.024768
        ]
      }
    },
    {
      "type": "Feature",
      "properties": {
        "feature_type": "station",
        "ref": "TPE205485",
        "name": "萬華醫院",
        "name_en": "Wanhua Hospital",
        "line": "250",
        "color": "#115e59",
        "direction": 0,
        "station_id": "1817"
      },
      "geometry": {
        "type": "Point",
        "coordinates": [
          121.50982,
          25.02391
        ]
      }
    },
    {
      "type": "Feature",
      "properties": {
        "feature_type": "station",
        "ref": "TPE205486",
        "name": "青年公園(交通教學區)",
        "name_en": "Youth Park (Traffic Teaching Area)",
        "line": "250",
        "color": "#115e59",
        "direction": 0,
        "station_id": "20405"
      },
      "geometry": {
        "type": "Point",
        "coordinates": [
          121.50643,
          25.02149
        ]
      }
    },
    {
      "type": "Feature",
      "properties": {
        "feature_type": "station",
        "ref": "TPE205487",
        "name": "青年公園(馬場町)",
        "name_en": "Youth Park",
        "line": "250",
        "color": "#115e59",
        "direction": 0,
        "station_id": "20406"
      },
      "geometry": {
        "type": "Point",
        "coordinates": [
          121.5039,
          25.02023
        ]
      }
    },
    {
      "type": "Feature",
      "properties": {
        "feature_type": "station",
        "ref": "TPE205488",
        "name": "青年社宅",
        "name_en": "Qingnian Social Housing",
        "line": "250",
        "color": "#115e59",
        "direction": 1,
        "station_id": "1165604787"
      },
      "geometry": {
        "type": "Point",
        "coordinates": [
          121.502643,
          25.021587
        ]
      }
    },
    {
      "type": "Feature",
      "properties": {
        "feature_type": "station",
        "ref": "TPE205489",
        "name": "青年路",
        "name_en": "Qingnian Rd.",
        "line": "250",
        "color": "#115e59",
        "direction": 1,
        "station_id": "4644"
      },
      "geometry": {
        "type": "Point",
        "coordinates": [
          121.50277864902843,
          25.023224075638726
        ]
      }
    },
    {
      "type": "Feature",
      "properties": {
        "feature_type": "station",
        "ref": "TPE205490",
        "name": "中正新城",
        "name_en": "Zhongzheng New Village",
        "line": "250",
        "color": "#115e59",
        "direction": 1,
        "station_id": "4643"
      },
      "geometry": {
        "type": "Point",
        "coordinates": [
          121.50333348774862,
          25.02477910385403
        ]
      }
    },
    {
      "type": "Feature",
      "properties": {
        "feature_type": "station",
        "ref": "TPE205491",
        "name": "青年社區",
        "name_en": "Qingnian Community",
        "line": "250",
        "color": "#115e59",
        "direction": 1,
        "station_id": "4642"
      },
      "geometry": {
        "type": "Point",
        "coordinates": [
          121.504647,
          25.025478
        ]
      }
    },
    {
      "type": "Feature",
      "properties": {
        "feature_type": "station",
        "ref": "TPE205492",
        "name": "青年公園(青年)",
        "name_en": "Youth Park (Qingnian)",
        "line": "250",
        "color": "#115e59",
        "direction": 1,
        "station_id": "4641"
      },
      "geometry": {
        "type": "Point",
        "coordinates": [
          121.5062868,
          25.02596466
        ]
      }
    },
    {
      "type": "Feature",
      "properties": {
        "feature_type": "station",
        "ref": "TPE205493",
        "name": "青年公園(國興)",
        "name_en": "Youth Park (Guoxing)",
        "line": "250",
        "color": "#115e59",
        "direction": 1,
        "station_id": "4620"
      },
      "geometry": {
        "type": "Point",
        "coordinates": [
          121.50712,
          25.0253
        ]
      }
    },
    {
      "type": "Feature",
      "properties": {
        "feature_type": "station",
        "ref": "TPE205494",
        "name": "國興路口一",
        "name_en": "Guoxing Rd. Entrance 1",
        "line": "250",
        "color": "#115e59",
        "direction": 1,
        "station_id": "1790"
      },
      "geometry": {
        "type": "Point",
        "coordinates": [
          121.508810147614,
          25.0245858237515
        ]
      }
    },
    {
      "type": "Feature",
      "properties": {
        "feature_type": "station",
        "ref": "TPE28194",
        "name": "國興路口",
        "name_en": "Guoxing Rd. Entrance",
        "line": "250",
        "color": "#115e59",
        "direction": 1,
        "station_id": "4602"
      },
      "geometry": {
        "type": "Point",
        "coordinates": [
          121.508379,
          25.025757
        ]
      }
    },
    {
      "type": "Feature",
      "properties": {
        "feature_type": "station",
        "ref": "TPE28195",
        "name": "中華南海路口",
        "name_en": "Zhonghua and Nanhai Intersection",
        "line": "250",
        "color": "#115e59",
        "direction": 1,
        "station_id": "4603"
      },
      "geometry": {
        "type": "Point",
        "coordinates": [
          121.506661163485,
          25.0272364792619
        ]
      }
    },
    {
      "type": "Feature",
      "properties": {
        "feature_type": "station",
        "ref": "TPE28196",
        "name": "南機場公寓",
        "name_en": "Nanjichang Apartment",
        "line": "250",
        "color": "#115e59",
        "direction": 1,
        "station_id": "4604"
      },
      "geometry": {
        "type": "Point",
        "coordinates": [
          121.50540777894,
          25.0285917595947
        ]
      }
    },
    {
      "type": "Feature",
      "properties": {
        "feature_type": "station",
        "ref": "TPE28197",
        "name": "廈安里",
        "name_en": "Shaan Village",
        "line": "250",
        "color": "#115e59",
        "direction": 1,
        "station_id": "4605"
      },
      "geometry": {
        "type": "Point",
        "coordinates": [
          121.504168146781,
          25.0306970667598
        ]
      }
    },
    {
      "type": "Feature",
      "properties": {
        "feature_type": "station",
        "ref": "TPE28198",
        "name": "大埔街",
        "name_en": "Dapu St.",
        "line": "250",
        "color": "#115e59",
        "direction": 1,
        "station_id": "1737"
      },
      "geometry": {
        "type": "Point",
        "coordinates": [
          121.50499126498305,
          25.03268103989999
        ]
      }
    },
    {
      "type": "Feature",
      "properties": {
        "feature_type": "station",
        "ref": "TPE28199",
        "name": "聯合醫院和平院區",
        "name_en": "TCUH, Heping Branch",
        "line": "250",
        "color": "#115e59",
        "direction": 1,
        "station_id": "1165610495"
      },
      "geometry": {
        "type": "Point",
        "coordinates": [
          121.5062837,
          25.03501116
        ]
      }
    },
    {
      "type": "Feature",
      "properties": {
        "feature_type": "station",
        "ref": "TPE28200",
        "name": "捷運西門站",
        "name_en": "MRT Ximen Sta.",
        "line": "250",
        "color": "#115e59",
        "direction": 1,
        "station_id": "1793"
      },
      "geometry": {
        "type": "Point",
        "coordinates": [
          121.508285900629,
          25.041730058378
        ]
      }
    },
    {
      "type": "Feature",
      "properties": {
        "feature_type": "station",
        "ref": "TPE28201",
        "name": "中華路北站",
        "name_en": "Zhonghua Rd. N. Stop",
        "line": "250",
        "color": "#115e59",
        "direction": 1,
        "station_id": "1744"
      },
      "geometry": {
        "type": "Point",
        "coordinates": [
          121.509380726049,
          25.0456964941835
        ]
      }
    },
    {
      "type": "Feature",
      "properties": {
        "feature_type": "station",
        "ref": "TPE182037",
        "name": "捷運北門站",
        "name_en": "MRT Beimen Station",
        "line": "250",
        "color": "#115e59",
        "direction": 1,
        "station_id": "1001788"
      },
      "geometry": {
        "type": "Point",
        "coordinates": [
          121.5106101265,
          25.0506096983314
        ]
      }
    },
    {
      "type": "Feature",
      "properties": {
        "feature_type": "station",
        "ref": "TPE28203",
        "name": "南京西路口(塔城)",
        "name_en": "Nanjing W. Rd. Entrance (Tacheng)",
        "line": "250",
        "color": "#115e59",
        "direction": 1,
        "station_id": "1000995"
      },
      "geometry": {
        "type": "Point",
        "coordinates": [
          121.510462439727,
          25.0528521380205
        ]
      }
    },
    {
      "type": "Feature",
      "properties": {
        "feature_type": "station",
        "ref": "TPE28204",
        "name": "延平一站(南京)",
        "name_en": "Yanping Stop 1 (Nanjing)",
        "line": "250",
        "color": "#115e59",
        "direction": 1,
        "station_id": "16016"
      },
      "geometry": {
        "type": "Point",
        "coordinates": [
          121.51130002943,
          25.053799726585
        ]
      }
    },
    {
      "type": "Feature",
      "properties": {
        "feature_type": "station",
        "ref": "TPE28205",
        "name": "圓環(鈕釦街)",
        "name_en": "Taipei Circle",
        "line": "250",
        "color": "#115e59",
        "direction": 1,
        "station_id": "4665"
      },
      "geometry": {
        "type": "Point",
        "coordinates": [
          121.513268344324,
          25.0539552344985
        ]
      }
    },
    {
      "type": "Feature",
      "properties": {
        "feature_type": "station",
        "ref": "TPE28206",
        "name": "民生重慶路口",
        "name_en": "Minsheng and Chongqing Intersection",
        "line": "250",
        "color": "#115e59",
        "direction": 1,
        "station_id": "1422"
      },
      "geometry": {
        "type": "Point",
        "coordinates": [
          121.513825816749,
          25.0567660236851
        ]
      }
    },
    {
      "type": "Feature",
      "properties": {
        "feature_type": "station",
        "ref": "TPE28207",
        "name": "涼州重慶路口",
        "name_en": "Liangzhou and Chongqing Intersection",
        "line": "250",
        "color": "#115e59",
        "direction": 1,
        "station_id": "8625"
      },
      "geometry": {
        "type": "Point",
        "coordinates": [
          121.51358595205109,
          25.060581358412865
        ]
      }
    },
    {
      "type": "Feature",
      "properties": {
        "feature_type": "station",
        "ref": "TPE28208",
        "name": "捷運大橋頭站",
        "name_en": "MRT Daqiaotou Sta.",
        "line": "250",
        "color": "#115e59",
        "direction": 1,
        "station_id": "8623"
      },
      "geometry": {
        "type": "Point",
        "coordinates": [
          121.513583,
          25.062704
        ]
      }
    },
    {
      "type": "Feature",
      "properties": {
        "feature_type": "station",
        "ref": "TPE28209",
        "name": "昌吉重慶路口",
        "name_en": "Changji & Chongqing Intersection",
        "line": "250",
        "color": "#115e59",
        "direction": 1,
        "station_id": "1441"
      },
      "geometry": {
        "type": "Point",
        "coordinates": [
          121.51372071650857,
          25.06581169232777
        ]
      }
    },
    {
      "type": "Feature",
      "properties": {
        "feature_type": "station",
        "ref": "TPE28210",
        "name": "民族重慶路口",
        "name_en": "Minzu and Chongqing Intersection",
        "line": "250",
        "color": "#115e59",
        "direction": 1,
        "station_id": "1000167"
      },
      "geometry": {
        "type": "Point",
        "coordinates": [
          121.51377816707611,
          25.06841536079837
        ]
      }
    },
    {
      "type": "Feature",
      "properties": {
        "feature_type": "station",
        "ref": "TPE28211",
        "name": "酒泉重慶路口",
        "name_en": "Jiuquan and Chongqing Intersection",
        "line": "250",
        "color": "#115e59",
        "direction": 1,
        "station_id": "1455"
      },
      "geometry": {
        "type": "Point",
        "coordinates": [
          121.5138317,
          25.07180965
        ]
      }
    },
    {
      "type": "Feature",
      "properties": {
        "feature_type": "station",
        "ref": "TPE28212",
        "name": "啟聰學校",
        "name_en": "Taipei School for the Hearing Impaired",
        "line": "250",
        "color": "#115e59",
        "direction": 1,
        "station_id": "1000386"
      },
      "geometry": {
        "type": "Point",
        "coordinates": [
          121.51400277550044,
          25.07431025376296
        ]
      }
    },
    {
      "type": "Feature",
      "properties": {
        "feature_type": "station",
        "ref": "TPE28213",
        "name": "士林簡易庭",
        "name_en": "Shilin Small Claims Court",
        "line": "250",
        "color": "#115e59",
        "direction": 1,
        "station_id": "50639"
      },
      "geometry": {
        "type": "Point",
        "coordinates": [
          121.5132091,
          25.08159839
        ]
      }
    },
    {
      "type": "Feature",
      "properties": {
        "feature_type": "station",
        "ref": "TPE28214",
        "name": "葫東重慶路口",
        "name_en": "Hudong & Chongqing Intersection",
        "line": "250",
        "color": "#115e59",
        "direction": 1,
        "station_id": "50640"
      },
      "geometry": {
        "type": "Point",
        "coordinates": [
          121.51196,
          25.08435
        ]
      }
    },
    {
      "type": "Feature",
      "properties": {
        "feature_type": "station",
        "ref": "TPE28215",
        "name": "陽明高中",
        "name_en": "Yangming High School",
        "line": "250",
        "color": "#115e59",
        "direction": 1,
        "station_id": "860"
      },
      "geometry": {
        "type": "Point",
        "coordinates": [
          121.51817,
          25.091919999999998
        ]
      }
    },
    {
      "type": "Feature",
      "properties": {
        "feature_type": "station",
        "ref": "TPE28216",
        "name": "士林區行政中心(中正)",
        "name_en": "Shilin Admin. Center",
        "line": "250",
        "color": "#115e59",
        "direction": 1,
        "station_id": "581"
      },
      "geometry": {
        "type": "Point",
        "coordinates": [
          121.519189,
          25.092636
        ]
      }
    },
    {
      "type": "Feature",
      "properties": {
        "feature_type": "station",
        "ref": "TPE207173",
        "name": "士林區行政中心(基河)",
        "name_en": "Shilin Admin. Center",
        "line": "250",
        "color": "#115e59",
        "direction": 1,
        "station_id": "574"
      },
      "geometry": {
        "type": "Point",
        "coordinates": [
          121.52041074945086,
          25.092644539015005
        ]
      }
    },
    {
      "type": "Feature",
      "properties": {
        "feature_type": "station",
        "ref": "TPE207174",
        "name": "公教住宅",
        "name_en": "Civil Service Housing",
        "line": "250",
        "color": "#115e59",
        "direction": 1,
        "station_id": "7258"
      },
      "geometry": {
        "type": "Point",
        "coordinates": [
          121.52206662370652,
          25.090555500498695
        ]
      }
    },
    {
      "type": "Feature",
      "properties": {
        "feature_type": "station",
        "ref": "TPE207175",
        "name": "大南路口",
        "name_en": "Danan Rd. Entrance",
        "line": "250",
        "color": "#115e59",
        "direction": 1,
        "station_id": "1165606315"
      },
      "geometry": {
        "type": "Point",
        "coordinates": [
          121.522285617763,
          25.0895515092059
        ]
      }
    },
    {
      "type": "Feature",
      "properties": {
        "feature_type": "station",
        "ref": "TPE28224",
        "name": "後港里",
        "name_en": "Hougang Village",
        "line": "250",
        "color": "#115e59",
        "direction": 1,
        "station_id": "1000160"
      },
      "geometry": {
        "type": "Point",
        "coordinates": [
          121.518222,
          25.089027
        ]
      }
    },
    {
      "type": "Feature",
      "properties": {
        "feature_type": "station",
        "ref": "TPE207176",
        "name": "福港街",
        "name_en": "Fugang St.",
        "line": "250",
        "color": "#115e59",
        "direction": 1,
        "station_id": "1000161"
      },
      "geometry": {
        "type": "Point",
        "coordinates": [
          121.51763762219429,
          25.090337395239796
        ]
      }
    },
    {
      "type": "Feature",
      "properties": {
        "feature_type": "station",
        "ref": "TPE207177",
        "name": "士林監理站",
        "name_en": "Shilin Motor Vehicles Office",
        "line": "250",
        "color": "#115e59",
        "direction": 1,
        "station_id": "3328"
      },
      "geometry": {
        "type": "Point",
        "coordinates": [
          121.51459702986995,
          25.095240716768018
        ]
      }
    },
    {
      "type": "Feature",
      "properties": {
        "feature_type": "station",
        "ref": "TPE208423",
        "name": "福美承平路口",
        "name_en": "FuMei ChengPing Intersection",
        "line": "250",
        "color": "#115e59",
        "direction": 1,
        "station_id": "1165606675"
      },
      "geometry": {
        "type": "Point",
        "coordinates": [
          121.50703302755403,
          25.10059120420348
        ]
      }
    },
    {
      "type": "Feature",
      "properties": {
        "feature_type": "station",
        "ref": "TPE207178",
        "name": "三王宮",
        "name_en": "Sanwang Temple",
        "line": "250",
        "color": "#115e59",
        "direction": 1,
        "station_id": "1165604737"
      },
      "geometry": {
        "type": "Point",
        "coordinates": [
          121.5059969206,
          25.1005585521
        ]
      }
    },
    {
      "type": "Feature",
      "properties": {
        "feature_type": "station",
        "ref": "TPE207179",
        "name": "福美站",
        "name_en": "Fu Mei Stop",
        "line": "250",
        "color": "#115e59",
        "direction": 1,
        "station_id": "1165604735"
      },
      "geometry": {
        "type": "Point",
        "coordinates": [
          121.504482054692,
          25.1004994023069
        ]
      }
    }
  ]
}
