{
  "type": "FeatureCollection",
  "name": "202區",
  "properties": {
    "id": "taipei_202qu",
    "name": "202區",
    "name_en": "202區",
    "ref": "202區",
    "color": "#15803d",
    "city_id": "Taipei",
    "source": "TDX Bus Shape / StopOfRoute",
    "official_map_url": "https://ebus.gov.taipei/File/Get/6a06e303-3137-430b-b7d7-09e9775d906d?v=639248448636158610",
    "operator_id": "5100",
    "operator": "指南客運",
    "operator_en": "Zhinan Bus Co., Ltd."
  },
  "features": [
    {
      "type": "Feature",
      "properties": {
        "feature_type": "route",
        "ref": "202區",
        "name": "202區",
        "name_en": "202區",
        "color": "#15803d",
        "direction": 0
      },
      "geometry": {
        "type": "LineString",
        "coordinates": [
          [
            121.479170819689,
            24.9459769725839
          ],
          [
            121.479367740337,
            24.946168451364
          ],
          [
            121.479620238402,
            24.9465163755229
          ],
          [
            121.479738335835,
            24.9467275190614
          ],
          [
            121.479843667329,
            24.9469802196577
          ],
          [
            121.480022949385,
            24.9475923994054
          ],
          [
            121.480056629426,
            24.9476608758361
          ],
          [
            121.480397373159,
            24.9482158183033
          ],
          [
            121.480441230033,
            24.9482525287065
          ],
          [
            121.480755521682,
            24.9484533142659
          ],
          [
            121.48084770251,
            24.9485059595273
          ],
          [
            121.480938885316,
            24.9485434860236
          ],
          [
            121.481195788844,
            24.9486146178597
          ],
          [
            121.481554203151,
            24.9486777148006
          ],
          [
            121.48161663352,
            24.9486973884468
          ],
          [
            121.482260497415,
            24.9489659124933
          ],
          [
            121.482454349842,
            24.9490564116382
          ],
          [
            121.482519803645,
            24.9490940275478
          ],
          [
            121.482757757419,
            24.9493182667223
          ],
          [
            121.483178620318,
            24.9497785707595
          ],
          [
            121.483942840877,
            24.9507744566213
          ],
          [
            121.484027688384,
            24.9508668954044
          ],
          [
            121.484065712383,
            24.9509107429106
          ],
          [
            121.484118917487,
            24.9509496100552
          ],
          [
            121.484469816252,
            24.9512087827988
          ],
          [
            121.484524492529,
            24.9512338665882
          ],
          [
            121.484756328349,
            24.9513065543664
          ],
          [
            121.485859569177,
            24.9515506989039
          ],
          [
            121.486403050801,
            24.9517700240524
          ],
          [
            121.486475228292,
            24.9517842510595
          ],
          [
            121.486790488958,
            24.9517924654521
          ],
          [
            121.487569499876,
            24.9517369832678
          ],
          [
            121.48801750875,
            24.9517342660087
          ],
          [
            121.48953272949,
            24.951726124047
          ],
          [
            121.490730732909,
            24.9517146685485
          ],
          [
            121.491230220885,
            24.9517211490714
          ],
          [
            121.491311270254,
            24.9517328427349
          ],
          [
            121.491790499402,
            24.9518772528905
          ],
          [
            121.492100421458,
            24.9519924803893
          ],
          [
            121.492202728805,
            24.9520346494027
          ],
          [
            121.492282897997,
            24.9520777032671
          ],
          [
            121.492336896316,
            24.9521328640741
          ],
          [
            121.492494781355,
            24.9523117785584
          ],
          [
            121.492971877843,
            24.9529404879693
          ],
          [
            121.493050618915,
            24.9530254825366
          ],
          [
            121.493106024209,
            24.9530860814792
          ],
          [
            121.493674020868,
            24.9535818498452
          ],
          [
            121.49427910045,
            24.9540879715434
          ],
          [
            121.494627367883,
            24.9543355960507
          ],
          [
            121.494862178458,
            24.9544820441046
          ],
          [
            121.494931375495,
            24.9545138638952
          ],
          [
            121.496684227278,
            24.9551922897242
          ],
          [
            121.497789654607,
            24.9555922254904
          ],
          [
            121.498042242109,
            24.9557244753456
          ],
          [
            121.499119952299,
            24.9563987735619
          ],
          [
            121.499387518904,
            24.9565799308038
          ],
          [
            121.499516538605,
            24.9566574962279
          ],
          [
            121.499698969398,
            24.9567439463322
          ],
          [
            121.499855290698,
            24.9567960896897
          ],
          [
            121.50007319644,
            24.9568487252715
          ],
          [
            121.500676962255,
            24.9570006635969
          ],
          [
            121.502551143397,
            24.9574840139888
          ],
          [
            121.503457168481,
            24.9576936929776
          ],
          [
            121.50531534792,
            24.9580604990076
          ],
          [
            121.505373740521,
            24.9580651939751
          ],
          [
            121.506352215693,
            24.9580547770252
          ],
          [
            121.506452881749,
            24.9580598155315
          ],
          [
            121.506553177151,
            24.9580805565169
          ],
          [
            121.507567646573,
            24.9583259668244
          ],
          [
            121.507833822224,
            24.9584121669789
          ],
          [
            121.510305425281,
            24.9595048089629
          ],
          [
            121.510540632293,
            24.9596093136949
          ],
          [
            121.51084037534,
            24.9597428330342
          ],
          [
            121.511046274527,
            24.9598633170306
          ],
          [
            121.51137877045,
            24.9600689292232
          ],
          [
            121.511655289469,
            24.9602821699205
          ],
          [
            121.512029407468,
            24.9606270100677
          ],
          [
            121.512209430474,
            24.9608169767952
          ],
          [
            121.512318434157,
            24.9609997259922
          ],
          [
            121.512434301352,
            24.9612685166266
          ],
          [
            121.512485263521,
            24.9614357464643
          ],
          [
            121.512607485262,
            24.9619735491875
          ],
          [
            121.512748802487,
            24.962481938
          ],
          [
            121.512787299815,
            24.9625303860037
          ],
          [
            121.513037935858,
            24.962760881777
          ],
          [
            121.513103622659,
            24.9628008886742
          ],
          [
            121.5135664772,
            24.9629655027152
          ],
          [
            121.514224426183,
            24.9633972407072
          ],
          [
            121.514506332882,
            24.963534862114
          ],
          [
            121.515036640228,
            24.9636421794219
          ],
          [
            121.515196599742,
            24.9636695780561
          ],
          [
            121.515367667505,
            24.9636787232403
          ],
          [
            121.515998684079,
            24.9637158179217
          ],
          [
            121.516677290944,
            24.9637622080991
          ],
          [
            121.516858562776,
            24.9638283577045
          ],
          [
            121.517792993387,
            24.9640109510249
          ],
          [
            121.51710301034056,
            24.96420340804649
          ],
          [
            121.51707742435366,
            24.964213747130565
          ],
          [
            121.51705502495587,
            24.96422940776698
          ],
          [
            121.51703729736148,
            24.964249445479012
          ],
          [
            121.51702523958727,
            24.964272732196363
          ],
          [
            121.51701953045409,
            24.964297956938292
          ],
          [
            121.51702047239115,
            24.96432358636003
          ],
          [
            121.517085912728,
            24.9647104241612
          ],
          [
            121.517353599937,
            24.965533522985
          ],
          [
            121.517704079475,
            24.9664950526705
          ],
          [
            121.518252380295,
            24.9682368524528
          ],
          [
            121.518778870129,
            24.969905241011
          ],
          [
            121.519273961502,
            24.9715478796418
          ],
          [
            121.51980052152966,
            24.973284486812613
          ],
          [
            121.51980416304477,
            24.97330227745987
          ],
          [
            121.5198045019786,
            24.973320568356606
          ],
          [
            121.51980147176268,
            24.973338651506058
          ],
          [
            121.51979515844565,
            24.973356013403126
          ],
          [
            121.51978574130608,
            24.973372161024045
          ],
          [
            121.5197737686809,
            24.97338635524017
          ],
          [
            121.518939414861,
            24.9742163881648
          ],
          [
            121.51784652058,
            24.9752655732228
          ],
          [
            121.517500983674,
            24.97574755584
          ],
          [
            121.517037793946,
            24.9764640690027
          ],
          [
            121.516982826592,
            24.9765687226422
          ],
          [
            121.516937249339,
            24.9766755555865
          ],
          [
            121.51682342101,
            24.9769622710149
          ],
          [
            121.516753659022,
            24.977157975754402
          ],
          [
            121.516712761045,
            24.97732064901
          ],
          [
            121.516619584731,
            24.9778549132215
          ],
          [
            121.516659298961,
            24.9779397354142
          ],
          [
            121.516660256735,
            24.9783181246791
          ],
          [
            121.516858984169,
            24.9796503302054
          ],
          [
            121.516972053157,
            24.9802302099808
          ],
          [
            121.517001496345,
            24.9803442122615
          ],
          [
            121.517046922349,
            24.9804804609066
          ],
          [
            121.517146508374,
            24.9807124128092
          ],
          [
            121.517393036612,
            24.9811891030681
          ],
          [
            121.51768593373,
            24.9816242676731
          ],
          [
            121.518014068458,
            24.9820257005538
          ],
          [
            121.518053858491,
            24.9821085079462
          ],
          [
            121.518085227851,
            24.9822075400031
          ],
          [
            121.518070077885,
            24.9825875145883
          ],
          [
            121.517959823021,
            24.9833189039396
          ],
          [
            121.517922908885,
            24.9837182961101
          ],
          [
            121.517801663038,
            24.9846067854269
          ],
          [
            121.517758885795,
            24.9847770722349
          ],
          [
            121.517720209816,
            24.9848478231386
          ],
          [
            121.517670597482,
            24.9849283826981
          ],
          [
            121.517588179794,
            24.9850080358294
          ],
          [
            121.517413825366,
            24.9851470949563
          ],
          [
            121.515712155152,
            24.986377658254
          ],
          [
            121.515591663318,
            24.9864256180713
          ],
          [
            121.515488696171,
            24.98645978272
          ],
          [
            121.514487580755,
            24.9866813217406
          ],
          [
            121.51437840094,
            24.9867217978204
          ],
          [
            121.514254410069,
            24.9867928447534
          ],
          [
            121.514157061264,
            24.9868486257475
          ],
          [
            121.51398821636,
            24.9869847110662
          ],
          [
            121.513847569283,
            24.98711684191
          ],
          [
            121.513784270528,
            24.9872006318596
          ],
          [
            121.513725994945,
            24.9872779493967
          ],
          [
            121.512951269473,
            24.9889055646999
          ],
          [
            121.5124827059,
            24.9898837634594
          ],
          [
            121.511731553835,
            24.9915038665949
          ],
          [
            121.511673346257,
            24.991658303803298
          ],
          [
            121.5117842043485,
            24.992669339175134
          ],
          [
            121.51178332342428,
            24.992697042823064
          ],
          [
            121.51177475255014,
            24.99272370898123
          ],
          [
            121.51175904522003,
            24.992747515205597
          ],
          [
            121.51173723076855,
            24.992766901423842
          ],
          [
            121.51171073874295,
            24.992780597216004
          ],
          [
            121.51168141239944,
            24.992787692192792
          ],
          [
            121.508308468021,
            24.9931910221938
          ],
          [
            121.505783336994,
            24.9935425872087
          ],
          [
            121.505073043728,
            24.9936338213981
          ],
          [
            121.504686802597,
            24.9936553603191
          ],
          [
            121.504084972302,
            24.9936460335521
          ],
          [
            121.503676709209,
            24.9937881801621
          ],
          [
            121.503413561066,
            24.9938955203358
          ],
          [
            121.503239268833,
            24.9940129175233
          ],
          [
            121.501352664662,
            24.9957180994515
          ],
          [
            121.50123159993,
            24.9958345267569
          ],
          [
            121.501130996776,
            24.9959453889889
          ],
          [
            121.50102384219,
            24.996091750755
          ],
          [
            121.500309282124,
            24.9977430983263
          ],
          [
            121.500241090503,
            24.9978947317523
          ],
          [
            121.500098453188,
            24.9981299928522
          ],
          [
            121.49993734255,
            24.9983398760978
          ],
          [
            121.499774706201,
            24.9985280114229
          ],
          [
            121.499649221463,
            24.9986691257191
          ],
          [
            121.497877162529,
            25.0002564238811
          ],
          [
            121.497168925408,
            25.0009098919008
          ],
          [
            121.497032033462,
            25.0010585282283
          ],
          [
            121.496946498003,
            25.0011705088272
          ],
          [
            121.496892464316,
            25.0012814965094
          ],
          [
            121.496856924033,
            25.0014147174526
          ],
          [
            121.496673884552,
            25.0030329155139
          ],
          [
            121.496592782757,
            25.0038801040117
          ],
          [
            121.496573268833,
            25.003972476331
          ],
          [
            121.496382403773,
            25.0046530006233
          ],
          [
            121.495615376376,
            25.0063044069075
          ],
          [
            121.495495573007,
            25.006613945244
          ],
          [
            121.495450859533,
            25.0067478006627
          ],
          [
            121.495416438374,
            25.0069107783591
          ],
          [
            121.49542055666,
            25.0085733890373
          ],
          [
            121.495448405515,
            25.0102344234847
          ],
          [
            121.495509857039,
            25.0135209829355
          ],
          [
            121.495596897548,
            25.0164342980053
          ],
          [
            121.49561864945,
            25.0165538003451
          ],
          [
            121.495669546777,
            25.0166821437777
          ],
          [
            121.497750173527,
            25.0199817695561
          ],
          [
            121.499832277671,
            25.0233256795794
          ],
          [
            121.500078776976,
            25.0237626637238
          ],
          [
            121.50024040325,
            25.0241680684637
          ],
          [
            121.500372214073,
            25.0245138795245
          ],
          [
            121.500437807857,
            25.0247675949692
          ],
          [
            121.500459723993,
            25.025066666897
          ],
          [
            121.500485002916,
            25.0262111891662
          ],
          [
            121.500569933054,
            25.0295248824558
          ],
          [
            121.500605987629,
            25.0312445220386
          ],
          [
            121.500558262875,
            25.0329082723044
          ],
          [
            121.50055639928,
            25.0330284260072
          ],
          [
            121.500586266,
            25.0332179911824
          ],
          [
            121.500632426183,
            25.0333530240715
          ],
          [
            121.500700059816,
            25.033474722604
          ],
          [
            121.500783154111,
            25.0335815437353
          ],
          [
            121.500883951993,
            25.0336847866244
          ],
          [
            121.500955419454,
            25.0337596386425
          ],
          [
            121.501020360509,
            25.0339055696296
          ],
          [
            121.50126191871539,
            25.035066185512427
          ],
          [
            121.50127040727601,
            25.03509076491069
          ],
          [
            121.5012849124611,
            25.03511271606307
          ],
          [
            121.5013046539932,
            25.035130952115313
          ],
          [
            121.50132853125251,
            25.03514445638036
          ],
          [
            121.50135521304627,
            25.035152475975334
          ],
          [
            121.5013832426635,
            25.035154562759566
          ],
          [
            121.502429087677,
            25.0351194621561
          ],
          [
            121.503141392904,
            25.0350987648573
          ],
          [
            121.50331196420919,
            25.035054633358236
          ],
          [
            121.50332620313287,
            25.03505217849759
          ],
          [
            121.5033405481566,
            25.0350521281446
          ],
          [
            121.50335466630966,
            25.035054447345765
          ],
          [
            121.50336809136908,
            25.035059059514225
          ],
          [
            121.50338037999984,
            25.035065812342598
          ],
          [
            121.50339131598855,
            25.035074667080526
          ],
          [
            121.504864923313,
            25.0365011739898
          ],
          [
            121.506538871821,
            25.0371119186795
          ],
          [
            121.5066544246,
            25.0371362870146
          ],
          [
            121.50681033066921,
            25.03710456975236
          ],
          [
            121.5068318777834,
            25.03710273272151
          ],
          [
            121.50685310754184,
            25.03710591908838
          ],
          [
            121.50687276596071,
            25.037113896671457
          ],
          [
            121.50688957717603,
            25.0371261477124
          ],
          [
            121.50690245011211,
            25.037141877098353
          ],
          [
            121.50691058643913,
            25.037160192956282
          ],
          [
            121.507802346198,
            25.0402403104246
          ],
          [
            121.508497694683,
            25.0426154768605
          ],
          [
            121.50922756189,
            25.0452302710398
          ],
          [
            121.509508445643,
            25.0461936094096
          ],
          [
            121.509592648677,
            25.0464945049275
          ],
          [
            121.509761742716,
            25.0468745985205
          ],
          [
            121.509973919601,
            25.0473057940688
          ],
          [
            121.51008508443954,
            25.04806562574325
          ],
          [
            121.51009355912242,
            25.048093890444246
          ],
          [
            121.5101099429933,
            25.048118979510786
          ],
          [
            121.51013306471458,
            25.048139175982485
          ],
          [
            121.51016125091245,
            25.04815301819275
          ],
          [
            121.51019246168485,
            25.048159504347968
          ],
          [
            121.51022458427929,
            25.04815814060997
          ],
          [
            121.511387443655,
            25.0479643575873
          ],
          [
            121.51155185555,
            25.0478620302021
          ],
          [
            121.51181839891,
            25.0476841786144
          ],
          [
            121.512252104269,
            25.0474915433175
          ],
          [
            121.514614612985,
            25.046839719205
          ],
          [
            121.517705,
            25.0460516931977
          ],
          [
            121.519688295267,
            25.0455442242804
          ],
          [
            121.520763481398,
            25.0478784762756
          ],
          [
            121.52168559626374,
            25.049708406189417
          ],
          [
            121.52169997407877,
            25.04973004533332
          ],
          [
            121.5217192053349,
            25.049747878880464
          ],
          [
            121.52174240061314,
            25.049761222438825
          ],
          [
            121.52176832804946,
            25.049769367353445
          ],
          [
            121.52179561067939,
            25.049771881060977
          ],
          [
            121.52182299166186,
            25.049768585964216
          ],
          [
            121.525882397703,
            25.0488396278047
          ],
          [
            121.529046692425,
            25.0481075691354
          ],
          [
            121.529189199892,
            25.048095813086
          ],
          [
            121.52935756583,
            25.0481271368729
          ],
          [
            121.530057402527,
            25.0485200859847
          ],
          [
            121.532717920269,
            25.048463436776
          ],
          [
            121.536072695485,
            25.048403114234
          ]
        ]
      }
    },
    {
      "type": "Feature",
      "properties": {
        "feature_type": "route",
        "ref": "202區",
        "name": "202區",
        "name_en": "202區",
        "color": "#15803d",
        "direction": 1
      },
      "geometry": {
        "type": "LineString",
        "coordinates": [
          [
            121.536072695485,
            25.048403114234
          ],
          [
            121.536690269623,
            25.0483927953096
          ],
          [
            121.536597601463,
            25.0459426645729
          ],
          [
            121.536561664044,
            25.0436712643472
          ],
          [
            121.536620327575,
            25.0430180684557
          ],
          [
            121.536755251145,
            25.0424218583066
          ],
          [
            121.53692345804521,
            25.04197445352118
          ],
          [
            121.53692977004752,
            25.041938054982786
          ],
          [
            121.53692228353079,
            25.041901608500897
          ],
          [
            121.53690178951341,
            25.04186958714219
          ],
          [
            121.53687067914836,
            25.041845727019727
          ],
          [
            121.53683258225789,
            25.041832812028964
          ],
          [
            121.5367918141531,
            25.041832368116854
          ],
          [
            121.534363355351,
            25.0421877938002
          ],
          [
            121.53367678754,
            25.0422860512198
          ],
          [
            121.532796003239,
            25.0424349406337
          ],
          [
            121.530093104851,
            25.0431918292677
          ],
          [
            121.526840510801,
            25.0440404552077
          ],
          [
            121.523861869877,
            25.0447762217099
          ],
          [
            121.523092244757,
            25.0449708173919
          ],
          [
            121.521203715655,
            25.0454231347946
          ],
          [
            121.517753865215,
            25.0462431200673
          ],
          [
            121.51469736347,
            25.046967144722
          ],
          [
            121.512263882977,
            25.0475635921764
          ],
          [
            121.511931811878,
            25.0477491007221
          ],
          [
            121.511701491641,
            25.047921793412
          ],
          [
            121.51149680049,
            25.0480657327156
          ],
          [
            121.51139480211,
            25.0481167326801
          ],
          [
            121.511239243391,
            25.0481736230717
          ],
          [
            121.51000082533096,
            25.048212714386523
          ],
          [
            121.50997376877717,
            25.04821074889421
          ],
          [
            121.50994793084482,
            25.0482032512857
          ],
          [
            121.50992462410828,
            25.048190611779916
          ],
          [
            121.50990505872691,
            25.048173486659906
          ],
          [
            121.5098902505971,
            25.04815276511597
          ],
          [
            121.50988092459382,
            25.04812935535347
          ],
          [
            121.509381086245,
            25.0462271809595
          ],
          [
            121.509097276811,
            25.0452398944983
          ],
          [
            121.508323228456,
            25.0426096529202
          ],
          [
            121.507672629401,
            25.0402742431183
          ],
          [
            121.50674371805577,
            25.037283031269858
          ],
          [
            121.50673782493479,
            25.037269526840646
          ],
          [
            121.5067290736365,
            25.037257533412824
          ],
          [
            121.50671780167858,
            25.037247442650365
          ],
          [
            121.50670449282651,
            25.037239687624677
          ],
          [
            121.50668971826444,
            25.037234601162925
          ],
          [
            121.50667413862446,
            25.03723240276651
          ],
          [
            121.506511355984,
            25.0372250634305
          ],
          [
            121.504792754832,
            25.0366192336712
          ],
          [
            121.503793845486,
            25.0356327833046
          ],
          [
            121.503317269569,
            25.035245
          ],
          [
            121.502491087292,
            25.0352511724681
          ],
          [
            121.50129535573092,
            25.035277999598286
          ],
          [
            121.50126708316341,
            25.03527554495313
          ],
          [
            121.5012402722311,
            25.03526705456839
          ],
          [
            121.50121642781161,
            25.035253012002986
          ],
          [
            121.5011969066276,
            25.035234216264286
          ],
          [
            121.50118281941415,
            25.035211736810282
          ],
          [
            121.50117494659719,
            25.035186734038938
          ],
          [
            121.500956033696,
            25.0339556865873
          ],
          [
            121.500912761857,
            25.0338065557811
          ],
          [
            121.500829845889,
            25.0337321299802
          ],
          [
            121.50070002868,
            25.0335738038037
          ],
          [
            121.500638966304,
            25.0334895308376
          ],
          [
            121.500567951993,
            25.0333528812556
          ],
          [
            121.500536875148,
            25.0332308125614
          ],
          [
            121.5004914859,
            25.0330458532405
          ],
          [
            121.500491452204,
            25.0328993596453
          ],
          [
            121.500541637655,
            25.0312437389695
          ],
          [
            121.500482079336,
            25.0295345518267
          ],
          [
            121.500419886062,
            25.0261892059627
          ],
          [
            121.500361047311,
            25.0250792196959
          ],
          [
            121.500335024031,
            25.0247894961104
          ],
          [
            121.500278246788,
            25.0245319298375
          ],
          [
            121.500163746831,
            25.0241911433457
          ],
          [
            121.499996370658,
            25.0237909699798
          ],
          [
            121.499745159548,
            25.0233225168477
          ],
          [
            121.497627599965,
            25.0200227085072
          ],
          [
            121.495573751277,
            25.0166983018187
          ],
          [
            121.495513286586,
            25.0165715385992
          ],
          [
            121.49548917172,
            25.0164444621304
          ],
          [
            121.49542322191,
            25.0135278692897
          ],
          [
            121.495357857598,
            25.0102323651756
          ],
          [
            121.495344487631,
            25.0085720646412
          ],
          [
            121.495326634416,
            25.0069065429478
          ],
          [
            121.495352846477,
            25.006749729673
          ],
          [
            121.495399702871,
            25.0065979224806
          ],
          [
            121.49554629049,
            25.0062710185892
          ],
          [
            121.496267153567,
            25.0046375094607
          ],
          [
            121.496493388992,
            25.0039539707759
          ],
          [
            121.496507402409,
            25.00387750431
          ],
          [
            121.496587049652,
            25.0030253642024
          ],
          [
            121.496766176162,
            25.0013795189516
          ],
          [
            121.496804900432,
            25.0012502908865
          ],
          [
            121.496860611216,
            25.0011364201316
          ],
          [
            121.496945427921,
            25.0010112033615
          ],
          [
            121.497074630126,
            25.0008686155946
          ],
          [
            121.497764129997,
            25.0002262161284
          ],
          [
            121.499601468982,
            24.9985896055923
          ],
          [
            121.499716971466,
            24.9984584414964
          ],
          [
            121.499880490149,
            24.9982715384364
          ],
          [
            121.500030116399,
            24.9980612334626
          ],
          [
            121.500164085519,
            24.9978420782451
          ],
          [
            121.500218325753,
            24.9977255987009
          ],
          [
            121.50094178636,
            24.9960428666094
          ],
          [
            121.501036981977,
            24.9958955634379
          ],
          [
            121.501134069417,
            24.9957826080474
          ],
          [
            121.501256687623,
            24.9956832583739
          ],
          [
            121.503099577056,
            24.9940183195834
          ],
          [
            121.503199614957,
            24.9938769962829
          ],
          [
            121.50339325185095,
            24.993480422615114
          ],
          [
            121.50340403274575,
            24.99346280271214
          ],
          [
            121.50341798096633,
            24.993447508437406
          ],
          [
            121.50343475349314,
            24.993434795065173
          ],
          [
            121.50345378672775,
            24.993425089796183
          ],
          [
            121.5034744411065,
            24.99341871875144
          ],
          [
            121.50349598029987,
            24.99341589797116
          ],
          [
            121.5049592337,
            24.9933483584585
          ],
          [
            121.505784793786,
            24.9932544815624
          ],
          [
            121.508236634482,
            24.9929499378709
          ],
          [
            121.510717373442,
            24.9926330072151
          ],
          [
            121.511093416037,
            24.9923210586667
          ],
          [
            121.511230728608,
            24.9921855628785
          ],
          [
            121.511333579328,
            24.9920794873311
          ],
          [
            121.51144096315,
            24.9919421301042
          ],
          [
            121.511534519695,
            24.9917768935921
          ],
          [
            121.511635785887,
            24.9916405148736
          ],
          [
            121.511699612953,
            24.9915009952441
          ],
          [
            121.512444086175,
            24.98985215511
          ],
          [
            121.51290172706,
            24.9889009570167
          ],
          [
            121.513682525983,
            24.9872518639679
          ],
          [
            121.513730595534,
            24.9871771305195
          ],
          [
            121.513811666493,
            24.9870804367517
          ],
          [
            121.513956047241,
            24.9869559262518
          ],
          [
            121.514118161633,
            24.9868170805749
          ],
          [
            121.514223660827,
            24.9867538246922
          ],
          [
            121.514358322475,
            24.9866784616477
          ],
          [
            121.514484888144,
            24.9866420724372
          ],
          [
            121.515478976749,
            24.9864231211892
          ],
          [
            121.515586027354,
            24.9863897737279
          ],
          [
            121.515683489526,
            24.9863467831252
          ],
          [
            121.517392379815,
            24.985110727311
          ],
          [
            121.517557303992,
            24.9849758916942
          ],
          [
            121.517630610826,
            24.9849021642701
          ],
          [
            121.517671067724,
            24.9848356264462
          ],
          [
            121.517706765908,
            24.9847634453412
          ],
          [
            121.517748256892,
            24.9846022043174
          ],
          [
            121.517876293634,
            24.9837166707944
          ],
          [
            121.517905379561,
            24.9833107495591
          ],
          [
            121.517993581394,
            24.9825748430793
          ],
          [
            121.518002279002,
            24.9822333402986
          ],
          [
            121.517980163197,
            24.9821540011726
          ],
          [
            121.517944516456,
            24.982084391453
          ],
          [
            121.517608650722,
            24.9816588187557
          ],
          [
            121.51732259758,
            24.9812303571775
          ],
          [
            121.517068697701,
            24.9807185057825
          ],
          [
            121.516972598063,
            24.9804758480369
          ],
          [
            121.516925370055,
            24.9803530199814
          ],
          [
            121.516896596537,
            24.9802408403427
          ],
          [
            121.516768107072,
            24.9796648727519
          ],
          [
            121.516628388282,
            24.9788623676252
          ],
          [
            121.516550841452,
            24.9783145953266
          ],
          [
            121.516510096138,
            24.978067331467
          ],
          [
            121.516573747395,
            24.9778487465883
          ],
          [
            121.516660476678,
            24.9773159558009
          ],
          [
            121.51670376496,
            24.9771360610578
          ],
          [
            121.516779156017,
            24.9769418613609
          ],
          [
            121.516896152193,
            24.9766419496592
          ],
          [
            121.516939202394,
            24.9765405642288
          ],
          [
            121.516988790063,
            24.976451882911
          ],
          [
            121.517468202177,
            24.975731806107
          ],
          [
            121.517813988345,
            24.9752433692564
          ],
          [
            121.518900215229,
            24.9741799872083
          ],
          [
            121.5197250692864,
            24.973379075515574
          ],
          [
            121.51973739455384,
            24.973364785568023
          ],
          [
            121.51974710117626,
            24.973348468963803
          ],
          [
            121.51975362000329,
            24.973330880977286
          ],
          [
            121.51975676033392,
            24.97331253612532
          ],
          [
            121.51975643030134,
            24.973293971066003
          ],
          [
            121.51975269782228,
            24.973275919264434
          ],
          [
            121.519225326831,
            24.9715574996605
          ],
          [
            121.518730774604,
            24.9699151858394
          ],
          [
            121.518218852768,
            24.9682844293773
          ],
          [
            121.517649534082,
            24.9665021582146
          ],
          [
            121.517309724275,
            24.9655468352527
          ],
          [
            121.517043573817,
            24.9647216438765
          ],
          [
            121.5166784962335,
            24.963868746934804
          ],
          [
            121.51666843535054,
            24.96385041791279
          ],
          [
            121.5166549713196,
            24.96383433201187
          ],
          [
            121.51663846992253,
            24.96382080821965
          ],
          [
            121.5166195050491,
            24.963810316870028
          ],
          [
            121.51659873626454,
            24.96380322283383
          ],
          [
            121.51657695074088,
            24.963799777463095
          ],
          [
            121.516000478722,
            24.9637587494493
          ],
          [
            121.515361194188,
            24.9637214635909
          ],
          [
            121.515188237408,
            24.9637115188834
          ],
          [
            121.515027100107,
            24.9636794308941
          ],
          [
            121.514469486134,
            24.9635743117486
          ],
          [
            121.514188246788,
            24.9634348908932
          ],
          [
            121.513546572798,
            24.9630072333587
          ],
          [
            121.513086667835,
            24.9628303455508
          ],
          [
            121.513016496826,
            24.9627945599055
          ],
          [
            121.512752977645,
            24.9625539249479
          ],
          [
            121.512713842405,
            24.9624987667435
          ],
          [
            121.512551460532,
            24.9619842327306
          ],
          [
            121.512437882502,
            24.9614608005586
          ],
          [
            121.512385170174,
            24.9612918138813
          ],
          [
            121.512273866146,
            24.9610163674706
          ],
          [
            121.512165730838,
            24.9608483454053
          ],
          [
            121.511995857383,
            24.960659690479
          ],
          [
            121.511628615693,
            24.9603224924608
          ],
          [
            121.511341475845,
            24.9601027081767
          ],
          [
            121.511010236295,
            24.9598921473638
          ],
          [
            121.510809724336,
            24.9597731355142
          ],
          [
            121.510519835059,
            24.9596539189037
          ],
          [
            121.510265080307,
            24.9595347025817
          ],
          [
            121.5078161154,
            24.9584563127363
          ],
          [
            121.507549120648,
            24.9583661884744
          ],
          [
            121.506546918279,
            24.9581250904053
          ],
          [
            121.506447096023,
            24.9581010842635
          ],
          [
            121.506347787733,
            24.9580945390935
          ],
          [
            121.505373490502,
            24.9581133008747
          ],
          [
            121.505314316044,
            24.9581059516743
          ],
          [
            121.5034603158,
            24.9577393591497
          ],
          [
            121.502539220778,
            24.9575267098541
          ],
          [
            121.500666592043,
            24.9570486495644
          ],
          [
            121.500065887601,
            24.9568919013613
          ],
          [
            121.499840133012,
            24.9568419708153
          ],
          [
            121.499681250986,
            24.9567907253414
          ],
          [
            121.499501766639,
            24.9567048468143
          ],
          [
            121.499093705912,
            24.9564364748725
          ],
          [
            121.498007634739,
            24.955753569218
          ],
          [
            121.497769365639,
            24.9556279364272
          ],
          [
            121.496674897064,
            24.9552282638566
          ],
          [
            121.494916871132,
            24.9545517629058
          ],
          [
            121.49483374018,
            24.9545131153416
          ],
          [
            121.494575222446,
            24.9543496663544
          ],
          [
            121.494261611883,
            24.9541295327801
          ],
          [
            121.493657330596,
            24.9536326468341
          ],
          [
            121.493080461238,
            24.9531183081768
          ],
          [
            121.493015902592,
            24.9530567702204
          ],
          [
            121.492949150587,
            24.9529778573314
          ],
          [
            121.492452814251,
            24.9523371762217
          ],
          [
            121.492311628386,
            24.9521668819618
          ],
          [
            121.492263646704,
            24.9521140373513
          ],
          [
            121.492200524838,
            24.9520779187541
          ],
          [
            121.49208667163,
            24.9520348192489
          ],
          [
            121.491781858192,
            24.951927098659
          ],
          [
            121.491310988028,
            24.9517700146484
          ],
          [
            121.491215180008,
            24.9517567111744
          ],
          [
            121.490739541309,
            24.9517587360506
          ],
          [
            121.489534174859,
            24.951776715339
          ],
          [
            121.488020302711,
            24.9517760605223
          ],
          [
            121.487556322038,
            24.95178219747
          ],
          [
            121.486782656029,
            24.9518366491109
          ],
          [
            121.48646375429,
            24.9518244391693
          ],
          [
            121.486390731631,
            24.95181267702
          ],
          [
            121.485847559437,
            24.951598548708
          ],
          [
            121.484731191953,
            24.9513495973212
          ],
          [
            121.484507292811,
            24.9512757415645
          ],
          [
            121.484441755414,
            24.9512497367544
          ],
          [
            121.484095458574,
            24.9509850591742
          ],
          [
            121.4840445098,
            24.9509445778178
          ],
          [
            121.483996937597,
            24.9508996222201
          ],
          [
            121.483897046118,
            24.9507916284059
          ],
          [
            121.483143055129,
            24.9498191043093
          ],
          [
            121.48273007701,
            24.9493414394542
          ],
          [
            121.48249171633,
            24.9491141142828
          ],
          [
            121.482436199166,
            24.9490750348154
          ],
          [
            121.482255188519,
            24.9489873990183
          ],
          [
            121.48160841911,
            24.9487406087467
          ],
          [
            121.481537228484,
            24.9487198519811
          ],
          [
            121.481187415142,
            24.9486566080569
          ],
          [
            121.480931441856,
            24.9485866780904
          ],
          [
            121.4808374649,
            24.9485466245152
          ],
          [
            121.480748258736,
            24.9484922396306
          ],
          [
            121.48041517133,
            24.948287181751
          ],
          [
            121.480361221457,
            24.9482342993226
          ],
          [
            121.480028029911,
            24.9476801804627
          ],
          [
            121.479998374684,
            24.947615017922
          ],
          [
            121.479799190269,
            24.9469653782564
          ]
        ]
      }
    },
    {
      "type": "Feature",
      "properties": {
        "feature_type": "station",
        "ref": "TPE19179",
        "name": "錦秀路口",
        "name_en": "Jinxiu Rd. Entrance",
        "line": "202區",
        "color": "#15803d",
        "direction": 0,
        "station_id": "1165603298"
      },
      "geometry": {
        "type": "Point",
        "coordinates": [
          121.479176,
          24.945972
        ]
      }
    },
    {
      "type": "Feature",
      "properties": {
        "feature_type": "station",
        "ref": "TPE19180",
        "name": "碧瑤",
        "name_en": "Biyao",
        "line": "202區",
        "color": "#15803d",
        "direction": 0,
        "station_id": "60048"
      },
      "geometry": {
        "type": "Point",
        "coordinates": [
          121.47982,
          24.94681
        ]
      }
    },
    {
      "type": "Feature",
      "properties": {
        "feature_type": "station",
        "ref": "TPE59569",
        "name": "日興市民活動中心",
        "name_en": "Rixing Civic activity center",
        "line": "202區",
        "color": "#15803d",
        "direction": 0,
        "station_id": "4119"
      },
      "geometry": {
        "type": "Point",
        "coordinates": [
          121.481962,
          24.948762
        ]
      }
    },
    {
      "type": "Feature",
      "properties": {
        "feature_type": "station",
        "ref": "TPE19181",
        "name": "三城",
        "name_en": "Sancheng",
        "line": "202區",
        "color": "#15803d",
        "direction": 0,
        "station_id": "1000372"
      },
      "geometry": {
        "type": "Point",
        "coordinates": [
          121.483119,
          24.949637
        ]
      }
    },
    {
      "type": "Feature",
      "properties": {
        "feature_type": "station",
        "ref": "TPE19182",
        "name": "建業路",
        "name_en": "Jianye Rd.",
        "line": "202區",
        "color": "#15803d",
        "direction": 0,
        "station_id": "1000374"
      },
      "geometry": {
        "type": "Point",
        "coordinates": [
          121.484465,
          24.95121
        ]
      }
    },
    {
      "type": "Feature",
      "properties": {
        "feature_type": "station",
        "ref": "TPE19183",
        "name": "二城",
        "name_en": "Ercheng",
        "line": "202區",
        "color": "#15803d",
        "direction": 0,
        "station_id": "1000375"
      },
      "geometry": {
        "type": "Point",
        "coordinates": [
          121.4860328,
          24.95159154
        ]
      }
    },
    {
      "type": "Feature",
      "properties": {
        "feature_type": "station",
        "ref": "TPE19184",
        "name": "中央印製廠",
        "name_en": "Central Engraving & Printing Plant",
        "line": "202區",
        "color": "#15803d",
        "direction": 0,
        "station_id": "1000376"
      },
      "geometry": {
        "type": "Point",
        "coordinates": [
          121.488385431569,
          24.951722671131
        ]
      }
    },
    {
      "type": "Feature",
      "properties": {
        "feature_type": "station",
        "ref": "TPE19277",
        "name": "中央新城",
        "name_en": "Zhongyang New Village",
        "line": "202區",
        "color": "#15803d",
        "direction": 0,
        "station_id": "2868"
      },
      "geometry": {
        "type": "Point",
        "coordinates": [
          121.489551,
          24.951708
        ]
      }
    },
    {
      "type": "Feature",
      "properties": {
        "feature_type": "station",
        "ref": "TPE19185",
        "name": "頭城",
        "name_en": "Toucheng",
        "line": "202區",
        "color": "#15803d",
        "direction": 0,
        "station_id": "1000379"
      },
      "geometry": {
        "type": "Point",
        "coordinates": [
          121.4915448,
          24.95177354
        ]
      }
    },
    {
      "type": "Feature",
      "properties": {
        "feature_type": "station",
        "ref": "TPE19186",
        "name": "頭城一",
        "name_en": "Toucheng 1",
        "line": "202區",
        "color": "#15803d",
        "direction": 0,
        "station_id": "2975"
      },
      "geometry": {
        "type": "Point",
        "coordinates": [
          121.493053,
          24.952962
        ]
      }
    },
    {
      "type": "Feature",
      "properties": {
        "feature_type": "station",
        "ref": "TPE19187",
        "name": "大茅埔",
        "name_en": "Damaopu",
        "line": "202區",
        "color": "#15803d",
        "direction": 0,
        "station_id": "1000380"
      },
      "geometry": {
        "type": "Point",
        "coordinates": [
          121.4946626,
          24.95431753
        ]
      }
    },
    {
      "type": "Feature",
      "properties": {
        "feature_type": "station",
        "ref": "TPE19188",
        "name": "康樂新村",
        "name_en": "Kangle New Village",
        "line": "202區",
        "color": "#15803d",
        "direction": 0,
        "station_id": "1000381"
      },
      "geometry": {
        "type": "Point",
        "coordinates": [
          121.496698,
          24.955162
        ]
      }
    },
    {
      "type": "Feature",
      "properties": {
        "feature_type": "station",
        "ref": "TPE19189",
        "name": "仁康醫院",
        "name_en": "Jen-Kang Hospital",
        "line": "202區",
        "color": "#15803d",
        "direction": 0,
        "station_id": "3983"
      },
      "geometry": {
        "type": "Point",
        "coordinates": [
          121.499054,
          24.956348
        ]
      }
    },
    {
      "type": "Feature",
      "properties": {
        "feature_type": "station",
        "ref": "TPE19190",
        "name": "薏仁坑",
        "name_en": "Yirenkeng",
        "line": "202區",
        "color": "#15803d",
        "direction": 0,
        "station_id": "3982"
      },
      "geometry": {
        "type": "Point",
        "coordinates": [
          121.502106,
          24.95733611
        ]
      }
    },
    {
      "type": "Feature",
      "properties": {
        "feature_type": "station",
        "ref": "TPE19191",
        "name": "安康車子路口",
        "name_en": "Ankang Chezi Rd. Intersection",
        "line": "202區",
        "color": "#15803d",
        "direction": 0,
        "station_id": "3984"
      },
      "geometry": {
        "type": "Point",
        "coordinates": [
          121.505929,
          24.958027
        ]
      }
    },
    {
      "type": "Feature",
      "properties": {
        "feature_type": "station",
        "ref": "TPE19192",
        "name": "台北菸廠",
        "name_en": "Taipei Tobacco Factory",
        "line": "202區",
        "color": "#15803d",
        "direction": 0,
        "station_id": "2887"
      },
      "geometry": {
        "type": "Point",
        "coordinates": [
          121.509284,
          24.959017
        ]
      }
    },
    {
      "type": "Feature",
      "properties": {
        "feature_type": "station",
        "ref": "TPE19193",
        "name": "浪漫貴族",
        "name_en": "Langmanguizu",
        "line": "202區",
        "color": "#15803d",
        "direction": 0,
        "station_id": "1000401"
      },
      "geometry": {
        "type": "Point",
        "coordinates": [
          121.511483,
          24.960016
        ]
      }
    },
    {
      "type": "Feature",
      "properties": {
        "feature_type": "station",
        "ref": "TPE19194",
        "name": "公崙新村(豐榮醫院)",
        "name_en": "Gonglun New Village(Feng Rong Hospital)",
        "line": "202區",
        "color": "#15803d",
        "direction": 0,
        "station_id": "1000402"
      },
      "geometry": {
        "type": "Point",
        "coordinates": [
          121.512648,
          24.962041
        ]
      }
    },
    {
      "type": "Feature",
      "properties": {
        "feature_type": "station",
        "ref": "TPE19195",
        "name": "安康派出所",
        "name_en": "Ankang Police Station",
        "line": "202區",
        "color": "#15803d",
        "direction": 0,
        "station_id": "1000403"
      },
      "geometry": {
        "type": "Point",
        "coordinates": [
          121.515311,
          24.963642
        ]
      }
    },
    {
      "type": "Feature",
      "properties": {
        "feature_type": "station",
        "ref": "TPE19196",
        "name": "輕軌安康站",
        "name_en": "LRT Ankang Sta.",
        "line": "202區",
        "color": "#15803d",
        "direction": 0,
        "station_id": "4134"
      },
      "geometry": {
        "type": "Point",
        "coordinates": [
          121.517257,
          24.96503
        ]
      }
    },
    {
      "type": "Feature",
      "properties": {
        "feature_type": "station",
        "ref": "TPE19197",
        "name": "及人中學",
        "name_en": "Chi Jen High School",
        "line": "202區",
        "color": "#15803d",
        "direction": 0,
        "station_id": "1000504"
      },
      "geometry": {
        "type": "Point",
        "coordinates": [
          121.518062,
          24.967108
        ]
      }
    },
    {
      "type": "Feature",
      "properties": {
        "feature_type": "station",
        "ref": "TPE19198",
        "name": "十四份",
        "name_en": "Shisifen",
        "line": "202區",
        "color": "#15803d",
        "direction": 0,
        "station_id": "1000505"
      },
      "geometry": {
        "type": "Point",
        "coordinates": [
          121.518795,
          24.969329
        ]
      }
    },
    {
      "type": "Feature",
      "properties": {
        "feature_type": "station",
        "ref": "TPE194160",
        "name": "光華街口",
        "name_en": "Guanghua St. Entrance",
        "line": "202區",
        "color": "#15803d",
        "direction": 0,
        "station_id": "72245"
      },
      "geometry": {
        "type": "Point",
        "coordinates": [
          121.51914,
          24.970794
        ]
      }
    },
    {
      "type": "Feature",
      "properties": {
        "feature_type": "station",
        "ref": "TPE19199",
        "name": "輕軌陽光運動公園站",
        "name_en": "LRT Sunshine Sports Park Sta.",
        "line": "202區",
        "color": "#15803d",
        "direction": 0,
        "station_id": "1000506"
      },
      "geometry": {
        "type": "Point",
        "coordinates": [
          121.519852,
          24.972839
        ]
      }
    },
    {
      "type": "Feature",
      "properties": {
        "feature_type": "station",
        "ref": "TPE19200",
        "name": "石頭厝",
        "name_en": "Shitoucuo",
        "line": "202區",
        "color": "#15803d",
        "direction": 0,
        "station_id": "1000510"
      },
      "geometry": {
        "type": "Point",
        "coordinates": [
          121.51912,
          24.974308
        ]
      }
    },
    {
      "type": "Feature",
      "properties": {
        "feature_type": "station",
        "ref": "TPE59570",
        "name": "安和路二段",
        "name_en": "Anhe Rd. Sec. 2",
        "line": "202區",
        "color": "#15803d",
        "direction": 0,
        "station_id": "1000512"
      },
      "geometry": {
        "type": "Point",
        "coordinates": [
          121.517372,
          24.976061
        ]
      }
    },
    {
      "type": "Feature",
      "properties": {
        "feature_type": "station",
        "ref": "TPE19201",
        "name": "陽光運動公園(新店花市)",
        "name_en": "Yangguang Park (Xindian Flower Market)",
        "line": "202區",
        "color": "#15803d",
        "direction": 0,
        "station_id": "1000974"
      },
      "geometry": {
        "type": "Point",
        "coordinates": [
          121.5167886,
          24.97725375
        ]
      }
    },
    {
      "type": "Feature",
      "properties": {
        "feature_type": "station",
        "ref": "TPE217838",
        "name": "永平里",
        "name_en": "Yongping Village",
        "line": "202區",
        "color": "#15803d",
        "direction": 0,
        "station_id": "2898"
      },
      "geometry": {
        "type": "Point",
        "coordinates": [
          121.517416,
          24.981146
        ]
      }
    },
    {
      "type": "Feature",
      "properties": {
        "feature_type": "station",
        "ref": "TPE19203",
        "name": "輕軌新和國小站(水工大樓)",
        "name_en": "LRT Xinhe Elementary School Sta.(Hydraulic building)",
        "line": "202區",
        "color": "#15803d",
        "direction": 0,
        "station_id": "1000308"
      },
      "geometry": {
        "type": "Point",
        "coordinates": [
          121.517953,
          24.983806
        ]
      }
    },
    {
      "type": "Feature",
      "properties": {
        "feature_type": "station",
        "ref": "TPE19204",
        "name": "新和國小",
        "name_en": "Xinhe Elementary School",
        "line": "202區",
        "color": "#15803d",
        "direction": 0,
        "station_id": "1000309"
      },
      "geometry": {
        "type": "Point",
        "coordinates": [
          121.517283,
          24.985335
        ]
      }
    },
    {
      "type": "Feature",
      "properties": {
        "feature_type": "station",
        "ref": "TPE19205",
        "name": "三介廟",
        "name_en": "Sanjie Temple",
        "line": "202區",
        "color": "#15803d",
        "direction": 0,
        "station_id": "50846"
      },
      "geometry": {
        "type": "Point",
        "coordinates": [
          121.513308,
          24.988375
        ]
      }
    },
    {
      "type": "Feature",
      "properties": {
        "feature_type": "station",
        "ref": "TPE19206",
        "name": "景新街",
        "name_en": "Jingxin St.",
        "line": "202區",
        "color": "#15803d",
        "direction": 0,
        "station_id": "9619"
      },
      "geometry": {
        "type": "Point",
        "coordinates": [
          121.512485,
          24.989999
        ]
      }
    },
    {
      "type": "Feature",
      "properties": {
        "feature_type": "station",
        "ref": "TPE202722",
        "name": "南勢角(景平路)",
        "name_en": "Nanshijiao(Jingping Rd.)",
        "line": "202區",
        "color": "#15803d",
        "direction": 0,
        "station_id": "1165605328"
      },
      "geometry": {
        "type": "Point",
        "coordinates": [
          121.51133,
          24.99291
        ]
      }
    },
    {
      "type": "Feature",
      "properties": {
        "feature_type": "station",
        "ref": "TPE19207",
        "name": "中和教會",
        "name_en": "Zhonghe Church",
        "line": "202區",
        "color": "#15803d",
        "direction": 0,
        "station_id": "3074"
      },
      "geometry": {
        "type": "Point",
        "coordinates": [
          121.509353,
          24.993096
        ]
      }
    },
    {
      "type": "Feature",
      "properties": {
        "feature_type": "station",
        "ref": "TPE19208",
        "name": "捷運景安站(景平路)",
        "name_en": "MRT Jingan Sta.(Jingping Rd.)",
        "line": "202區",
        "color": "#15803d",
        "direction": 0,
        "station_id": "50833"
      },
      "geometry": {
        "type": "Point",
        "coordinates": [
          121.50421,
          24.99367
        ]
      }
    },
    {
      "type": "Feature",
      "properties": {
        "feature_type": "station",
        "ref": "TPE19209",
        "name": "南華路口",
        "name_en": "Yuantong&Jingping Rd. Entrance",
        "line": "202區",
        "color": "#15803d",
        "direction": 0,
        "station_id": "50840"
      },
      "geometry": {
        "type": "Point",
        "coordinates": [
          121.50208667210215,
          24.99516898447116
        ]
      }
    },
    {
      "type": "Feature",
      "properties": {
        "feature_type": "station",
        "ref": "TPE19210",
        "name": "中和區公所(景平路)",
        "name_en": "Zhonghe Dist. Office (Jingping Rd.)",
        "line": "202區",
        "color": "#15803d",
        "direction": 0,
        "station_id": "1000334"
      },
      "geometry": {
        "type": "Point",
        "coordinates": [
          121.49960332023917,
          24.99880695334873
        ]
      }
    },
    {
      "type": "Feature",
      "properties": {
        "feature_type": "station",
        "ref": "TPE19211",
        "name": "連城路口",
        "name_en": "Liancheng Rd. Entrance",
        "line": "202區",
        "color": "#15803d",
        "direction": 0,
        "station_id": "50817"
      },
      "geometry": {
        "type": "Point",
        "coordinates": [
          121.49772766396961,
          25.00047553316187
        ]
      }
    },
    {
      "type": "Feature",
      "properties": {
        "feature_type": "station",
        "ref": "TPE201700",
        "name": "捷運中和站",
        "name_en": "MRT Zhonghe Sta.",
        "line": "202區",
        "color": "#15803d",
        "direction": 0,
        "station_id": "1165605281"
      },
      "geometry": {
        "type": "Point",
        "coordinates": [
          121.496889,
          25.001888
        ]
      }
    },
    {
      "type": "Feature",
      "properties": {
        "feature_type": "station",
        "ref": "TPE19213",
        "name": "華中橋",
        "name_en": "Huazhong Bridge",
        "line": "202區",
        "color": "#15803d",
        "direction": 0,
        "station_id": "50818"
      },
      "geometry": {
        "type": "Point",
        "coordinates": [
          121.496762,
          25.003062
        ]
      }
    },
    {
      "type": "Feature",
      "properties": {
        "feature_type": "station",
        "ref": "TPE19214",
        "name": "果菜市場",
        "name_en": "Wholesale Fruit and Vegetable Market",
        "line": "202區",
        "color": "#15803d",
        "direction": 0,
        "station_id": "4622"
      },
      "geometry": {
        "type": "Point",
        "coordinates": [
          121.497706,
          25.01987
        ]
      }
    },
    {
      "type": "Feature",
      "properties": {
        "feature_type": "station",
        "ref": "TPE19215",
        "name": "萬大國小",
        "name_en": "Wanda Elementary School",
        "line": "202區",
        "color": "#15803d",
        "direction": 0,
        "station_id": "4640"
      },
      "geometry": {
        "type": "Point",
        "coordinates": [
          121.499894100772,
          25.0232906952259
        ]
      }
    },
    {
      "type": "Feature",
      "properties": {
        "feature_type": "station",
        "ref": "TPE19216",
        "name": "德昌街口",
        "name_en": "Dechang St. Entrance",
        "line": "202區",
        "color": "#15803d",
        "direction": 0,
        "station_id": "1830"
      },
      "geometry": {
        "type": "Point",
        "coordinates": [
          121.500485,
          25.025045
        ]
      }
    },
    {
      "type": "Feature",
      "properties": {
        "feature_type": "station",
        "ref": "TPE19217",
        "name": "西藏路口",
        "name_en": "Xizang Rd. Entrance",
        "line": "202區",
        "color": "#15803d",
        "direction": 0,
        "station_id": "4639"
      },
      "geometry": {
        "type": "Point",
        "coordinates": [
          121.500599,
          25.028737
        ]
      }
    },
    {
      "type": "Feature",
      "properties": {
        "feature_type": "station",
        "ref": "TPE19218",
        "name": "萬大路",
        "name_en": "Wanda Rd.",
        "line": "202區",
        "color": "#15803d",
        "direction": 0,
        "station_id": "4638"
      },
      "geometry": {
        "type": "Point",
        "coordinates": [
          121.500635,
          25.0308055
        ]
      }
    },
    {
      "type": "Feature",
      "properties": {
        "feature_type": "station",
        "ref": "TPE19219",
        "name": "莒光路口",
        "name_en": "Juguang Rd. Entrance",
        "line": "202區",
        "color": "#15803d",
        "direction": 0,
        "station_id": "1795"
      },
      "geometry": {
        "type": "Point",
        "coordinates": [
          121.500615375179,
          25.031831103587
        ]
      }
    },
    {
      "type": "Feature",
      "properties": {
        "feature_type": "station",
        "ref": "TPE19220",
        "name": "萬華車站",
        "name_en": "Wanhua Station",
        "line": "202區",
        "color": "#15803d",
        "direction": 0,
        "station_id": "1814"
      },
      "geometry": {
        "type": "Point",
        "coordinates": [
          121.501128,
          25.033974
        ]
      }
    },
    {
      "type": "Feature",
      "properties": {
        "feature_type": "station",
        "ref": "TPE19222",
        "name": "龍山國中",
        "name_en": "Longshan Junior High School",
        "line": "202區",
        "color": "#15803d",
        "direction": 0,
        "station_id": "50736"
      },
      "geometry": {
        "type": "Point",
        "coordinates": [
          121.50429,
          25.03583
        ]
      }
    },
    {
      "type": "Feature",
      "properties": {
        "feature_type": "station",
        "ref": "TPE19223",
        "name": "捷運西門站",
        "name_en": "MRT Ximen Sta.",
        "line": "202區",
        "color": "#15803d",
        "direction": 0,
        "station_id": "1793"
      },
      "geometry": {
        "type": "Point",
        "coordinates": [
          121.508285900629,
          25.041730058378
        ]
      }
    },
    {
      "type": "Feature",
      "properties": {
        "feature_type": "station",
        "ref": "TPE19224",
        "name": "中華路北站",
        "name_en": "Zhonghua Rd. N. Stop",
        "line": "202區",
        "color": "#15803d",
        "direction": 0,
        "station_id": "1744"
      },
      "geometry": {
        "type": "Point",
        "coordinates": [
          121.509380726049,
          25.0456964941835
        ]
      }
    },
    {
      "type": "Feature",
      "properties": {
        "feature_type": "station",
        "ref": "TPE19225",
        "name": "臺北車站(忠孝)",
        "name_en": "Taipei Main Sta. (Zhongxiao)",
        "line": "202區",
        "color": "#15803d",
        "direction": 0,
        "station_id": "1886"
      },
      "geometry": {
        "type": "Point",
        "coordinates": [
          121.51700353811,
          25.0462559043502
        ]
      }
    },
    {
      "type": "Feature",
      "properties": {
        "feature_type": "station",
        "ref": "TPE19226",
        "name": "行政院",
        "name_en": "Executive Yuan",
        "line": "202區",
        "color": "#15803d",
        "direction": 0,
        "station_id": "1919"
      },
      "geometry": {
        "type": "Point",
        "coordinates": [
          121.520239869754,
          25.046578538214
        ]
      }
    },
    {
      "type": "Feature",
      "properties": {
        "feature_type": "station",
        "ref": "TPE19227",
        "name": "長安東路一段",
        "name_en": "Changan E. Rd. Sec. 1",
        "line": "202區",
        "color": "#15803d",
        "direction": 0,
        "station_id": "1284"
      },
      "geometry": {
        "type": "Point",
        "coordinates": [
          121.5224936,
          25.04957589
        ]
      }
    },
    {
      "type": "Feature",
      "properties": {
        "feature_type": "station",
        "ref": "TPE19228",
        "name": "長安林森路口",
        "name_en": "Changan and Linsen Intersection",
        "line": "202區",
        "color": "#15803d",
        "direction": 0,
        "station_id": "1282"
      },
      "geometry": {
        "type": "Point",
        "coordinates": [
          121.5259734,
          25.04871037
        ]
      }
    },
    {
      "type": "Feature",
      "properties": {
        "feature_type": "station",
        "ref": "TPE19229",
        "name": "正守公園",
        "name_en": "Zhengshou Park",
        "line": "202區",
        "color": "#15803d",
        "direction": 0,
        "station_id": "1231"
      },
      "geometry": {
        "type": "Point",
        "coordinates": [
          121.5287092,
          25.04814093
        ]
      }
    },
    {
      "type": "Feature",
      "properties": {
        "feature_type": "station",
        "ref": "TPE19230",
        "name": "長安國小(長安)",
        "name_en": "Changan Elementary School (Changan)",
        "line": "202區",
        "color": "#15803d",
        "direction": 0,
        "station_id": "1289"
      },
      "geometry": {
        "type": "Point",
        "coordinates": [
          121.5308318,
          25.04843271
        ]
      }
    },
    {
      "type": "Feature",
      "properties": {
        "feature_type": "station",
        "ref": "TPE19231",
        "name": "長安東路二段",
        "name_en": "Changan E. Rd. Sec. 2",
        "line": "202區",
        "color": "#15803d",
        "direction": 0,
        "station_id": "1285"
      },
      "geometry": {
        "type": "Point",
        "coordinates": [
          121.5336881025246,
          25.048368420364223
        ]
      }
    },
    {
      "type": "Feature",
      "properties": {
        "feature_type": "station",
        "ref": "TPE59571",
        "name": "中山女高",
        "name_en": "Zhongshan Girls' High School",
        "line": "202區",
        "color": "#15803d",
        "direction": 0,
        "station_id": "1186"
      },
      "geometry": {
        "type": "Point",
        "coordinates": [
          121.53584585119738,
          25.04832105352418
        ]
      }
    },
    {
      "type": "Feature",
      "properties": {
        "feature_type": "station",
        "ref": "TPE19232",
        "name": "臺北科技大學(忠孝)",
        "name_en": "Nat'l Taipei U. of Technology (Zhongxiao)",
        "line": "202區",
        "color": "#15803d",
        "direction": 1,
        "station_id": "2228"
      },
      "geometry": {
        "type": "Point",
        "coordinates": [
          121.53457,
          25.04222
        ]
      }
    },
    {
      "type": "Feature",
      "properties": {
        "feature_type": "station",
        "ref": "TPE19233",
        "name": "忠孝國小",
        "name_en": "Zhongxiao Elementary School",
        "line": "202區",
        "color": "#15803d",
        "direction": 1,
        "station_id": "3935"
      },
      "geometry": {
        "type": "Point",
        "coordinates": [
          121.5311997,
          25.04289823
        ]
      }
    },
    {
      "type": "Feature",
      "properties": {
        "feature_type": "station",
        "ref": "TPE19234",
        "name": "華山文創園區",
        "name_en": "Huashan Cultural and Creative Industries Park",
        "line": "202區",
        "color": "#15803d",
        "direction": 1,
        "station_id": "2015"
      },
      "geometry": {
        "type": "Point",
        "coordinates": [
          121.52749815701229,
          25.043941210409297
        ]
      }
    },
    {
      "type": "Feature",
      "properties": {
        "feature_type": "station",
        "ref": "TPE19235",
        "name": "捷運善導寺站",
        "name_en": "MRT Shandao Temple Sta.",
        "line": "202區",
        "color": "#15803d",
        "direction": 1,
        "station_id": "1998"
      },
      "geometry": {
        "type": "Point",
        "coordinates": [
          121.52277975890082,
          25.045112057683003
        ]
      }
    },
    {
      "type": "Feature",
      "properties": {
        "feature_type": "station",
        "ref": "TPE19236",
        "name": "臺北車站(忠孝)",
        "name_en": "Taipei Main Sta. (Zhongxiao)",
        "line": "202區",
        "color": "#15803d",
        "direction": 1,
        "station_id": "1000082"
      },
      "geometry": {
        "type": "Point",
        "coordinates": [
          121.5167218,
          25.0465408
        ]
      }
    },
    {
      "type": "Feature",
      "properties": {
        "feature_type": "station",
        "ref": "TPE19237",
        "name": "中華路北站",
        "name_en": "Zhonghua Rd. N. Stop",
        "line": "202區",
        "color": "#15803d",
        "direction": 1,
        "station_id": "1000078"
      },
      "geometry": {
        "type": "Point",
        "coordinates": [
          121.509144127644,
          25.0455115050969
        ]
      }
    },
    {
      "type": "Feature",
      "properties": {
        "feature_type": "station",
        "ref": "TPE19238",
        "name": "捷運西門站",
        "name_en": "MRT Ximen Sta.",
        "line": "202區",
        "color": "#15803d",
        "direction": 1,
        "station_id": "1000079"
      },
      "geometry": {
        "type": "Point",
        "coordinates": [
          121.508266771006,
          25.0425165606871
        ]
      }
    },
    {
      "type": "Feature",
      "properties": {
        "feature_type": "station",
        "ref": "TPE156417",
        "name": "小南門",
        "name_en": "Xiaonanmen",
        "line": "202區",
        "color": "#15803d",
        "direction": 1,
        "station_id": "1000080"
      },
      "geometry": {
        "type": "Point",
        "coordinates": [
          121.506903709074,
          25.0378687908132
        ]
      }
    },
    {
      "type": "Feature",
      "properties": {
        "feature_type": "station",
        "ref": "TPE19239",
        "name": "龍山國中",
        "name_en": "Longshan Junior High School",
        "line": "202區",
        "color": "#15803d",
        "direction": 1,
        "station_id": "1835"
      },
      "geometry": {
        "type": "Point",
        "coordinates": [
          121.5038948,
          25.03584463
        ]
      }
    },
    {
      "type": "Feature",
      "properties": {
        "feature_type": "station",
        "ref": "TPE19241",
        "name": "萬華車站",
        "name_en": "Wanhua Station",
        "line": "202區",
        "color": "#15803d",
        "direction": 1,
        "station_id": "4619"
      },
      "geometry": {
        "type": "Point",
        "coordinates": [
          121.5010585,
          25.03486363
        ]
      }
    },
    {
      "type": "Feature",
      "properties": {
        "feature_type": "station",
        "ref": "TPE19242",
        "name": "莒光路口",
        "name_en": "Juguang Rd. Entrance",
        "line": "202區",
        "color": "#15803d",
        "direction": 1,
        "station_id": "1796"
      },
      "geometry": {
        "type": "Point",
        "coordinates": [
          121.50051,
          25.03176
        ]
      }
    },
    {
      "type": "Feature",
      "properties": {
        "feature_type": "station",
        "ref": "TPE19243",
        "name": "萬大路",
        "name_en": "Wanda Rd.",
        "line": "202區",
        "color": "#15803d",
        "direction": 1,
        "station_id": "1811"
      },
      "geometry": {
        "type": "Point",
        "coordinates": [
          121.500473,
          25.030744
        ]
      }
    },
    {
      "type": "Feature",
      "properties": {
        "feature_type": "station",
        "ref": "TPE19244",
        "name": "西藏路口",
        "name_en": "Xizang Rd. Entrance",
        "line": "202區",
        "color": "#15803d",
        "direction": 1,
        "station_id": "1759"
      },
      "geometry": {
        "type": "Point",
        "coordinates": [
          121.50037694828528,
          25.0289649585261
        ]
      }
    },
    {
      "type": "Feature",
      "properties": {
        "feature_type": "station",
        "ref": "TPE19245",
        "name": "德昌街口",
        "name_en": "Dechang St. Entrance",
        "line": "202區",
        "color": "#15803d",
        "direction": 1,
        "station_id": "1829"
      },
      "geometry": {
        "type": "Point",
        "coordinates": [
          121.50026027816166,
          25.025052181005517
        ]
      }
    },
    {
      "type": "Feature",
      "properties": {
        "feature_type": "station",
        "ref": "TPE19246",
        "name": "萬大國小",
        "name_en": "Wanda Elementary School",
        "line": "202區",
        "color": "#15803d",
        "direction": 1,
        "station_id": "1810"
      },
      "geometry": {
        "type": "Point",
        "coordinates": [
          121.4994908,
          25.02328187
        ]
      }
    },
    {
      "type": "Feature",
      "properties": {
        "feature_type": "station",
        "ref": "TPE19247",
        "name": "果菜市場",
        "name_en": "Wholesale Fruit and Vegetable Market",
        "line": "202區",
        "color": "#15803d",
        "direction": 1,
        "station_id": "1766"
      },
      "geometry": {
        "type": "Point",
        "coordinates": [
          121.497464378634,
          25.0198502695038
        ]
      }
    },
    {
      "type": "Feature",
      "properties": {
        "feature_type": "station",
        "ref": "TPE19248",
        "name": "華中橋",
        "name_en": "Huazhong Bridge",
        "line": "202區",
        "color": "#15803d",
        "direction": 1,
        "station_id": "1165605318"
      },
      "geometry": {
        "type": "Point",
        "coordinates": [
          121.496447,
          25.003644
        ]
      }
    },
    {
      "type": "Feature",
      "properties": {
        "feature_type": "station",
        "ref": "TPE201701",
        "name": "捷運中和站",
        "name_en": "MRT Zhonghe Sta.",
        "line": "202區",
        "color": "#15803d",
        "direction": 1,
        "station_id": "1165605282"
      },
      "geometry": {
        "type": "Point",
        "coordinates": [
          121.496599,
          25.00192
        ]
      }
    },
    {
      "type": "Feature",
      "properties": {
        "feature_type": "station",
        "ref": "TPE19250",
        "name": "連城路口",
        "name_en": "Liancheng Rd. Entrance",
        "line": "202區",
        "color": "#15803d",
        "direction": 1,
        "station_id": "3136"
      },
      "geometry": {
        "type": "Point",
        "coordinates": [
          121.4976874,
          25.00030984
        ]
      }
    },
    {
      "type": "Feature",
      "properties": {
        "feature_type": "station",
        "ref": "TPE19251",
        "name": "中和區公所(景平路)",
        "name_en": "Zhonghe Dist. Office (Jingping Rd.)",
        "line": "202區",
        "color": "#15803d",
        "direction": 1,
        "station_id": "1000705"
      },
      "geometry": {
        "type": "Point",
        "coordinates": [
          121.4996731019886,
          24.998331595875737
        ]
      }
    },
    {
      "type": "Feature",
      "properties": {
        "feature_type": "station",
        "ref": "TPE19252",
        "name": "南華路口",
        "name_en": "Yuantong&Jingping Rd. Entrance",
        "line": "202區",
        "color": "#15803d",
        "direction": 1,
        "station_id": "3114"
      },
      "geometry": {
        "type": "Point",
        "coordinates": [
          121.50137333996481,
          24.995456001390632
        ]
      }
    },
    {
      "type": "Feature",
      "properties": {
        "feature_type": "station",
        "ref": "TPE19253",
        "name": "捷運景安站(景平路)",
        "name_en": "MRT Jingan Sta.(Jingping Rd.)",
        "line": "202區",
        "color": "#15803d",
        "direction": 1,
        "station_id": "3130"
      },
      "geometry": {
        "type": "Point",
        "coordinates": [
          121.504297,
          24.993354
        ]
      }
    },
    {
      "type": "Feature",
      "properties": {
        "feature_type": "station",
        "ref": "TPE19254",
        "name": "中和教會",
        "name_en": "Zhonghe Church",
        "line": "202區",
        "color": "#15803d",
        "direction": 1,
        "station_id": "50844"
      },
      "geometry": {
        "type": "Point",
        "coordinates": [
          121.509186,
          24.992776
        ]
      }
    },
    {
      "type": "Feature",
      "properties": {
        "feature_type": "station",
        "ref": "TPE19255",
        "name": "景新街",
        "name_en": "Jingxin St.",
        "line": "202區",
        "color": "#15803d",
        "direction": 1,
        "station_id": "3138"
      },
      "geometry": {
        "type": "Point",
        "coordinates": [
          121.512387,
          24.989796
        ]
      }
    },
    {
      "type": "Feature",
      "properties": {
        "feature_type": "station",
        "ref": "TPE19256",
        "name": "三介廟",
        "name_en": "Sanjie Temple",
        "line": "202區",
        "color": "#15803d",
        "direction": 1,
        "station_id": "50845"
      },
      "geometry": {
        "type": "Point",
        "coordinates": [
          121.5132354,
          24.98799945
        ]
      }
    },
    {
      "type": "Feature",
      "properties": {
        "feature_type": "station",
        "ref": "TPE19257",
        "name": "新和國小",
        "name_en": "Xinhe Elementary School",
        "line": "202區",
        "color": "#15803d",
        "direction": 1,
        "station_id": "2941"
      },
      "geometry": {
        "type": "Point",
        "coordinates": [
          121.516668,
          24.98554
        ]
      }
    },
    {
      "type": "Feature",
      "properties": {
        "feature_type": "station",
        "ref": "TPE19258",
        "name": "輕軌新和國小站(水工大樓)",
        "name_en": "LRT Xinhe Elementary School Sta.(Hydraulic building)",
        "line": "202區",
        "color": "#15803d",
        "direction": 1,
        "station_id": "2918"
      },
      "geometry": {
        "type": "Point",
        "coordinates": [
          121.517819,
          24.983114
        ]
      }
    },
    {
      "type": "Feature",
      "properties": {
        "feature_type": "station",
        "ref": "TPE217839",
        "name": "永平里",
        "name_en": "Yongping Village",
        "line": "202區",
        "color": "#15803d",
        "direction": 1,
        "station_id": "2897"
      },
      "geometry": {
        "type": "Point",
        "coordinates": [
          121.5175586,
          24.98167813
        ]
      }
    },
    {
      "type": "Feature",
      "properties": {
        "feature_type": "station",
        "ref": "TPE19260",
        "name": "陽光運動公園(新店花市)",
        "name_en": "Yangguang Park (Xindian Flower Market)",
        "line": "202區",
        "color": "#15803d",
        "direction": 1,
        "station_id": "2944"
      },
      "geometry": {
        "type": "Point",
        "coordinates": [
          121.5165771,
          24.97735333
        ]
      }
    },
    {
      "type": "Feature",
      "properties": {
        "feature_type": "station",
        "ref": "TPE59572",
        "name": "安和路二段",
        "name_en": "Anhe Rd. Sec. 2",
        "line": "202區",
        "color": "#15803d",
        "direction": 1,
        "station_id": "2899"
      },
      "geometry": {
        "type": "Point",
        "coordinates": [
          121.517269,
          24.975951
        ]
      }
    },
    {
      "type": "Feature",
      "properties": {
        "feature_type": "station",
        "ref": "TPE19261",
        "name": "石頭厝",
        "name_en": "Shitoucuo",
        "line": "202區",
        "color": "#15803d",
        "direction": 1,
        "station_id": "2894"
      },
      "geometry": {
        "type": "Point",
        "coordinates": [
          121.5188677,
          24.97410976
        ]
      }
    },
    {
      "type": "Feature",
      "properties": {
        "feature_type": "station",
        "ref": "TPE19262",
        "name": "輕軌陽光運動公園站",
        "name_en": "LRT Sunshine Sports Park Sta.",
        "line": "202區",
        "color": "#15803d",
        "direction": 1,
        "station_id": "2916"
      },
      "geometry": {
        "type": "Point",
        "coordinates": [
          121.5195205,
          24.97278102
        ]
      }
    },
    {
      "type": "Feature",
      "properties": {
        "feature_type": "station",
        "ref": "TPE194161",
        "name": "光華街口",
        "name_en": "Guanghua St. Entrance",
        "line": "202區",
        "color": "#15803d",
        "direction": 1,
        "station_id": "72246"
      },
      "geometry": {
        "type": "Point",
        "coordinates": [
          121.51876,
          24.97032
        ]
      }
    },
    {
      "type": "Feature",
      "properties": {
        "feature_type": "station",
        "ref": "TPE19263",
        "name": "十四份",
        "name_en": "Shisifen",
        "line": "202區",
        "color": "#15803d",
        "direction": 1,
        "station_id": "2850"
      },
      "geometry": {
        "type": "Point",
        "coordinates": [
          121.51843,
          24.96923
        ]
      }
    },
    {
      "type": "Feature",
      "properties": {
        "feature_type": "station",
        "ref": "TPE19264",
        "name": "及人中學",
        "name_en": "Chi Jen High School",
        "line": "202區",
        "color": "#15803d",
        "direction": 1,
        "station_id": "2882"
      },
      "geometry": {
        "type": "Point",
        "coordinates": [
          121.5177866,
          24.96730265
        ]
      }
    },
    {
      "type": "Feature",
      "properties": {
        "feature_type": "station",
        "ref": "TPE19265",
        "name": "輕軌安康站",
        "name_en": "LRT Ankang Sta.",
        "line": "202區",
        "color": "#15803d",
        "direction": 1,
        "station_id": "4135"
      },
      "geometry": {
        "type": "Point",
        "coordinates": [
          121.51695,
          24.964849
        ]
      }
    },
    {
      "type": "Feature",
      "properties": {
        "feature_type": "station",
        "ref": "TPE19266",
        "name": "安康派出所",
        "name_en": "Ankang Police Station",
        "line": "202區",
        "color": "#15803d",
        "direction": 1,
        "station_id": "2900"
      },
      "geometry": {
        "type": "Point",
        "coordinates": [
          121.514015,
          24.963346
        ]
      }
    },
    {
      "type": "Feature",
      "properties": {
        "feature_type": "station",
        "ref": "TPE19267",
        "name": "公崙新村(豐榮醫院)",
        "name_en": "Gonglun New Village(Feng Rong Hospital)",
        "line": "202區",
        "color": "#15803d",
        "direction": 1,
        "station_id": "2876"
      },
      "geometry": {
        "type": "Point",
        "coordinates": [
          121.512518,
          24.961978
        ]
      }
    },
    {
      "type": "Feature",
      "properties": {
        "feature_type": "station",
        "ref": "TPE19268",
        "name": "浪漫貴族",
        "name_en": "Langmanguizu",
        "line": "202區",
        "color": "#15803d",
        "direction": 1,
        "station_id": "2917"
      },
      "geometry": {
        "type": "Point",
        "coordinates": [
          121.51084,
          24.95991
        ]
      }
    },
    {
      "type": "Feature",
      "properties": {
        "feature_type": "station",
        "ref": "TPE19269",
        "name": "台北菸廠",
        "name_en": "Taipei Tobacco Factory",
        "line": "202區",
        "color": "#15803d",
        "direction": 1,
        "station_id": "2886"
      },
      "geometry": {
        "type": "Point",
        "coordinates": [
          121.5084746,
          24.95887022
        ]
      }
    },
    {
      "type": "Feature",
      "properties": {
        "feature_type": "station",
        "ref": "TPE19270",
        "name": "安康車子路口",
        "name_en": "Ankang Chezi Rd. Intersection",
        "line": "202區",
        "color": "#15803d",
        "direction": 1,
        "station_id": "2905"
      },
      "geometry": {
        "type": "Point",
        "coordinates": [
          121.5048646,
          24.95808137
        ]
      }
    },
    {
      "type": "Feature",
      "properties": {
        "feature_type": "station",
        "ref": "TPE19271",
        "name": "薏仁坑",
        "name_en": "Yirenkeng",
        "line": "202區",
        "color": "#15803d",
        "direction": 1,
        "station_id": "2979"
      },
      "geometry": {
        "type": "Point",
        "coordinates": [
          121.501307,
          24.957301
        ]
      }
    },
    {
      "type": "Feature",
      "properties": {
        "feature_type": "station",
        "ref": "TPE19272",
        "name": "仁康醫院",
        "name_en": "Jen-Kang Hospital",
        "line": "202區",
        "color": "#15803d",
        "direction": 1,
        "station_id": "2901"
      },
      "geometry": {
        "type": "Point",
        "coordinates": [
          121.499692,
          24.956813
        ]
      }
    },
    {
      "type": "Feature",
      "properties": {
        "feature_type": "station",
        "ref": "TPE19273",
        "name": "康樂新村",
        "name_en": "Kangle New Village",
        "line": "202區",
        "color": "#15803d",
        "direction": 1,
        "station_id": "2922"
      },
      "geometry": {
        "type": "Point",
        "coordinates": [
          121.4972383,
          24.95549
        ]
      }
    },
    {
      "type": "Feature",
      "properties": {
        "feature_type": "station",
        "ref": "TPE19274",
        "name": "大茅埔",
        "name_en": "Damaopu",
        "line": "202區",
        "color": "#15803d",
        "direction": 1,
        "station_id": "2859"
      },
      "geometry": {
        "type": "Point",
        "coordinates": [
          121.494847,
          24.954594
        ]
      }
    },
    {
      "type": "Feature",
      "properties": {
        "feature_type": "station",
        "ref": "TPE19275",
        "name": "頭城一",
        "name_en": "TouCheng (I)",
        "line": "202區",
        "color": "#15803d",
        "direction": 1,
        "station_id": "2977"
      },
      "geometry": {
        "type": "Point",
        "coordinates": [
          121.492819,
          24.952911
        ]
      }
    },
    {
      "type": "Feature",
      "properties": {
        "feature_type": "station",
        "ref": "TPE19276",
        "name": "頭城",
        "name_en": "Toucheng",
        "line": "202區",
        "color": "#15803d",
        "direction": 1,
        "station_id": "2974"
      },
      "geometry": {
        "type": "Point",
        "coordinates": [
          121.4914979,
          24.95188782
        ]
      }
    },
    {
      "type": "Feature",
      "properties": {
        "feature_type": "station",
        "ref": "TPE19278",
        "name": "中央印製廠",
        "name_en": "Central Engraving & Printing Plant",
        "line": "202區",
        "color": "#15803d",
        "direction": 1,
        "station_id": "2866"
      },
      "geometry": {
        "type": "Point",
        "coordinates": [
          121.488257,
          24.951867
        ]
      }
    },
    {
      "type": "Feature",
      "properties": {
        "feature_type": "station",
        "ref": "TPE19279",
        "name": "二城",
        "name_en": "Ercheng",
        "line": "202區",
        "color": "#15803d",
        "direction": 1,
        "station_id": "2851"
      },
      "geometry": {
        "type": "Point",
        "coordinates": [
          121.48623,
          24.951821
        ]
      }
    },
    {
      "type": "Feature",
      "properties": {
        "feature_type": "station",
        "ref": "TPE19280",
        "name": "建業路",
        "name_en": "Jianye Rd.",
        "line": "202區",
        "color": "#15803d",
        "direction": 1,
        "station_id": "2913"
      },
      "geometry": {
        "type": "Point",
        "coordinates": [
          121.48431,
          24.95122
        ]
      }
    },
    {
      "type": "Feature",
      "properties": {
        "feature_type": "station",
        "ref": "TPE19281",
        "name": "三城",
        "name_en": "Sancheng",
        "line": "202區",
        "color": "#15803d",
        "direction": 1,
        "station_id": "2856"
      },
      "geometry": {
        "type": "Point",
        "coordinates": [
          121.482922,
          24.949649
        ]
      }
    },
    {
      "type": "Feature",
      "properties": {
        "feature_type": "station",
        "ref": "TPE59573",
        "name": "日興市民活動中心",
        "name_en": "Rixing Civic activity center",
        "line": "202區",
        "color": "#15803d",
        "direction": 1,
        "station_id": "4120"
      },
      "geometry": {
        "type": "Point",
        "coordinates": [
          121.481227,
          24.948736
        ]
      }
    },
    {
      "type": "Feature",
      "properties": {
        "feature_type": "station",
        "ref": "TPE19282",
        "name": "碧瑤",
        "name_en": "Biyao",
        "line": "202區",
        "color": "#15803d",
        "direction": 1,
        "station_id": "2955"
      },
      "geometry": {
        "type": "Point",
        "coordinates": [
          121.47968,
          24.946929
        ]
      }
    }
  ]
}
