{
  "type": "FeatureCollection",
  "name": "278",
  "properties": {
    "id": "taipei_278",
    "name": "278",
    "name_en": "278",
    "ref": "278",
    "color": "#1d4ed8",
    "city_id": "Taipei",
    "source": "TDX Bus Shape / StopOfRoute",
    "official_map_url": "https://ebus.gov.taipei/File/Get/4c0f974b-daf4-4fd7-87e5-a8ed9a3dd7c2?v=639234358324713209",
    "operator_id": "700",
    "operator": "欣欣客運",
    "operator_en": "Shin-Shin Bus Co., Ltd."
  },
  "features": [
    {
      "type": "Feature",
      "properties": {
        "feature_type": "route",
        "ref": "278",
        "name": "278",
        "name_en": "278",
        "color": "#1d4ed8",
        "direction": 0
      },
      "geometry": {
        "type": "LineString",
        "coordinates": [
          [
            121.536343525759,
            24.9955070477781
          ],
          [
            121.536453429929,
            24.9954197584904
          ],
          [
            121.53679574596126,
            24.995187650086475
          ],
          [
            121.53731146270529,
            24.994861074348602
          ],
          [
            121.53834775228326,
            24.994180632085516
          ],
          [
            121.53864008889336,
            24.993997537017034
          ],
          [
            121.53893922402926,
            24.993853173405338
          ],
          [
            121.53911404326455,
            24.993796836340138
          ],
          [
            121.54023191515232,
            24.993416560474614
          ],
          [
            121.54078648061532,
            24.993219379932988
          ],
          [
            121.54095935741465,
            24.993217619391014
          ],
          [
            121.54102345780092,
            24.99330652672923
          ],
          [
            121.54112252203421,
            24.993694725343648
          ],
          [
            121.54116234197116,
            24.993883982726942
          ],
          [
            121.54121867261362,
            24.99424225055683
          ],
          [
            121.54125557889662,
            24.994511610940187
          ],
          [
            121.54128665787178,
            24.99513483466208
          ],
          [
            121.54128374421786,
            24.995493979100342
          ],
          [
            121.54124101062702,
            24.995892733827965
          ],
          [
            121.54120313312603,
            24.99623603156365
          ],
          [
            121.54111766594431,
            24.99664182585548
          ],
          [
            121.54096615594042,
            24.99721134400072
          ],
          [
            121.54069033003589,
            24.997906733520306
          ],
          [
            121.54041061925946,
            24.99861180166104
          ],
          [
            121.54015130406047,
            24.99930278211847
          ],
          [
            121.53982400360333,
            25.000078260017077
          ],
          [
            121.53951224263373,
            25.000837008910647
          ],
          [
            121.53930828685927,
            25.001350174009673
          ],
          [
            121.53903537460866,
            25.002013852623026
          ],
          [
            121.53886346902732,
            25.00252085137637
          ],
          [
            121.53878091549954,
            25.00279019361309
          ],
          [
            121.53875372139629,
            25.0029459893432
          ],
          [
            121.53872555607504,
            25.003261981206
          ],
          [
            121.5387236136391,
            25.003548045561907
          ],
          [
            121.53878771402537,
            25.004012788695356
          ],
          [
            121.53883821735998,
            25.004246039794776
          ],
          [
            121.53885569928352,
            25.00436222508283
          ],
          [
            121.53883821735998,
            25.004492493305424
          ],
          [
            121.53890717383614,
            25.004907062202605
          ],
          [
            121.53901789268514,
            25.005518790822496
          ],
          [
            121.53905091409625,
            25.005736195799745
          ],
          [
            121.53906645358383,
            25.005949199493358
          ],
          [
            121.5390382882626,
            25.00628894842206
          ],
          [
            121.53893728159332,
            25.006750160489975
          ],
          [
            121.53873332581887,
            25.00718936655556
          ],
          [
            121.53861580844404,
            25.00736276010097
          ],
          [
            121.53841913680436,
            25.00773419113591
          ],
          [
            121.53797043410049,
            25.008509615813836
          ],
          [
            121.53782766505836,
            25.008829994160795
          ],
          [
            121.53758680300086,
            25.009380092395077
          ],
          [
            121.53754212697407,
            25.009506834679026
          ],
          [
            121.53744791883065,
            25.009809607383477
          ],
          [
            121.53733331510975,
            25.01022855908075
          ],
          [
            121.53723716453034,
            25.01069239679283
          ],
          [
            121.53716529440027,
            25.01099516657454
          ],
          [
            121.53700892830648,
            25.011497727558588
          ],
          [
            121.53679720278822,
            25.011873546775305
          ],
          [
            121.53648349938271,
            25.01243243271071
          ],
          [
            121.5362805148262,
            25.01279680736815
          ],
          [
            121.53598623578014,
            25.01318934504055
          ],
          [
            121.53582015750665,
            25.013333685931908
          ],
          [
            121.53541515961159,
            25.01374646473972
          ],
          [
            121.5351004849881,
            25.01405450772202
          ],
          [
            121.53413120945031,
            25.014994474102657
          ],
          [
            121.53312114275761,
            25.015959956423632
          ],
          [
            121.53047651621516,
            25.018520164032203
          ],
          [
            121.52887012168655,
            25.02014655900987
          ],
          [
            121.5283058440438,
            25.02063588142073
          ],
          [
            121.52792512659809,
            25.020962388635088
          ],
          [
            121.5268033698384,
            25.021923863730244
          ],
          [
            121.52642993652753,
            25.022242886983406
          ],
          [
            121.52548979752895,
            25.02311810651956
          ],
          [
            121.52499156270842,
            25.02367958142767
          ],
          [
            121.52471282314994,
            25.02404920300596
          ],
          [
            121.52286896582682,
            25.026502318009122
          ],
          [
            121.52258779822343,
            25.02686533086261
          ],
          [
            121.52257225873585,
            25.02692825298135
          ],
          [
            121.52262081963454,
            25.026974894531065
          ],
          [
            121.52275679015085,
            25.02698457485048
          ],
          [
            121.52369304427754,
            25.026917692628007
          ],
          [
            121.52477789475418,
            25.026834969828734
          ],
          [
            121.52543929419431,
            25.026787448195424
          ],
          [
            121.52902503095336,
            25.02649527774922
          ],
          [
            121.53185127525697,
            25.026241828124043
          ],
          [
            121.53449881545338,
            25.0260323797749
          ],
          [
            121.53643542409301,
            25.02573316722749
          ],
          [
            121.5384516726065,
            25.02547443578954
          ],
          [
            121.54090885408007,
            25.02514882061967
          ],
          [
            121.54316596465105,
            25.02482320458591
          ],
          [
            121.54445962699205,
            25.02476336154519
          ],
          [
            121.54718097975446,
            25.024619034091646
          ],
          [
            121.54842219632492,
            25.02453630974298
          ],
          [
            121.54883982005362,
            25.024497587688273
          ],
          [
            121.54893597063304,
            25.024539829929164
          ],
          [
            121.54898258909574,
            25.02469119783964
          ],
          [
            121.54899812858339,
            25.025731407151522
          ],
          [
            121.54898647396766,
            25.027142979968843
          ],
          [
            121.54902726512258,
            25.028269410469257
          ],
          [
            121.54902143781474,
            25.029895676263816
          ],
          [
            121.54904668948208,
            25.03177183924584
          ],
          [
            121.54906805627749,
            25.033091824151224
          ],
          [
            121.54904280461018,
            25.03454555109382
          ],
          [
            121.54908165332911,
            25.03593414343103
          ],
          [
            121.54907776845721,
            25.036921459980235
          ],
          [
            121.54908553820098,
            25.037291041671114
          ],
          [
            121.54915740833103,
            25.03748463163622
          ],
          [
            121.54928755153955,
            25.037630703862185
          ],
          [
            121.54935553679769,
            25.03780493436206
          ],
          [
            121.54928366666765,
            25.03809355807993
          ],
          [
            121.54909913525265,
            25.038248429063184
          ],
          [
            121.54910496256049,
            25.03854761109073
          ],
          [
            121.54911467474022,
            25.03947859049604
          ],
          [
            121.54911661717617,
            25.040949840327677
          ],
          [
            121.54913798397158,
            25.04209550231575
          ],
          [
            121.54912827179184,
            25.043082769268388
          ],
          [
            121.54914963858725,
            25.04434455877609
          ],
          [
            121.5491438112794,
            25.045578178643495
          ],
          [
            121.54916906294673,
            25.046704439866968
          ],
          [
            121.54916712051079,
            25.047781417485513
          ],
          [
            121.54917489025456,
            25.048070017723795
          ],
          [
            121.5493030910271,
            25.04814392743165
          ],
          [
            121.54948179513427,
            25.048147446940433
          ],
          [
            121.55082401837399,
            25.048163284728723
          ],
          [
            121.55292767650509,
            25.048163284728727
          ],
          [
            121.55366968703703,
            25.048163284728727
          ],
          [
            121.55425824512912,
            25.048122810376814
          ],
          [
            121.55514593835717,
            25.04803306285316
          ],
          [
            121.5557208993976,
            25.048003146997345
          ],
          [
            121.5564609674936,
            25.048020744560475
          ],
          [
            121.55769052944835,
            25.04815272620343
          ],
          [
            121.5578109604771,
            25.048205518820826
          ],
          [
            121.55788283060714,
            25.04836917579029
          ],
          [
            121.55789837009473,
            25.048749281457102
          ],
          [
            121.55791973689016,
            25.049611553832197
          ],
          [
            121.55795470073721,
            25.050318964598862
          ],
          [
            121.55795470073721,
            25.051270971152412
          ],
          [
            121.55793819003166,
            25.051452221100227
          ],
          [
            121.55788768669703,
            25.05159299757382
          ],
          [
            121.55775268739863,
            25.05164050959717
          ],
          [
            121.55752833604673,
            25.051645788709735
          ],
          [
            121.55742538694149,
            25.051654587230182
          ],
          [
            121.5573515743755,
            25.051722335816436
          ],
          [
            121.55712819424154,
            25.05238486222539
          ],
          [
            121.55696405840396,
            25.052868776994206
          ],
          [
            121.55674747679582,
            25.05340196087283
          ],
          [
            121.55667949153765,
            25.053577928640557
          ],
          [
            121.5567183402566,
            25.053600804431806
          ],
          [
            121.55750891168718,
            25.05368350917994
          ],
          [
            121.55907937115077,
            25.053806686360943
          ],
          [
            121.5610936772283,
            25.05394218111707
          ],
          [
            121.56295647330191,
            25.054051280681982
          ],
          [
            121.56375675691226,
            25.0540882337384
          ],
          [
            121.56388690012074,
            25.05418501550004
          ],
          [
            121.56391603665995,
            25.054301153513126
          ],
          [
            121.56381017390082,
            25.055306798524384
          ],
          [
            121.56368391556421,
            25.056579020023232
          ],
          [
            121.563654779025,
            25.056997812039594
          ],
          [
            121.56357222549725,
            25.057754449448982
          ],
          [
            121.56352852068842,
            25.058282333247114
          ],
          [
            121.56351977972666,
            25.0584301403031
          ],
          [
            121.56360233325444,
            25.058520760017124
          ],
          [
            121.56369654139789,
            25.058604341247356
          ],
          [
            121.56372762037304,
            25.058659768768603
          ],
          [
            121.56382377095245,
            25.058775902541328
          ],
          [
            121.56387330306909,
            25.058842767390853
          ],
          [
            121.56393060492955,
            25.05886476239917
          ],
          [
            121.56487948488989,
            25.05894922319443
          ],
          [
            121.56588760914661,
            25.059014328351036
          ],
          [
            121.56707346629257,
            25.05910758702862
          ],
          [
            121.56790774253203,
            25.05917181230305
          ],
          [
            121.5683632437617,
            25.059211403208863
          ],
          [
            121.56843802754567,
            25.05927034964494
          ],
          [
            121.56842151684012,
            25.059347771786562
          ],
          [
            121.56826126587444,
            25.059512293675084
          ],
          [
            121.56800000823952,
            25.059797347119442
          ],
          [
            121.56762997419152,
            25.06020205148784
          ],
          [
            121.56732889661964,
            25.0605205352901
          ],
          [
            121.56700936590627,
            25.060847816125037
          ],
          [
            121.56687436660796,
            25.060996499871493
          ],
          [
            121.56664127429426,
            25.061330817695712
          ],
          [
            121.56648296576451,
            25.061622025372962
          ],
          [
            121.56638195909525,
            25.06202056527172
          ],
          [
            121.56609739222894,
            25.062944328264237
          ],
          [
            121.56604980254824,
            25.063125560948368
          ],
          [
            121.56611875902438,
            25.063192423424333
          ],
          [
            121.56636156351782,
            25.063239051182023
          ],
          [
            121.56719486853927,
            25.063359579454602
          ],
          [
            121.56812141048624,
            25.063485386211184
          ],
          [
            121.56865072428191,
            25.063619990499987
          ],
          [
            121.56983172533798,
            25.06401148579355
          ],
          [
            121.57219858353999,
            25.064827903414695
          ],
          [
            121.57392929396919,
            25.06538918737322
          ],
          [
            121.5753336751592,
            25.0658149872815
          ],
          [
            121.57808222202489,
            25.066601481567595
          ],
          [
            121.57841923466184,
            25.06668329779732
          ],
          [
            121.57859502511506,
            25.06668505728553
          ],
          [
            121.57881452037712,
            25.06670265216625
          ],
          [
            121.57941861795678,
            25.06688739826124
          ],
          [
            121.5798245870698,
            25.067055428991402
          ],
          [
            121.58028300195342,
            25.067265687014963
          ],
          [
            121.58068411497656,
            25.067452191738
          ],
          [
            121.58127170185067,
            25.067750422756923
          ],
          [
            121.58161162814152,
            25.06791405362696
          ],
          [
            121.58187191455849,
            25.068023140752217
          ],
          [
            121.58277903214595,
            25.068295858140328
          ],
          [
            121.58401830628044,
            25.06863719388664
          ],
          [
            121.58439319641829,
            25.068753318202045
          ],
          [
            121.58521678926002,
            25.068823696521434
          ],
          [
            121.5868562051997,
            25.068941580115823
          ],
          [
            121.58760015816758,
            25.06899436377803
          ],
          [
            121.58810907638582,
            25.06899260432299
          ],
          [
            121.58982618976341,
            25.068941580115823
          ],
          [
            121.59041280541956,
            25.06893102338065
          ],
          [
            121.59077021363387,
            25.068908150451325
          ],
          [
            121.59092269485575,
            25.0689292639247
          ],
          [
            121.59094406165117,
            25.06900843941744
          ],
          [
            121.59091686754792,
            25.06912984174024
          ],
          [
            121.59087122030313,
            25.06922661162151
          ],
          [
            121.59065366747701,
            25.069703422101867
          ],
          [
            121.59043125856104,
            25.07021453976211
          ],
          [
            121.58988057796994,
            25.071435583300513
          ],
          [
            121.58983395950722,
            25.071653751181127
          ],
          [
            121.58985502244708,
            25.071705742640802
          ],
          [
            121.5898723226172,
            25.072037303447107
          ],
          [
            121.58985581191172,
            25.071706093820474
          ],
          [
            121.58990534402835,
            25.071730285789112
          ],
          [
            121.59018116993286,
            25.071718849586354
          ],
          [
            121.59041377663756,
            25.071708293090563
          ],
          [
            121.59095571626692,
            25.071690259074806
          ],
          [
            121.59099893546671,
            25.07167354461881
          ],
          [
            121.59103050005088,
            25.07159393099447
          ],
          [
            121.5910814889945,
            25.071535430342493
          ],
          [
            121.59122571486361,
            25.071412710838906
          ],
          [
            121.59141753041352,
            25.07128251366841
          ],
          [
            121.59152630682655,
            25.07123764839516
          ],
          [
            121.59200123241567,
            25.07149100501669
          ],
          [
            121.59199637632577,
            25.07181121888574
          ],
          [
            121.5919992899797,
            25.072057536676823
          ],
          [
            121.59200123241564,
            25.072119116047183
          ],
          [
            121.59194198811926,
            25.07216486070227
          ],
          [
            121.59164965150917,
            25.07234256093107
          ],
          [
            121.59158457990493,
            25.07238918520582
          ],
          [
            121.59153407657028,
            25.072390944612064
          ],
          [
            121.59146609131211,
            25.072348718855164
          ],
          [
            121.59123397021641,
            25.07218421420505
          ],
          [
            121.59106789194291,
            25.072068093142512
          ],
          [
            121.59099602181284,
            25.071987160215635
          ],
          [
            121.59085422398867,
            25.071963408150857
          ],
          [
            121.59000052338978,
            25.07197748344906
          ],
          [
            121.58991320542549,
            25.07200099087082
          ],
          [
            121.58987232261724,
            25.072037303448376
          ],
          [
            121.58987435775991,
            25.072161679356082
          ],
          [
            121.58994169371357,
            25.073067160893626
          ],
          [
            121.59001420935604,
            25.073860038192805
          ],
          [
            121.59008801992069,
            25.074846436069098
          ],
          [
            121.59013593204159,
            25.075132618983734
          ],
          [
            121.59022398675027,
            25.075537261717514
          ],
          [
            121.59036254342425,
            25.076053325872603
          ],
          [
            121.59037419772393,
            25.076326604419346
          ],
          [
            121.59011780313094,
            25.077183967918728
          ],
          [
            121.58990673081452,
            25.077918175938354
          ],
          [
            121.58970990264214,
            25.07855855186234
          ],
          [
            121.58960371902286,
            25.078895158376806
          ],
          [
            121.58962314285566,
            25.079058183498894
          ],
          [
            121.58970472295343,
            25.07929509731814
          ],
          [
            121.58988989682611,
            25.079592998202564
          ],
          [
            121.59034959420237,
            25.080067996144876
          ],
          [
            121.59081576618958,
            25.08051601720648
          ],
          [
            121.59178177814083,
            25.081495324550993
          ],
          [
            121.59267009476085,
            25.082295184138452
          ],
          [
            121.59337971211914,
            25.08280887419661
          ],
          [
            121.59413198097693,
            25.083340007512227
          ]
        ]
      }
    },
    {
      "type": "Feature",
      "properties": {
        "feature_type": "route",
        "ref": "278",
        "name": "278",
        "name_en": "278",
        "color": "#1d4ed8",
        "direction": 1
      },
      "geometry": {
        "type": "LineString",
        "coordinates": [
          [
            121.5945697456087,
            25.08369668503656
          ],
          [
            121.5948507437232,
            25.083910133974488
          ],
          [
            121.59506052111745,
            25.084068461242946
          ],
          [
            121.59509936878305,
            25.084225615514292
          ],
          [
            121.59505922619527,
            25.084314747697928
          ],
          [
            121.59488829646664,
            25.084428508416963
          ],
          [
            121.59466427492833,
            25.084563379235536
          ],
          [
            121.59430428656043,
            25.084702941056552
          ],
          [
            121.59381801292955,
            25.084815097995545
          ],
          [
            121.59368463594433,
            25.08473593486981
          ],
          [
            121.59361082537971,
            25.084655598904686
          ],
          [
            121.59337191223628,
            25.08446150230419
          ],
          [
            121.59301386625165,
            25.084175341195845
          ],
          [
            121.59256970794165,
            25.083813534082744
          ],
          [
            121.59194167068111,
            25.08331392185414
          ],
          [
            121.59141334242895,
            25.082898749577588
          ],
          [
            121.59080343407904,
            25.082426108238025
          ],
          [
            121.59060401606227,
            25.08224901386661
          ],
          [
            121.5903981234346,
            25.0820965483085
          ],
          [
            121.59017280697411,
            25.08199920481438
          ],
          [
            121.58963152950008,
            25.08185846709566
          ],
          [
            121.58859170698419,
            25.081615694150578
          ],
          [
            121.58711420076921,
            25.081280267936734
          ],
          [
            121.58599409307774,
            25.081014037385494
          ],
          [
            121.58494002641777,
            25.08076422581308
          ],
          [
            121.5846175907933,
            25.080624659501375
          ],
          [
            121.58384452224787,
            25.08020595961159
          ],
          [
            121.58344957098093,
            25.080062874166895
          ],
          [
            121.58287592045224,
            25.079864665364756
          ],
          [
            121.58184257254727,
            25.079533925702325
          ],
          [
            121.58104490048026,
            25.079266518513506
          ],
          [
            121.58002838656375,
            25.07894281429294
          ],
          [
            121.57944437665758,
            25.078755159280437
          ],
          [
            121.57919057190897,
            25.078678924349454
          ],
          [
            121.57905848984593,
            25.078660158820693
          ],
          [
            121.57891863824979,
            25.078683615731194
          ],
          [
            121.57850296822787,
            25.078851332510283
          ],
          [
            121.57749940353321,
            25.07925713579452
          ],
          [
            121.57711092687718,
            25.07941781475787
          ],
          [
            121.57693352253763,
            25.07947411098712
          ],
          [
            121.57687266119481,
            25.079407259212008
          ],
          [
            121.57674057913177,
            25.079179728335443
          ],
          [
            121.57667583302243,
            25.079060098529695
          ],
          [
            121.57670173146619,
            25.079009666321664
          ],
          [
            121.57679367094143,
            25.07897565389056
          ],
          [
            121.57703841123471,
            25.078989728001122
          ],
          [
            121.57722746987395,
            25.079094110937337
          ],
          [
            121.57729480582768,
            25.07917269129128
          ],
          [
            121.57746055586757,
            25.07912225912962
          ],
          [
            121.57788529034477,
            25.07893695007816
          ],
          [
            121.57860785692492,
            25.07866485020315
          ],
          [
            121.57896137068192,
            25.07852880003887
          ],
          [
            121.57929157583952,
            25.078450219271666
          ],
          [
            121.57969688648393,
            25.07841620668514
          ],
          [
            121.58012032603898,
            25.07839392257161
          ],
          [
            121.58119899622046,
            25.078409169597094
          ],
          [
            121.58214817418329,
            25.078417379533114
          ],
          [
            121.5837707116832,
            25.07844904642401
          ],
          [
            121.5849231924293,
            25.078480713306714
          ],
          [
            121.58596172002301,
            25.078487750390643
          ],
          [
            121.58663378463787,
            25.078527627191967
          ],
          [
            121.58740555826112,
            25.078641393289054
          ],
          [
            121.58802971075511,
            25.078756332125153
          ],
          [
            121.58844279093267,
            25.07887361654055
          ],
          [
            121.58894910550764,
            25.078972135362662
          ]
        ]
      }
    },
    {
      "type": "Feature",
      "properties": {
        "feature_type": "route",
        "ref": "278",
        "name": "278",
        "name_en": "278",
        "color": "#1d4ed8",
        "direction": 1
      },
      "geometry": {
        "type": "LineString",
        "coordinates": [
          [
            121.5635154793702,
            25.059220136271012
          ],
          [
            121.56336882322842,
            25.059214857404495
          ],
          [
            121.56321925338848,
            25.059199900614804
          ],
          [
            121.56310561915943,
            25.059124236827202
          ],
          [
            121.56303083423943,
            25.058984346678248
          ],
          [
            121.56303374793764,
            25.05881894176779
          ],
          [
            121.56308230957396,
            25.058678171455366
          ]
        ]
      }
    },
    {
      "type": "Feature",
      "properties": {
        "feature_type": "route",
        "ref": "278",
        "name": "278",
        "name_en": "278",
        "color": "#1d4ed8",
        "direction": 1
      },
      "geometry": {
        "type": "LineString",
        "coordinates": [
          [
            121.55774052957553,
            25.0471502937636
          ],
          [
            121.55771624875736,
            25.046407657850736
          ],
          [
            121.55769973780099,
            25.04592283031968
          ],
          [
            121.55769488163733,
            25.04544416024137
          ],
          [
            121.557689054241,
            25.044993645519515
          ],
          [
            121.55765603232827,
            25.044437539127106
          ],
          [
            121.55765117616465,
            25.043493384365558
          ],
          [
            121.55763855013922,
            25.042664493205102
          ],
          [
            121.55762203918283,
            25.042037101584587
          ],
          [
            121.5576132980883,
            25.041560176213817
          ],
          [
            121.5575521104265,
            25.041469542584927
          ],
          [
            121.55747732550654,
            25.041419386081902
          ],
          [
            121.55723160362659,
            25.041416746265384
          ],
          [
            121.55599910929605,
            25.041449303998462
          ],
          [
            121.55485111221273,
            25.041458983322844
          ],
          [
            121.55415473834748,
            25.04148274166127
          ],
          [
            121.55289019333694,
            25.041517059253092
          ],
          [
            121.55074765394117,
            25.041561056151636
          ]
        ]
      }
    },
    {
      "type": "Feature",
      "properties": {
        "feature_type": "route",
        "ref": "278",
        "name": "278",
        "name_en": "278",
        "color": "#1d4ed8",
        "direction": 1
      },
      "geometry": {
        "type": "LineString",
        "coordinates": [
          [
            121.547208481884,
            25.041627931407202
          ],
          [
            121.54509119453914,
            25.04166312889548
          ],
          [
            121.54407042894304,
            25.041690406941953
          ],
          [
            121.54388783719035,
            25.04165872921
          ],
          [
            121.54372855502315,
            25.04151617931496
          ],
          [
            121.54368193585226,
            25.041304993980713
          ],
          [
            121.54365279887044,
            25.040203304590285
          ],
          [
            121.54363143175043,
            25.03928111608594
          ],
          [
            121.5436120070959,
            25.038214606993844
          ],
          [
            121.54358092764862,
            25.037463117295392
          ],
          [
            121.54356247422679,
            25.036413311917144
          ],
          [
            121.5435508194341,
            25.03557293315726
          ],
          [
            121.54351002765956,
            25.03400831736477
          ],
          [
            121.54351779752137,
            25.033539280733976
          ],
          [
            121.54350517149595,
            25.032944402427724
          ],
          [
            121.54348574684143,
            25.03116503027705
          ],
          [
            121.54346437972141,
            25.03008613034297
          ],
          [
            121.54342553041232,
            25.028486243319577
          ],
          [
            121.5433925084996,
            25.026022130093676
          ]
        ]
      }
    },
    {
      "type": "Feature",
      "properties": {
        "feature_type": "station",
        "ref": "TPE22247",
        "name": "景福街",
        "name_en": "Jingfu St.",
        "line": "278",
        "color": "#1d4ed8",
        "direction": 0
      },
      "geometry": {
        "type": "Point",
        "coordinates": [
          121.5363395,
          24.99550417
        ]
      }
    },
    {
      "type": "Feature",
      "properties": {
        "feature_type": "station",
        "ref": "TPE22248",
        "name": "溪口國小",
        "name_en": "Xikou Elementary School",
        "line": "278",
        "color": "#1d4ed8",
        "direction": 0
      },
      "geometry": {
        "type": "Point",
        "coordinates": [
          121.5389062,
          24.99383424
        ]
      }
    },
    {
      "type": "Feature",
      "properties": {
        "feature_type": "station",
        "ref": "TPE22249",
        "name": "捷運景美站",
        "name_en": "MRT Jingmei",
        "line": "278",
        "color": "#1d4ed8",
        "direction": 0
      },
      "geometry": {
        "type": "Point",
        "coordinates": [
          121.54114,
          24.99333
        ]
      }
    },
    {
      "type": "Feature",
      "properties": {
        "feature_type": "station",
        "ref": "TPE22250",
        "name": "財政園區",
        "name_en": "Ministry of Finance Park",
        "line": "278",
        "color": "#1d4ed8",
        "direction": 0
      },
      "geometry": {
        "type": "Point",
        "coordinates": [
          121.5413365,
          24.99545268
        ]
      }
    },
    {
      "type": "Feature",
      "properties": {
        "feature_type": "station",
        "ref": "TPE22251",
        "name": "萬隆",
        "name_en": "Wanlong",
        "line": "278",
        "color": "#1d4ed8",
        "direction": 0
      },
      "geometry": {
        "type": "Point",
        "coordinates": [
          121.5402001,
          24.99931624
        ]
      }
    },
    {
      "type": "Feature",
      "properties": {
        "feature_type": "station",
        "ref": "TPE22252",
        "name": "捷運萬隆站",
        "name_en": "MRT Wanlong",
        "line": "278",
        "color": "#1d4ed8",
        "direction": 0
      },
      "geometry": {
        "type": "Point",
        "coordinates": [
          121.5393892,
          25.00136317
        ]
      }
    },
    {
      "type": "Feature",
      "properties": {
        "feature_type": "station",
        "ref": "TPE22253",
        "name": "武功國小(羅斯福)",
        "name_en": "Wugong Elementary School (Roosevelt)",
        "line": "278",
        "color": "#1d4ed8",
        "direction": 0
      },
      "geometry": {
        "type": "Point",
        "coordinates": [
          121.5387822,
          25.00327364
        ]
      }
    },
    {
      "type": "Feature",
      "properties": {
        "feature_type": "station",
        "ref": "TPE22254",
        "name": "師大分部",
        "name_en": "National Taiwan Normal University Branch",
        "line": "278",
        "color": "#1d4ed8",
        "direction": 0
      },
      "geometry": {
        "type": "Point",
        "coordinates": [
          121.538470307254,
          25.0076706783786
        ]
      }
    },
    {
      "type": "Feature",
      "properties": {
        "feature_type": "station",
        "ref": "TPE22255",
        "name": "捷運公館站",
        "name_en": "MRT Gongguan Sta.",
        "line": "278",
        "color": "#1d4ed8",
        "direction": 0
      },
      "geometry": {
        "type": "Point",
        "coordinates": [
          121.535185,
          25.013993
        ]
      }
    },
    {
      "type": "Feature",
      "properties": {
        "feature_type": "station",
        "ref": "TPE22256",
        "name": "台電大樓",
        "name_en": "Taipower Building",
        "line": "278",
        "color": "#1d4ed8",
        "direction": 0
      },
      "geometry": {
        "type": "Point",
        "coordinates": [
          121.530566,
          25.018486
        ]
      }
    },
    {
      "type": "Feature",
      "properties": {
        "feature_type": "station",
        "ref": "TPE22257",
        "name": "捷運台電大樓站",
        "name_en": "MRT Taipower Building Sta.",
        "line": "278",
        "color": "#1d4ed8",
        "direction": 0
      },
      "geometry": {
        "type": "Point",
        "coordinates": [
          121.52803,
          25.02092
        ]
      }
    },
    {
      "type": "Feature",
      "properties": {
        "feature_type": "station",
        "ref": "TPE22258",
        "name": "羅斯福浦城街口",
        "name_en": "Roosevelt and Pucheng Intersection",
        "line": "278",
        "color": "#1d4ed8",
        "direction": 0
      },
      "geometry": {
        "type": "Point",
        "coordinates": [
          121.5265702582243,
          25.02214502516781
        ]
      }
    },
    {
      "type": "Feature",
      "properties": {
        "feature_type": "station",
        "ref": "TPE22259",
        "name": "羅斯福金門街口",
        "name_en": "Roosevelt and Kinmen St. Intersection",
        "line": "278",
        "color": "#1d4ed8",
        "direction": 0
      },
      "geometry": {
        "type": "Point",
        "coordinates": [
          121.52476413675969,
          25.024022735483676
        ]
      }
    },
    {
      "type": "Feature",
      "properties": {
        "feature_type": "station",
        "ref": "TPE22260",
        "name": "捷運古亭站(和平)",
        "name_en": "MRT Guting Sta. (Heping)",
        "line": "278",
        "color": "#1d4ed8",
        "direction": 0
      },
      "geometry": {
        "type": "Point",
        "coordinates": [
          121.5246159,
          25.02678744
        ]
      }
    },
    {
      "type": "Feature",
      "properties": {
        "feature_type": "station",
        "ref": "TPE22261",
        "name": "師大",
        "name_en": "National Taiwan Normal U.",
        "line": "278",
        "color": "#1d4ed8",
        "direction": 0
      },
      "geometry": {
        "type": "Point",
        "coordinates": [
          121.5278634988405,
          25.02650071684031
        ]
      }
    },
    {
      "type": "Feature",
      "properties": {
        "feature_type": "station",
        "ref": "TPE22262",
        "name": "師大綜合大樓",
        "name_en": "NTNU Union Building 1",
        "line": "278",
        "color": "#1d4ed8",
        "direction": 0
      },
      "geometry": {
        "type": "Point",
        "coordinates": [
          121.529958,
          25.026362
        ]
      }
    },
    {
      "type": "Feature",
      "properties": {
        "feature_type": "station",
        "ref": "TPE22263",
        "name": "溫州街口",
        "name_en": "Wenzhou St. Entrance",
        "line": "278",
        "color": "#1d4ed8",
        "direction": 0
      },
      "geometry": {
        "type": "Point",
        "coordinates": [
          121.533012542409,
          25.0260973914545
        ]
      }
    },
    {
      "type": "Feature",
      "properties": {
        "feature_type": "station",
        "ref": "TPE22264",
        "name": "大安森林公園",
        "name_en": "Daan Park",
        "line": "278",
        "color": "#1d4ed8",
        "direction": 0
      },
      "geometry": {
        "type": "Point",
        "coordinates": [
          121.536235879941,
          25.0257355123764
        ]
      }
    },
    {
      "type": "Feature",
      "properties": {
        "feature_type": "station",
        "ref": "TPE22265",
        "name": "龍門國中(和平)",
        "name_en": "Longmen Jr. High School (Heping)",
        "line": "278",
        "color": "#1d4ed8",
        "direction": 0
      },
      "geometry": {
        "type": "Point",
        "coordinates": [
          121.538492198683,
          25.0254072414078
        ]
      }
    },
    {
      "type": "Feature",
      "properties": {
        "feature_type": "station",
        "ref": "TPE22266",
        "name": "復興南路口",
        "name_en": "Fuxing S. Rd. Entrance",
        "line": "278",
        "color": "#1d4ed8",
        "direction": 0
      },
      "geometry": {
        "type": "Point",
        "coordinates": [
          121.542239793699,
          25.0249140592421
        ]
      }
    },
    {
      "type": "Feature",
      "properties": {
        "feature_type": "station",
        "ref": "TPE22267",
        "name": "國立臺北教育大學",
        "name_en": "National Taipei University of Education Experiment Elementary School",
        "line": "278",
        "color": "#1d4ed8",
        "direction": 0
      },
      "geometry": {
        "type": "Point",
        "coordinates": [
          121.545343325676,
          25.0246033941802
        ]
      }
    },
    {
      "type": "Feature",
      "properties": {
        "feature_type": "station",
        "ref": "TPE22268",
        "name": "臥龍街",
        "name_en": "Wolong St.",
        "line": "278",
        "color": "#1d4ed8",
        "direction": 0
      },
      "geometry": {
        "type": "Point",
        "coordinates": [
          121.547571,
          25.024522
        ]
      }
    },
    {
      "type": "Feature",
      "properties": {
        "feature_type": "station",
        "ref": "TPE22269",
        "name": "成功國宅",
        "name_en": "Chenggong Public Housing",
        "line": "278",
        "color": "#1d4ed8",
        "direction": 0
      },
      "geometry": {
        "type": "Point",
        "coordinates": [
          121.5490337,
          25.02759922
        ]
      }
    },
    {
      "type": "Feature",
      "properties": {
        "feature_type": "station",
        "ref": "TPE22270",
        "name": "大安國中",
        "name_en": "Daan Junior High School",
        "line": "278",
        "color": "#1d4ed8",
        "direction": 0
      },
      "geometry": {
        "type": "Point",
        "coordinates": [
          121.54906,
          25.02967
        ]
      }
    },
    {
      "type": "Feature",
      "properties": {
        "feature_type": "station",
        "ref": "TPE22271",
        "name": "信義敦化路口",
        "name_en": "Xinyi & Dunhua Intersection",
        "line": "278",
        "color": "#1d4ed8",
        "direction": 0
      },
      "geometry": {
        "type": "Point",
        "coordinates": [
          121.54906,
          25.03196
        ]
      }
    },
    {
      "type": "Feature",
      "properties": {
        "feature_type": "station",
        "ref": "TPE22272",
        "name": "仁愛國中(外交學院)",
        "name_en": "Renai Junior High School(Institute of Diplomacy)",
        "line": "278",
        "color": "#1d4ed8",
        "direction": 0
      },
      "geometry": {
        "type": "Point",
        "coordinates": [
          121.5490897913242,
          25.035951071734246
        ]
      }
    },
    {
      "type": "Feature",
      "properties": {
        "feature_type": "station",
        "ref": "TPE22273",
        "name": "安和敦化路口",
        "name_en": "Anhe-Dunhua Intersection",
        "line": "278",
        "color": "#1d4ed8",
        "direction": 0
      },
      "geometry": {
        "type": "Point",
        "coordinates": [
          121.549163,
          25.039336
        ]
      }
    },
    {
      "type": "Feature",
      "properties": {
        "feature_type": "station",
        "ref": "TPE22274",
        "name": "捷運忠孝敦化站",
        "name_en": "MRT Zhongxiao Dunhua Sta.",
        "line": "278",
        "color": "#1d4ed8",
        "direction": 0
      },
      "geometry": {
        "type": "Point",
        "coordinates": [
          121.549174,
          25.0430127
        ]
      }
    },
    {
      "type": "Feature",
      "properties": {
        "feature_type": "station",
        "ref": "TPE22275",
        "name": "市民大道口",
        "name_en": "Civic Boulevard Entrance",
        "line": "278",
        "color": "#1d4ed8",
        "direction": 0
      },
      "geometry": {
        "type": "Point",
        "coordinates": [
          121.5491941,
          25.04575795
        ]
      }
    },
    {
      "type": "Feature",
      "properties": {
        "feature_type": "station",
        "ref": "TPE22276",
        "name": "臺視",
        "name_en": "TTV Enterprise Co.",
        "line": "278",
        "color": "#1d4ed8",
        "direction": 0
      },
      "geometry": {
        "type": "Point",
        "coordinates": [
          121.551053453852,
          25.0481637080101
        ]
      }
    },
    {
      "type": "Feature",
      "properties": {
        "feature_type": "station",
        "ref": "TPE22277",
        "name": "美仁里",
        "name_en": "Meiren Village",
        "line": "278",
        "color": "#1d4ed8",
        "direction": 0
      },
      "geometry": {
        "type": "Point",
        "coordinates": [
          121.55415,
          25.048
        ]
      }
    },
    {
      "type": "Feature",
      "properties": {
        "feature_type": "station",
        "ref": "TPE22278",
        "name": "榮民服務處",
        "name_en": "Veterans Service Center",
        "line": "278",
        "color": "#1d4ed8",
        "direction": 0
      },
      "geometry": {
        "type": "Point",
        "coordinates": [
          121.557946,
          25.04870308
        ]
      }
    },
    {
      "type": "Feature",
      "properties": {
        "feature_type": "station",
        "ref": "TPE22279",
        "name": "南京新村",
        "name_en": "Nanjing New Village",
        "line": "278",
        "color": "#1d4ed8",
        "direction": 0
      },
      "geometry": {
        "type": "Point",
        "coordinates": [
          121.5570658,
          25.05298738
        ]
      }
    },
    {
      "type": "Feature",
      "properties": {
        "feature_type": "station",
        "ref": "TPE22280",
        "name": "三軍總醫院松山分院",
        "name_en": "Tri-Servics General Hospital Songshan Branch",
        "line": "278",
        "color": "#1d4ed8",
        "direction": 0
      },
      "geometry": {
        "type": "Point",
        "coordinates": [
          121.55726,
          25.05367
        ]
      }
    },
    {
      "type": "Feature",
      "properties": {
        "feature_type": "station",
        "ref": "TPE22281",
        "name": "長壽公園",
        "name_en": "Changshou Park",
        "line": "278",
        "color": "#1d4ed8",
        "direction": 0
      },
      "geometry": {
        "type": "Point",
        "coordinates": [
          121.55985,
          25.05381
        ]
      }
    },
    {
      "type": "Feature",
      "properties": {
        "feature_type": "station",
        "ref": "TPE22282",
        "name": "健康新城",
        "name_en": "Jiankang New Village",
        "line": "278",
        "color": "#1d4ed8",
        "direction": 0
      },
      "geometry": {
        "type": "Point",
        "coordinates": [
          121.5626621,
          25.05397814
        ]
      }
    },
    {
      "type": "Feature",
      "properties": {
        "feature_type": "station",
        "ref": "TPE22283",
        "name": "三民健康路口(西松高中)",
        "name_en": "Sanmin and Jiankang Intersection (Xisong High School)",
        "line": "278",
        "color": "#1d4ed8",
        "direction": 0
      },
      "geometry": {
        "type": "Point",
        "coordinates": [
          121.5638473,
          25.05481494
        ]
      }
    },
    {
      "type": "Feature",
      "properties": {
        "feature_type": "station",
        "ref": "TPE22284",
        "name": "三民路",
        "name_en": "Sanmin Rd.",
        "line": "278",
        "color": "#1d4ed8",
        "direction": 0
      },
      "geometry": {
        "type": "Point",
        "coordinates": [
          121.56368,
          25.05753
        ]
      }
    },
    {
      "type": "Feature",
      "properties": {
        "feature_type": "station",
        "ref": "TPE22285",
        "name": "新東街口",
        "name_en": "Xindong St. Entrance",
        "line": "278",
        "color": "#1d4ed8",
        "direction": 0
      },
      "geometry": {
        "type": "Point",
        "coordinates": [
          121.5664423,
          25.05902066
        ]
      }
    },
    {
      "type": "Feature",
      "properties": {
        "feature_type": "station",
        "ref": "TPE22286",
        "name": "民生國中",
        "name_en": "Minsheng Junior High School",
        "line": "278",
        "color": "#1d4ed8",
        "direction": 0
      },
      "geometry": {
        "type": "Point",
        "coordinates": [
          121.5676949,
          25.06018904
        ]
      }
    },
    {
      "type": "Feature",
      "properties": {
        "feature_type": "station",
        "ref": "TPE22287",
        "name": "新益里",
        "name_en": "Xinyi Village",
        "line": "278",
        "color": "#1d4ed8",
        "direction": 0
      },
      "geometry": {
        "type": "Point",
        "coordinates": [
          121.566269,
          25.062445
        ]
      }
    },
    {
      "type": "Feature",
      "properties": {
        "feature_type": "station",
        "ref": "TPE22288",
        "name": "民權大橋",
        "name_en": "Minquan Bridge",
        "line": "278",
        "color": "#1d4ed8",
        "direction": 0
      },
      "geometry": {
        "type": "Point",
        "coordinates": [
          121.579477870198,
          25.066876801458
        ]
      }
    },
    {
      "type": "Feature",
      "properties": {
        "feature_type": "station",
        "ref": "TPE22289",
        "name": "時報廣場",
        "name_en": "China Times Daily News Square",
        "line": "278",
        "color": "#1d4ed8",
        "direction": 0
      },
      "geometry": {
        "type": "Point",
        "coordinates": [
          121.58212115754,
          25.0680848776157
        ]
      }
    },
    {
      "type": "Feature",
      "properties": {
        "feature_type": "station",
        "ref": "TPE22290",
        "name": "三民國中",
        "name_en": "Sanmin Junior High School",
        "line": "278",
        "color": "#1d4ed8",
        "direction": 0
      },
      "geometry": {
        "type": "Point",
        "coordinates": [
          121.58543789167122,
          25.06881463274073
        ]
      }
    },
    {
      "type": "Feature",
      "properties": {
        "feature_type": "station",
        "ref": "TPE22291",
        "name": "內湖行政大樓",
        "name_en": "Neihu Admin. Building",
        "line": "278",
        "color": "#1d4ed8",
        "direction": 0
      },
      "geometry": {
        "type": "Point",
        "coordinates": [
          121.58896238097387,
          25.068895529659475
        ]
      }
    },
    {
      "type": "Feature",
      "properties": {
        "feature_type": "station",
        "ref": "TPE22292",
        "name": "國防醫學中心",
        "name_en": "National Defense Medical Center",
        "line": "278",
        "color": "#1d4ed8",
        "direction": 0
      },
      "geometry": {
        "type": "Point",
        "coordinates": [
          121.590031196316,
          25.0712104683315
        ]
      }
    },
    {
      "type": "Feature",
      "properties": {
        "feature_type": "station",
        "ref": "TPE22293",
        "name": "三總內湖站",
        "name_en": "Tri-Service General Hospital",
        "line": "278",
        "color": "#1d4ed8",
        "direction": 0
      },
      "geometry": {
        "type": "Point",
        "coordinates": [
          121.592095,
          25.071852
        ]
      }
    },
    {
      "type": "Feature",
      "properties": {
        "feature_type": "station",
        "ref": "TPE22294",
        "name": "將軍嶺",
        "name_en": "Jiangjun Ling",
        "line": "278",
        "color": "#1d4ed8",
        "direction": 0
      },
      "geometry": {
        "type": "Point",
        "coordinates": [
          121.590016770287,
          25.0738091792986
        ]
      }
    },
    {
      "type": "Feature",
      "properties": {
        "feature_type": "station",
        "ref": "TPE22295",
        "name": "方濟中學",
        "name_en": "St. Francis High School",
        "line": "278",
        "color": "#1d4ed8",
        "direction": 0
      },
      "geometry": {
        "type": "Point",
        "coordinates": [
          121.590231346227,
          25.0768845629687
        ]
      }
    },
    {
      "type": "Feature",
      "properties": {
        "feature_type": "station",
        "ref": "TPE198458",
        "name": "成功路三段",
        "name_en": "Chenggong Rd. Sec. 3",
        "line": "278",
        "color": "#1d4ed8",
        "direction": 0
      },
      "geometry": {
        "type": "Point",
        "coordinates": [
          121.5899399,
          25.07961773
        ]
      }
    },
    {
      "type": "Feature",
      "properties": {
        "feature_type": "station",
        "ref": "TPE22301",
        "name": "湖光市場",
        "name_en": "Huguang Market",
        "line": "278",
        "color": "#1d4ed8",
        "direction": 0
      },
      "geometry": {
        "type": "Point",
        "coordinates": [
          121.59200882874,
          25.0816997666211
        ]
      }
    },
    {
      "type": "Feature",
      "properties": {
        "feature_type": "station",
        "ref": "TPE22302",
        "name": "捷運內湖站",
        "name_en": "MRT Neihu Sta.",
        "line": "278",
        "color": "#1d4ed8",
        "direction": 0
      },
      "geometry": {
        "type": "Point",
        "coordinates": [
          121.594132,
          25.08334
        ]
      }
    },
    {
      "type": "Feature",
      "properties": {
        "feature_type": "station",
        "ref": "TPE221555",
        "name": "金龍路口",
        "name_en": "Jinlong Rd. Entrance",
        "line": "278",
        "color": "#1d4ed8",
        "direction": 1
      },
      "geometry": {
        "type": "Point",
        "coordinates": [
          121.5943834,
          25.08468616
        ]
      }
    },
    {
      "type": "Feature",
      "properties": {
        "feature_type": "station",
        "ref": "TPE22313",
        "name": "碧湖國小",
        "name_en": "Bihu Elementary School",
        "line": "278",
        "color": "#1d4ed8",
        "direction": 1
      },
      "geometry": {
        "type": "Point",
        "coordinates": [
          121.5924824,
          25.0838005
        ]
      }
    },
    {
      "type": "Feature",
      "properties": {
        "feature_type": "station",
        "ref": "TPE22314",
        "name": "內湖派出所",
        "name_en": "Neihu Police Substation",
        "line": "278",
        "color": "#1d4ed8",
        "direction": 1
      },
      "geometry": {
        "type": "Point",
        "coordinates": [
          121.5899512,
          25.08198296
        ]
      }
    },
    {
      "type": "Feature",
      "properties": {
        "feature_type": "station",
        "ref": "TPE22315",
        "name": "達人高中(臺灣戲曲學院)",
        "name_en": "Da Ren Catholic High School (National Taiwan College of Performing Arts)",
        "line": "278",
        "color": "#1d4ed8",
        "direction": 1
      },
      "geometry": {
        "type": "Point",
        "coordinates": [
          121.58718,
          25.08132
        ]
      }
    },
    {
      "type": "Feature",
      "properties": {
        "feature_type": "station",
        "ref": "TPE22316",
        "name": "內湖國小",
        "name_en": "Neihu Elementary School",
        "line": "278",
        "color": "#1d4ed8",
        "direction": 1
      },
      "geometry": {
        "type": "Point",
        "coordinates": [
          121.581399,
          25.079397
        ]
      }
    },
    {
      "type": "Feature",
      "properties": {
        "feature_type": "station",
        "ref": "TPE57082",
        "name": "西湖圖書館(湖光教會)",
        "name_en": "Xihu Library (Huguang Church)",
        "line": "278",
        "color": "#1d4ed8",
        "direction": 1
      },
      "geometry": {
        "type": "Point",
        "coordinates": [
          121.578499,
          25.07889
        ]
      }
    },
    {
      "type": "Feature",
      "properties": {
        "feature_type": "station",
        "ref": "TPE57083",
        "name": "西湖圖書館(湖光教會)",
        "name_en": "Xihu Library (Huguang Church)",
        "line": "278",
        "color": "#1d4ed8",
        "direction": 1
      },
      "geometry": {
        "type": "Point",
        "coordinates": [
          121.578396,
          25.078683
        ]
      }
    },
    {
      "type": "Feature",
      "properties": {
        "feature_type": "station",
        "ref": "TPE22317",
        "name": "湖光國宅",
        "name_en": "Huguang Public Housing",
        "line": "278",
        "color": "#1d4ed8",
        "direction": 1
      },
      "geometry": {
        "type": "Point",
        "coordinates": [
          121.581597209792,
          25.0783569202296
        ]
      }
    },
    {
      "type": "Feature",
      "properties": {
        "feature_type": "station",
        "ref": "TPE57084",
        "name": "捷運文德站(碧湖公園)",
        "name_en": "MRT Wende Sta. (Bihu Park)",
        "line": "278",
        "color": "#1d4ed8",
        "direction": 1
      },
      "geometry": {
        "type": "Point",
        "coordinates": [
          121.5841327,
          25.07840172
        ]
      }
    },
    {
      "type": "Feature",
      "properties": {
        "feature_type": "station",
        "ref": "TPE22318",
        "name": "內湖高中",
        "name_en": "Neihu High School",
        "line": "278",
        "color": "#1d4ed8",
        "direction": 1
      },
      "geometry": {
        "type": "Point",
        "coordinates": [
          121.587565869008,
          25.0787035812339
        ]
      }
    },
    {
      "type": "Feature",
      "properties": {
        "feature_type": "station",
        "ref": "TPE22319",
        "name": "方濟中學",
        "name_en": "St. Francis High School",
        "line": "278",
        "color": "#1d4ed8",
        "direction": 1
      },
      "geometry": {
        "type": "Point",
        "coordinates": [
          121.59007719697958,
          25.076435413204408
        ]
      }
    },
    {
      "type": "Feature",
      "properties": {
        "feature_type": "station",
        "ref": "TPE22320",
        "name": "將軍嶺",
        "name_en": "Jiangjun Ling",
        "line": "278",
        "color": "#1d4ed8",
        "direction": 1
      },
      "geometry": {
        "type": "Point",
        "coordinates": [
          121.58972,
          25.073372
        ]
      }
    },
    {
      "type": "Feature",
      "properties": {
        "feature_type": "station",
        "ref": "TPE22321",
        "name": "三總內湖站",
        "name_en": "Tri-Service General Hospital",
        "line": "278",
        "color": "#1d4ed8",
        "direction": 1
      },
      "geometry": {
        "type": "Point",
        "coordinates": [
          121.592095,
          25.071852
        ]
      }
    },
    {
      "type": "Feature",
      "properties": {
        "feature_type": "station",
        "ref": "TPE22322",
        "name": "國防醫學中心",
        "name_en": "National Defense Medical Center",
        "line": "278",
        "color": "#1d4ed8",
        "direction": 1
      },
      "geometry": {
        "type": "Point",
        "coordinates": [
          121.589869957803,
          25.0710371489715
        ]
      }
    },
    {
      "type": "Feature",
      "properties": {
        "feature_type": "station",
        "ref": "TPE22323",
        "name": "內湖行政大樓",
        "name_en": "Neihu Admin. Building",
        "line": "278",
        "color": "#1d4ed8",
        "direction": 1
      },
      "geometry": {
        "type": "Point",
        "coordinates": [
          121.58821790633739,
          25.06918300127649
        ]
      }
    },
    {
      "type": "Feature",
      "properties": {
        "feature_type": "station",
        "ref": "TPE22324",
        "name": "三民國中",
        "name_en": "Sanmin Junior High School",
        "line": "278",
        "color": "#1d4ed8",
        "direction": 1
      },
      "geometry": {
        "type": "Point",
        "coordinates": [
          121.58556,
          25.06901
        ]
      }
    },
    {
      "type": "Feature",
      "properties": {
        "feature_type": "station",
        "ref": "TPE22325",
        "name": "時報廣場",
        "name_en": "China Times Daily News Square",
        "line": "278",
        "color": "#1d4ed8",
        "direction": 1
      },
      "geometry": {
        "type": "Point",
        "coordinates": [
          121.583129808238,
          25.0685609459737
        ]
      }
    },
    {
      "type": "Feature",
      "properties": {
        "feature_type": "station",
        "ref": "TPE22326",
        "name": "民權大橋",
        "name_en": "Minquan Bridge",
        "line": "278",
        "color": "#1d4ed8",
        "direction": 1
      },
      "geometry": {
        "type": "Point",
        "coordinates": [
          121.57895384595646,
          25.066982973174284
        ]
      }
    },
    {
      "type": "Feature",
      "properties": {
        "feature_type": "station",
        "ref": "TPE22327",
        "name": "新益里",
        "name_en": "Xinyi Village",
        "line": "278",
        "color": "#1d4ed8",
        "direction": 1
      },
      "geometry": {
        "type": "Point",
        "coordinates": [
          121.566155,
          25.062286
        ]
      }
    },
    {
      "type": "Feature",
      "properties": {
        "feature_type": "station",
        "ref": "TPE22328",
        "name": "民生國中",
        "name_en": "Minsheng Junior High School",
        "line": "278",
        "color": "#1d4ed8",
        "direction": 1
      },
      "geometry": {
        "type": "Point",
        "coordinates": [
          121.5679233,
          25.05966141
        ]
      }
    },
    {
      "type": "Feature",
      "properties": {
        "feature_type": "station",
        "ref": "TPE22329",
        "name": "新東街口",
        "name_en": "Xindong St. Entrance",
        "line": "278",
        "color": "#1d4ed8",
        "direction": 1
      },
      "geometry": {
        "type": "Point",
        "coordinates": [
          121.5663295,
          25.0591755
        ]
      }
    },
    {
      "type": "Feature",
      "properties": {
        "feature_type": "station",
        "ref": "TPE22330",
        "name": "三民路",
        "name_en": "Sanmin Rd.",
        "line": "278",
        "color": "#1d4ed8",
        "direction": 1
      },
      "geometry": {
        "type": "Point",
        "coordinates": [
          121.5634,
          25.0575
        ]
      }
    },
    {
      "type": "Feature",
      "properties": {
        "feature_type": "station",
        "ref": "TPE22331",
        "name": "三民健康路口(西松高中)",
        "name_en": "Sanmin and Jiankang Intersection (Xisong High School)",
        "line": "278",
        "color": "#1d4ed8",
        "direction": 1
      },
      "geometry": {
        "type": "Point",
        "coordinates": [
          121.5635808,
          25.05524502
        ]
      }
    },
    {
      "type": "Feature",
      "properties": {
        "feature_type": "station",
        "ref": "TPE22332",
        "name": "健康新城",
        "name_en": "Jiankang New Village",
        "line": "278",
        "color": "#1d4ed8",
        "direction": 1
      },
      "geometry": {
        "type": "Point",
        "coordinates": [
          121.56216251653,
          25.054217211063
        ]
      }
    },
    {
      "type": "Feature",
      "properties": {
        "feature_type": "station",
        "ref": "TPE22333",
        "name": "長壽公園",
        "name_en": "Changshou Park",
        "line": "278",
        "color": "#1d4ed8",
        "direction": 1
      },
      "geometry": {
        "type": "Point",
        "coordinates": [
          121.559764,
          25.054069
        ]
      }
    },
    {
      "type": "Feature",
      "properties": {
        "feature_type": "station",
        "ref": "TPE22334",
        "name": "三軍總醫院松山分院",
        "name_en": "Tri-Servics General Hospital Songshan Branch",
        "line": "278",
        "color": "#1d4ed8",
        "direction": 1
      },
      "geometry": {
        "type": "Point",
        "coordinates": [
          121.557874385835,
          25.0538817473717
        ]
      }
    },
    {
      "type": "Feature",
      "properties": {
        "feature_type": "station",
        "ref": "TPE22335",
        "name": "南京新村",
        "name_en": "Nanjing New Village",
        "line": "278",
        "color": "#1d4ed8",
        "direction": 1
      },
      "geometry": {
        "type": "Point",
        "coordinates": [
          121.5568095,
          25.05277814
        ]
      }
    },
    {
      "type": "Feature",
      "properties": {
        "feature_type": "station",
        "ref": "TPE22336",
        "name": "博仁醫院",
        "name_en": "Po Jen Hospital",
        "line": "278",
        "color": "#1d4ed8",
        "direction": 1
      },
      "geometry": {
        "type": "Point",
        "coordinates": [
          121.55774,
          25.04937
        ]
      }
    },
    {
      "type": "Feature",
      "properties": {
        "feature_type": "station",
        "ref": "TPE22337",
        "name": "臺北市區監理所(光復)",
        "name_en": "Taipei City Motor Vehicles Office (Guangfu)",
        "line": "278",
        "color": "#1d4ed8",
        "direction": 1
      },
      "geometry": {
        "type": "Point",
        "coordinates": [
          121.5577342,
          25.04762
        ]
      }
    },
    {
      "type": "Feature",
      "properties": {
        "feature_type": "station",
        "ref": "TPE22338",
        "name": "捷運國父紀念館站(光復)",
        "name_en": "MRT Sun Yat-sen Memorial Hall Sta. (Guangfu)",
        "line": "278",
        "color": "#1d4ed8",
        "direction": 1
      },
      "geometry": {
        "type": "Point",
        "coordinates": [
          121.55752374841019,
          25.042722340316903
        ]
      }
    },
    {
      "type": "Feature",
      "properties": {
        "feature_type": "station",
        "ref": "TPE22339",
        "name": "交通部觀光署",
        "name_en": "Tourism Administration, MOTC",
        "line": "278",
        "color": "#1d4ed8",
        "direction": 1
      },
      "geometry": {
        "type": "Point",
        "coordinates": [
          121.5561206,
          25.04153654
        ]
      }
    },
    {
      "type": "Feature",
      "properties": {
        "feature_type": "station",
        "ref": "TPE22340",
        "name": "阿波羅大廈",
        "name_en": "Apollo Building",
        "line": "278",
        "color": "#1d4ed8",
        "direction": 1
      },
      "geometry": {
        "type": "Point",
        "coordinates": [
          121.55328900975,
          25.041561244151
        ]
      }
    },
    {
      "type": "Feature",
      "properties": {
        "feature_type": "station",
        "ref": "TPE22341",
        "name": "捷運忠孝敦化站",
        "name_en": "MRT Zhongxiao Dunhua Sta.",
        "line": "278",
        "color": "#1d4ed8",
        "direction": 1
      },
      "geometry": {
        "type": "Point",
        "coordinates": [
          121.5501789,
          25.0416333
        ]
      }
    },
    {
      "type": "Feature",
      "properties": {
        "feature_type": "station",
        "ref": "TPE22342",
        "name": "頂好市場",
        "name_en": "Dinghao Market",
        "line": "278",
        "color": "#1d4ed8",
        "direction": 1
      },
      "geometry": {
        "type": "Point",
        "coordinates": [
          121.546693508012,
          25.0416948578606
        ]
      }
    },
    {
      "type": "Feature",
      "properties": {
        "feature_type": "station",
        "ref": "TPE22343",
        "name": "懷生國中",
        "name_en": "Huaisheng Junior High School",
        "line": "278",
        "color": "#1d4ed8",
        "direction": 1
      },
      "geometry": {
        "type": "Point",
        "coordinates": [
          121.543583,
          25.039866
        ]
      }
    },
    {
      "type": "Feature",
      "properties": {
        "feature_type": "station",
        "ref": "TPE22344",
        "name": "聯合醫院仁愛院區",
        "name_en": "TCUH, Renai Branch",
        "line": "278",
        "color": "#1d4ed8",
        "direction": 1
      },
      "geometry": {
        "type": "Point",
        "coordinates": [
          121.54350991852299,
          25.036960677175955
        ]
      }
    },
    {
      "type": "Feature",
      "properties": {
        "feature_type": "station",
        "ref": "TPE22345",
        "name": "東豐復興路口",
        "name_en": "Dongfeng & Fuxing Intersection",
        "line": "278",
        "color": "#1d4ed8",
        "direction": 1
      },
      "geometry": {
        "type": "Point",
        "coordinates": [
          121.54344864006195,
          25.03567752276149
        ]
      }
    },
    {
      "type": "Feature",
      "properties": {
        "feature_type": "station",
        "ref": "TPE22346",
        "name": "大安高工(捷運大安站)",
        "name_en": "Daan Vocational High School (MRT Daan Sta.)",
        "line": "278",
        "color": "#1d4ed8",
        "direction": 1
      },
      "geometry": {
        "type": "Point",
        "coordinates": [
          121.543343,
          25.03251207
        ]
      }
    },
    {
      "type": "Feature",
      "properties": {
        "feature_type": "station",
        "ref": "TPE22347",
        "name": "開平餐飲學校",
        "name_en": "Kaiping Culinary School",
        "line": "278",
        "color": "#1d4ed8",
        "direction": 1
      },
      "geometry": {
        "type": "Point",
        "coordinates": [
          121.54334032005,
          25.0294644602605
        ]
      }
    },
    {
      "type": "Feature",
      "properties": {
        "feature_type": "station",
        "ref": "TPE22348",
        "name": "捷運科技大樓站",
        "name_en": "MRT Technology Building Sta.",
        "line": "278",
        "color": "#1d4ed8",
        "direction": 1
      },
      "geometry": {
        "type": "Point",
        "coordinates": [
          121.5433292,
          25.02679227
        ]
      }
    },
    {
      "type": "Feature",
      "properties": {
        "feature_type": "station",
        "ref": "TPE22349",
        "name": "復興南路口",
        "name_en": "Fuxing S. Rd. Entrance",
        "line": "278",
        "color": "#1d4ed8",
        "direction": 1
      },
      "geometry": {
        "type": "Point",
        "coordinates": [
          121.542376119519,
          25.0251035284638
        ]
      }
    },
    {
      "type": "Feature",
      "properties": {
        "feature_type": "station",
        "ref": "TPE22350",
        "name": "國北教大實小",
        "name_en": "National Taipei University of Education Experiment Elementary School",
        "line": "278",
        "color": "#1d4ed8",
        "direction": 1
      },
      "geometry": {
        "type": "Point",
        "coordinates": [
          121.54065,
          25.02532
        ]
      }
    },
    {
      "type": "Feature",
      "properties": {
        "feature_type": "station",
        "ref": "TPE22351",
        "name": "龍門國中(和平)",
        "name_en": "Longmen Jr. High School (Heping)",
        "line": "278",
        "color": "#1d4ed8",
        "direction": 1
      },
      "geometry": {
        "type": "Point",
        "coordinates": [
          121.539154243763,
          25.0255275256686
        ]
      }
    },
    {
      "type": "Feature",
      "properties": {
        "feature_type": "station",
        "ref": "TPE22352",
        "name": "大安森林公園",
        "name_en": "Daan Park",
        "line": "278",
        "color": "#1d4ed8",
        "direction": 1
      },
      "geometry": {
        "type": "Point",
        "coordinates": [
          121.53631985296,
          25.0259280472003
        ]
      }
    },
    {
      "type": "Feature",
      "properties": {
        "feature_type": "station",
        "ref": "TPE22353",
        "name": "溫州街口",
        "name_en": "Wenzhou St. Entrance",
        "line": "278",
        "color": "#1d4ed8",
        "direction": 1
      },
      "geometry": {
        "type": "Point",
        "coordinates": [
          121.532693859225,
          25.0263548162126
        ]
      }
    },
    {
      "type": "Feature",
      "properties": {
        "feature_type": "station",
        "ref": "TPE22354",
        "name": "師大綜合大樓",
        "name_en": "NTNU Union Building 1",
        "line": "278",
        "color": "#1d4ed8",
        "direction": 1
      },
      "geometry": {
        "type": "Point",
        "coordinates": [
          121.53006,
          25.026622
        ]
      }
    },
    {
      "type": "Feature",
      "properties": {
        "feature_type": "station",
        "ref": "TPE22355",
        "name": "師大",
        "name_en": "National Taiwan Normal U.",
        "line": "278",
        "color": "#1d4ed8",
        "direction": 1
      },
      "geometry": {
        "type": "Point",
        "coordinates": [
          121.527713493878,
          25.026738138642
        ]
      }
    },
    {
      "type": "Feature",
      "properties": {
        "feature_type": "station",
        "ref": "TPE22356",
        "name": "捷運古亭站(和平)",
        "name_en": "MRT Guting Sta. (Heping)",
        "line": "278",
        "color": "#1d4ed8",
        "direction": 1
      },
      "geometry": {
        "type": "Point",
        "coordinates": [
          121.524516,
          25.027036
        ]
      }
    },
    {
      "type": "Feature",
      "properties": {
        "feature_type": "station",
        "ref": "TPE22357",
        "name": "羅斯福金門街口",
        "name_en": "Roosevelt and Kinmen St. Intersection",
        "line": "278",
        "color": "#1d4ed8",
        "direction": 1
      },
      "geometry": {
        "type": "Point",
        "coordinates": [
          121.5243501,
          25.0242886
        ]
      }
    },
    {
      "type": "Feature",
      "properties": {
        "feature_type": "station",
        "ref": "TPE22358",
        "name": "羅斯福浦城街口",
        "name_en": "Roosevelt and Pucheng Intersection",
        "line": "278",
        "color": "#1d4ed8",
        "direction": 1
      },
      "geometry": {
        "type": "Point",
        "coordinates": [
          121.526085861859,
          25.0224187553298
        ]
      }
    },
    {
      "type": "Feature",
      "properties": {
        "feature_type": "station",
        "ref": "TPE22359",
        "name": "捷運台電大樓站",
        "name_en": "MRT Taipower Building Sta.",
        "line": "278",
        "color": "#1d4ed8",
        "direction": 1
      },
      "geometry": {
        "type": "Point",
        "coordinates": [
          121.528697,
          25.020027
        ]
      }
    },
    {
      "type": "Feature",
      "properties": {
        "feature_type": "station",
        "ref": "TPE22360",
        "name": "台電大樓",
        "name_en": "Taipower Building",
        "line": "278",
        "color": "#1d4ed8",
        "direction": 1
      },
      "geometry": {
        "type": "Point",
        "coordinates": [
          121.531379,
          25.017546
        ]
      }
    },
    {
      "type": "Feature",
      "properties": {
        "feature_type": "station",
        "ref": "TPE22361",
        "name": "捷運公館站",
        "name_en": "MRT Gongguan Sta.",
        "line": "278",
        "color": "#1d4ed8",
        "direction": 1
      },
      "geometry": {
        "type": "Point",
        "coordinates": [
          121.534722,
          25.014321
        ]
      }
    },
    {
      "type": "Feature",
      "properties": {
        "feature_type": "station",
        "ref": "TPE22362",
        "name": "師大分部",
        "name_en": "National Taiwan Normal University Branch",
        "line": "278",
        "color": "#1d4ed8",
        "direction": 1
      },
      "geometry": {
        "type": "Point",
        "coordinates": [
          121.538064047069,
          25.0081406778406
        ]
      }
    },
    {
      "type": "Feature",
      "properties": {
        "feature_type": "station",
        "ref": "TPE22363",
        "name": "武功國小(羅斯福)",
        "name_en": "Wugong Elementary School (Roosevelt)",
        "line": "278",
        "color": "#1d4ed8",
        "direction": 1
      },
      "geometry": {
        "type": "Point",
        "coordinates": [
          121.5384705,
          25.00341174
        ]
      }
    },
    {
      "type": "Feature",
      "properties": {
        "feature_type": "station",
        "ref": "TPE22364",
        "name": "捷運萬隆站",
        "name_en": "MRT Wanlong",
        "line": "278",
        "color": "#1d4ed8",
        "direction": 1
      },
      "geometry": {
        "type": "Point",
        "coordinates": [
          121.53891974229319,
          25.00178299384715
        ]
      }
    },
    {
      "type": "Feature",
      "properties": {
        "feature_type": "station",
        "ref": "TPE22365",
        "name": "萬隆",
        "name_en": "Wanlong",
        "line": "278",
        "color": "#1d4ed8",
        "direction": 1
      },
      "geometry": {
        "type": "Point",
        "coordinates": [
          121.5398039,
          24.99939586
        ]
      }
    },
    {
      "type": "Feature",
      "properties": {
        "feature_type": "station",
        "ref": "TPE22366",
        "name": "財政園區",
        "name_en": "Ministry of Finance Park",
        "line": "278",
        "color": "#1d4ed8",
        "direction": 1
      },
      "geometry": {
        "type": "Point",
        "coordinates": [
          121.54100316430888,
          24.995644300082535
        ]
      }
    },
    {
      "type": "Feature",
      "properties": {
        "feature_type": "station",
        "ref": "TPE22367",
        "name": "捷運景美站",
        "name_en": "MRT Jingmei",
        "line": "278",
        "color": "#1d4ed8",
        "direction": 1
      },
      "geometry": {
        "type": "Point",
        "coordinates": [
          121.5408467495785,
          24.99351516343611
        ]
      }
    },
    {
      "type": "Feature",
      "properties": {
        "feature_type": "station",
        "ref": "TPE22368",
        "name": "溪口國小",
        "name_en": "Xikou Elementary School",
        "line": "278",
        "color": "#1d4ed8",
        "direction": 1
      },
      "geometry": {
        "type": "Point",
        "coordinates": [
          121.5388532,
          24.99403155
        ]
      }
    },
    {
      "type": "Feature",
      "properties": {
        "feature_type": "station",
        "ref": "TPE22369",
        "name": "景福街",
        "name_en": "Jingfu St.",
        "line": "278",
        "color": "#1d4ed8",
        "direction": 1
      },
      "geometry": {
        "type": "Point",
        "coordinates": [
          121.5362705,
          24.99569293
        ]
      }
    }
  ]
}
