{
  "type": "FeatureCollection",
  "name": "218",
  "properties": {
    "id": "taipei_218",
    "name": "218",
    "name_en": "218",
    "ref": "218",
    "color": "#9a3412",
    "city_id": "Taipei",
    "source": "TDX Bus Shape / StopOfRoute",
    "official_map_url": "https://ebus.gov.taipei/File/Get/29ecf27d-720d-44db-9065-8c52896e5eda?v=639248448647637043",
    "operator_id": "1100",
    "operator": "大南汽車",
    "operator_en": "Danan Bus Co., Ltd."
  },
  "features": [
    {
      "type": "Feature",
      "properties": {
        "feature_type": "route",
        "ref": "218",
        "name": "218",
        "name_en": "218",
        "color": "#9a3412",
        "direction": 0
      },
      "geometry": {
        "type": "LineString",
        "coordinates": [
          [
            121.49262,
            25.1450600000008
          ],
          [
            121.49276209021845,
            25.145399980907122
          ],
          [
            121.4927743598116,
            25.145421773394013
          ],
          [
            121.49279147521183,
            25.14544032934892
          ],
          [
            121.49281268117385,
            25.145454959839117
          ],
          [
            121.49283692004957,
            25.145464935168437
          ],
          [
            121.49286298292431,
            25.145469757816993
          ],
          [
            121.49288968127718,
            25.145469173383116
          ],
          [
            121.49433296628712,
            25.145289966052708
          ],
          [
            121.49501605899727,
            25.145215013520296
          ],
          [
            121.4952510623717,
            25.145165412554427
          ],
          [
            121.49665012391175,
            25.144706878226614
          ],
          [
            121.49741966864048,
            25.14447761041678
          ],
          [
            121.49756943763039,
            25.144385021371505
          ],
          [
            121.49767415415994,
            25.144279205233772
          ],
          [
            121.49776547671478,
            25.144122685361854
          ],
          [
            121.49805040308581,
            25.143542898735593
          ],
          [
            121.49816364305381,
            25.143323549084855
          ],
          [
            121.4983292412866,
            25.142988461420266
          ],
          [
            121.49857276809948,
            25.142504566755136
          ],
          [
            121.49879194223108,
            25.14208570422064
          ],
          [
            121.49891979380783,
            25.141861942856693
          ],
          [
            121.49917671459542,
            25.141581965005937
          ],
          [
            121.49936179497323,
            25.141350486770442
          ],
          [
            121.49961749812675,
            25.141084837397422
          ],
          [
            121.5005916053783,
            25.14011041732108
          ],
          [
            121.50089114335815,
            25.13982051482445
          ],
          [
            121.5014037672993,
            25.139332198416454
          ],
          [
            121.50199797272273,
            25.138744672926244
          ],
          [
            121.50253251407703,
            25.138229896861603
          ],
          [
            121.50312306659825,
            25.137665514613587
          ],
          [
            121.50344573962532,
            25.13735356002503
          ],
          [
            121.50430617379466,
            25.136766598192192
          ],
          [
            121.50432334551391,
            25.13675162333211
          ],
          [
            121.50433638520379,
            25.136733141831705
          ],
          [
            121.50434428522513,
            25.136712380835665
          ],
          [
            121.50434660136978,
            25.136690507708444
          ],
          [
            121.50434320340385,
            25.13666875234822
          ],
          [
            121.50433442502312,
            25.136648577980576
          ],
          [
            121.5042372017672,
            25.136486035477578
          ],
          [
            121.50419214930682,
            25.136401156633035
          ],
          [
            121.50370509568106,
            25.136067152295258
          ],
          [
            121.50321438915306,
            25.135740863347163
          ],
          [
            121.50284301076343,
            25.135480713426038
          ],
          [
            121.50268958887129,
            25.135302135617014
          ],
          [
            121.5025154672001,
            25.13503206374307
          ],
          [
            121.50245945603312,
            25.13482702918686
          ],
          [
            121.50236569821018,
            25.13444451756237
          ],
          [
            121.50216049981528,
            25.133570790386074
          ],
          [
            121.5021521844681,
            25.13354794737803
          ],
          [
            121.50213865651641,
            25.133527459897188
          ],
          [
            121.50212053680843,
            25.13351016982574
          ],
          [
            121.50209870459373,
            25.13349691615555
          ],
          [
            121.50207421926937,
            25.133488342014157
          ],
          [
            121.50204829885388,
            25.133484864429054
          ],
          [
            121.50161708199053,
            25.133470882383406
          ],
          [
            121.50159667422693,
            25.13346802649229
          ],
          [
            121.50157752205527,
            25.133460941141728
          ],
          [
            121.50156068538719,
            25.13345001094531
          ],
          [
            121.50154707644865,
            25.13343582811099
          ],
          [
            121.50153743258421,
            25.13341916107757
          ],
          [
            121.50153226504175,
            25.133400837651706
          ],
          [
            121.50138002343502,
            25.132383123052566
          ],
          [
            121.5013057477571,
            25.13184627288949
          ],
          [
            121.5012205133726,
            25.13127414455362
          ],
          [
            121.50115963166938,
            25.13088059807319
          ],
          [
            121.50109874996613,
            25.130468309924133
          ],
          [
            121.50103056245852,
            25.13009239892829
          ],
          [
            121.50099403343663,
            25.129690029571673
          ],
          [
            121.50102690955636,
            25.129380259383172
          ],
          [
            121.50109753233207,
            25.128926075337755
          ],
          [
            121.5011304084518,
            25.128687958755684
          ],
          [
            121.50117667854627,
            25.12841566746566
          ],
          [
            121.5012229486407,
            25.128211724199062
          ],
          [
            121.5013325357065,
            25.127384923684147
          ],
          [
            121.50144392014914,
            25.12646199782788
          ],
          [
            121.50144350826908,
            25.12643539136219
          ],
          [
            121.50143597603793,
            25.126409598868754
          ],
          [
            121.50142176891016,
            25.12638626170596
          ],
          [
            121.50140174573463,
            25.126366790651307
          ],
          [
            121.5013771169518,
            25.126352362768436
          ],
          [
            121.50134953265771,
            25.12634388034967
          ],
          [
            121.50082356466756,
            25.1262461346134
          ],
          [
            121.5000174909169,
            25.126073055383902
          ],
          [
            121.49853032100681,
            25.12575616708733
          ],
          [
            121.49849987806269,
            25.125745440490668
          ],
          [
            121.49847364116668,
            25.125727460457906
          ],
          [
            121.49845378536924,
            25.125703632091778
          ],
          [
            121.49844181953152,
            25.125675766132765
          ],
          [
            121.49843865294905,
            25.12564598014194
          ],
          [
            121.49844444882226,
            25.125616752460008
          ],
          [
            121.49876576309865,
            25.12472810014916
          ],
          [
            121.49893014369738,
            25.12414160683713
          ],
          [
            121.49903120732472,
            25.123702837443197
          ],
          [
            121.49920045845973,
            25.122974123988335
          ],
          [
            121.49942693839569,
            25.121761429330988
          ],
          [
            121.49961259731234,
            25.120998048212837
          ],
          [
            121.49961721909389,
            25.120985176905613
          ],
          [
            121.49962448312924,
            25.12097347833602
          ],
          [
            121.49963412931221,
            25.120963311417327
          ],
          [
            121.49964578061702,
            25.120955073528513
          ],
          [
            121.49965898164676,
            25.120949086651486
          ],
          [
            121.49967313258377,
            25.1209455975205
          ],
          [
            121.4998336281732,
            25.120921355611944
          ],
          [
            121.49993103889837,
            25.120833158561037
          ],
          [
            121.50095872204875,
            25.11988062635505
          ],
          [
            121.50214835052971,
            25.11879137903846
          ],
          [
            121.50326370333275,
            25.117783706377875
          ],
          [
            121.50442045569392,
            25.116738540398515
          ],
          [
            121.5058596991581,
            25.115408917595975
          ],
          [
            121.50736956539797,
            25.114024154093908
          ],
          [
            121.50798568823457,
            25.113450839771783
          ],
          [
            121.50864808116563,
            25.112859882194673
          ],
          [
            121.50967576431603,
            25.111933748901578
          ],
          [
            121.51064013049503,
            25.11104950556718
          ],
          [
            121.5112842589151,
            25.110591945719758
          ],
          [
            121.51160814957626,
            25.11031851154769
          ],
          [
            121.5122023549997,
            25.109707692680164
          ],
          [
            121.51328604931703,
            25.108710970863516
          ],
          [
            121.51450368338148,
            25.107641470496706
          ],
          [
            121.51521721694323,
            25.10709238316889
          ],
          [
            121.51630334652869,
            25.106274260528235
          ],
          [
            121.51755263907881,
            25.1053105888334
          ],
          [
            121.51854622847537,
            25.104556405687852
          ],
          [
            121.51891638923098,
            25.104247674403492
          ],
          [
            121.51925732676902,
            25.10372723990265
          ],
          [
            121.51948624197314,
            25.103314860144906
          ],
          [
            121.51963235806086,
            25.10309874613365
          ],
          [
            121.52014376436793,
            25.102662106455842
          ],
          [
            121.520901132756,
            25.101993912415566
          ],
          [
            121.5214929029113,
            25.10157491099001
          ],
          [
            121.52230628246633,
            25.100928763872773
          ],
          [
            121.52282255930966,
            25.100472268800484
          ],
          [
            121.52314157943455,
            25.100181169603882
          ],
          [
            121.52326090757285,
            25.09996284475178
          ],
          [
            121.52336318883425,
            25.099625432850182
          ],
          [
            121.52357505716148,
            25.098838134793496
          ],
          [
            121.5236834265932,
            25.098429046547746
          ],
          [
            121.52381736634031,
            25.097909689957486
          ],
          [
            121.52396591769613,
            25.097385920462322
          ],
          [
            121.52419117999807,
            25.096501571930144
          ],
          [
            121.52438234854617,
            25.09572528066783
          ],
          [
            121.52455159968112,
            25.095168420975337
          ],
          [
            121.52463926933376,
            25.094854152505253
          ],
          [
            121.52484748475877,
            25.094051385871282
          ],
          [
            121.5249875126762,
            25.0935463459215
          ],
          [
            121.52510805844857,
            25.09344930743911
          ],
          [
            121.5255598006865,
            25.09282406900822
          ],
          [
            121.52587882081136,
            25.092399522573363
          ],
          [
            121.5260724246276,
            25.092153615782824
          ],
          [
            121.52660331307968,
            25.09144015247692
          ],
          [
            121.52665201844226,
            25.091324365922105
          ],
          [
            121.52693329191113,
            25.090475261172266
          ],
          [
            121.52706723165825,
            25.090069453184988
          ],
          [
            121.52706479639012,
            25.08997241194517
          ],
          [
            121.52701243812534,
            25.089766199055024
          ],
          [
            121.5267189883158,
            25.08918725726552
          ],
          [
            121.52658504856873,
            25.0888983367194
          ],
          [
            121.5261990585703,
            25.08810876411414
          ],
          [
            121.52590073822452,
            25.087436079523815
          ],
          [
            121.5253539699802,
            25.086293165023502
          ],
          [
            121.52535057823671,
            25.08628399393337
          ],
          [
            121.52534889227907,
            25.086274287503443
          ],
          [
            121.52534902567037,
            25.086264460780157
          ],
          [
            121.52535097458761,
            25.086254795394833
          ],
          [
            121.52535468317538,
            25.086245568354887
          ],
          [
            121.5253599263328,
            25.086237201146105
          ],
          [
            121.52544348664732,
            25.08612731823239
          ],
          [
            121.52553476252231,
            25.085959319559574
          ],
          [
            121.52557009511908,
            25.085903319950724
          ],
          [
            121.52553034594771,
            25.085741987601047
          ],
          [
            121.52548470801025,
            25.085617988212537
          ],
          [
            121.52540962624214,
            25.085301989202854
          ],
          [
            121.52537134926231,
            25.08489532261009
          ],
          [
            121.52536546049619,
            25.08437532073614
          ],
          [
            121.52541257062519,
            25.08423265316914
          ],
          [
            121.52539298481962,
            25.083976657912668
          ],
          [
            121.52539054955149,
            25.083616043146954
          ],
          [
            121.52537593794273,
            25.08331497862974
          ],
          [
            121.52537106740647,
            25.083055819935797
          ],
          [
            121.52531627387357,
            25.08276578210852
          ],
          [
            121.52526026270662,
            25.082550734606603
          ],
          [
            121.5251993810034,
            25.082384210384046
          ],
          [
            121.52500455955308,
            25.082021385300074
          ],
          [
            121.52493393677733,
            25.081902281390644
          ],
          [
            121.52464657513815,
            25.0815615112319
          ],
          [
            121.524511417757,
            25.08135197571187
          ],
          [
            121.52438843671649,
            25.08118324421663
          ],
          [
            121.52433729608579,
            25.081079578999645
          ],
          [
            121.52425693223753,
            25.080842472056315
          ],
          [
            121.52422040321562,
            25.080647272042025
          ],
          [
            121.52419605053433,
            25.08046309999177
          ],
          [
            121.52424475589689,
            25.080187392811865
          ],
          [
            121.52432877264735,
            25.079905068016185
          ],
          [
            121.52434581952424,
            25.079827869716517
          ],
          [
            121.52435677823084,
            25.079630462414528
          ],
          [
            121.52437504274178,
            25.079503636326322
          ],
          [
            121.52461369901843,
            25.078668786536383
          ],
          [
            121.52487183744009,
            25.077731365852685
          ],
          [
            121.52505082964758,
            25.077213024275483
          ],
          [
            121.52522251605066,
            25.076780703664674
          ],
          [
            121.52541003169655,
            25.0763351471522
          ],
          [
            121.52546726049759,
            25.07619067179635
          ],
          [
            121.52561702948752,
            25.075822314010807
          ],
          [
            121.5257071344083,
            25.075466086715114
          ],
          [
            121.52602054509313,
            25.07489998879908
          ],
          [
            121.52602998863141,
            25.074876221064095
          ],
          [
            121.52603314810632,
            25.07485079917771
          ],
          [
            121.52602969716166,
            25.074825408840155
          ],
          [
            121.52601982747693,
            25.074801460333827
          ],
          [
            121.52600408725446,
            25.07478028385599
          ],
          [
            121.52598367284357,
            25.0747632663622
          ],
          [
            121.52515311090899,
            25.074222040228435
          ],
          [
            121.52435408594718,
            25.07372404620542
          ],
          [
            121.52434827604449,
            25.07372100839236
          ],
          [
            121.52434212770227,
            25.073718912799272
          ],
          [
            121.52433569025413,
            25.073717744860772
          ],
          [
            121.52432913074074,
            25.073717534882846
          ],
          [
            121.52432261937015,
            25.073718288314065
          ],
          [
            121.52431623516736,
            25.07372001735393
          ],
          [
            121.52421404015013,
            25.073755855450337
          ],
          [
            121.52419354333857,
            25.07376019360782
          ],
          [
            121.52417270951896,
            25.073759095644412
          ],
          [
            121.52415305120404,
            25.073752707460773
          ],
          [
            121.52413614911765,
            25.073741542730367
          ],
          [
            121.52412336235557,
            25.07372649920848
          ],
          [
            121.52411569243579,
            25.07370868379178
          ],
          [
            121.5238319779491,
            25.0726173339408
          ],
          [
            121.5234106765628,
            25.07092768232653
          ],
          [
            121.52319028479714,
            25.070111523719714
          ],
          [
            121.52304538634348,
            25.069517048013807
          ],
          [
            121.52285178252724,
            25.068776982388975
          ],
          [
            121.52278724792181,
            25.068532131078605
          ],
          [
            121.52262286732315,
            25.067985074130267
          ],
          [
            121.52242317533658,
            25.067273675855578
          ],
          [
            121.52225757710383,
            25.066536905535365
          ],
          [
            121.52220521883905,
            25.06626116700052
          ],
          [
            121.52217112508522,
            25.065853072829913
          ],
          [
            121.52214920767207,
            25.06532806319473
          ],
          [
            121.52212972552704,
            25.064902318435138
          ],
          [
            121.52217599562147,
            25.064430247386404
          ],
          [
            121.5222441831291,
            25.063925085230725
          ],
          [
            121.52238299341244,
            25.063303004954463
          ],
          [
            121.52254128584082,
            25.062614742244886
          ],
          [
            121.5226825313923,
            25.062045599006865
          ],
          [
            121.52279698899436,
            25.06145439315397
          ],
          [
            121.52284325908882,
            25.061229381221686
          ],
          [
            121.52285543542945,
            25.06066464357169
          ],
          [
            121.52285056489319,
            25.060069019011227
          ],
          [
            121.52282134167565,
            25.05953074839945
          ],
          [
            121.52278481265371,
            25.058961590836475
          ],
          [
            121.52275558943614,
            25.058176237300643
          ],
          [
            121.52273367202298,
            25.057565158174516
          ],
          [
            121.52268740192854,
            25.05689230579256
          ],
          [
            121.52264600237035,
            25.05588412334188
          ],
          [
            121.52259486173963,
            25.055036978940553
          ],
          [
            121.52255346218145,
            25.054081728360046
          ],
          [
            121.52249258047823,
            25.05302498752036
          ],
          [
            121.52245848672443,
            25.052583756916228
          ],
          [
            121.52245361618817,
            25.052407264229856
          ],
          [
            121.5223805581443,
            25.052001330086817
          ],
          [
            121.52221983044781,
            25.051374776923012
          ],
          [
            121.52201283265686,
            25.05094457131183
          ],
          [
            121.52180827013402,
            25.050465827908106
          ],
          [
            121.52169137726382,
            25.050226455505136
          ],
          [
            121.52149899108164,
            25.049801761381847
          ],
          [
            121.52139062164991,
            25.049651739210017
          ],
          [
            121.521109348181,
            25.049099082419662
          ],
          [
            121.52083050998029,
            25.04853870133395
          ],
          [
            121.52070265840352,
            25.048238653715465
          ],
          [
            121.52050418405099,
            25.047870211885368
          ],
          [
            121.52026309250624,
            25.047342918956826
          ],
          [
            121.5195742337856,
            25.04587500848986
          ],
          [
            121.51956987034025,
            25.045867485170913
          ],
          [
            121.51956427263826,
            25.045860835498765
          ],
          [
            121.51955754150481,
            25.045855127064776
          ],
          [
            121.51954986415404,
            25.045850518638595
          ],
          [
            121.51954145411742,
            25.04584713839516
          ],
          [
            121.51953260725723,
            25.045845089765017
          ],
          [
            121.51940709575896,
            25.04582611180096
          ],
          [
            121.51806891592216,
            25.04613388727947
          ],
          [
            121.51706923835523,
            25.046369958269917
          ],
          [
            121.51605738444772,
            25.046635813373882
          ],
          [
            121.5151782526532,
            25.046863058358483
          ],
          [
            121.51492376713374,
            25.046900564771764
          ],
          [
            121.51379989089227,
            25.047173037488488
          ],
          [
            121.51330796673022,
            25.0473285783225
          ],
          [
            121.51282334837263,
            25.047452128347896
          ],
          [
            121.5123034186271,
            25.047572368878075
          ],
          [
            121.5121219911515,
            25.047639659398545
          ],
          [
            121.51159475560159,
            25.048029061193414
          ],
          [
            121.51138410490846,
            25.048101867057476
          ],
          [
            121.5110529084429,
            25.048172466641947
          ],
          [
            121.50990711243627,
            25.048220758916916
          ],
          [
            121.50987989608652,
            25.04821905861072
          ],
          [
            121.50985385496833,
            25.048211761815125
          ],
          [
            121.50983031535627,
            25.048199252632948
          ],
          [
            121.50981051109282,
            25.048182186740256
          ],
          [
            121.50979548022993,
            25.048161458655738
          ],
          [
            121.50978596478464,
            25.048137983997066
          ],
          [
            121.50958322412717,
            25.047383734599226
          ],
          [
            121.50935309128903,
            25.046560800373886
          ],
          [
            121.50915948747276,
            25.04587023736504
          ],
          [
            121.50900971848284,
            25.045333007542208
          ],
          [
            121.50879906778968,
            25.04460162106358
          ],
          [
            121.50855188807462,
            25.04367607445507
          ],
          [
            121.5084118601572,
            25.043142144509506
          ],
          [
            121.50828400858046,
            25.04277920319864
          ],
          [
            121.50818659785527,
            25.042426189342997
          ],
          [
            121.50805387574223,
            25.04199705550625
          ],
          [
            121.50793820050612,
            25.041607634555284
          ],
          [
            121.50781156656345,
            25.041190632845833
          ],
          [
            121.50767153864604,
            25.040674343050622
          ],
          [
            121.50750106987701,
            25.040109510699665
          ],
          [
            121.50735495378929,
            25.039603145111254
          ],
          [
            121.50729285445199,
            25.039335068365148
          ],
          [
            121.50707124505226,
            25.038620194177653
          ],
          [
            121.50678114251478,
            25.037611493372165
          ],
          [
            121.50676984713232,
            25.037585862587978
          ],
          [
            121.50675196873875,
            25.037563797841518
          ],
          [
            121.50672859790721,
            25.037546528238217
          ],
          [
            121.50670122784514,
            25.03753515716628
          ],
          [
            121.50667160727853,
            25.0375304111454
          ],
          [
            121.50664146402022,
            25.03753262499737
          ],
          [
            121.50518025935018,
            25.037811542890914
          ],
          [
            121.50262510071408,
            25.038288118438064
          ]
        ]
      }
    },
    {
      "type": "Feature",
      "properties": {
        "feature_type": "route",
        "ref": "218",
        "name": "218",
        "name_en": "218",
        "color": "#9a3412",
        "direction": 1
      },
      "geometry": {
        "type": "LineString",
        "coordinates": [
          [
            121.50262510071408,
            25.038288118438064
          ],
          [
            121.50259932041703,
            25.03829353469255
          ],
          [
            121.5019256682807,
            25.038417949152908
          ],
          [
            121.50189794639273,
            25.038426458762046
          ],
          [
            121.50187321203177,
            25.038440977581622
          ],
          [
            121.50185313668402,
            25.0384605887307
          ],
          [
            121.5018389470538,
            25.038484093869798
          ],
          [
            121.50183151019864,
            25.03851005671712
          ],
          [
            121.50183126955856,
            25.03853680385674
          ],
          [
            121.50201220940842,
            25.039952869515343
          ],
          [
            121.50202016598847,
            25.03998124060291
          ],
          [
            121.50203608621266,
            25.040006569555274
          ],
          [
            121.50205882943234,
            25.040027110877656
          ],
          [
            121.50208675033171,
            25.040041378546402
          ],
          [
            121.50211782902541,
            25.040048340393632
          ],
          [
            121.5021499505092,
            25.040047472604456
          ],
          [
            121.50300434727703,
            25.039918658555614
          ],
          [
            121.50507188991845,
            25.039603145111247
          ],
          [
            121.50613366682262,
            25.03942884013308
          ],
          [
            121.50743594826243,
            25.039217517451377
          ],
          [
            121.50745690288566,
            25.039216487712498
          ],
          [
            121.50747739905292,
            25.0392201340296
          ],
          [
            121.5074963070521,
            25.03922822065067
          ],
          [
            121.50751249058726,
            25.0392402616018
          ],
          [
            121.50752497709199,
            25.039255533269465
          ],
          [
            121.50753305758724,
            25.039273253873674
          ],
          [
            121.50757778082303,
            25.03941891136105
          ],
          [
            121.50784444268314,
            25.040358831550275
          ],
          [
            121.50799786457526,
            25.040898289532123
          ],
          [
            121.50824382665628,
            25.041731190345036
          ],
          [
            121.50848491820103,
            25.042524371423617
          ],
          [
            121.50869678652825,
            25.043310928400622
          ],
          [
            121.5089342251708,
            25.04417911376446
          ],
          [
            121.50912661135301,
            25.04481342574143
          ],
          [
            121.50922889261443,
            25.04514988554519
          ],
          [
            121.50935187365494,
            25.045596658611814
          ],
          [
            121.50952234242392,
            25.04624530401853
          ],
          [
            121.50960027100406,
            25.0465387377181
          ],
          [
            121.50977195740714,
            25.046911596067616
          ],
          [
            121.50988154447296,
            25.04698329946638
          ],
          [
            121.5099107676905,
            25.047008671428202
          ],
          [
            121.5100069607816,
            25.047586709483895
          ],
          [
            121.51007636592327,
            25.04797611144693
          ],
          [
            121.510165862027,
            25.048498437633686
          ],
          [
            121.51055791017933,
            25.049937725296598
          ],
          [
            121.51056882247867,
            25.049963452211205
          ],
          [
            121.51058635701699,
            25.049985708951237
          ],
          [
            121.51060944288665,
            25.0500032494729
          ],
          [
            121.51063660837659,
            25.050014955577915
          ],
          [
            121.51066612170222,
            25.050020081008732
          ],
          [
            121.5106962554717,
            25.05001827167537
          ],
          [
            121.51137801673813,
            25.049897731351372
          ],
          [
            121.51178105361346,
            25.049816653278604
          ],
          [
            121.51213234104108,
            25.049706342889404
          ],
          [
            121.51263522390968,
            25.049540877119497
          ],
          [
            121.51324282330779,
            25.04932797750035
          ],
          [
            121.51421449529121,
            25.049083087325773
          ],
          [
            121.5150071750672,
            25.048905486487733
          ],
          [
            121.51569270304546,
            25.048778628588757
          ],
          [
            121.51654869979272,
            25.04863632696326
          ],
          [
            121.51664245761569,
            25.0486032335383
          ],
          [
            121.51680927348251,
            25.04857124321903
          ],
          [
            121.51718917531062,
            25.048501746979422
          ],
          [
            121.51734259720273,
            25.048479684672895
          ],
          [
            121.51745340190257,
            25.048489612711325
          ],
          [
            121.51814988858744,
            25.048368269964293
          ],
          [
            121.5195586912,
            25.04816750261
          ],
          [
            121.52072736532473,
            25.047983784257166
          ],
          [
            121.52075342502246,
            25.047982309110925
          ],
          [
            121.52077907442397,
            25.047986021232457
          ],
          [
            121.52080323015807,
            25.04799472192653
          ],
          [
            121.52082474152283,
            25.04800799671989
          ],
          [
            121.52084258378558,
            25.04802521324382
          ],
          [
            121.52085603804942,
            25.0480458136451
          ],
          [
            121.52139731863733,
            25.049123902388832
          ],
          [
            121.52164571598644,
            25.049607063454257
          ],
          [
            121.52185027850925,
            25.050042789266136
          ],
          [
            121.52208162898151,
            25.05056455509947
          ],
          [
            121.52235194374386,
            25.051180081493705
          ],
          [
            121.52247736005248,
            25.05154741028866
          ],
          [
            121.52258451185014,
            25.051867305339524
          ],
          [
            121.52265878752806,
            25.052203745785434
          ],
          [
            121.52269896945218,
            25.05256114380499
          ],
          [
            121.52272332213347,
            25.05310937269249
          ],
          [
            121.52275498061915,
            25.053727092444692
          ],
          [
            121.52281342705422,
            25.054644841756648
          ],
          [
            121.5228584795146,
            25.05543132097562
          ],
          [
            121.52290353197498,
            25.056247577380503
          ],
          [
            121.5229303199244,
            25.057145453146806
          ],
          [
            121.52297659001883,
            25.057926401166956
          ],
          [
            121.52301798957707,
            25.058724992583326
          ],
          [
            121.52304477752647,
            25.05955005117745
          ],
          [
            121.5230886123528,
            25.060496435077173
          ],
          [
            121.52309957105936,
            25.060884693024136
          ],
          [
            121.52305817150119,
            25.061319275744218
          ],
          [
            121.52302286011331,
            25.061566347466353
          ],
          [
            121.52293275519254,
            25.062015266686473
          ],
          [
            121.52278542147076,
            25.062628529596754
          ],
          [
            121.52267218150281,
            25.06310281355549
          ],
          [
            121.52252606541504,
            25.063739233564192
          ],
          [
            121.52247127188218,
            25.064026007530977
          ],
          [
            121.52242621942179,
            25.064320501636704
          ],
          [
            121.52240064910643,
            25.06460065642107
          ],
          [
            121.522373861157,
            25.065039637826267
          ],
          [
            121.52237873169325,
            25.06522052417882
          ],
          [
            121.52237751405919,
            25.06549626505602
          ],
          [
            121.52242621942179,
            25.06598708228182
          ],
          [
            121.52246883661405,
            25.06636208737631
          ],
          [
            121.52256746497325,
            25.06684628343261
          ],
          [
            121.522733063206,
            25.067449595658434
          ],
          [
            121.52291814358381,
            25.06817643404631
          ],
          [
            121.52309348288908,
            25.068841503936607
          ],
          [
            121.52334188023823,
            25.0697878160633
          ],
          [
            121.52350747847099,
            25.070407657572648
          ],
          [
            121.52360123629396,
            25.07076389958288
          ],
          [
            121.52359271285549,
            25.070868676447514
          ],
          [
            121.5238082340849,
            25.07170578523133
          ],
          [
            121.52401279660774,
            25.072449141858176
          ],
          [
            121.524074895945,
            25.072690676645532
          ],
          [
            121.52426241159095,
            25.07337116250305
          ],
          [
            121.5242867642722,
            25.07345387932684
          ],
          [
            121.52439756897208,
            25.073601666579602
          ],
          [
            121.52460213149489,
            25.07376158542085
          ],
          [
            121.52536437041921,
            25.07422590032133
          ],
          [
            121.5256359028156,
            25.074369275113007
          ],
          [
            121.52596953454925,
            25.074487283469434
          ],
          [
            121.52619844975335,
            25.074594262909237
          ],
          [
            121.52642858259154,
            25.074753077575338
          ],
          [
            121.52667332703847,
            25.074947184109742
          ],
          [
            121.52677439066584,
            25.0750905580569
          ],
          [
            121.52683040183281,
            25.075380614067438
          ],
          [
            121.52683527236904,
            25.075823968314747
          ],
          [
            121.52669592451987,
            25.076534465365842
          ],
          [
            121.52669046085278,
            25.07655291408258
          ],
          [
            121.52668160797211,
            25.076570089192806
          ],
          [
            121.52666961109234,
            25.076585595521973
          ],
          [
            121.52665483688462,
            25.07659895913666
          ],
          [
            121.52663773690583,
            25.076609771593077
          ],
          [
            121.5266190842911,
            25.07661762037526
          ],
          [
            121.52535149867491,
            25.077031762631375
          ],
          [
            121.52533407292871,
            25.077038988467493
          ],
          [
            121.52531793366036,
            25.077048819725583
          ],
          [
            121.52530376069842,
            25.077060912790763
          ],
          [
            121.5252919309086,
            25.077074946102766
          ],
          [
            121.52528275885055,
            25.07709054650924
          ],
          [
            121.52527644015579,
            25.077107474400503
          ],
          [
            121.52512084360635,
            25.077669054694052
          ],
          [
            121.52493089269228,
            25.07838811250801
          ],
          [
            121.52472389490131,
            25.079088417822724
          ],
          [
            121.52454246742576,
            25.07973798877773
          ],
          [
            121.52446819174783,
            25.079817392800685
          ],
          [
            121.52437565155891,
            25.080215514972668
          ],
          [
            121.52434034017104,
            25.080512175804714
          ],
          [
            121.52435738704796,
            25.080805527444742
          ],
          [
            121.52440365714237,
            25.08095110017807
          ],
          [
            121.52446819174779,
            25.081118729171717
          ],
          [
            121.52476407682546,
            25.081528978108917
          ],
          [
            121.52496255117796,
            25.081810196344215
          ],
          [
            121.52516467843263,
            25.082120087063156
          ],
          [
            121.52530105344786,
            25.08237483649725
          ],
          [
            121.52537411149173,
            25.082538052306248
          ],
          [
            121.52547882802126,
            25.083085044241518
          ],
          [
            121.52549831016633,
            25.083336483262688
          ],
          [
            121.5255045912098,
            25.084077883840397
          ],
          [
            121.52550156738896,
            25.08410304434094
          ],
          [
            121.52549223486861,
            25.084126887549107
          ],
          [
            121.52547710117614,
            25.08414811081118
          ],
          [
            121.5254569894011,
            25.084165559838738
          ],
          [
            121.52543299338049,
            25.084178285615998
          ],
          [
            121.52540656074322,
            25.084185572794166
          ],
          [
            121.52491927796927,
            25.08426453560151
          ],
          [
            121.52488909593418,
            25.084273381021934
          ],
          [
            121.52486243496203,
            25.08428926588509
          ],
          [
            121.52484134620276,
            25.084311029820903
          ],
          [
            121.52482733932867,
            25.084337114823505
          ],
          [
            121.52482141704405,
            25.084365653556606
          ],
          [
            121.52482396625345,
            25.08439444773362
          ],
          [
            121.52508553221845,
            25.08548361912966
          ],
          [
            121.52522312486775,
            25.085990897911895
          ],
          [
            121.52546543404657,
            25.0864485497918
          ],
          [
            121.52564807915621,
            25.086783792492586
          ],
          [
            121.525795412878,
            25.087124548112513
          ],
          [
            121.52618262051048,
            25.087951620913795
          ],
          [
            121.52656861050889,
            25.088753324814164
          ],
          [
            121.52690589514472,
            25.089478933995174
          ],
          [
            121.52706053467091,
            25.089767853170525
          ],
          [
            121.5271226340082,
            25.089982887991827
          ],
          [
            121.52708001681594,
            25.090261881325013
          ],
          [
            121.52689128353599,
            25.090806633272432
          ],
          [
            121.52666723886813,
            25.091466066595633
          ],
          [
            121.52651868751225,
            25.091668968441645
          ],
          [
            121.52601580464363,
            25.092325088955757
          ],
          [
            121.52560911486613,
            25.092891886029562
          ],
          [
            121.52521581906332,
            25.093446550662932
          ],
          [
            121.52508431458439,
            25.093596519197558
          ],
          [
            121.52499664493173,
            25.093775157947448
          ],
          [
            121.52482861143082,
            25.09439267260454
          ],
          [
            121.52468006007499,
            25.094909838731628
          ],
          [
            121.52444992723679,
            25.09583169020181
          ],
          [
            121.52427702319966,
            25.09648778839246
          ],
          [
            121.52407611357901,
            25.097247534673812
          ],
          [
            121.5238825097628,
            25.097937808045916
          ],
          [
            121.5237339584069,
            25.098446137863043
          ],
          [
            121.52363533004771,
            25.09883868612446
          ],
          [
            121.52343563806112,
            25.09949035756334
          ],
          [
            121.52332118045905,
            25.09997662789792
          ],
          [
            121.52320306995482,
            25.10021590306717
          ],
          [
            121.52294249626503,
            25.100456280415642
          ],
          [
            121.52234585557346,
            25.101004294898004
          ],
          [
            121.52172120929839,
            25.101519227797787
          ],
          [
            121.52098819359159,
            25.102195142853134
          ],
          [
            121.52038911763194,
            25.102691326078936
          ],
          [
            121.51982778832819,
            25.10316104434446
          ],
          [
            121.5195842615153,
            25.103505062211315
          ],
          [
            121.51917391883562,
            25.104214044698683
          ],
          [
            121.5188658574173,
            25.104575701367267
          ],
          [
            121.51819737631592,
            25.105038796759302
          ],
          [
            121.51763239411001,
            25.105480940961364
          ],
          [
            121.51715995209302,
            25.105849209475426
          ],
          [
            121.5164074542412,
            25.10640050757325
          ],
          [
            121.51543578225781,
            25.107139243127467
          ],
          [
            121.51453229778201,
            25.107836076156634
          ],
          [
            121.51409638478692,
            25.108221978815422
          ],
          [
            121.51319533557927,
            25.10906655009882
          ],
          [
            121.51200936000049,
            25.11015588407874
          ],
          [
            121.51141758984517,
            25.11066306055546
          ],
          [
            121.51090861880625,
            25.111154799217417
          ],
          [
            121.50991502940967,
            25.11207211807158
          ],
          [
            121.50947668114648,
            25.112411700709362
          ],
          [
            121.50885568777363,
            25.112940918524007
          ],
          [
            121.50808127250865,
            25.1136288982578
          ],
          [
            121.50766484165861,
            25.114014782631436
          ],
          [
            121.50707794203954,
            25.114539583424623
          ],
          [
            121.50634736160087,
            25.115234169245124
          ],
          [
            121.50529045523297,
            25.116204377752165
          ],
          [
            121.50451360469987,
            25.116934234075817
          ],
          [
            121.50342260457815,
            25.117906634067563
          ],
          [
            121.50226585221692,
            25.118962814862144
          ],
          [
            121.50191517360636,
            25.119306788265288
          ],
          [
            121.50147439007503,
            25.11967942502614
          ],
          [
            121.50095567796359,
            25.120166717537355
          ],
          [
            121.5003152024457,
            25.120759844714048
          ],
          [
            121.4999693943714,
            25.121024435834546
          ],
          [
            121.49980866667492,
            25.121156731179955
          ],
          [
            121.49972586755852,
            25.12139706735766
          ],
          [
            121.49950669342692,
            25.12248188165363
          ],
          [
            121.49915601481639,
            25.1241597969916
          ],
          [
            121.49869818440814,
            25.125601771525726
          ],
          [
            121.49826227141308,
            25.126801199150684
          ],
          [
            121.4978507110993,
            25.127921242255848
          ],
          [
            121.4971905260732,
            25.129500526718715
          ],
          [
            121.49718324977245,
            25.12952976815879
          ],
          [
            121.49718507823343,
            25.129559957534894
          ],
          [
            121.49719596817431,
            25.129588516193223
          ],
          [
            121.49721507483675,
            25.12961322877131
          ],
          [
            121.49724091607183,
            25.12963217825619
          ],
          [
            121.49727128690733,
            25.12964384624342
          ],
          [
            121.49955190730805,
            25.130192754279832
          ],
          [
            121.49958826187654,
            25.13020789616712
          ],
          [
            121.49961719547605,
            25.130233305486453
          ],
          [
            121.49963521409657,
            25.130266041367893
          ],
          [
            121.49964026659508,
            25.130302377334395
          ],
          [
            121.49963177782223,
            25.13033817709458
          ],
          [
            121.49961098761239,
            25.1303690808329
          ],
          [
            121.49873958396633,
            25.131271388630328
          ],
          [
            121.49826957721747,
            25.13182698151531
          ],
          [
            121.49770094210939,
            25.13251044548636
          ],
          [
            121.49718101236388,
            25.133261149085612
          ],
          [
            121.49697766747512,
            25.133592956401273
          ],
          [
            121.49693870318507,
            25.133734056913475
          ],
          [
            121.49689730362688,
            25.133994210555475
          ],
          [
            121.49647749618003,
            25.134627973068454
          ],
          [
            121.49646872277853,
            25.13464427215
          ],
          [
            121.4964629768948,
            25.134662006549576
          ],
          [
            121.49646061581582,
            25.134680372751504
          ],
          [
            121.49646170805106,
            25.134698837838613
          ],
          [
            121.49646622190805,
            25.13471686602446
          ],
          [
            121.49647386871527,
            25.134733657152243
          ],
          [
            121.49714964918054,
            25.13591841341823
          ],
          [
            121.49716668951703,
            25.135940979522868
          ],
          [
            121.4971890997266,
            25.13595876432015
          ],
          [
            121.49721564179376,
            25.135970937290914
          ],
          [
            121.49724466319006,
            25.13597674053715
          ],
          [
            121.4972743570223,
            25.135975812744533
          ],
          [
            121.49730315558686,
            25.135968100117594
          ],
          [
            121.49797978031016,
            25.135700628332057
          ],
          [
            121.49847779264253,
            25.13544819464695
          ],
          [
            121.49896362863423,
            25.13514284840037
          ],
          [
            121.49964063317404,
            25.134691992799212
          ],
          [
            121.50064396364313,
            25.134011848070454
          ],
          [
            121.50167786199569,
            25.13331496354266
          ],
          [
            121.50170567901426,
            25.133300899135808
          ],
          [
            121.50173618907935,
            25.13329408944447
          ],
          [
            121.50176759068475,
            25.13329479056547
          ],
          [
            121.50179769855907,
            25.133302953707044
          ],
          [
            121.50182441746311,
            25.13331801078743
          ],
          [
            121.50184611728949,
            25.133339207831483
          ],
          [
            121.50226828748508,
            25.133877361954312
          ],
          [
            121.50231699284767,
            25.133964447243144
          ],
          [
            121.50243266808377,
            25.134389951685467
          ],
          [
            121.50253981988143,
            25.13487773668982
          ],
          [
            121.5025684342819,
            25.13501442637546
          ],
          [
            121.50263601297247,
            25.135124108714177
          ],
          [
            121.50274316477017,
            25.135312056613284
          ],
          [
            121.50292459224578,
            25.135477406431978
          ],
          [
            121.50343478091875,
            25.135845584557295
          ],
          [
            121.50458127715632,
            25.136551577093552
          ],
          [
            121.50460882922367,
            25.13657533948603
          ],
          [
            121.50462691437457,
            25.136606130461796
          ],
          [
            121.50463333859616,
            25.136640563503203
          ],
          [
            121.50462743686887,
            25.13667507418668
          ],
          [
            121.50460982012493,
            25.136706090051348
          ],
          [
            121.50458263422358,
            25.136730195100125
          ],
          [
            121.50400950419713,
            25.137093413539663
          ],
          [
            121.50358211464051,
            25.13734474150921
          ],
          [
            121.50320708334866,
            25.137676537729387
          ],
          [
            121.50278699959642,
            25.138081085389324
          ],
          [
            121.50236813347829,
            25.13847681327483
          ],
          [
            121.50173131086261,
            25.139105125110042
          ],
          [
            121.50128687442908,
            25.139525100165425
          ],
          [
            121.50078155629232,
            25.140025540996024
          ],
          [
            121.4999645238351,
            25.140820289729536
          ],
          [
            121.49956148695978,
            25.141211599618508
          ],
          [
            121.49929847800185,
            25.141500396534973
          ],
          [
            121.49902938087358,
            25.141805726883085
          ],
          [
            121.49880411857168,
            25.142177192739027
          ],
          [
            121.4986263439983,
            25.142488032734995
          ],
          [
            121.49845587522925,
            25.142867212367676
          ],
          [
            121.49818556046696,
            25.14339960503858
          ],
          [
            121.49782514078389,
            25.144120480855214
          ],
          [
            121.49773747113125,
            25.14429794351488
          ],
          [
            121.49760474901822,
            25.144419191146422
          ],
          [
            121.49728329362524,
            25.144555870150302
          ],
          [
            121.4961581997497,
            25.144920714161167
          ],
          [
            121.49525228000576,
            25.14521611576379
          ],
          [
            121.49505258801919,
            25.145253592035406
          ],
          [
            121.49303593584087,
            25.14550728325377
          ],
          [
            121.49301641156221,
            25.145508279503225
          ],
          [
            121.49299708341947,
            25.145506369030272
          ],
          [
            121.49297835386243,
            25.145501616987726
          ],
          [
            121.49296072210628,
            25.14549415003591
          ],
          [
            121.49294465810557,
            25.145484167197985
          ],
          [
            121.49293031416269,
            25.14547165110428
          ],
          [
            121.49249433884985,
            25.145025427497618
          ],
          [
            121.49207099999967,
            25.144595000000347
          ]
        ]
      }
    },
    {
      "type": "Feature",
      "properties": {
        "feature_type": "station",
        "ref": "TPE41774",
        "name": "貴子坑水土保持園區",
        "name_en": "Guizikeng Soil and Water Conservation Park",
        "line": "218",
        "color": "#9a3412",
        "direction": 0,
        "station_id": "437"
      },
      "geometry": {
        "type": "Point",
        "coordinates": [
          121.49262,
          25.14506
        ]
      }
    },
    {
      "type": "Feature",
      "properties": {
        "feature_type": "station",
        "ref": "TPE41775",
        "name": "秀山里",
        "name_en": "Xiushan Li",
        "line": "218",
        "color": "#9a3412",
        "direction": 0,
        "station_id": "1000928"
      },
      "geometry": {
        "type": "Point",
        "coordinates": [
          121.493826634438,
          25.1452880512553
        ]
      }
    },
    {
      "type": "Feature",
      "properties": {
        "feature_type": "station",
        "ref": "TPE41776",
        "name": "慈航寺",
        "name_en": "Cihang Temple",
        "line": "218",
        "color": "#9a3412",
        "direction": 0,
        "station_id": "454"
      },
      "geometry": {
        "type": "Point",
        "coordinates": [
          121.497011,
          25.144571
        ]
      }
    },
    {
      "type": "Feature",
      "properties": {
        "feature_type": "station",
        "ref": "TPE41777",
        "name": "國泰新村",
        "name_en": "Guotai New Village",
        "line": "218",
        "color": "#9a3412",
        "direction": 0,
        "station_id": "343"
      },
      "geometry": {
        "type": "Point",
        "coordinates": [
          121.498005120919,
          25.1435377973513
        ]
      }
    },
    {
      "type": "Feature",
      "properties": {
        "feature_type": "station",
        "ref": "TPE41778",
        "name": "中和里",
        "name_en": "Zhonghe Village",
        "line": "218",
        "color": "#9a3412",
        "direction": 0,
        "station_id": "63"
      },
      "geometry": {
        "type": "Point",
        "coordinates": [
          121.49875524785,
          25.1420654536477
        ]
      }
    },
    {
      "type": "Feature",
      "properties": {
        "feature_type": "station",
        "ref": "TPE41779",
        "name": "復興中學",
        "name_en": "Fuxing High School",
        "line": "218",
        "color": "#9a3412",
        "direction": 0,
        "station_id": "414"
      },
      "geometry": {
        "type": "Point",
        "coordinates": [
          121.500142024239,
          25.1404257952951
        ]
      }
    },
    {
      "type": "Feature",
      "properties": {
        "feature_type": "station",
        "ref": "TPE41780",
        "name": "中和街",
        "name_en": "Zhonghe St.",
        "line": "218",
        "color": "#9a3412",
        "direction": 0,
        "station_id": "64"
      },
      "geometry": {
        "type": "Point",
        "coordinates": [
          121.501520744986,
          25.1391571863191
        ]
      }
    },
    {
      "type": "Feature",
      "properties": {
        "feature_type": "station",
        "ref": "TPE41781",
        "name": "新北投",
        "name_en": "Xinbeitou",
        "line": "218",
        "color": "#9a3412",
        "direction": 0,
        "station_id": "456"
      },
      "geometry": {
        "type": "Point",
        "coordinates": [
          121.502937,
          25.137791
        ]
      }
    },
    {
      "type": "Feature",
      "properties": {
        "feature_type": "station",
        "ref": "TPE59902",
        "name": "北投公園",
        "name_en": "Beitou Park",
        "line": "218",
        "color": "#9a3412",
        "direction": 0,
        "station_id": "112"
      },
      "geometry": {
        "type": "Point",
        "coordinates": [
          121.504124469582,
          25.1363484992167
        ]
      }
    },
    {
      "type": "Feature",
      "properties": {
        "feature_type": "station",
        "ref": "TPE41782",
        "name": "第一銀行",
        "name_en": "First Commercial Bank",
        "line": "218",
        "color": "#9a3412",
        "direction": 0,
        "station_id": "399"
      },
      "geometry": {
        "type": "Point",
        "coordinates": [
          121.50235879653,
          25.1345133895389
        ]
      }
    },
    {
      "type": "Feature",
      "properties": {
        "feature_type": "station",
        "ref": "TPE41783",
        "name": "中央南路",
        "name_en": "Zhongyang S. Rd.",
        "line": "218",
        "color": "#9a3412",
        "direction": 0,
        "station_id": "7241"
      },
      "geometry": {
        "type": "Point",
        "coordinates": [
          121.50131769692,
          25.1321537676007
        ]
      }
    },
    {
      "type": "Feature",
      "properties": {
        "feature_type": "station",
        "ref": "TPE41784",
        "name": "中央南大興街口",
        "name_en": "Zhongyang S. & Daxing St. Intersection",
        "line": "218",
        "color": "#9a3412",
        "direction": 0,
        "station_id": "357"
      },
      "geometry": {
        "type": "Point",
        "coordinates": [
          121.501062,
          25.130163
        ]
      }
    },
    {
      "type": "Feature",
      "properties": {
        "feature_type": "station",
        "ref": "TPE41785",
        "name": "慈后宮",
        "name_en": "Cihou Temple",
        "line": "218",
        "color": "#9a3412",
        "direction": 0,
        "station_id": "50086"
      },
      "geometry": {
        "type": "Point",
        "coordinates": [
          121.501189626271,
          25.1278841376109
        ]
      }
    },
    {
      "type": "Feature",
      "properties": {
        "feature_type": "station",
        "ref": "TPE41786",
        "name": "捷運奇岩站",
        "name_en": "MRT Qiyan",
        "line": "218",
        "color": "#9a3412",
        "direction": 0,
        "station_id": "366"
      },
      "geometry": {
        "type": "Point",
        "coordinates": [
          121.4995994,
          25.12600361
        ]
      }
    },
    {
      "type": "Feature",
      "properties": {
        "feature_type": "station",
        "ref": "TPE41787",
        "name": "大業路(農禪寺)",
        "name_en": "Daye Rd. (Nungchan monastery)",
        "line": "218",
        "color": "#9a3412",
        "direction": 0,
        "station_id": "37"
      },
      "geometry": {
        "type": "Point",
        "coordinates": [
          121.499222,
          25.12242987
        ]
      }
    },
    {
      "type": "Feature",
      "properties": {
        "feature_type": "station",
        "ref": "TPE41788",
        "name": "承德公舘路口",
        "name_en": "Chengde and Gongguan Intresection",
        "line": "218",
        "color": "#9a3412",
        "direction": 0,
        "station_id": "22"
      },
      "geometry": {
        "type": "Point",
        "coordinates": [
          121.501973,
          25.118907
        ]
      }
    },
    {
      "type": "Feature",
      "properties": {
        "feature_type": "station",
        "ref": "TPE41789",
        "name": "立農國小",
        "name_en": "Linong Elementary School",
        "line": "218",
        "color": "#9a3412",
        "direction": 0,
        "station_id": "157"
      },
      "geometry": {
        "type": "Point",
        "coordinates": [
          121.503568,
          25.117433
        ]
      }
    },
    {
      "type": "Feature",
      "properties": {
        "feature_type": "station",
        "ref": "TPE41790",
        "name": "實踐街口",
        "name_en": "Shijian St. Entrance",
        "line": "218",
        "color": "#9a3412",
        "direction": 0,
        "station_id": "480"
      },
      "geometry": {
        "type": "Point",
        "coordinates": [
          121.506438836067,
          25.114726442462
        ]
      }
    },
    {
      "type": "Feature",
      "properties": {
        "feature_type": "station",
        "ref": "TPE41791",
        "name": "承德路七段",
        "name_en": "Chengde Rd. Sec. 7",
        "line": "218",
        "color": "#9a3412",
        "direction": 0,
        "station_id": "50641"
      },
      "geometry": {
        "type": "Point",
        "coordinates": [
          121.508727083955,
          25.1127066443373
        ]
      }
    },
    {
      "type": "Feature",
      "properties": {
        "feature_type": "station",
        "ref": "TPE41792",
        "name": "石牌福星宮",
        "name_en": "Shipai Fuhsing Temple",
        "line": "218",
        "color": "#9a3412",
        "direction": 0,
        "station_id": "153"
      },
      "geometry": {
        "type": "Point",
        "coordinates": [
          121.512347026452,
          25.1095368758096
        ]
      }
    },
    {
      "type": "Feature",
      "properties": {
        "feature_type": "station",
        "ref": "TPE41793",
        "name": "文林國小",
        "name_en": "Wenlin Elementary School",
        "line": "218",
        "color": "#9a3412",
        "direction": 0,
        "station_id": "94"
      },
      "geometry": {
        "type": "Point",
        "coordinates": [
          121.5139733,
          25.10803433
        ]
      }
    },
    {
      "type": "Feature",
      "properties": {
        "feature_type": "station",
        "ref": "TPE41794",
        "name": "中正高中",
        "name_en": "Zhongzheng High School",
        "line": "218",
        "color": "#9a3412",
        "direction": 0,
        "station_id": "60"
      },
      "geometry": {
        "type": "Point",
        "coordinates": [
          121.517803,
          25.105059
        ]
      }
    },
    {
      "type": "Feature",
      "properties": {
        "feature_type": "station",
        "ref": "TPE41795",
        "name": "捷運芝山站(戲曲中心)",
        "name_en": "MRT Zhishan Sta. (Taiwan Traditional Theatre Center)",
        "line": "218",
        "color": "#9a3412",
        "direction": 0,
        "station_id": "800"
      },
      "geometry": {
        "type": "Point",
        "coordinates": [
          121.520473605143,
          25.1022630440787
        ]
      }
    },
    {
      "type": "Feature",
      "properties": {
        "feature_type": "station",
        "ref": "TPE41796",
        "name": "捷運芝山站一",
        "name_en": "MRT Zhishan Sta. 1",
        "line": "218",
        "color": "#9a3412",
        "direction": 0,
        "station_id": "1000347"
      },
      "geometry": {
        "type": "Point",
        "coordinates": [
          121.522307508871,
          25.1008497293525
        ]
      }
    },
    {
      "type": "Feature",
      "properties": {
        "feature_type": "station",
        "ref": "TPE41797",
        "name": "士林",
        "name_en": "Shilin",
        "line": "218",
        "color": "#9a3412",
        "direction": 0,
        "station_id": "569"
      },
      "geometry": {
        "type": "Point",
        "coordinates": [
          121.524279381093,
          25.0959118891448
        ]
      }
    },
    {
      "type": "Feature",
      "properties": {
        "feature_type": "station",
        "ref": "TPE41798",
        "name": "小北街",
        "name_en": "Xiaobei St.",
        "line": "218",
        "color": "#9a3412",
        "direction": 0,
        "station_id": "1165604808"
      },
      "geometry": {
        "type": "Point",
        "coordinates": [
          121.526725,
          25.090999
        ]
      }
    },
    {
      "type": "Feature",
      "properties": {
        "feature_type": "station",
        "ref": "TPE222989",
        "name": "捷運劍潭站(中山)",
        "name_en": "MRT Jiantan Sta. (Zhongshan)",
        "line": "218",
        "color": "#9a3412",
        "direction": 0,
        "station_id": "803"
      },
      "geometry": {
        "type": "Point",
        "coordinates": [
          121.525327,
          25.085353
        ]
      }
    },
    {
      "type": "Feature",
      "properties": {
        "feature_type": "station",
        "ref": "TPE41800",
        "name": "劍潭",
        "name_en": "Jiantan",
        "line": "218",
        "color": "#9a3412",
        "direction": 0,
        "station_id": "1000266"
      },
      "geometry": {
        "type": "Point",
        "coordinates": [
          121.524712226022,
          25.0817595131148
        ]
      }
    },
    {
      "type": "Feature",
      "properties": {
        "feature_type": "station",
        "ref": "TPE41801",
        "name": "臺北市立美術館",
        "name_en": "Taipei Fine Arts Museum",
        "line": "218",
        "color": "#9a3412",
        "direction": 0,
        "station_id": "4121"
      },
      "geometry": {
        "type": "Point",
        "coordinates": [
          121.523095139749,
          25.070066233009
        ]
      }
    },
    {
      "type": "Feature",
      "properties": {
        "feature_type": "station",
        "ref": "TPE41802",
        "name": "大同大學",
        "name_en": "Tatung U.",
        "line": "218",
        "color": "#9a3412",
        "direction": 0,
        "station_id": "1170"
      },
      "geometry": {
        "type": "Point",
        "coordinates": [
          121.52244,
          25.0673
        ]
      }
    },
    {
      "type": "Feature",
      "properties": {
        "feature_type": "station",
        "ref": "TPE41803",
        "name": "大同公司(晴光市場)",
        "name_en": "Tatung Company (Qingguang Market)",
        "line": "218",
        "color": "#9a3412",
        "direction": 0,
        "station_id": "1171"
      },
      "geometry": {
        "type": "Point",
        "coordinates": [
          121.5221621,
          25.06438114
        ]
      }
    },
    {
      "type": "Feature",
      "properties": {
        "feature_type": "station",
        "ref": "TPE41804",
        "name": "台泥大樓(馬偕醫院)",
        "name_en": "Taini Building (Mackay Memorial Hospital)",
        "line": "218",
        "color": "#9a3412",
        "direction": 0,
        "station_id": "1000155"
      },
      "geometry": {
        "type": "Point",
        "coordinates": [
          121.522776776113,
          25.0608309862107
        ]
      }
    },
    {
      "type": "Feature",
      "properties": {
        "feature_type": "station",
        "ref": "TPE41805",
        "name": "國賓飯店",
        "name_en": "Ambassador Hotel",
        "line": "218",
        "color": "#9a3412",
        "direction": 0,
        "station_id": "1000156"
      },
      "geometry": {
        "type": "Point",
        "coordinates": [
          121.522628910085,
          25.0564276089864
        ]
      }
    },
    {
      "type": "Feature",
      "properties": {
        "feature_type": "station",
        "ref": "TPE41806",
        "name": "中山市場",
        "name_en": "Zhongshan Market",
        "line": "218",
        "color": "#9a3412",
        "direction": 0,
        "station_id": "1000064"
      },
      "geometry": {
        "type": "Point",
        "coordinates": [
          121.52202112765,
          25.05126405386
        ]
      }
    },
    {
      "type": "Feature",
      "properties": {
        "feature_type": "station",
        "ref": "TPE41807",
        "name": "行政院",
        "name_en": "Executive Yuan",
        "line": "218",
        "color": "#9a3412",
        "direction": 0,
        "station_id": "50688"
      },
      "geometry": {
        "type": "Point",
        "coordinates": [
          121.519759690546,
          25.046484462941
        ]
      }
    },
    {
      "type": "Feature",
      "properties": {
        "feature_type": "station",
        "ref": "TPE41808",
        "name": "臺北車站(忠孝)",
        "name_en": "Taipei Main Sta. (Zhongxiao)",
        "line": "218",
        "color": "#9a3412",
        "direction": 0,
        "station_id": "1000082"
      },
      "geometry": {
        "type": "Point",
        "coordinates": [
          121.5167218,
          25.0465408
        ]
      }
    },
    {
      "type": "Feature",
      "properties": {
        "feature_type": "station",
        "ref": "TPE41809",
        "name": "中華路北站",
        "name_en": "Zhonghua Rd. N. Stop",
        "line": "218",
        "color": "#9a3412",
        "direction": 0,
        "station_id": "1001169"
      },
      "geometry": {
        "type": "Point",
        "coordinates": [
          121.508709,
          25.044605
        ]
      }
    },
    {
      "type": "Feature",
      "properties": {
        "feature_type": "station",
        "ref": "TPE41810",
        "name": "捷運西門站",
        "name_en": "MRT Ximen Sta.",
        "line": "218",
        "color": "#9a3412",
        "direction": 0,
        "station_id": "4608"
      },
      "geometry": {
        "type": "Point",
        "coordinates": [
          121.507887356667,
          25.041649236993
        ]
      }
    },
    {
      "type": "Feature",
      "properties": {
        "feature_type": "station",
        "ref": "TPE41811",
        "name": "小南門",
        "name_en": "Xiaonanmen",
        "line": "218",
        "color": "#9a3412",
        "direction": 0,
        "station_id": "1975"
      },
      "geometry": {
        "type": "Point",
        "coordinates": [
          121.506812536211,
          25.0380081419194
        ]
      }
    },
    {
      "type": "Feature",
      "properties": {
        "feature_type": "station",
        "ref": "TPE41812",
        "name": "老松國小",
        "name_en": "Laosong Elementary School",
        "line": "218",
        "color": "#9a3412",
        "direction": 0,
        "station_id": "4613"
      },
      "geometry": {
        "type": "Point",
        "coordinates": [
          121.502569664855,
          25.0382620086784
        ]
      }
    },
    {
      "type": "Feature",
      "properties": {
        "feature_type": "station",
        "ref": "TPE41816",
        "name": "祖師廟(貴陽)",
        "name_en": "Zushi Temple (GuiYang)",
        "line": "218",
        "color": "#9a3412",
        "direction": 1,
        "station_id": "1784"
      },
      "geometry": {
        "type": "Point",
        "coordinates": [
          121.502490233032,
          25.0399728811606
        ]
      }
    },
    {
      "type": "Feature",
      "properties": {
        "feature_type": "station",
        "ref": "TPE41815",
        "name": "貴陽街",
        "name_en": "Guiyang St.",
        "line": "218",
        "color": "#9a3412",
        "direction": 1,
        "station_id": "1806"
      },
      "geometry": {
        "type": "Point",
        "coordinates": [
          121.50582384788,
          25.03944952637
        ]
      }
    },
    {
      "type": "Feature",
      "properties": {
        "feature_type": "station",
        "ref": "TPE41817",
        "name": "捷運西門站",
        "name_en": "MRT Ximen Sta.",
        "line": "218",
        "color": "#9a3412",
        "direction": 1,
        "station_id": "1793"
      },
      "geometry": {
        "type": "Point",
        "coordinates": [
          121.508285900629,
          25.041730058378
        ]
      }
    },
    {
      "type": "Feature",
      "properties": {
        "feature_type": "station",
        "ref": "TPE41818",
        "name": "中華路北站",
        "name_en": "Zhonghua Rd. N. Stop",
        "line": "218",
        "color": "#9a3412",
        "direction": 1,
        "station_id": "1744"
      },
      "geometry": {
        "type": "Point",
        "coordinates": [
          121.509380726049,
          25.0456964941835
        ]
      }
    },
    {
      "type": "Feature",
      "properties": {
        "feature_type": "station",
        "ref": "TPE41814",
        "name": "捷運北門站",
        "name_en": "MRT Beimen Station",
        "line": "218",
        "color": "#9a3412",
        "direction": 1,
        "station_id": "50044"
      },
      "geometry": {
        "type": "Point",
        "coordinates": [
          121.510332531364,
          25.0492507169836
        ]
      }
    },
    {
      "type": "Feature",
      "properties": {
        "feature_type": "station",
        "ref": "TPE41813",
        "name": "臺北車站(鄭州)",
        "name_en": "Taipei Main Sta. (Zhengzhou)",
        "line": "218",
        "color": "#9a3412",
        "direction": 1,
        "station_id": "1895"
      },
      "geometry": {
        "type": "Point",
        "coordinates": [
          121.51719764702355,
          25.0484971857801
        ]
      }
    },
    {
      "type": "Feature",
      "properties": {
        "feature_type": "station",
        "ref": "TPE41819",
        "name": "中山市場",
        "name_en": "Zhongshan Market",
        "line": "218",
        "color": "#9a3412",
        "direction": 1,
        "station_id": "1000712"
      },
      "geometry": {
        "type": "Point",
        "coordinates": [
          121.522081,
          25.050519
        ]
      }
    },
    {
      "type": "Feature",
      "properties": {
        "feature_type": "station",
        "ref": "TPE41820",
        "name": "國賓飯店",
        "name_en": "Ambassador Hotel",
        "line": "218",
        "color": "#9a3412",
        "direction": 1,
        "station_id": "1000157"
      },
      "geometry": {
        "type": "Point",
        "coordinates": [
          121.522969858739,
          25.0562422589842
        ]
      }
    },
    {
      "type": "Feature",
      "properties": {
        "feature_type": "station",
        "ref": "TPE41821",
        "name": "台泥大樓(馬偕醫院)",
        "name_en": "Taini Building (Mackay Memorial Hospital)",
        "line": "218",
        "color": "#9a3412",
        "direction": 1,
        "station_id": "1000158"
      },
      "geometry": {
        "type": "Point",
        "coordinates": [
          121.5230341,
          25.06158152
        ]
      }
    },
    {
      "type": "Feature",
      "properties": {
        "feature_type": "station",
        "ref": "TPE41822",
        "name": "大同公司(晴光市場)",
        "name_en": "Tatung Company (Qingguang Market)",
        "line": "218",
        "color": "#9a3412",
        "direction": 1,
        "station_id": "16264"
      },
      "geometry": {
        "type": "Point",
        "coordinates": [
          121.5224722,
          25.0642887
        ]
      }
    },
    {
      "type": "Feature",
      "properties": {
        "feature_type": "station",
        "ref": "TPE41823",
        "name": "大同大學",
        "name_en": "Tatung U.",
        "line": "218",
        "color": "#9a3412",
        "direction": 1,
        "station_id": "1169"
      },
      "geometry": {
        "type": "Point",
        "coordinates": [
          121.5228199,
          25.06770081
        ]
      }
    },
    {
      "type": "Feature",
      "properties": {
        "feature_type": "station",
        "ref": "TPE41824",
        "name": "臺北市立美術館",
        "name_en": "Taipei Fine Arts Museum",
        "line": "218",
        "color": "#9a3412",
        "direction": 1,
        "station_id": "101"
      },
      "geometry": {
        "type": "Point",
        "coordinates": [
          121.523964286473,
          25.0721395085303
        ]
      }
    },
    {
      "type": "Feature",
      "properties": {
        "feature_type": "station",
        "ref": "TPE41825",
        "name": "劍潭",
        "name_en": "Jiantan",
        "line": "218",
        "color": "#9a3412",
        "direction": 1,
        "station_id": "50629"
      },
      "geometry": {
        "type": "Point",
        "coordinates": [
          121.524381872313,
          25.0805889011559
        ]
      }
    },
    {
      "type": "Feature",
      "properties": {
        "feature_type": "station",
        "ref": "TPE41826",
        "name": "捷運劍潭站(北藝中心)",
        "name_en": "MRT Jiantan Sta. (Taipei Performing Arts Center)",
        "line": "218",
        "color": "#9a3412",
        "direction": 1,
        "station_id": "1000256"
      },
      "geometry": {
        "type": "Point",
        "coordinates": [
          121.525031,
          25.084952
        ]
      }
    },
    {
      "type": "Feature",
      "properties": {
        "feature_type": "station",
        "ref": "TPE41827",
        "name": "小北街",
        "name_en": "Xiaobei St.",
        "line": "218",
        "color": "#9a3412",
        "direction": 1,
        "station_id": "10208"
      },
      "geometry": {
        "type": "Point",
        "coordinates": [
          121.526963489882,
          25.0907094764658
        ]
      }
    },
    {
      "type": "Feature",
      "properties": {
        "feature_type": "station",
        "ref": "TPE41828",
        "name": "士林",
        "name_en": "Shilin",
        "line": "218",
        "color": "#9a3412",
        "direction": 1,
        "station_id": "10209"
      },
      "geometry": {
        "type": "Point",
        "coordinates": [
          121.524405,
          25.096111
        ]
      }
    },
    {
      "type": "Feature",
      "properties": {
        "feature_type": "station",
        "ref": "TPE41829",
        "name": "捷運芝山站一",
        "name_en": "MRT Zhishan Sta. 1",
        "line": "218",
        "color": "#9a3412",
        "direction": 1,
        "station_id": "801"
      },
      "geometry": {
        "type": "Point",
        "coordinates": [
          121.522657043885,
          25.1007959524461
        ]
      }
    },
    {
      "type": "Feature",
      "properties": {
        "feature_type": "station",
        "ref": "TPE41830",
        "name": "捷運芝山站(戲曲中心)",
        "name_en": "MRT Zhishan Sta. (Taiwan Traditional Theatre Center)",
        "line": "218",
        "color": "#9a3412",
        "direction": 1,
        "station_id": "1000388"
      },
      "geometry": {
        "type": "Point",
        "coordinates": [
          121.52067,
          25.1025
        ]
      }
    },
    {
      "type": "Feature",
      "properties": {
        "feature_type": "station",
        "ref": "TPE41831",
        "name": "中正高中",
        "name_en": "Zhongzheng High School",
        "line": "218",
        "color": "#9a3412",
        "direction": 1,
        "station_id": "1000348"
      },
      "geometry": {
        "type": "Point",
        "coordinates": [
          121.517290935039,
          25.1058289859016
        ]
      }
    },
    {
      "type": "Feature",
      "properties": {
        "feature_type": "station",
        "ref": "TPE41832",
        "name": "文林國小",
        "name_en": "Wenlin Elementary School",
        "line": "218",
        "color": "#9a3412",
        "direction": 1,
        "station_id": "55017"
      },
      "geometry": {
        "type": "Point",
        "coordinates": [
          121.515036396953,
          25.1075998291069
        ]
      }
    },
    {
      "type": "Feature",
      "properties": {
        "feature_type": "station",
        "ref": "TPE41833",
        "name": "石牌福星宮",
        "name_en": "Shipai Fuhsing Temple",
        "line": "218",
        "color": "#9a3412",
        "direction": 1,
        "station_id": "1000349"
      },
      "geometry": {
        "type": "Point",
        "coordinates": [
          121.511778736417,
          25.1104478952371
        ]
      }
    },
    {
      "type": "Feature",
      "properties": {
        "feature_type": "station",
        "ref": "TPE41834",
        "name": "承德路七段",
        "name_en": "Chengde Rd. Sec. 7",
        "line": "218",
        "color": "#9a3412",
        "direction": 1,
        "station_id": "224"
      },
      "geometry": {
        "type": "Point",
        "coordinates": [
          121.50901,
          25.11294
        ]
      }
    },
    {
      "type": "Feature",
      "properties": {
        "feature_type": "station",
        "ref": "TPE41835",
        "name": "實踐街口",
        "name_en": "Shijian St. Entrance",
        "line": "218",
        "color": "#9a3412",
        "direction": 1,
        "station_id": "3958"
      },
      "geometry": {
        "type": "Point",
        "coordinates": [
          121.507720173671,
          25.1140889844948
        ]
      }
    },
    {
      "type": "Feature",
      "properties": {
        "feature_type": "station",
        "ref": "TPE214433",
        "name": "立賢承德路口",
        "name_en": "Lixian Chengde Rd.",
        "line": "218",
        "color": "#9a3412",
        "direction": 1,
        "station_id": "1165609055"
      },
      "geometry": {
        "type": "Point",
        "coordinates": [
          121.50576,
          25.11585
        ]
      }
    },
    {
      "type": "Feature",
      "properties": {
        "feature_type": "station",
        "ref": "TPE41836",
        "name": "立農國小",
        "name_en": "Linong Elementary School",
        "line": "218",
        "color": "#9a3412",
        "direction": 1,
        "station_id": "158"
      },
      "geometry": {
        "type": "Point",
        "coordinates": [
          121.504190816017,
          25.1173181486975
        ]
      }
    },
    {
      "type": "Feature",
      "properties": {
        "feature_type": "station",
        "ref": "TPE41837",
        "name": "承德公舘路口",
        "name_en": "Chengde and Gongguan Intresection",
        "line": "218",
        "color": "#9a3412",
        "direction": 1,
        "station_id": "3959"
      },
      "geometry": {
        "type": "Point",
        "coordinates": [
          121.501232,
          25.11997
        ]
      }
    },
    {
      "type": "Feature",
      "properties": {
        "feature_type": "station",
        "ref": "TPE41838",
        "name": "大業路(農禪寺)",
        "name_en": "Daye Rd. (Nungchan monastery)",
        "line": "218",
        "color": "#9a3412",
        "direction": 1,
        "station_id": "40"
      },
      "geometry": {
        "type": "Point",
        "coordinates": [
          121.49951,
          25.122792
        ]
      }
    },
    {
      "type": "Feature",
      "properties": {
        "feature_type": "station",
        "ref": "TPE41839",
        "name": "鳳甲美術館",
        "name_en": "Fengjia Arts Museum",
        "line": "218",
        "color": "#9a3412",
        "direction": 1,
        "station_id": "506"
      },
      "geometry": {
        "type": "Point",
        "coordinates": [
          121.498447,
          25.126464
        ]
      }
    },
    {
      "type": "Feature",
      "properties": {
        "feature_type": "station",
        "ref": "TPE41840",
        "name": "大業路(大興街口)",
        "name_en": "Daye Rd. (Daxing St. Entrance)",
        "line": "218",
        "color": "#9a3412",
        "direction": 1,
        "station_id": "41"
      },
      "geometry": {
        "type": "Point",
        "coordinates": [
          121.49742,
          25.12909
        ]
      }
    },
    {
      "type": "Feature",
      "properties": {
        "feature_type": "station",
        "ref": "TPE41841",
        "name": "大興街口",
        "name_en": "Daxing St. Entrance",
        "line": "218",
        "color": "#9a3412",
        "direction": 1,
        "station_id": "45"
      },
      "geometry": {
        "type": "Point",
        "coordinates": [
          121.499403,
          25.130578
        ]
      }
    },
    {
      "type": "Feature",
      "properties": {
        "feature_type": "station",
        "ref": "TPE41842",
        "name": "捷運北投站(北投)",
        "name_en": "MRT Beitou Sta. (Beitou)",
        "line": "218",
        "color": "#9a3412",
        "direction": 1,
        "station_id": "358"
      },
      "geometry": {
        "type": "Point",
        "coordinates": [
          121.49796757939285,
          25.132300275375297
        ]
      }
    },
    {
      "type": "Feature",
      "properties": {
        "feature_type": "station",
        "ref": "TPE41843",
        "name": "幼華高中(北投)",
        "name_en": "YouHua Vocational High School (Beitou)",
        "line": "218",
        "color": "#9a3412",
        "direction": 1,
        "station_id": "5"
      },
      "geometry": {
        "type": "Point",
        "coordinates": [
          121.49683,
          25.13423
        ]
      }
    },
    {
      "type": "Feature",
      "properties": {
        "feature_type": "station",
        "ref": "TPE41844",
        "name": "大業中央北路口",
        "name_en": "Daye & Zhongyang N. Rd. Intersection",
        "line": "218",
        "color": "#9a3412",
        "direction": 1,
        "station_id": "50062"
      },
      "geometry": {
        "type": "Point",
        "coordinates": [
          121.498029,
          25.135605
        ]
      }
    },
    {
      "type": "Feature",
      "properties": {
        "feature_type": "station",
        "ref": "TPE41845",
        "name": "北投國小",
        "name_en": "Beitou Elementary School",
        "line": "218",
        "color": "#9a3412",
        "direction": 1,
        "station_id": "120"
      },
      "geometry": {
        "type": "Point",
        "coordinates": [
          121.5007209,
          25.13384543
        ]
      }
    },
    {
      "type": "Feature",
      "properties": {
        "feature_type": "station",
        "ref": "TPE41846",
        "name": "第一銀行",
        "name_en": "First Commercial Bank",
        "line": "218",
        "color": "#9a3412",
        "direction": 1,
        "station_id": "7239"
      },
      "geometry": {
        "type": "Point",
        "coordinates": [
          121.50256846263959,
          25.13489933134952
        ]
      }
    },
    {
      "type": "Feature",
      "properties": {
        "feature_type": "station",
        "ref": "TPE59903",
        "name": "北投公園",
        "name_en": "Beitou Park",
        "line": "218",
        "color": "#9a3412",
        "direction": 1,
        "station_id": "113"
      },
      "geometry": {
        "type": "Point",
        "coordinates": [
          121.50444128215462,
          25.13658039419034
        ]
      }
    },
    {
      "type": "Feature",
      "properties": {
        "feature_type": "station",
        "ref": "TPE41847",
        "name": "新北投",
        "name_en": "Xinbeitou",
        "line": "218",
        "color": "#9a3412",
        "direction": 1,
        "station_id": "4113"
      },
      "geometry": {
        "type": "Point",
        "coordinates": [
          121.503116860832,
          25.1377878885811
        ]
      }
    },
    {
      "type": "Feature",
      "properties": {
        "feature_type": "station",
        "ref": "TPE41848",
        "name": "中和街",
        "name_en": "Zhonghe St.",
        "line": "218",
        "color": "#9a3412",
        "direction": 1,
        "station_id": "7238"
      },
      "geometry": {
        "type": "Point",
        "coordinates": [
          121.501688456724,
          25.1392080991718
        ]
      }
    },
    {
      "type": "Feature",
      "properties": {
        "feature_type": "station",
        "ref": "TPE41849",
        "name": "復興中學",
        "name_en": "Fuxing High School",
        "line": "218",
        "color": "#9a3412",
        "direction": 1,
        "station_id": "3990"
      },
      "geometry": {
        "type": "Point",
        "coordinates": [
          121.50003982457,
          25.140779616914
        ]
      }
    },
    {
      "type": "Feature",
      "properties": {
        "feature_type": "station",
        "ref": "TPE41850",
        "name": "中和里",
        "name_en": "Zhonghe Village",
        "line": "218",
        "color": "#9a3412",
        "direction": 1,
        "station_id": "7237"
      },
      "geometry": {
        "type": "Point",
        "coordinates": [
          121.498822886077,
          25.1422718056895
        ]
      }
    },
    {
      "type": "Feature",
      "properties": {
        "feature_type": "station",
        "ref": "TPE41851",
        "name": "國泰新村",
        "name_en": "Guotai New Village",
        "line": "218",
        "color": "#9a3412",
        "direction": 1,
        "station_id": "3991"
      },
      "geometry": {
        "type": "Point",
        "coordinates": [
          121.498191201655,
          25.1434882184522
        ]
      }
    },
    {
      "type": "Feature",
      "properties": {
        "feature_type": "station",
        "ref": "TPE41852",
        "name": "慈航寺",
        "name_en": "Cihang Temple",
        "line": "218",
        "color": "#9a3412",
        "direction": 1,
        "station_id": "3995"
      },
      "geometry": {
        "type": "Point",
        "coordinates": [
          121.496498,
          25.144813
        ]
      }
    },
    {
      "type": "Feature",
      "properties": {
        "feature_type": "station",
        "ref": "TPE41853",
        "name": "秀山里",
        "name_en": "Xiushan Li",
        "line": "218",
        "color": "#9a3412",
        "direction": 1,
        "station_id": "7236"
      },
      "geometry": {
        "type": "Point",
        "coordinates": [
          121.494135327259,
          25.1454283711567
        ]
      }
    },
    {
      "type": "Feature",
      "properties": {
        "feature_type": "station",
        "ref": "TPE41854",
        "name": "貴子坑水土保持園區",
        "name_en": "Guizikeng Soil and Water Conservation Park",
        "line": "218",
        "color": "#9a3412",
        "direction": 1,
        "station_id": "1000350"
      },
      "geometry": {
        "type": "Point",
        "coordinates": [
          121.492633753399,
          25.1452633730156
        ]
      }
    },
    {
      "type": "Feature",
      "properties": {
        "feature_type": "station",
        "ref": "TPE218070",
        "name": "北投站",
        "name_en": "Beitou Stop",
        "line": "218",
        "color": "#9a3412",
        "direction": 1,
        "station_id": "1000351"
      },
      "geometry": {
        "type": "Point",
        "coordinates": [
          121.492071,
          25.144595
        ]
      }
    }
  ]
}
