{
  "type": "FeatureCollection",
  "name": "紅58B",
  "properties": {
    "id": "kaohsiung_hong58b",
    "name": "紅58B",
    "name_en": "紅58B",
    "ref": "紅58B",
    "color": "#a21caf",
    "city_id": "Kaohsiung",
    "source": "TDX Bus Shape / StopOfRoute",
    "official_map_url": "http://ibus.tbkc.gov.tw/cms/api/route/8581/map/1857/image",
    "operator_id": "10310",
    "operator": "南台灣客運",
    "operator_en": "South Taiwan Bus Co., Ltd."
  },
  "features": [
    {
      "type": "Feature",
      "properties": {
        "feature_type": "route",
        "ref": "紅58B",
        "name": "紅58B",
        "name_en": "紅58B",
        "color": "#a21caf",
        "direction": 0
      },
      "geometry": {
        "type": "LineString",
        "coordinates": [
          [
            120.31989,
            22.7326
          ],
          [
            120.32037,
            22.73103
          ],
          [
            120.32081,
            22.72952
          ],
          [
            120.32139,
            22.72762
          ],
          [
            120.32143,
            22.72719
          ],
          [
            120.32161,
            22.72636
          ],
          [
            120.32186920190433,
            22.725404761110465
          ],
          [
            120.32187261494144,
            22.72538243757947
          ],
          [
            120.32187095655347,
            22.725359763054932
          ],
          [
            120.32186425215755,
            22.725337906142183
          ],
          [
            120.32185279559458,
            22.725317824788185
          ],
          [
            120.32183708898395,
            22.72530039912053
          ],
          [
            120.32181813415326,
            22.725286575680403
          ],
          [
            120.32043,
            22.72448
          ],
          [
            120.31903172113752,
            22.723707710244327
          ],
          [
            120.31900004443854,
            22.723681827347896
          ],
          [
            120.31898021707116,
            22.72364686292123
          ],
          [
            120.31897517712613,
            22.72360762270337
          ],
          [
            120.31898559249055,
            22.723569306757923
          ],
          [
            120.31901008293359,
            22.723536992665093
          ],
          [
            120.31904512766002,
            22.72351507366662
          ],
          [
            120.31998,
            22.72314
          ],
          [
            120.32132,
            22.72246
          ],
          [
            120.32229,
            22.72204
          ],
          [
            120.32333,
            22.72179
          ],
          [
            120.32409,
            22.72171
          ],
          [
            120.32485,
            22.72177
          ],
          [
            120.32557,
            22.7219
          ],
          [
            120.32629,
            22.72211
          ],
          [
            120.32783,
            22.72267
          ],
          [
            120.32918,
            22.72339
          ],
          [
            120.33038,
            22.72408
          ],
          [
            120.32984,
            22.725
          ],
          [
            120.32924419408418,
            22.726786906581417
          ],
          [
            120.32923479180141,
            22.72680748182722
          ],
          [
            120.32922120308746,
            22.72682566917612
          ],
          [
            120.32920392477747,
            22.726840917748245
          ],
          [
            120.32918367542595,
            22.726852593399958
          ],
          [
            120.32916129714438,
            22.726860210574944
          ],
          [
            120.32913775746056,
            22.726863450952706
          ],
          [
            120.32682,
            22.72696
          ],
          [
            120.32551970811676,
            22.727047771689882
          ],
          [
            120.32548189697084,
            22.72705638364541
          ],
          [
            120.32544918497992,
            22.727076091180844
          ],
          [
            120.32542527244988,
            22.727104696843018
          ],
          [
            120.3254128208072,
            22.727139016867305
          ],
          [
            120.32541321589987,
            22.727175231489692
          ],
          [
            120.32542624216383,
            22.727209025956064
          ],
          [
            120.32644,
            22.72888
          ],
          [
            120.32734,
            22.73031
          ],
          [
            120.32764,
            22.7306
          ],
          [
            120.3282,
            22.73089
          ],
          [
            120.32911,
            22.73135
          ],
          [
            120.32981,
            22.73189
          ],
          [
            120.33113,
            22.73327
          ],
          [
            120.33292204029092,
            22.7352553016582
          ],
          [
            120.33294078030121,
            22.735284564821786
          ],
          [
            120.33294886434754,
            22.735318155159757
          ],
          [
            120.33294522062062,
            22.735352407679954
          ],
          [
            120.33293021541165,
            22.735383879095284
          ],
          [
            120.33290535714225,
            22.735409405693485
          ],
          [
            120.33287339784724,
            22.735426333112798
          ],
          [
            120.33152716215997,
            22.735893523236186
          ],
          [
            120.33149949383356,
            22.735907377137462
          ],
          [
            120.33147663324631,
            22.735927774902436
          ],
          [
            120.33146051486051,
            22.73595312807873
          ],
          [
            120.33145232436675,
            22.735981571651905
          ],
          [
            120.33145266426897,
            22.7360110132737
          ],
          [
            120.33146138609608,
            22.736039028531607
          ],
          [
            120.33186,
            22.73687
          ],
          [
            120.33296,
            22.7372
          ],
          [
            120.33264,
            22.73809
          ],
          [
            120.33278,
            22.73927
          ],
          [
            120.33315215327805,
            22.741913851315424
          ],
          [
            120.33315283048384,
            22.741935533731738
          ],
          [
            120.33314882446945,
            22.74195700252837
          ],
          [
            120.3331402830326,
            22.74197729588543
          ],
          [
            120.33312755026522,
            22.741995596284635
          ],
          [
            120.33311113910709,
            22.74201116649404
          ],
          [
            120.33309201320816,
            22.742023227227328
          ],
          [
            120.33172,
            22.74271
          ],
          [
            120.33058,
            22.7433
          ],
          [
            120.33179,
            22.7456
          ],
          [
            120.33038,
            22.74628
          ],
          [
            120.33153,
            22.74861
          ],
          [
            120.33159,
            22.74893
          ],
          [
            120.33153,
            22.74999
          ],
          [
            120.33153,
            22.75173
          ],
          [
            120.33147,
            22.75277
          ],
          [
            120.33323919239645,
            22.752918651024853
          ],
          [
            120.33326547643141,
            22.752923751907254
          ],
          [
            120.33328987670899,
            22.75293432430262
          ],
          [
            120.3333110248963,
            22.752949801056168
          ],
          [
            120.33332779894505,
            22.7529693610259
          ],
          [
            120.33333930888332,
            22.752991966428745
          ],
          [
            120.33334495132532,
            22.75301648972951
          ],
          [
            120.3334,
            22.75355
          ],
          [
            120.33333,
            22.75371
          ],
          [
            120.33308,
            22.75458
          ],
          [
            120.33403461265311,
            22.754814068530525
          ],
          [
            120.33406240894882,
            22.754824647061202
          ],
          [
            120.33408652973372,
            22.75484158742418
          ],
          [
            120.33410516378056,
            22.754863707331303
          ],
          [
            120.33411706392342,
            22.754889526310002
          ],
          [
            120.33412143369263,
            22.754917316311026
          ],
          [
            120.33411802686304,
            22.75494504411694
          ],
          [
            120.3335645415495,
            22.757007913938608
          ],
          [
            120.3335611197308,
            22.757033236491385
          ],
          [
            120.3335642022494,
            22.757058775063786
          ],
          [
            120.3335736627053,
            22.757082925163648
          ],
          [
            120.3335889709418,
            22.75710433343785
          ],
          [
            120.33360926909702,
            22.757121800183096
          ],
          [
            120.3336331512233,
            22.757134243306588
          ],
          [
            120.33511,
            22.7577
          ],
          [
            120.33625848615495,
            22.758075371967514
          ],
          [
            120.33627828905293,
            22.758083900971638
          ],
          [
            120.33629623396614,
            22.758095857698883
          ],
          [
            120.33631143688635,
            22.758110735449137
          ],
          [
            120.3363233551296,
            22.758128003145696
          ],
          [
            120.33633156326182,
            22.758147044400275
          ],
          [
            120.3363357758252,
            22.758167252471615
          ],
          [
            120.33639460706785,
            22.75872840570341
          ],
          [
            120.33639786541838,
            22.758742806516956
          ],
          [
            120.33640441417838,
            22.758756156817373
          ],
          [
            120.33641394239594,
            22.75876785816396
          ],
          [
            120.33642599075566,
            22.758777346483914
          ],
          [
            120.3364399784567,
            22.75878416438514
          ],
          [
            120.33645515549081,
            22.758787972295654
          ],
          [
            120.34065,
            22.75939
          ],
          [
            120.34118,
            22.75939
          ],
          [
            120.34162,
            22.75928
          ],
          [
            120.34259,
            22.75899
          ],
          [
            120.34324,
            22.75901
          ],
          [
            120.34444,
            22.75932
          ],
          [
            120.34736,
            22.76004
          ],
          [
            120.34814,
            22.76018
          ],
          [
            120.34917,
            22.76021
          ],
          [
            120.35016,
            22.7603
          ],
          [
            120.35302,
            22.76055
          ],
          [
            120.35608,
            22.76048
          ],
          [
            120.35906,
            22.76017
          ],
          [
            120.35994907528789,
            22.760101022850332
          ],
          [
            120.35998324791827,
            22.760103023156386
          ],
          [
            120.36001527055093,
            22.760114101744044
          ],
          [
            120.36004247501906,
            22.7601333065911
          ],
          [
            120.36006253661449,
            22.760158996582415
          ],
          [
            120.36007374101024,
            22.760188976426708
          ],
          [
            120.36007513974192,
            22.76022060464932
          ],
          [
            120.35998,
            22.76105
          ],
          [
            120.35992,
            22.76143
          ],
          [
            120.35984,
            22.76225
          ],
          [
            120.35971864055443,
            22.763490977577856
          ],
          [
            120.3597193043468,
            22.76351581827435
          ],
          [
            120.35972606012338,
            22.763539931934776
          ],
          [
            120.35973855862454,
            22.763561980046084
          ],
          [
            120.35975614142869,
            22.763580801112774
          ],
          [
            120.35977788227291,
            22.76359540364017
          ],
          [
            120.35980242477005,
            22.763604961544104
          ],
          [
            120.36191,
            22.76417
          ],
          [
            120.3663,
            22.76541
          ],
          [
            120.36625,
            22.76551
          ],
          [
            120.3629,
            22.76455
          ],
          [
            120.35968,
            22.76365
          ],
          [
            120.35939,
            22.76529
          ],
          [
            120.35929,
            22.7661
          ],
          [
            120.35927,
            22.76697
          ],
          [
            120.3593,
            22.76772
          ],
          [
            120.35966,
            22.76865
          ],
          [
            120.35976,
            22.76915
          ],
          [
            120.35976,
            22.76966
          ],
          [
            120.35973,
            22.77094
          ],
          [
            120.35979,
            22.77147
          ],
          [
            120.3602,
            22.77348
          ],
          [
            120.3608,
            22.77653
          ],
          [
            120.36109,
            22.77878
          ],
          [
            120.36149,
            22.7815
          ],
          [
            120.36178,
            22.78274
          ],
          [
            120.36218,
            22.78426
          ],
          [
            120.36239,
            22.78594
          ],
          [
            120.36259219303797,
            22.78860908392307
          ],
          [
            120.36258894011502,
            22.788643142953987
          ],
          [
            120.36257440773547,
            22.78867461814106
          ],
          [
            120.36255003804953,
            22.78870032423005
          ],
          [
            120.36251825613945,
            22.78871770315027
          ],
          [
            120.36248222469452,
            22.7887250254863
          ],
          [
            120.36244533152845,
            22.788721513663244
          ],
          [
            120.36033,
            22.7882
          ],
          [
            120.35976,
            22.7903
          ]
        ]
      }
    },
    {
      "type": "Feature",
      "properties": {
        "feature_type": "route",
        "ref": "紅58B",
        "name": "紅58B",
        "name_en": "紅58B",
        "color": "#a21caf",
        "direction": 1
      },
      "geometry": {
        "type": "LineString",
        "coordinates": [
          [
            120.35979,
            22.79015
          ],
          [
            120.3589837428385,
            22.793034435498342
          ],
          [
            120.3589800738295,
            22.793063906956544
          ],
          [
            120.35898519402087,
            22.793093376922968
          ],
          [
            120.35899876611505,
            22.793120438013712
          ],
          [
            120.35901976389746,
            22.793143044082903
          ],
          [
            120.35904659968173,
            22.7931594858382
          ],
          [
            120.35907710914843,
            22.793168498506027
          ],
          [
            120.36022,
            22.79335
          ],
          [
            120.36158164173528,
            22.79328420885574
          ],
          [
            120.36160369049706,
            22.793281160037225
          ],
          [
            120.3616247542139,
            22.793274265049654
          ],
          [
            120.3616440215899,
            22.793263777533237
          ],
          [
            120.36166078965027,
            22.793250080127493
          ],
          [
            120.3616744466084,
            22.793233672585494
          ],
          [
            120.3616845943914,
            22.793214913728278
          ],
          [
            120.36211,
            22.7922
          ],
          [
            120.3626,
            22.79129
          ],
          [
            120.36278,
            22.79086
          ],
          [
            120.36243,
            22.78783
          ],
          [
            120.36231,
            22.78575
          ],
          [
            120.36222,
            22.78493
          ],
          [
            120.36164,
            22.78251
          ],
          [
            120.36136,
            22.78116
          ],
          [
            120.36102,
            22.77888
          ],
          [
            120.36083,
            22.77751
          ],
          [
            120.36069,
            22.77619
          ],
          [
            120.36009,
            22.77336
          ],
          [
            120.35981,
            22.77195
          ],
          [
            120.35968,
            22.77128
          ],
          [
            120.35965,
            22.77061
          ],
          [
            120.35972,
            22.76917
          ],
          [
            120.35961,
            22.76873
          ],
          [
            120.35939,
            22.76829
          ],
          [
            120.35921,
            22.76767
          ],
          [
            120.35921,
            22.76685
          ],
          [
            120.35931,
            22.76515
          ],
          [
            120.35959,
            22.76353
          ],
          [
            120.36629,
            22.76539
          ],
          [
            120.36623,
            22.76551
          ],
          [
            120.35964246690085,
            22.763646347013417
          ],
          [
            120.35961800311593,
            22.763636414775657
          ],
          [
            120.35959643706543,
            22.76362144054153
          ],
          [
            120.3595791328277,
            22.763602281232266
          ],
          [
            120.35956700854842,
            22.76357995342181
          ],
          [
            120.35956070752982,
            22.763555641801624
          ],
          [
            120.35956055422936,
            22.763530718896096
          ],
          [
            120.3597,
            22.76236
          ],
          [
            120.35984,
            22.76107
          ],
          [
            120.3599550595546,
            22.760323229678303
          ],
          [
            120.35995471845035,
            22.760290641309027
          ],
          [
            120.35994392586059,
            22.760259520105755
          ],
          [
            120.3599236445736,
            22.760232794475723
          ],
          [
            120.35989571426268,
            22.760212888645206
          ],
          [
            120.35986266842824,
            22.760201608230663
          ],
          [
            120.35982742208719,
            22.760199984277165
          ],
          [
            120.35654,
            22.76051
          ],
          [
            120.35385,
            22.76064
          ],
          [
            120.35166,
            22.76055
          ],
          [
            120.35019,
            22.7604
          ],
          [
            120.34871,
            22.7603
          ],
          [
            120.34756,
            22.7602
          ],
          [
            120.34527,
            22.7596
          ],
          [
            120.34336,
            22.75914
          ],
          [
            120.34282,
            22.75905
          ],
          [
            120.3424,
            22.75912
          ],
          [
            120.34112,
            22.75951
          ],
          [
            120.33617723803515,
            22.758838685192103
          ],
          [
            120.33614932805371,
            22.758831499301582
          ],
          [
            120.33612408260522,
            22.75881809603913
          ],
          [
            120.33610318080476,
            22.7587993207617
          ],
          [
            120.33608791610942,
            22.75877633533173
          ],
          [
            120.33607923313785,
            22.758750562146737
          ],
          [
            120.33607766504824,
            22.758723649728022
          ],
          [
            120.33612738082647,
            22.75807428954936
          ],
          [
            120.33612699263924,
            22.758064497369023
          ],
          [
            120.33612435282238,
            22.758054986840737
          ],
          [
            120.3361195820112,
            22.75804622150176
          ],
          [
            120.33611290136521,
            22.7580386076851
          ],
          [
            120.33610462057771,
            22.758032498342853
          ],
          [
            120.33609522779568,
            22.758028211908357
          ],
          [
            120.33512,
            22.7577
          ],
          [
            120.33357439970798,
            22.757179866237458
          ],
          [
            120.33354896494178,
            22.75716779198082
          ],
          [
            120.33352726685209,
            22.757150166770632
          ],
          [
            120.3335108731548,
            22.75712814629892
          ],
          [
            120.33350078080723,
            22.757103069706634
          ],
          [
            120.33349760355993,
            22.757076461987975
          ],
          [
            120.33350148224875,
            22.757050124226765
          ],
          [
            120.33411,
            22.75493
          ],
          [
            120.33305,
            22.75465
          ],
          [
            120.3334426645901,
            22.753250975004924
          ],
          [
            120.33344631099952,
            22.753227793934517
          ],
          [
            120.33344448147163,
            22.753204243459855
          ],
          [
            120.33343721229396,
            22.753181617400976
          ],
          [
            120.33342484735344,
            22.753160986141108
          ],
          [
            120.33340797160503,
            22.75314332569442
          ],
          [
            120.33338769090687,
            22.753129634865033
          ],
          [
            120.33284,
            22.75284
          ],
          [
            120.33235,
            22.75284
          ],
          [
            120.33141,
            22.75277
          ],
          [
            120.33142,
            22.75126
          ],
          [
            120.33151,
            22.7488
          ],
          [
            120.33124,
            22.74821
          ],
          [
            120.33020539839835,
            22.74620562882346
          ],
          [
            120.33019615054643,
            22.746179434390566
          ],
          [
            120.33019432615298,
            22.746151624995306
          ],
          [
            120.33020018314075,
            22.74612430020284
          ],
          [
            120.33021333572675,
            22.746099259818834
          ],
          [
            120.3302329175879,
            22.74607815318151
          ],
          [
            120.33025734165265,
            22.746062512474207
          ],
          [
            120.33144,
            22.7455
          ],
          [
            120.33082,
            22.74424
          ],
          [
            120.330349178965,
            22.74352470691609
          ],
          [
            120.33033682237604,
            22.743498526076674
          ],
          [
            120.33033224673348,
            22.74346991832716
          ],
          [
            120.33033596659952,
            22.743441203750965
          ],
          [
            120.33034771794595,
            22.74341442044794
          ],
          [
            120.3303666666871,
            22.743391469440258
          ],
          [
            120.33039116081792,
            22.7433741419901
          ],
          [
            120.33171,
            22.74268
          ],
          [
            120.33309641147535,
            22.74202502371907
          ],
          [
            120.33311628994856,
            22.742013057605636
          ],
          [
            120.33313337432756,
            22.741997376312447
          ],
          [
            120.33314664666217,
            22.741978782654403
          ],
          [
            120.33315554645968,
            22.741958061844546
          ],
          [
            120.33315969788026,
            22.741936088925865
          ],
          [
            120.33315894034432,
            22.741913892413532
          ],
          [
            120.33275,
            22.73912
          ],
          [
            120.33264,
            22.73813
          ],
          [
            120.33297,
            22.7372
          ],
          [
            120.33184,
            22.73685
          ],
          [
            120.33139815377338,
            22.735756412165934
          ],
          [
            120.33139133683129,
            22.735728865637387
          ],
          [
            120.33139245191906,
            22.735700371476163
          ],
          [
            120.33140151647439,
            22.73567312983803
          ],
          [
            120.33141790516899,
            22.735649020017288
          ],
          [
            120.33144048741079,
            22.735629705256382
          ],
          [
            120.33146745654192,
            22.735616602398835
          ],
          [
            120.3325735856512,
            22.735243261682193
          ],
          [
            120.33260591256193,
            22.735226443724926
          ],
          [
            120.33263109289132,
            22.735200867014665
          ],
          [
            120.33264631136184,
            22.73516922283887
          ],
          [
            120.33265001685133,
            22.735134736487684
          ],
          [
            120.33264183168274,
            22.735100922936148
          ],
          [
            120.33262285115846,
            22.735071516174376
          ],
          [
            120.33069,
            22.73295
          ],
          [
            120.3298,
            22.73201
          ],
          [
            120.32933,
            22.73158
          ],
          [
            120.32865,
            22.7312
          ],
          [
            120.32775,
            22.73076
          ],
          [
            120.32739,
            22.7305
          ],
          [
            120.32718,
            22.73021
          ],
          [
            120.32523661246613,
            22.72711500668137
          ],
          [
            120.3252228859668,
            22.727080618304754
          ],
          [
            120.32522232614771,
            22.72704361927413
          ],
          [
            120.32523517739754,
            22.727008594923365
          ],
          [
            120.3252599466185,
            22.72697961448949
          ],
          [
            120.32529375604612,
            22.726960045008646
          ],
          [
            120.3253326418261,
            22.726952161569344
          ],
          [
            120.32901323354807,
            22.726803530456632
          ],
          [
            120.32903774268307,
            22.726800089212066
          ],
          [
            120.32906095118227,
            22.7267919091261
          ],
          [
            120.32908177628164,
            22.726779360673344
          ],
          [
            120.32909927850798,
            22.726763009946385
          ],
          [
            120.32911266829147,
            22.72674359456802
          ],
          [
            120.32912139028967,
            22.726721813330318
          ],
          [
            120.32937,
            22.72582
          ],
          [
            120.32965,
            22.72504
          ],
          [
            120.33016,
            22.72413
          ],
          [
            120.32938,
            22.72374
          ],
          [
            120.32835,
            22.72309
          ],
          [
            120.3278,
            22.72281
          ],
          [
            120.32724,
            22.72261
          ],
          [
            120.32674,
            22.72263
          ],
          [
            120.32623,
            22.72278
          ],
          [
            120.3253,
            22.72307
          ],
          [
            120.32454,
            22.72334
          ],
          [
            120.32414,
            22.7235
          ],
          [
            120.32388,
            22.72367
          ],
          [
            120.32358,
            22.72388
          ],
          [
            120.32256,
            22.72501
          ],
          [
            120.32213,
            22.72569
          ],
          [
            120.3219,
            22.72639
          ],
          [
            120.32135,
            22.72848
          ],
          [
            120.32074,
            22.7306
          ],
          [
            120.32013,
            22.73267
          ]
        ]
      }
    },
    {
      "type": "Feature",
      "properties": {
        "feature_type": "station",
        "ref": "KHH10858195811",
        "name": "監理所(高楠路)",
        "name_en": "Motor Vehicles Office(Gaonan Rd.)",
        "line": "紅58B",
        "color": "#a21caf",
        "direction": 0,
        "station_id": "1062"
      },
      "geometry": {
        "type": "Point",
        "coordinates": [
          120.31989,
          22.73252
        ]
      }
    },
    {
      "type": "Feature",
      "properties": {
        "feature_type": "station",
        "ref": "KHH10858195821",
        "name": "高楠路",
        "name_en": "Gaonan Rd.",
        "line": "紅58B",
        "color": "#a21caf",
        "direction": 0,
        "station_id": "3481"
      },
      "geometry": {
        "type": "Point",
        "coordinates": [
          120.320221,
          22.731133
        ]
      }
    },
    {
      "type": "Feature",
      "properties": {
        "feature_type": "station",
        "ref": "KHH10858151321",
        "name": "捷運都會公園站",
        "name_en": "MRT Metropolitan Park Station",
        "line": "紅58B",
        "color": "#a21caf",
        "direction": 0,
        "station_id": "1154"
      },
      "geometry": {
        "type": "Point",
        "coordinates": [
          120.320535,
          22.730132
        ]
      }
    },
    {
      "type": "Feature",
      "properties": {
        "feature_type": "station",
        "ref": "KHH10858145901",
        "name": "楠陽國小",
        "name_en": "Nanyang Primary School",
        "line": "紅58B",
        "color": "#a21caf",
        "direction": 0,
        "station_id": "2162"
      },
      "geometry": {
        "type": "Point",
        "coordinates": [
          120.329524,
          22.725044
        ]
      }
    },
    {
      "type": "Feature",
      "properties": {
        "feature_type": "station",
        "ref": "KHH10858145961",
        "name": "建楠路",
        "name_en": "Jiannan Rd.",
        "line": "紅58B",
        "color": "#a21caf",
        "direction": 0,
        "station_id": "77"
      },
      "geometry": {
        "type": "Point",
        "coordinates": [
          120.328447,
          22.726799
        ]
      }
    },
    {
      "type": "Feature",
      "properties": {
        "feature_type": "station",
        "ref": "KHH10858146061",
        "name": "楠梓火車站",
        "name_en": "Nanzi Railway Station",
        "line": "紅58B",
        "color": "#a21caf",
        "direction": 0,
        "station_id": "2135"
      },
      "geometry": {
        "type": "Point",
        "coordinates": [
          120.325656,
          22.727545
        ]
      }
    },
    {
      "type": "Feature",
      "properties": {
        "feature_type": "station",
        "ref": "KHH10858146011",
        "name": "慈雲寺(楠梓區公所)",
        "name_en": "Cihyun Temple(Nanzih District Office)",
        "line": "紅58B",
        "color": "#a21caf",
        "direction": 0,
        "station_id": "2153"
      },
      "geometry": {
        "type": "Point",
        "coordinates": [
          120.327377,
          22.7302
        ]
      }
    },
    {
      "type": "Feature",
      "properties": {
        "feature_type": "station",
        "ref": "KHH10858146001",
        "name": "楠梓派出所(旗楠路)",
        "name_en": "Nanzi Police Station(Cinan Rd.)",
        "line": "紅58B",
        "color": "#a21caf",
        "direction": 0,
        "station_id": "2157"
      },
      "geometry": {
        "type": "Point",
        "coordinates": [
          120.329214,
          22.731334
        ]
      }
    },
    {
      "type": "Feature",
      "properties": {
        "feature_type": "station",
        "ref": "KHH10858154351",
        "name": "電力公司(楠梓)",
        "name_en": "Taiwan Power Company(Nanzih)",
        "line": "紅58B",
        "color": "#a21caf",
        "direction": 0,
        "station_id": "2156"
      },
      "geometry": {
        "type": "Point",
        "coordinates": [
          120.330439,
          22.732448
        ]
      }
    },
    {
      "type": "Feature",
      "properties": {
        "feature_type": "station",
        "ref": "KHH10858147561",
        "name": "土庫清豐一路口",
        "name_en": "Tuku Cingfong 1st Rd.Intersection",
        "line": "紅58B",
        "color": "#a21caf",
        "direction": 0,
        "station_id": "2359"
      },
      "geometry": {
        "type": "Point",
        "coordinates": [
          120.331738,
          22.736345
        ]
      }
    },
    {
      "type": "Feature",
      "properties": {
        "feature_type": "station",
        "ref": "KHH10858147581",
        "name": "土庫社區",
        "name_en": "Tuku Community",
        "line": "紅58B",
        "color": "#a21caf",
        "direction": 0,
        "station_id": "3977"
      },
      "geometry": {
        "type": "Point",
        "coordinates": [
          120.332897,
          22.739202
        ]
      }
    },
    {
      "type": "Feature",
      "properties": {
        "feature_type": "station",
        "ref": "KHH10858147281",
        "name": "土庫六路",
        "name_en": "Tuku 6th Rd.",
        "line": "紅58B",
        "color": "#a21caf",
        "direction": 0,
        "station_id": "3974"
      },
      "geometry": {
        "type": "Point",
        "coordinates": [
          120.332881,
          22.742159
        ]
      }
    },
    {
      "type": "Feature",
      "properties": {
        "feature_type": "station",
        "ref": "KHH10858147631",
        "name": "楠梓高中",
        "name_en": "Nanzih senior high school",
        "line": "紅58B",
        "color": "#a21caf",
        "direction": 0,
        "station_id": "2360"
      },
      "geometry": {
        "type": "Point",
        "coordinates": [
          120.33036,
          22.743095
        ]
      }
    },
    {
      "type": "Feature",
      "properties": {
        "feature_type": "station",
        "ref": "KHH10858147611",
        "name": "芎林六街口",
        "name_en": "Cyonglin 6th St. Intersection",
        "line": "紅58B",
        "color": "#a21caf",
        "direction": 0,
        "station_id": "2049"
      },
      "geometry": {
        "type": "Point",
        "coordinates": [
          120.331436,
          22.74829
        ]
      }
    },
    {
      "type": "Feature",
      "properties": {
        "feature_type": "station",
        "ref": "KHH10858147291",
        "name": "高雄科大(第一西校區)",
        "name_en": "National Kaohsiung University of Science and Technology(Diyi W Campus)",
        "line": "紅58B",
        "color": "#a21caf",
        "direction": 0,
        "station_id": "2362"
      },
      "geometry": {
        "type": "Point",
        "coordinates": [
          120.331578,
          22.751401
        ]
      }
    },
    {
      "type": "Feature",
      "properties": {
        "feature_type": "station",
        "ref": "KHH10858147301",
        "name": "高雄科大(第一東校區)",
        "name_en": "National Kaohsiung University of Science and Technology(Diyi E Campus)",
        "line": "紅58B",
        "color": "#a21caf",
        "direction": 0,
        "station_id": "2151"
      },
      "geometry": {
        "type": "Point",
        "coordinates": [
          120.336457,
          22.758697
        ]
      }
    },
    {
      "type": "Feature",
      "properties": {
        "feature_type": "station",
        "ref": "KHH10858147311",
        "name": "高鐵總機廠",
        "name_en": "HSR Yanchao Main Workshop",
        "line": "紅58B",
        "color": "#a21caf",
        "direction": 0,
        "station_id": "2149",
        "stop_role": "depot"
      },
      "geometry": {
        "type": "Point",
        "coordinates": [
          120.347144,
          22.759943
        ]
      }
    },
    {
      "type": "Feature",
      "properties": {
        "feature_type": "station",
        "ref": "KHH10858147321",
        "name": "燕巢果菜市場",
        "name_en": "Yanchao Vegetable and Fruit Market",
        "line": "紅58B",
        "color": "#a21caf",
        "direction": 0,
        "station_id": "2139"
      },
      "geometry": {
        "type": "Point",
        "coordinates": [
          120.359098,
          22.760136
        ]
      }
    },
    {
      "type": "Feature",
      "properties": {
        "feature_type": "station",
        "ref": "KHH108581145571",
        "name": "角宿路口",
        "name_en": "Jyue siou Rd. Intersection",
        "line": "紅58B",
        "color": "#a21caf",
        "direction": 0,
        "station_id": "838"
      },
      "geometry": {
        "type": "Point",
        "coordinates": [
          120.360005,
          22.761095
        ]
      }
    },
    {
      "type": "Feature",
      "properties": {
        "feature_type": "station",
        "ref": "KHH10858147331",
        "name": "義大醫院",
        "name_en": "E-Da Hospital",
        "line": "紅58B",
        "color": "#a21caf",
        "direction": 0,
        "station_id": "638"
      },
      "geometry": {
        "type": "Point",
        "coordinates": [
          120.364092,
          22.764739
        ]
      }
    },
    {
      "type": "Feature",
      "properties": {
        "feature_type": "station",
        "ref": "KHH10858147341",
        "name": "角宿",
        "name_en": "Jyue siou",
        "line": "紅58B",
        "color": "#a21caf",
        "direction": 0,
        "station_id": "631"
      },
      "geometry": {
        "type": "Point",
        "coordinates": [
          120.359813,
          22.770782
        ]
      }
    },
    {
      "type": "Feature",
      "properties": {
        "feature_type": "station",
        "ref": "KHH108581190081",
        "name": "中興路(元良公司)",
        "name_en": "Jhongsing Rd.(Yuen Liang Industrial & Co., Ltd.)",
        "line": "紅58B",
        "color": "#a21caf",
        "direction": 0,
        "station_id": "2593"
      },
      "geometry": {
        "type": "Point",
        "coordinates": [
          120.360872,
          22.776548
        ]
      }
    },
    {
      "type": "Feature",
      "properties": {
        "feature_type": "station",
        "ref": "KHH10858147351",
        "name": "湖子內路口",
        "name_en": "Huzihnei Rd. Intersection",
        "line": "紅58B",
        "color": "#a21caf",
        "direction": 0,
        "station_id": "630"
      },
      "geometry": {
        "type": "Point",
        "coordinates": [
          120.361179,
          22.778823
        ]
      }
    },
    {
      "type": "Feature",
      "properties": {
        "feature_type": "station",
        "ref": "KHH10858147361",
        "name": "活動中心(燕巢區)",
        "name_en": "Community Center(Yanchao District)",
        "line": "紅58B",
        "color": "#a21caf",
        "direction": 0,
        "station_id": "2130"
      },
      "geometry": {
        "type": "Point",
        "coordinates": [
          120.361789,
          22.782488
        ]
      }
    },
    {
      "type": "Feature",
      "properties": {
        "feature_type": "station",
        "ref": "KHH10858147371",
        "name": "燕巢國中(榮民之家)",
        "name_en": "Yanchao Junior High School(Veterans Home)",
        "line": "紅58B",
        "color": "#a21caf",
        "direction": 0,
        "station_id": "81"
      },
      "geometry": {
        "type": "Point",
        "coordinates": [
          120.362531,
          22.78583
        ]
      }
    },
    {
      "type": "Feature",
      "properties": {
        "feature_type": "station",
        "ref": "KHH10858147381",
        "name": "燕巢區公所(中安路)",
        "name_en": "Yanchao District Office(Jhongan Rd.)",
        "line": "紅58B",
        "color": "#a21caf",
        "direction": 0,
        "station_id": "3978"
      },
      "geometry": {
        "type": "Point",
        "coordinates": [
          120.361612,
          22.788501
        ]
      }
    },
    {
      "type": "Feature",
      "properties": {
        "feature_type": "station",
        "ref": "KHH10858147391",
        "name": "中西路",
        "name_en": "Jhongsi Rd.",
        "line": "紅58B",
        "color": "#a21caf",
        "direction": 0,
        "station_id": "3979"
      },
      "geometry": {
        "type": "Point",
        "coordinates": [
          120.359867,
          22.790243
        ]
      }
    },
    {
      "type": "Feature",
      "properties": {
        "feature_type": "station",
        "ref": "KHH10858190742",
        "name": "中西路",
        "name_en": "Jhongsi Rd.",
        "line": "紅58B",
        "color": "#a21caf",
        "direction": 1,
        "station_id": "3979"
      },
      "geometry": {
        "type": "Point",
        "coordinates": [
          120.359867,
          22.790243
        ]
      }
    },
    {
      "type": "Feature",
      "properties": {
        "feature_type": "station",
        "ref": "KHH10858147402",
        "name": "工兵學校",
        "name_en": "Army Engineering School",
        "line": "紅58B",
        "color": "#a21caf",
        "direction": 1,
        "station_id": "624"
      },
      "geometry": {
        "type": "Point",
        "coordinates": [
          120.359502,
          22.793215
        ]
      }
    },
    {
      "type": "Feature",
      "properties": {
        "feature_type": "station",
        "ref": "KHH10858147412",
        "name": "燕巢衛生所",
        "name_en": "Yanchao District Public Health Center",
        "line": "紅58B",
        "color": "#a21caf",
        "direction": 1,
        "station_id": "626"
      },
      "geometry": {
        "type": "Point",
        "coordinates": [
          120.361097,
          22.793262
        ]
      }
    },
    {
      "type": "Feature",
      "properties": {
        "feature_type": "station",
        "ref": "KHH10858147422",
        "name": "燕巢市場",
        "name_en": "Yanchao Market",
        "line": "紅58B",
        "color": "#a21caf",
        "direction": 1,
        "station_id": "628"
      },
      "geometry": {
        "type": "Point",
        "coordinates": [
          120.362426,
          22.7915
        ]
      }
    },
    {
      "type": "Feature",
      "properties": {
        "feature_type": "station",
        "ref": "KHH108581131652",
        "name": "燕巢區公所(中興路)",
        "name_en": "Yanchao District Office(Jhongsing Rd.)",
        "line": "紅58B",
        "color": "#a21caf",
        "direction": 1,
        "station_id": "3980"
      },
      "geometry": {
        "type": "Point",
        "coordinates": [
          120.362668,
          22.788061
        ]
      }
    },
    {
      "type": "Feature",
      "properties": {
        "feature_type": "station",
        "ref": "KHH10858147442",
        "name": "燕巢國中(榮民之家)",
        "name_en": "Yanchao Junior High School(Veterans Home)",
        "line": "紅58B",
        "color": "#a21caf",
        "direction": 1,
        "station_id": "80"
      },
      "geometry": {
        "type": "Point",
        "coordinates": [
          120.362229,
          22.785851
        ]
      }
    },
    {
      "type": "Feature",
      "properties": {
        "feature_type": "station",
        "ref": "KHH10858147452",
        "name": "活動中心(燕巢區)",
        "name_en": "Community Center(Yanchao District)",
        "line": "紅58B",
        "color": "#a21caf",
        "direction": 1,
        "station_id": "2129"
      },
      "geometry": {
        "type": "Point",
        "coordinates": [
          120.361585,
          22.782557
        ]
      }
    },
    {
      "type": "Feature",
      "properties": {
        "feature_type": "station",
        "ref": "KHH10858147462",
        "name": "湖子內路口",
        "name_en": "Huzihnei Rd. Intersection",
        "line": "紅58B",
        "color": "#a21caf",
        "direction": 1,
        "station_id": "629"
      },
      "geometry": {
        "type": "Point",
        "coordinates": [
          120.360952,
          22.778853
        ]
      }
    },
    {
      "type": "Feature",
      "properties": {
        "feature_type": "station",
        "ref": "KHH108581190072",
        "name": "中興路(元良公司)",
        "name_en": "Jhongsing Rd.(Yuen Liang Industrial & Co., Ltd.)",
        "line": "紅58B",
        "color": "#a21caf",
        "direction": 1,
        "station_id": "2592"
      },
      "geometry": {
        "type": "Point",
        "coordinates": [
          120.360505,
          22.776229
        ]
      }
    },
    {
      "type": "Feature",
      "properties": {
        "feature_type": "station",
        "ref": "KHH10858147472",
        "name": "角宿",
        "name_en": "Jyue siou",
        "line": "紅58B",
        "color": "#a21caf",
        "direction": 1,
        "station_id": "632"
      },
      "geometry": {
        "type": "Point",
        "coordinates": [
          120.359588,
          22.770615
        ]
      }
    },
    {
      "type": "Feature",
      "properties": {
        "feature_type": "station",
        "ref": "KHH10858147482",
        "name": "義大醫院",
        "name_en": "E-Da Hospital",
        "line": "紅58B",
        "color": "#a21caf",
        "direction": 1,
        "station_id": "637"
      },
      "geometry": {
        "type": "Point",
        "coordinates": [
          120.364012,
          22.764904
        ]
      }
    },
    {
      "type": "Feature",
      "properties": {
        "feature_type": "station",
        "ref": "KHH108581145582",
        "name": "角宿路口",
        "name_en": "Jyue siou Rd. Intersection",
        "line": "紅58B",
        "color": "#a21caf",
        "direction": 1,
        "station_id": "839"
      },
      "geometry": {
        "type": "Point",
        "coordinates": [
          120.359796,
          22.760976
        ]
      }
    },
    {
      "type": "Feature",
      "properties": {
        "feature_type": "station",
        "ref": "KHH10858147492",
        "name": "燕巢果菜市場",
        "name_en": "Yanchao Vegetable and Fruit Market",
        "line": "紅58B",
        "color": "#a21caf",
        "direction": 1,
        "station_id": "2138"
      },
      "geometry": {
        "type": "Point",
        "coordinates": [
          120.35932,
          22.760358
        ]
      }
    },
    {
      "type": "Feature",
      "properties": {
        "feature_type": "station",
        "ref": "KHH10858147502",
        "name": "高鐵總機廠",
        "name_en": "HSR Yanchao Main Workshop",
        "line": "紅58B",
        "color": "#a21caf",
        "direction": 1,
        "station_id": "2148",
        "stop_role": "depot"
      },
      "geometry": {
        "type": "Point",
        "coordinates": [
          120.345855,
          22.759847
        ]
      }
    },
    {
      "type": "Feature",
      "properties": {
        "feature_type": "station",
        "ref": "KHH10858147512",
        "name": "高雄科大(第一東校區)",
        "name_en": "National Kaohsiung University of Science and Technology(Diyi E Campus)",
        "line": "紅58B",
        "color": "#a21caf",
        "direction": 1,
        "station_id": "2150"
      },
      "geometry": {
        "type": "Point",
        "coordinates": [
          120.336129,
          22.758122
        ]
      }
    },
    {
      "type": "Feature",
      "properties": {
        "feature_type": "station",
        "ref": "KHH10858147522",
        "name": "高雄科大(第一西校區)",
        "name_en": "National Kaohsiung University of Science and Technology(Diyi W Campus)",
        "line": "紅58B",
        "color": "#a21caf",
        "direction": 1,
        "station_id": "2363"
      },
      "geometry": {
        "type": "Point",
        "coordinates": [
          120.331364,
          22.75133
        ]
      }
    },
    {
      "type": "Feature",
      "properties": {
        "feature_type": "station",
        "ref": "KHH10858147602",
        "name": "芎林六街口",
        "name_en": "Cyonglin 6th St. Intersection",
        "line": "紅58B",
        "color": "#a21caf",
        "direction": 1,
        "station_id": "2050"
      },
      "geometry": {
        "type": "Point",
        "coordinates": [
          120.331235,
          22.748286
        ]
      }
    },
    {
      "type": "Feature",
      "properties": {
        "feature_type": "station",
        "ref": "KHH10858184332",
        "name": "楠梓高中(清豐路口)",
        "name_en": "Nanzih senior high school(Cingfong Rd Intersection)",
        "line": "紅58B",
        "color": "#a21caf",
        "direction": 1,
        "station_id": "3792"
      },
      "geometry": {
        "type": "Point",
        "coordinates": [
          120.33081,
          22.743088
        ]
      }
    },
    {
      "type": "Feature",
      "properties": {
        "feature_type": "station",
        "ref": "KHH10858147532",
        "name": "土庫六路",
        "name_en": "Tuku 6th Rd.",
        "line": "紅58B",
        "color": "#a21caf",
        "direction": 1,
        "station_id": "3975"
      },
      "geometry": {
        "type": "Point",
        "coordinates": [
          120.3324,
          22.7423
        ]
      }
    },
    {
      "type": "Feature",
      "properties": {
        "feature_type": "station",
        "ref": "KHH10858147592",
        "name": "土庫社區",
        "name_en": "Tuku Community",
        "line": "紅58B",
        "color": "#a21caf",
        "direction": 1,
        "station_id": "3976"
      },
      "geometry": {
        "type": "Point",
        "coordinates": [
          120.332691,
          22.739185
        ]
      }
    },
    {
      "type": "Feature",
      "properties": {
        "feature_type": "station",
        "ref": "KHH10858147162",
        "name": "土庫清豐一路口",
        "name_en": "Tuku Cingfong 1st Rd.Intersection",
        "line": "紅58B",
        "color": "#a21caf",
        "direction": 1,
        "station_id": "2358"
      },
      "geometry": {
        "type": "Point",
        "coordinates": [
          120.331554,
          22.736384
        ]
      }
    },
    {
      "type": "Feature",
      "properties": {
        "feature_type": "station",
        "ref": "KHH10858152372",
        "name": "電力公司(楠梓)",
        "name_en": "Taiwan Power Company(Nanzih)",
        "line": "紅58B",
        "color": "#a21caf",
        "direction": 1,
        "station_id": "2155"
      },
      "geometry": {
        "type": "Point",
        "coordinates": [
          120.330557,
          22.732938
        ]
      }
    },
    {
      "type": "Feature",
      "properties": {
        "feature_type": "station",
        "ref": "KHH10858146682",
        "name": "楠梓派出所(旗楠路)",
        "name_en": "Nanzi Police Station(Cinan Rd.)",
        "line": "紅58B",
        "color": "#a21caf",
        "direction": 1,
        "station_id": "2158"
      },
      "geometry": {
        "type": "Point",
        "coordinates": [
          120.328294,
          22.731058
        ]
      }
    },
    {
      "type": "Feature",
      "properties": {
        "feature_type": "station",
        "ref": "KHH10858146642",
        "name": "慈雲寺(楠梓區公所)",
        "name_en": "Cihyun Temple(Nanzih District Office)",
        "line": "紅58B",
        "color": "#a21caf",
        "direction": 1,
        "station_id": "2154"
      },
      "geometry": {
        "type": "Point",
        "coordinates": [
          120.327126,
          22.730198
        ]
      }
    },
    {
      "type": "Feature",
      "properties": {
        "feature_type": "station",
        "ref": "KHH10858146592",
        "name": "楠梓火車站",
        "name_en": "Nanzi Railway Station",
        "line": "紅58B",
        "color": "#a21caf",
        "direction": 1,
        "station_id": "2136"
      },
      "geometry": {
        "type": "Point",
        "coordinates": [
          120.325364,
          22.727576
        ]
      }
    },
    {
      "type": "Feature",
      "properties": {
        "feature_type": "station",
        "ref": "KHH10858146722",
        "name": "建楠路",
        "name_en": "Jiannan Rd.",
        "line": "紅58B",
        "color": "#a21caf",
        "direction": 1,
        "station_id": "77"
      },
      "geometry": {
        "type": "Point",
        "coordinates": [
          120.328447,
          22.726799
        ]
      }
    },
    {
      "type": "Feature",
      "properties": {
        "feature_type": "station",
        "ref": "KHH10858146732",
        "name": "楠陽國小",
        "name_en": "Nanyang Primary School",
        "line": "紅58B",
        "color": "#a21caf",
        "direction": 1,
        "station_id": "2162"
      },
      "geometry": {
        "type": "Point",
        "coordinates": [
          120.329524,
          22.725044
        ]
      }
    },
    {
      "type": "Feature",
      "properties": {
        "feature_type": "station",
        "ref": "KHH10858157012",
        "name": "健仁醫院",
        "name_en": "Jiannren Hospital",
        "line": "紅58B",
        "color": "#a21caf",
        "direction": 1,
        "station_id": "2142"
      },
      "geometry": {
        "type": "Point",
        "coordinates": [
          120.329399,
          22.723769
        ]
      }
    },
    {
      "type": "Feature",
      "properties": {
        "feature_type": "station",
        "ref": "KHH10858154642",
        "name": "捷運都會公園站",
        "name_en": "MRT Metropolitan Park Station",
        "line": "紅58B",
        "color": "#a21caf",
        "direction": 1,
        "station_id": "1155"
      },
      "geometry": {
        "type": "Point",
        "coordinates": [
          120.320991,
          22.730198
        ]
      }
    },
    {
      "type": "Feature",
      "properties": {
        "feature_type": "station",
        "ref": "KHH10858195832",
        "name": "監理所(高楠路)",
        "name_en": "Motor Vehicles Office(Gaonan Rd.)",
        "line": "紅58B",
        "color": "#a21caf",
        "direction": 1,
        "station_id": "1061"
      },
      "geometry": {
        "type": "Point",
        "coordinates": [
          120.32024,
          22.73266
        ]
      }
    }
  ]
}
