{
  "type": "FeatureCollection",
  "name": "151",
  "properties": {
    "id": "taichung_151",
    "name": "151",
    "name_en": "151",
    "ref": "151",
    "color": "#7c3aed",
    "city_id": "Taichung",
    "source": "TDX Bus Shape / StopOfRoute",
    "official_map_url": "https://citybus.taichung.gov.tw/ebus/strapi/uploads/151_1150801_a578051a1c.jpeg",
    "operator_id": "15",
    "operator": "中台灣客運",
    "operator_en": "Ct Bus Co., Ltd."
  },
  "features": [
    {
      "type": "Feature",
      "properties": {
        "feature_type": "route",
        "ref": "151",
        "name": "151",
        "name_en": "151",
        "color": "#7c3aed",
        "direction": 0
      },
      "geometry": {
        "type": "LineString",
        "coordinates": [
          [
            120.61609,
            24.11287
          ],
          [
            120.61641,
            24.11282
          ],
          [
            120.61632,
            24.11181
          ],
          [
            120.61611,
            24.11015
          ],
          [
            120.61523,
            24.11029
          ],
          [
            120.61547,
            24.11187
          ],
          [
            120.61559,
            24.11394
          ],
          [
            120.61405,
            24.11416
          ],
          [
            120.61296,
            24.11541
          ],
          [
            120.61298,
            24.11558
          ],
          [
            120.61332,
            24.1159
          ],
          [
            120.61367,
            24.1163
          ],
          [
            120.6143,
            24.1171
          ],
          [
            120.61483,
            24.11791
          ],
          [
            120.61506,
            24.11823
          ],
          [
            120.6152,
            24.11839
          ],
          [
            120.61537,
            24.11856
          ],
          [
            120.61559,
            24.11875
          ],
          [
            120.61629,
            24.1192
          ],
          [
            120.61659,
            24.11934
          ],
          [
            120.61687,
            24.11944
          ],
          [
            120.61723,
            24.11955
          ],
          [
            120.61773,
            24.11969
          ],
          [
            120.61791,
            24.11971
          ],
          [
            120.61852,
            24.11988
          ],
          [
            120.61881,
            24.11993
          ],
          [
            120.61901,
            24.11996
          ],
          [
            120.61917,
            24.11995
          ],
          [
            120.61932,
            24.1199
          ],
          [
            120.61943,
            24.11983
          ],
          [
            120.61951,
            24.11971
          ],
          [
            120.61957,
            24.11958
          ],
          [
            120.61967,
            24.11896
          ],
          [
            120.61983,
            24.11833
          ],
          [
            120.62033,
            24.11684
          ],
          [
            120.62038,
            24.11652
          ],
          [
            120.62044,
            24.11595
          ],
          [
            120.62054,
            24.1145
          ],
          [
            120.62057,
            24.11344
          ],
          [
            120.62054,
            24.11267
          ],
          [
            120.62046,
            24.11225
          ],
          [
            120.6202,
            24.11149
          ],
          [
            120.61959,
            24.11054
          ],
          [
            120.61534,
            24.10604
          ],
          [
            120.61387,
            24.10424
          ],
          [
            120.61303,
            24.1031
          ],
          [
            120.61183,
            24.10132
          ],
          [
            120.6108,
            24.09978
          ],
          [
            120.60993,
            24.09861
          ],
          [
            120.60835,
            24.09661
          ],
          [
            120.6077,
            24.0958
          ],
          [
            120.60721,
            24.09533
          ],
          [
            120.60684,
            24.095
          ],
          [
            120.60638,
            24.09466
          ],
          [
            120.60595000000001,
            24.09442
          ],
          [
            120.60547,
            24.09428
          ],
          [
            120.6049,
            24.09413
          ],
          [
            120.60389,
            24.09404
          ],
          [
            120.60344,
            24.09399
          ],
          [
            120.60303,
            24.09389
          ],
          [
            120.60264,
            24.09365
          ],
          [
            120.60244,
            24.0934
          ],
          [
            120.60231,
            24.0932
          ],
          [
            120.60218,
            24.09294
          ],
          [
            120.6021,
            24.09271
          ],
          [
            120.60211,
            24.09231
          ],
          [
            120.60219,
            24.09188
          ],
          [
            120.60234,
            24.09162
          ],
          [
            120.6026,
            24.09128
          ],
          [
            120.60291,
            24.09097
          ],
          [
            120.60321,
            24.09078
          ],
          [
            120.60355,
            24.09062
          ],
          [
            120.60398,
            24.09051
          ],
          [
            120.60452,
            24.09038
          ],
          [
            120.60502,
            24.09027
          ],
          [
            120.60535,
            24.09016
          ],
          [
            120.60567,
            24.08999
          ],
          [
            120.60632,
            24.08954
          ],
          [
            120.61006,
            24.08644
          ],
          [
            120.61123,
            24.08563
          ],
          [
            120.61176,
            24.08528
          ],
          [
            120.61247,
            24.08487
          ],
          [
            120.61329,
            24.08452
          ],
          [
            120.61469,
            24.08392
          ],
          [
            120.61547,
            24.08368
          ],
          [
            120.61669,
            24.08338
          ],
          [
            120.61744,
            24.08323
          ],
          [
            120.61895,
            24.08304
          ],
          [
            120.6206,
            24.0829
          ],
          [
            120.62182,
            24.08283
          ],
          [
            120.62259,
            24.08275
          ],
          [
            120.62358,
            24.08264
          ],
          [
            120.62451,
            24.08245
          ],
          [
            120.6253,
            24.08225
          ],
          [
            120.62614,
            24.08198
          ],
          [
            120.62657,
            24.08185
          ],
          [
            120.62748,
            24.08147
          ],
          [
            120.62777,
            24.08136
          ],
          [
            120.62852,
            24.08098
          ],
          [
            120.62927,
            24.08055
          ],
          [
            120.62971,
            24.08027
          ],
          [
            120.63043,
            24.07977
          ],
          [
            120.63135,
            24.07898
          ],
          [
            120.63215,
            24.07824
          ],
          [
            120.63314,
            24.0771
          ],
          [
            120.63483,
            24.07467
          ],
          [
            120.63545,
            24.07384
          ],
          [
            120.63625,
            24.07291
          ],
          [
            120.63737,
            24.07184
          ],
          [
            120.63811,
            24.07126
          ],
          [
            120.63873,
            24.07083
          ],
          [
            120.63954,
            24.07033
          ],
          [
            120.64049,
            24.0698
          ],
          [
            120.64119,
            24.06949
          ],
          [
            120.64196,
            24.0692
          ],
          [
            120.64287,
            24.0689
          ],
          [
            120.644,
            24.06862
          ],
          [
            120.64499,
            24.06839
          ],
          [
            120.64562,
            24.06828
          ],
          [
            120.64735,
            24.06809
          ],
          [
            120.64875,
            24.06799
          ],
          [
            120.65081,
            24.06783
          ],
          [
            120.65329,
            24.06761
          ],
          [
            120.65552,
            24.06731
          ],
          [
            120.65743,
            24.06692
          ],
          [
            120.65849,
            24.06665
          ],
          [
            120.6612,
            24.06586
          ],
          [
            120.66208,
            24.06554
          ],
          [
            120.66384,
            24.06485
          ],
          [
            120.66452,
            24.06452
          ],
          [
            120.66589,
            24.06386
          ],
          [
            120.66771,
            24.06285
          ],
          [
            120.66905,
            24.06206
          ],
          [
            120.67057,
            24.06102
          ],
          [
            120.67185,
            24.06002
          ],
          [
            120.67321,
            24.05885
          ],
          [
            120.67429,
            24.05785
          ],
          [
            120.67498,
            24.05709
          ],
          [
            120.67536,
            24.05651
          ],
          [
            120.67578,
            24.0559
          ],
          [
            120.67628,
            24.05485
          ],
          [
            120.67658,
            24.05421
          ],
          [
            120.67696,
            24.05357
          ],
          [
            120.67745,
            24.053
          ],
          [
            120.6782,
            24.05234
          ],
          [
            120.67903,
            24.05182
          ],
          [
            120.67979,
            24.05147
          ],
          [
            120.68053,
            24.05127
          ],
          [
            120.68135,
            24.05116
          ],
          [
            120.6822,
            24.05112
          ],
          [
            120.69435,
            24.05206
          ],
          [
            120.69512,
            24.05209
          ],
          [
            120.69614,
            24.05381
          ],
          [
            120.69626,
            24.05408
          ],
          [
            120.69629,
            24.05427
          ],
          [
            120.69632,
            24.05464
          ],
          [
            120.69631,
            24.05502
          ],
          [
            120.69623,
            24.05542
          ],
          [
            120.69556,
            24.05817
          ],
          [
            120.69522,
            24.05955
          ],
          [
            120.69502,
            24.05958
          ],
          [
            120.68908,
            24.05662
          ],
          [
            120.68877,
            24.05637
          ],
          [
            120.68566,
            24.05249
          ],
          [
            120.68453,
            24.05104
          ],
          [
            120.6845,
            24.05092
          ],
          [
            120.68521,
            24.05047
          ],
          [
            120.68566,
            24.05014
          ],
          [
            120.68593,
            24.04997
          ],
          [
            120.68623,
            24.04986
          ],
          [
            120.68632,
            24.04982
          ],
          [
            120.68641,
            24.04975
          ],
          [
            120.68647,
            24.04966
          ],
          [
            120.68657,
            24.04944
          ],
          [
            120.68662,
            24.04927
          ],
          [
            120.68666,
            24.04886
          ],
          [
            120.68682,
            24.04834
          ],
          [
            120.68711,
            24.04767
          ],
          [
            120.68743,
            24.0469
          ],
          [
            120.6879,
            24.04575
          ],
          [
            120.68814,
            24.0452
          ],
          [
            120.68821,
            24.04496
          ],
          [
            120.68829,
            24.04465
          ],
          [
            120.68852,
            24.04404
          ],
          [
            120.68869,
            24.04359
          ],
          [
            120.68874,
            24.04347
          ],
          [
            120.68885,
            24.04333
          ],
          [
            120.68892,
            24.04324
          ],
          [
            120.68905,
            24.04317
          ],
          [
            120.68918,
            24.04313
          ],
          [
            120.68973,
            24.04307
          ],
          [
            120.69028,
            24.043
          ],
          [
            120.69058,
            24.04297
          ],
          [
            120.69091,
            24.04292
          ],
          [
            120.69118,
            24.04285
          ],
          [
            120.69156,
            24.04277
          ],
          [
            120.6919,
            24.04271
          ],
          [
            120.69254,
            24.04647
          ],
          [
            120.69261,
            24.04671
          ],
          [
            120.69277,
            24.047
          ],
          [
            120.69347,
            24.04821
          ],
          [
            120.69359,
            24.04843
          ],
          [
            120.69401,
            24.04949
          ],
          [
            120.69455,
            24.05084
          ],
          [
            120.6949,
            24.05167
          ],
          [
            120.69499,
            24.05186
          ],
          [
            120.69512,
            24.05209
          ],
          [
            120.69577,
            24.05318
          ],
          [
            120.69613,
            24.05379
          ],
          [
            120.69626,
            24.05408
          ],
          [
            120.69629,
            24.05425
          ],
          [
            120.69655,
            24.05459
          ],
          [
            120.6971,
            24.05546
          ],
          [
            120.69761,
            24.05631
          ],
          [
            120.69764,
            24.05641
          ],
          [
            120.69775,
            24.05723
          ],
          [
            120.69785,
            24.05804
          ],
          [
            120.69794,
            24.05877
          ],
          [
            120.69832,
            24.06169
          ],
          [
            120.69843,
            24.06248
          ],
          [
            120.69852,
            24.06305
          ],
          [
            120.69867,
            24.06448
          ],
          [
            120.6989,
            24.06622
          ],
          [
            120.69916,
            24.06825
          ],
          [
            120.69958,
            24.07175
          ],
          [
            120.69978,
            24.07324
          ],
          [
            120.69984,
            24.07371
          ],
          [
            120.69991,
            24.07398
          ],
          [
            120.70001,
            24.07445
          ],
          [
            120.70005,
            24.07479
          ],
          [
            120.70005,
            24.07499
          ],
          [
            120.70005,
            24.07522
          ],
          [
            120.69996,
            24.07555
          ],
          [
            120.7001,
            24.07567
          ],
          [
            120.70192,
            24.07585
          ],
          [
            120.70272,
            24.07595
          ],
          [
            120.70719,
            24.07646
          ],
          [
            120.71104,
            24.07694
          ],
          [
            120.71305,
            24.0772
          ],
          [
            120.71352,
            24.07726
          ],
          [
            120.71374,
            24.07728
          ],
          [
            120.71396,
            24.07729
          ],
          [
            120.71434,
            24.07728
          ],
          [
            120.71474,
            24.07727
          ],
          [
            120.71484,
            24.07725
          ],
          [
            120.71491,
            24.07722
          ],
          [
            120.71497,
            24.07717
          ],
          [
            120.71503,
            24.07712
          ],
          [
            120.71517,
            24.07686
          ],
          [
            120.71527,
            24.07669
          ],
          [
            120.71533,
            24.07661
          ],
          [
            120.71542,
            24.07653
          ],
          [
            120.71552,
            24.07645
          ],
          [
            120.71551,
            24.07636
          ],
          [
            120.71524,
            24.07622
          ],
          [
            120.71495,
            24.07609
          ],
          [
            120.71475,
            24.07601
          ],
          [
            120.71461,
            24.07595
          ],
          [
            120.71436,
            24.07575
          ],
          [
            120.71427,
            24.07567
          ],
          [
            120.71435,
            24.07556
          ],
          [
            120.71445,
            24.07539
          ],
          [
            120.7145,
            24.07522
          ],
          [
            120.71457,
            24.07507
          ],
          [
            120.71489,
            24.07464
          ],
          [
            120.71509,
            24.07432
          ],
          [
            120.71514,
            24.07416
          ],
          [
            120.71518,
            24.07394
          ],
          [
            120.71519,
            24.07367
          ],
          [
            120.71517,
            24.07348
          ],
          [
            120.71519,
            24.07332
          ],
          [
            120.71584,
            24.07213
          ],
          [
            120.71588,
            24.07201
          ],
          [
            120.71588,
            24.07186
          ],
          [
            120.71573,
            24.0712
          ],
          [
            120.71566,
            24.07069
          ],
          [
            120.71564,
            24.07058
          ]
        ]
      }
    },
    {
      "type": "Feature",
      "properties": {
        "feature_type": "route",
        "ref": "151",
        "name": "151",
        "name_en": "151",
        "color": "#7c3aed",
        "direction": 1
      },
      "geometry": {
        "type": "LineString",
        "coordinates": [
          [
            120.68169,
            24.05163
          ],
          [
            120.68114,
            24.05184
          ],
          [
            120.68061,
            24.05204
          ],
          [
            120.67979,
            24.05242
          ],
          [
            120.67905,
            24.05282
          ],
          [
            120.67828,
            24.0534
          ],
          [
            120.67767,
            24.05397
          ],
          [
            120.6771,
            24.05465
          ]
        ]
      }
    },
    {
      "type": "Feature",
      "properties": {
        "feature_type": "route",
        "ref": "151",
        "name": "151",
        "name_en": "151",
        "color": "#7c3aed",
        "direction": 1
      },
      "geometry": {
        "type": "LineString",
        "coordinates": [
          [
            120.61007,
            24.08725
          ],
          [
            120.60969,
            24.08765
          ],
          [
            120.60821,
            24.08861
          ]
        ]
      }
    },
    {
      "type": "Feature",
      "properties": {
        "feature_type": "route",
        "ref": "151",
        "name": "151",
        "name_en": "151",
        "color": "#7c3aed",
        "direction": 1
      },
      "geometry": {
        "type": "LineString",
        "coordinates": [
          [
            120.60768,
            24.08903
          ],
          [
            120.60734,
            24.08945
          ],
          [
            120.60681,
            24.09022
          ],
          [
            120.60654,
            24.09105
          ],
          [
            120.60641,
            24.09173
          ],
          [
            120.60636,
            24.09253
          ],
          [
            120.60641,
            24.09308
          ],
          [
            120.6065,
            24.09367
          ],
          [
            120.60671,
            24.09415
          ]
        ]
      }
    },
    {
      "type": "Feature",
      "properties": {
        "feature_type": "route",
        "ref": "151",
        "name": "151",
        "name_en": "151",
        "color": "#7c3aed",
        "direction": 1
      },
      "geometry": {
        "type": "LineString",
        "coordinates": [
          [
            120.61982,
            24.12032
          ],
          [
            120.61982,
            24.12082
          ],
          [
            120.61984,
            24.12105
          ],
          [
            120.61988,
            24.1212
          ],
          [
            120.61991,
            24.12141
          ],
          [
            120.61997,
            24.12154
          ],
          [
            120.62004,
            24.12164
          ],
          [
            120.62018,
            24.12173
          ],
          [
            120.62031,
            24.12179
          ],
          [
            120.62046,
            24.12181
          ],
          [
            120.62062,
            24.12179
          ],
          [
            120.62076,
            24.12174
          ],
          [
            120.62088,
            24.12166
          ],
          [
            120.62102,
            24.12154
          ],
          [
            120.62114,
            24.12136
          ],
          [
            120.62118,
            24.12126
          ],
          [
            120.62121,
            24.12115
          ],
          [
            120.62121,
            24.12102
          ],
          [
            120.62118,
            24.12086
          ],
          [
            120.62111,
            24.12074
          ],
          [
            120.62104,
            24.12067
          ],
          [
            120.62093,
            24.12059
          ],
          [
            120.62076,
            24.12053
          ]
        ]
      }
    },
    {
      "type": "Feature",
      "properties": {
        "feature_type": "route",
        "ref": "151",
        "name": "151",
        "name_en": "151",
        "color": "#7c3aed",
        "direction": 1
      },
      "geometry": {
        "type": "LineString",
        "coordinates": [
          [
            120.6172,
            24.11897
          ],
          [
            120.61725,
            24.1188
          ],
          [
            120.6174,
            24.11855
          ],
          [
            120.61767999999999,
            24.11813
          ],
          [
            120.61799,
            24.11767
          ],
          [
            120.61851,
            24.11681
          ],
          [
            120.61875,
            24.11608
          ],
          [
            120.61877,
            24.11398
          ],
          [
            120.61874,
            24.11253
          ],
          [
            120.61852,
            24.11178
          ],
          [
            120.61842,
            24.11167
          ],
          [
            120.61824,
            24.11164
          ],
          [
            120.61798,
            24.11169
          ]
        ]
      }
    },
    {
      "type": "Feature",
      "properties": {
        "feature_type": "station",
        "ref": "TXG19087",
        "name": "高鐵臺中站(第14月台)",
        "name_en": "HSR Taichung Station(Platform 14)",
        "line": "151",
        "color": "#7c3aed",
        "direction": 0
      },
      "geometry": {
        "type": "Point",
        "coordinates": [
          120.615897,
          24.111169
        ]
      }
    },
    {
      "type": "Feature",
      "properties": {
        "feature_type": "station",
        "ref": "TXG20095",
        "name": "林森中正路口",
        "name_en": "Linsen-Zhongzheng Intersection",
        "line": "151",
        "color": "#7c3aed",
        "direction": 0
      },
      "geometry": {
        "type": "Point",
        "coordinates": [
          120.696131,
          24.055693
        ]
      }
    },
    {
      "type": "Feature",
      "properties": {
        "feature_type": "station",
        "ref": "TXG20097",
        "name": "林森福新路口",
        "name_en": "Linsen-Fuxin Intersection",
        "line": "151",
        "color": "#7c3aed",
        "direction": 0
      },
      "geometry": {
        "type": "Point",
        "coordinates": [
          120.695439,
          24.058483
        ]
      }
    },
    {
      "type": "Feature",
      "properties": {
        "feature_type": "station",
        "ref": "TXG20062",
        "name": "亞大醫院",
        "name_en": "Asia University Hospital",
        "line": "151",
        "color": "#7c3aed",
        "direction": 0
      },
      "geometry": {
        "type": "Point",
        "coordinates": [
          120.686402,
          24.05344
        ]
      }
    },
    {
      "type": "Feature",
      "properties": {
        "feature_type": "station",
        "ref": "TXG10560",
        "name": "柳豐路(亞大醫院)",
        "name_en": "Liufong Road(Asia University Hospital)",
        "line": "151",
        "color": "#7c3aed",
        "direction": 0
      },
      "geometry": {
        "type": "Point",
        "coordinates": [
          120.6848,
          24.0506
        ]
      }
    },
    {
      "type": "Feature",
      "properties": {
        "feature_type": "station",
        "ref": "TXG19704",
        "name": "羅厝站(新厝路550巷口)",
        "name_en": "Luocuo(Xincuo Road 550th Lane)",
        "line": "151",
        "color": "#7c3aed",
        "direction": 0
      },
      "geometry": {
        "type": "Point",
        "coordinates": [
          120.686499,
          24.049188
        ]
      }
    },
    {
      "type": "Feature",
      "properties": {
        "feature_type": "station",
        "ref": "TXG19730",
        "name": "亞洲大學安藤館",
        "name_en": "Asia University Ando Museum",
        "line": "151",
        "color": "#7c3aed",
        "direction": 0
      },
      "geometry": {
        "type": "Point",
        "coordinates": [
          120.687236,
          24.04725
        ]
      }
    },
    {
      "type": "Feature",
      "properties": {
        "feature_type": "station",
        "ref": "TXG13588",
        "name": "王厝",
        "name_en": "Wangcuo",
        "line": "151",
        "color": "#7c3aed",
        "direction": 0
      },
      "geometry": {
        "type": "Point",
        "coordinates": [
          120.688586,
          24.043743
        ]
      }
    },
    {
      "type": "Feature",
      "properties": {
        "feature_type": "station",
        "ref": "TXG13589",
        "name": "光復國中小(柳豐路)",
        "name_en": "KuangFu Junior High and Elementary School(Liufong Road)",
        "line": "151",
        "color": "#7c3aed",
        "direction": 0
      },
      "geometry": {
        "type": "Point",
        "coordinates": [
          120.690001,
          24.042953
        ]
      }
    },
    {
      "type": "Feature",
      "properties": {
        "feature_type": "station",
        "ref": "TXG20055",
        "name": "坑口里(光復新村)",
        "name_en": "Kengkou Village(Guangfu Community)",
        "line": "151",
        "color": "#7c3aed",
        "direction": 0
      },
      "geometry": {
        "type": "Point",
        "coordinates": [
          120.692165,
          24.045188
        ]
      }
    },
    {
      "type": "Feature",
      "properties": {
        "feature_type": "station",
        "ref": "TXG7190",
        "name": "八德橋",
        "name_en": "Bade Bridge",
        "line": "151",
        "color": "#7c3aed",
        "direction": 0
      },
      "geometry": {
        "type": "Point",
        "coordinates": [
          120.694182,
          24.05039
        ]
      }
    },
    {
      "type": "Feature",
      "properties": {
        "feature_type": "station",
        "ref": "TXG14592",
        "name": "省議會",
        "name_en": "T.P.C.C.",
        "line": "151",
        "color": "#7c3aed",
        "direction": 0
      },
      "geometry": {
        "type": "Point",
        "coordinates": [
          120.696777,
          24.054914
        ]
      }
    },
    {
      "type": "Feature",
      "properties": {
        "feature_type": "station",
        "ref": "TXG7630",
        "name": "霧峰國小",
        "name_en": "Wu Feng Elementary School",
        "line": "151",
        "color": "#7c3aed",
        "direction": 0
      },
      "geometry": {
        "type": "Point",
        "coordinates": [
          120.697853,
          24.057932
        ]
      }
    },
    {
      "type": "Feature",
      "properties": {
        "feature_type": "station",
        "ref": "TXG14035",
        "name": "教育部國教署",
        "name_en": "Ministry of Education",
        "line": "151",
        "color": "#7c3aed",
        "direction": 0
      },
      "geometry": {
        "type": "Point",
        "coordinates": [
          120.697968,
          24.059299
        ]
      }
    },
    {
      "type": "Feature",
      "properties": {
        "feature_type": "station",
        "ref": "TXG10370",
        "name": "霧峰郵局(明台高中)",
        "name_en": "Wufeng Post Office (Ming Tai Senior High School)",
        "line": "151",
        "color": "#7c3aed",
        "direction": 0
      },
      "geometry": {
        "type": "Point",
        "coordinates": [
          120.698362,
          24.061801
        ]
      }
    },
    {
      "type": "Feature",
      "properties": {
        "feature_type": "station",
        "ref": "TXG7626",
        "name": "霧峰",
        "name_en": "Wufeng",
        "line": "151",
        "color": "#7c3aed",
        "direction": 0
      },
      "geometry": {
        "type": "Point",
        "coordinates": [
          120.69853,
          24.063746
        ]
      }
    },
    {
      "type": "Feature",
      "properties": {
        "feature_type": "station",
        "ref": "TXG7027",
        "name": "中正草湖路口",
        "name_en": "Zhongzheng-Caohu Intersection",
        "line": "151",
        "color": "#7c3aed",
        "direction": 0
      },
      "geometry": {
        "type": "Point",
        "coordinates": [
          120.699056,
          24.068124
        ]
      }
    },
    {
      "type": "Feature",
      "properties": {
        "feature_type": "station",
        "ref": "TXG15349",
        "name": "甲寅(中正路)",
        "name_en": "Jiayin(Zhongzheng Road)",
        "line": "151",
        "color": "#7c3aed",
        "direction": 0
      },
      "geometry": {
        "type": "Point",
        "coordinates": [
          120.69928,
          24.0697
        ]
      }
    },
    {
      "type": "Feature",
      "properties": {
        "feature_type": "station",
        "ref": "TXG7632",
        "name": "霧峰農工",
        "name_en": "Wufeng Agr. Ind. Senior High School",
        "line": "151",
        "color": "#7c3aed",
        "direction": 0
      },
      "geometry": {
        "type": "Point",
        "coordinates": [
          120.699695,
          24.072901
        ]
      }
    },
    {
      "type": "Feature",
      "properties": {
        "feature_type": "station",
        "ref": "TXG7628",
        "name": "霧峰分局",
        "name_en": "Wufeng Police Precinct",
        "line": "151",
        "color": "#7c3aed",
        "direction": 0
      },
      "geometry": {
        "type": "Point",
        "coordinates": [
          120.701106,
          24.075756
        ]
      }
    },
    {
      "type": "Feature",
      "properties": {
        "feature_type": "station",
        "ref": "TXG7044",
        "name": "全陽社區",
        "name_en": "Quanchang Community",
        "line": "151",
        "color": "#7c3aed",
        "direction": 0
      },
      "geometry": {
        "type": "Point",
        "coordinates": [
          120.707082,
          24.076439
        ]
      }
    },
    {
      "type": "Feature",
      "properties": {
        "feature_type": "station",
        "ref": "TXG7064",
        "name": "吉峰社區",
        "name_en": "Jifeng Community",
        "line": "151",
        "color": "#7c3aed",
        "direction": 0
      },
      "geometry": {
        "type": "Point",
        "coordinates": [
          120.711221,
          24.076958
        ]
      }
    },
    {
      "type": "Feature",
      "properties": {
        "feature_type": "station",
        "ref": "TXG7015",
        "name": "台影文化城",
        "name_en": "Taiying Wenhuacheng",
        "line": "151",
        "color": "#7c3aed",
        "direction": 0
      },
      "geometry": {
        "type": "Point",
        "coordinates": [
          120.715263,
          24.076642
        ]
      }
    },
    {
      "type": "Feature",
      "properties": {
        "feature_type": "station",
        "ref": "TXG7061",
        "name": "吉峰里",
        "name_en": "Jifeng Village",
        "line": "151",
        "color": "#7c3aed",
        "direction": 0
      },
      "geometry": {
        "type": "Point",
        "coordinates": [
          120.714499,
          24.075877
        ]
      }
    },
    {
      "type": "Feature",
      "properties": {
        "feature_type": "station",
        "ref": "TXG7063",
        "name": "吉峰東路口",
        "name_en": "Jifeng E. Road",
        "line": "151",
        "color": "#7c3aed",
        "direction": 0
      },
      "geometry": {
        "type": "Point",
        "coordinates": [
          120.714842,
          24.074636
        ]
      }
    },
    {
      "type": "Feature",
      "properties": {
        "feature_type": "station",
        "ref": "TXG20064",
        "name": "吉峰東自強路口",
        "name_en": "Jifeng E. -Ziqiang Intersection",
        "line": "151",
        "color": "#7c3aed",
        "direction": 0
      },
      "geometry": {
        "type": "Point",
        "coordinates": [
          120.715177,
          24.073841
        ]
      }
    },
    {
      "type": "Feature",
      "properties": {
        "feature_type": "station",
        "ref": "TXG20105",
        "name": "朝陽科技大學",
        "name_en": "Chaoyang University of Technology",
        "line": "151",
        "color": "#7c3aed",
        "direction": 0
      },
      "geometry": {
        "type": "Point",
        "coordinates": [
          120.715679,
          24.070567
        ]
      }
    },
    {
      "type": "Feature",
      "properties": {
        "feature_type": "station",
        "ref": "TXG7481",
        "name": "朝陽科技大學",
        "name_en": "Chaoyang University of Technology",
        "line": "151",
        "color": "#7c3aed",
        "direction": 1
      },
      "geometry": {
        "type": "Point",
        "coordinates": [
          120.71551315863,
          24.070408736547
        ]
      }
    },
    {
      "type": "Feature",
      "properties": {
        "feature_type": "station",
        "ref": "TXG20064",
        "name": "吉峰東自強路口",
        "name_en": "Jifeng E. -Ziqiang Intersection",
        "line": "151",
        "color": "#7c3aed",
        "direction": 1
      },
      "geometry": {
        "type": "Point",
        "coordinates": [
          120.715177,
          24.073841
        ]
      }
    },
    {
      "type": "Feature",
      "properties": {
        "feature_type": "station",
        "ref": "TXG7063",
        "name": "吉峰東路口",
        "name_en": "Jifeng E. Road",
        "line": "151",
        "color": "#7c3aed",
        "direction": 1
      },
      "geometry": {
        "type": "Point",
        "coordinates": [
          120.714842,
          24.074636
        ]
      }
    },
    {
      "type": "Feature",
      "properties": {
        "feature_type": "station",
        "ref": "TXG7061",
        "name": "吉峰里",
        "name_en": "Jifeng Village",
        "line": "151",
        "color": "#7c3aed",
        "direction": 1
      },
      "geometry": {
        "type": "Point",
        "coordinates": [
          120.714499,
          24.075877
        ]
      }
    },
    {
      "type": "Feature",
      "properties": {
        "feature_type": "station",
        "ref": "TXG7015",
        "name": "台影文化城",
        "name_en": "Taiying Wenhuacheng",
        "line": "151",
        "color": "#7c3aed",
        "direction": 1
      },
      "geometry": {
        "type": "Point",
        "coordinates": [
          120.715263,
          24.076642
        ]
      }
    },
    {
      "type": "Feature",
      "properties": {
        "feature_type": "station",
        "ref": "TXG7064",
        "name": "吉峰社區",
        "name_en": "Jifeng Community",
        "line": "151",
        "color": "#7c3aed",
        "direction": 1
      },
      "geometry": {
        "type": "Point",
        "coordinates": [
          120.711221,
          24.076958
        ]
      }
    },
    {
      "type": "Feature",
      "properties": {
        "feature_type": "station",
        "ref": "TXG7044",
        "name": "全陽社區",
        "name_en": "Quanchang Community",
        "line": "151",
        "color": "#7c3aed",
        "direction": 1
      },
      "geometry": {
        "type": "Point",
        "coordinates": [
          120.707082,
          24.076439
        ]
      }
    },
    {
      "type": "Feature",
      "properties": {
        "feature_type": "station",
        "ref": "TXG13991",
        "name": "霧峰分局",
        "name_en": "Wufeng Police Precinct",
        "line": "151",
        "color": "#7c3aed",
        "direction": 1
      },
      "geometry": {
        "type": "Point",
        "coordinates": [
          120.701324,
          24.075817
        ]
      }
    },
    {
      "type": "Feature",
      "properties": {
        "feature_type": "station",
        "ref": "TXG7632",
        "name": "霧峰農工",
        "name_en": "Wufeng Agr. Ind. Senior High School",
        "line": "151",
        "color": "#7c3aed",
        "direction": 1
      },
      "geometry": {
        "type": "Point",
        "coordinates": [
          120.699695,
          24.072901
        ]
      }
    },
    {
      "type": "Feature",
      "properties": {
        "feature_type": "station",
        "ref": "TXG15349",
        "name": "甲寅(中正路)",
        "name_en": "Jiayin(Zhongzheng Road)",
        "line": "151",
        "color": "#7c3aed",
        "direction": 1
      },
      "geometry": {
        "type": "Point",
        "coordinates": [
          120.69928,
          24.0697
        ]
      }
    },
    {
      "type": "Feature",
      "properties": {
        "feature_type": "station",
        "ref": "TXG7027",
        "name": "中正草湖路口",
        "name_en": "Zhongzheng-Caohu Intersection",
        "line": "151",
        "color": "#7c3aed",
        "direction": 1
      },
      "geometry": {
        "type": "Point",
        "coordinates": [
          120.699056,
          24.068124
        ]
      }
    },
    {
      "type": "Feature",
      "properties": {
        "feature_type": "station",
        "ref": "TXG7626",
        "name": "霧峰",
        "name_en": "Wufeng",
        "line": "151",
        "color": "#7c3aed",
        "direction": 1
      },
      "geometry": {
        "type": "Point",
        "coordinates": [
          120.69853,
          24.063746
        ]
      }
    },
    {
      "type": "Feature",
      "properties": {
        "feature_type": "station",
        "ref": "TXG10370",
        "name": "霧峰郵局(明台高中)",
        "name_en": "Wufeng Post Office (Ming Tai Senior High School)",
        "line": "151",
        "color": "#7c3aed",
        "direction": 1
      },
      "geometry": {
        "type": "Point",
        "coordinates": [
          120.698362,
          24.061801
        ]
      }
    },
    {
      "type": "Feature",
      "properties": {
        "feature_type": "station",
        "ref": "TXG14035",
        "name": "教育部國教署",
        "name_en": "Ministry of Education",
        "line": "151",
        "color": "#7c3aed",
        "direction": 1
      },
      "geometry": {
        "type": "Point",
        "coordinates": [
          120.697968,
          24.059299
        ]
      }
    },
    {
      "type": "Feature",
      "properties": {
        "feature_type": "station",
        "ref": "TXG7630",
        "name": "霧峰國小",
        "name_en": "Wu Feng Elementary School",
        "line": "151",
        "color": "#7c3aed",
        "direction": 1
      },
      "geometry": {
        "type": "Point",
        "coordinates": [
          120.697853,
          24.057932
        ]
      }
    },
    {
      "type": "Feature",
      "properties": {
        "feature_type": "station",
        "ref": "TXG14593",
        "name": "省議會",
        "name_en": "T.P.C.C.",
        "line": "151",
        "color": "#7c3aed",
        "direction": 1
      },
      "geometry": {
        "type": "Point",
        "coordinates": [
          120.69687,
          24.055204
        ]
      }
    },
    {
      "type": "Feature",
      "properties": {
        "feature_type": "station",
        "ref": "TXG7190",
        "name": "八德橋",
        "name_en": "Bade Bridge",
        "line": "151",
        "color": "#7c3aed",
        "direction": 1
      },
      "geometry": {
        "type": "Point",
        "coordinates": [
          120.694182,
          24.05039
        ]
      }
    },
    {
      "type": "Feature",
      "properties": {
        "feature_type": "station",
        "ref": "TXG20055",
        "name": "坑口里(光復新村)",
        "name_en": "Kengkou Village(Guangfu Community)",
        "line": "151",
        "color": "#7c3aed",
        "direction": 1
      },
      "geometry": {
        "type": "Point",
        "coordinates": [
          120.692165,
          24.045188
        ]
      }
    },
    {
      "type": "Feature",
      "properties": {
        "feature_type": "station",
        "ref": "TXG13589",
        "name": "光復國中小(柳豐路)",
        "name_en": "KuangFu Junior High and Elementary School(Liufong Road)",
        "line": "151",
        "color": "#7c3aed",
        "direction": 1
      },
      "geometry": {
        "type": "Point",
        "coordinates": [
          120.690001,
          24.042953
        ]
      }
    },
    {
      "type": "Feature",
      "properties": {
        "feature_type": "station",
        "ref": "TXG13588",
        "name": "王厝",
        "name_en": "Wangcuo",
        "line": "151",
        "color": "#7c3aed",
        "direction": 1
      },
      "geometry": {
        "type": "Point",
        "coordinates": [
          120.688586,
          24.043743
        ]
      }
    },
    {
      "type": "Feature",
      "properties": {
        "feature_type": "station",
        "ref": "TXG19730",
        "name": "亞洲大學安藤館",
        "name_en": "Asia University Ando Museum",
        "line": "151",
        "color": "#7c3aed",
        "direction": 1
      },
      "geometry": {
        "type": "Point",
        "coordinates": [
          120.687236,
          24.04725
        ]
      }
    },
    {
      "type": "Feature",
      "properties": {
        "feature_type": "station",
        "ref": "TXG19704",
        "name": "羅厝站(新厝路550巷口)",
        "name_en": "Luocuo(Xincuo Road 550th Lane)",
        "line": "151",
        "color": "#7c3aed",
        "direction": 1
      },
      "geometry": {
        "type": "Point",
        "coordinates": [
          120.686499,
          24.049188
        ]
      }
    },
    {
      "type": "Feature",
      "properties": {
        "feature_type": "station",
        "ref": "TXG10559",
        "name": "柳豐路(亞大醫院)",
        "name_en": "Liufong Road(Asia University Hospital)",
        "line": "151",
        "color": "#7c3aed",
        "direction": 1
      },
      "geometry": {
        "type": "Point",
        "coordinates": [
          120.68486,
          24.050711
        ]
      }
    },
    {
      "type": "Feature",
      "properties": {
        "feature_type": "station",
        "ref": "TXG20062",
        "name": "亞大醫院",
        "name_en": "Asia University Hospital",
        "line": "151",
        "color": "#7c3aed",
        "direction": 1
      },
      "geometry": {
        "type": "Point",
        "coordinates": [
          120.686402,
          24.05344
        ]
      }
    },
    {
      "type": "Feature",
      "properties": {
        "feature_type": "station",
        "ref": "TXG20098",
        "name": "林森福新路口",
        "name_en": "Linsen-Fuxin Intersection",
        "line": "151",
        "color": "#7c3aed",
        "direction": 1
      },
      "geometry": {
        "type": "Point",
        "coordinates": [
          120.6953,
          24.0584
        ]
      }
    },
    {
      "type": "Feature",
      "properties": {
        "feature_type": "station",
        "ref": "TXG20096",
        "name": "林森中正路口",
        "name_en": "Linsen-Zhongzheng Intersection",
        "line": "151",
        "color": "#7c3aed",
        "direction": 1
      },
      "geometry": {
        "type": "Point",
        "coordinates": [
          120.696013,
          24.055402
        ]
      }
    },
    {
      "type": "Feature",
      "properties": {
        "feature_type": "station",
        "ref": "TXG19088",
        "name": "高鐵臺中站(第16月台)",
        "name_en": "HSR Taichung Station(Platform 16)",
        "line": "151",
        "color": "#7c3aed",
        "direction": 1
      },
      "geometry": {
        "type": "Point",
        "coordinates": [
          120.615897,
          24.111169
        ]
      }
    }
  ]
}
