{
  "type": "FeatureCollection",
  "name": "157",
  "properties": {
    "id": "taichung_157",
    "name": "157",
    "name_en": "157",
    "ref": "157",
    "color": "#9f1239",
    "city_id": "Taichung",
    "source": "TDX Bus Shape / StopOfRoute",
    "official_map_url": "https://citybus.taichung.gov.tw/ebus/strapi/uploads/Telerik_Web_UI_Web_Resource_3_86f2dcbdb1.jpeg",
    "operator_id": "1",
    "operator": "台中客運",
    "operator_en": "Taichung Bus Co., Ltd."
  },
  "features": [
    {
      "type": "Feature",
      "properties": {
        "feature_type": "route",
        "ref": "157",
        "name": "157",
        "name_en": "157",
        "color": "#9f1239",
        "direction": 0
      },
      "geometry": {
        "type": "LineString",
        "coordinates": [
          [
            120.64516,
            24.14681
          ],
          [
            120.64518,
            24.1468
          ],
          [
            120.64538,
            24.1468
          ],
          [
            120.6454,
            24.1468
          ],
          [
            120.64545,
            24.1468
          ],
          [
            120.64574,
            24.1468
          ],
          [
            120.64676,
            24.14681
          ],
          [
            120.64683,
            24.15397
          ],
          [
            120.64685,
            24.15675
          ],
          [
            120.64685,
            24.15819
          ],
          [
            120.64693,
            24.15846
          ],
          [
            120.64712,
            24.1588
          ],
          [
            120.64976,
            24.16277
          ],
          [
            120.64494,
            24.1654
          ],
          [
            120.64379,
            24.166
          ],
          [
            120.64297,
            24.16652
          ],
          [
            120.64111,
            24.16786
          ],
          [
            120.64111,
            24.16797
          ],
          [
            120.64315,
            24.17023
          ],
          [
            120.64416,
            24.17124
          ],
          [
            120.64415,
            24.1714
          ],
          [
            120.63959,
            24.17456
          ],
          [
            120.63955,
            24.17467
          ],
          [
            120.6412,
            24.17678
          ],
          [
            120.64143,
            24.17703
          ],
          [
            120.64161,
            24.17722
          ],
          [
            120.64182,
            24.1774
          ],
          [
            120.64238,
            24.17781
          ],
          [
            120.64285,
            24.17814
          ],
          [
            120.64315,
            24.17834
          ],
          [
            120.64352,
            24.17853
          ],
          [
            120.64384,
            24.17863
          ],
          [
            120.64425,
            24.17874
          ],
          [
            120.6451,
            24.17884
          ],
          [
            120.64501,
            24.18179
          ],
          [
            120.64472,
            24.18421
          ],
          [
            120.64459,
            24.18514
          ],
          [
            120.64429,
            24.18723
          ],
          [
            120.64059,
            24.18723
          ],
          [
            120.64053,
            24.18729
          ],
          [
            120.64081,
            24.18835
          ],
          [
            120.641,
            24.18893
          ],
          [
            120.64111,
            24.18913
          ],
          [
            120.64127,
            24.18936
          ],
          [
            120.64193,
            24.19007
          ],
          [
            120.64252,
            24.19065
          ],
          [
            120.64274,
            24.19083
          ],
          [
            120.64324,
            24.19121
          ],
          [
            120.64382,
            24.1916
          ],
          [
            120.64455,
            24.19198
          ],
          [
            120.64485,
            24.19212
          ],
          [
            120.64551,
            24.19239
          ],
          [
            120.65274,
            24.19499
          ],
          [
            120.65508,
            24.19585
          ],
          [
            120.65748,
            24.19673
          ],
          [
            120.6566,
            24.19813
          ],
          [
            120.65654,
            24.19844
          ],
          [
            120.65648,
            24.19902
          ],
          [
            120.65649,
            24.19964
          ],
          [
            120.65662,
            24.20061
          ],
          [
            120.65692,
            24.2018
          ],
          [
            120.65709,
            24.20248
          ],
          [
            120.65726,
            24.20338
          ],
          [
            120.65735,
            24.2037
          ],
          [
            120.65759,
            24.20415
          ],
          [
            120.65795,
            24.20468
          ],
          [
            120.6581,
            24.2049
          ],
          [
            120.65822,
            24.20519
          ],
          [
            120.65839,
            24.20555
          ],
          [
            120.65861,
            24.20593
          ],
          [
            120.6589,
            24.20627
          ],
          [
            120.65909,
            24.20642
          ],
          [
            120.65996,
            24.20703
          ],
          [
            120.66176,
            24.20785
          ],
          [
            120.66359,
            24.20867
          ],
          [
            120.66577,
            24.20968
          ],
          [
            120.66722,
            24.21042
          ],
          [
            120.66831,
            24.21099
          ],
          [
            120.66883,
            24.2114
          ],
          [
            120.67061,
            24.21244
          ],
          [
            120.67263,
            24.2137
          ],
          [
            120.6753,
            24.21564
          ],
          [
            120.67796,
            24.21802
          ],
          [
            120.67969,
            24.21984
          ],
          [
            120.68043,
            24.22074
          ],
          [
            120.68105,
            24.22145
          ],
          [
            120.68212,
            24.22284
          ],
          [
            120.68368,
            24.22517
          ],
          [
            120.68457,
            24.22672
          ],
          [
            120.68507,
            24.22764
          ],
          [
            120.68569,
            24.22899
          ],
          [
            120.68619,
            24.23017
          ],
          [
            120.6869,
            24.23206
          ],
          [
            120.6875,
            24.23402
          ],
          [
            120.68804,
            24.23585
          ],
          [
            120.68851,
            24.23771
          ],
          [
            120.68927,
            24.24136
          ],
          [
            120.68976,
            24.24455
          ],
          [
            120.69018,
            24.24774
          ],
          [
            120.69102,
            24.25418
          ],
          [
            120.69179,
            24.26055
          ],
          [
            120.69215,
            24.26381
          ],
          [
            120.69244,
            24.26593
          ],
          [
            120.6926,
            24.26689
          ],
          [
            120.6929,
            24.26768
          ],
          [
            120.69307,
            24.26821
          ],
          [
            120.69314,
            24.2686
          ],
          [
            120.69315,
            24.26894
          ],
          [
            120.69307,
            24.26934
          ],
          [
            120.69297,
            24.26965
          ],
          [
            120.69281,
            24.26993
          ],
          [
            120.69259,
            24.27021
          ],
          [
            120.69241,
            24.2704
          ],
          [
            120.6921,
            24.27061
          ],
          [
            120.69177,
            24.27079
          ],
          [
            120.69158,
            24.27086
          ],
          [
            120.69122,
            24.27096
          ],
          [
            120.69076,
            24.271
          ],
          [
            120.69044,
            24.27099
          ],
          [
            120.69013,
            24.27093
          ],
          [
            120.68884,
            24.27053
          ],
          [
            120.68801,
            24.27035
          ],
          [
            120.68704,
            24.27021
          ],
          [
            120.68571,
            24.2702
          ],
          [
            120.68362,
            24.2703
          ],
          [
            120.68236,
            24.27041
          ],
          [
            120.6811,
            24.27059
          ],
          [
            120.67983,
            24.27088
          ],
          [
            120.67864,
            24.27123
          ],
          [
            120.67787,
            24.27152
          ],
          [
            120.67651,
            24.27218
          ],
          [
            120.67495,
            24.27309
          ],
          [
            120.67375,
            24.27404
          ],
          [
            120.67275,
            24.27492
          ],
          [
            120.67221,
            24.27552
          ],
          [
            120.6719,
            24.27597
          ],
          [
            120.67182,
            24.27625
          ],
          [
            120.67179,
            24.27646
          ],
          [
            120.67177,
            24.27672
          ],
          [
            120.67177,
            24.27693
          ],
          [
            120.67177,
            24.27719
          ],
          [
            120.67175,
            24.27741
          ],
          [
            120.67172,
            24.27767
          ],
          [
            120.67163,
            24.27801
          ],
          [
            120.67146,
            24.27847
          ],
          [
            120.67139,
            24.27868
          ],
          [
            120.67134,
            24.27884
          ],
          [
            120.67136,
            24.27912
          ],
          [
            120.67143,
            24.27937
          ],
          [
            120.67151,
            24.27957
          ],
          [
            120.67163,
            24.27976
          ],
          [
            120.67174,
            24.2799
          ],
          [
            120.67193,
            24.28008
          ],
          [
            120.67218,
            24.28039
          ],
          [
            120.67296,
            24.2811
          ],
          [
            120.67338,
            24.28151
          ],
          [
            120.67386,
            24.28194
          ],
          [
            120.67421,
            24.28228
          ],
          [
            120.67444,
            24.28254
          ],
          [
            120.6749,
            24.28307
          ],
          [
            120.67534,
            24.28367
          ],
          [
            120.67571,
            24.28428
          ],
          [
            120.6761,
            24.28506
          ],
          [
            120.67637,
            24.28576
          ],
          [
            120.67654,
            24.28633
          ],
          [
            120.67661,
            24.28663
          ],
          [
            120.67673,
            24.28728
          ],
          [
            120.67679,
            24.28804
          ],
          [
            120.67681,
            24.28918
          ],
          [
            120.67683,
            24.29041
          ],
          [
            120.67685,
            24.29172
          ],
          [
            120.67698,
            24.29694
          ],
          [
            120.67699,
            24.29711
          ],
          [
            120.67712,
            24.29787
          ],
          [
            120.67719,
            24.29811
          ],
          [
            120.67737,
            24.29866
          ],
          [
            120.67777,
            24.29961
          ],
          [
            120.67795,
            24.30002
          ],
          [
            120.67821,
            24.30065
          ],
          [
            120.67835,
            24.30103
          ],
          [
            120.6785,
            24.30149
          ],
          [
            120.67859,
            24.30187
          ],
          [
            120.67869,
            24.30263
          ],
          [
            120.67888,
            24.30467
          ],
          [
            120.67894,
            24.30527
          ],
          [
            120.67899,
            24.30565
          ],
          [
            120.67909,
            24.30607
          ],
          [
            120.67924,
            24.30653
          ],
          [
            120.67942,
            24.30697
          ],
          [
            120.67976,
            24.30774
          ],
          [
            120.67998,
            24.30828
          ],
          [
            120.68012,
            24.30875
          ],
          [
            120.68022,
            24.30932
          ],
          [
            120.68037,
            24.30982
          ],
          [
            120.68054,
            24.31157
          ],
          [
            120.68071,
            24.31303
          ],
          [
            120.68069,
            24.31342
          ],
          [
            120.6808,
            24.31446
          ],
          [
            120.68085,
            24.31468
          ],
          [
            120.68094,
            24.31493
          ],
          [
            120.68102,
            24.31505
          ],
          [
            120.68117,
            24.31521
          ],
          [
            120.68131,
            24.31534
          ],
          [
            120.6817,
            24.31553
          ],
          [
            120.68188,
            24.31561
          ],
          [
            120.6818,
            24.31572
          ],
          [
            120.68145,
            24.3158
          ],
          [
            120.67811,
            24.31635
          ],
          [
            120.67548,
            24.31678
          ],
          [
            120.67413,
            24.317
          ],
          [
            120.67205,
            24.31729
          ],
          [
            120.67193,
            24.31732
          ],
          [
            120.67177,
            24.31736
          ],
          [
            120.67153,
            24.31746
          ],
          [
            120.67133,
            24.31758
          ],
          [
            120.66982,
            24.31863
          ],
          [
            120.66921,
            24.31907
          ],
          [
            120.66854,
            24.31951
          ],
          [
            120.66778,
            24.32001
          ],
          [
            120.66607,
            24.32115
          ],
          [
            120.66455,
            24.32217
          ],
          [
            120.66432,
            24.32231
          ],
          [
            120.6639,
            24.3225
          ],
          [
            120.66342,
            24.32267
          ],
          [
            120.66283,
            24.32285
          ],
          [
            120.66261,
            24.32293
          ],
          [
            120.66236,
            24.32308
          ],
          [
            120.65947,
            24.32587
          ],
          [
            120.65661,
            24.32862
          ],
          [
            120.65752,
            24.32948
          ],
          [
            120.65747,
            24.32958
          ],
          [
            120.65631,
            24.33098
          ],
          [
            120.65614,
            24.33115
          ],
          [
            120.65603,
            24.33134
          ],
          [
            120.65594,
            24.33163
          ],
          [
            120.65585,
            24.33228
          ],
          [
            120.65573,
            24.33225
          ],
          [
            120.65338,
            24.33173
          ],
          [
            120.64826,
            24.33661
          ],
          [
            120.648,
            24.33679
          ],
          [
            120.6476,
            24.337
          ],
          [
            120.64704,
            24.33725
          ],
          [
            120.64653,
            24.33745
          ],
          [
            120.6464,
            24.33748
          ],
          [
            120.6461,
            24.3375
          ],
          [
            120.64503,
            24.33727
          ],
          [
            120.64483,
            24.33724
          ],
          [
            120.64464,
            24.33725
          ],
          [
            120.64448,
            24.33729
          ],
          [
            120.64417,
            24.33751
          ],
          [
            120.644,
            24.33766
          ],
          [
            120.6409,
            24.34103
          ],
          [
            120.6407,
            24.34115
          ],
          [
            120.64051,
            24.3412
          ],
          [
            120.64029,
            24.34125
          ],
          [
            120.64002,
            24.34123
          ],
          [
            120.63986,
            24.3412
          ],
          [
            120.63971,
            24.34116
          ],
          [
            120.63841,
            24.342
          ],
          [
            120.63659,
            24.343139999999998
          ],
          [
            120.63429,
            24.34456
          ],
          [
            120.63336,
            24.34511
          ],
          [
            120.63143,
            24.34632
          ],
          [
            120.63129,
            24.34639
          ],
          [
            120.63116,
            24.34643
          ],
          [
            120.63104,
            24.34643
          ],
          [
            120.63094,
            24.34641
          ],
          [
            120.63079,
            24.34637
          ],
          [
            120.62975,
            24.34531
          ],
          [
            120.62953,
            24.34512
          ],
          [
            120.62915,
            24.34432
          ],
          [
            120.62843,
            24.34283
          ],
          [
            120.62783,
            24.34162
          ],
          [
            120.6276,
            24.34129
          ],
          [
            120.62714,
            24.34076
          ],
          [
            120.62686,
            24.34045
          ],
          [
            120.6267,
            24.34037
          ],
          [
            120.62645,
            24.34025
          ],
          [
            120.62622,
            24.34015
          ],
          [
            120.6261,
            24.34011
          ],
          [
            120.62595,
            24.34008
          ],
          [
            120.62578,
            24.34006
          ],
          [
            120.62563,
            24.34007
          ],
          [
            120.62546,
            24.34013
          ],
          [
            120.62527,
            24.3402
          ],
          [
            120.62515,
            24.34026
          ],
          [
            120.62365,
            24.34112
          ],
          [
            120.62321,
            24.34139
          ],
          [
            120.62299,
            24.34164
          ],
          [
            120.62283,
            24.34183
          ],
          [
            120.62273,
            24.34201
          ],
          [
            120.62266,
            24.34219
          ],
          [
            120.62261,
            24.34238
          ],
          [
            120.62267,
            24.34244
          ],
          [
            120.62378,
            24.34269
          ],
          [
            120.62405,
            24.34276
          ],
          [
            120.62524,
            24.34304
          ],
          [
            120.62542,
            24.3431
          ],
          [
            120.62552,
            24.34315
          ],
          [
            120.62564,
            24.34326
          ],
          [
            120.62576,
            24.3434
          ],
          [
            120.62608,
            24.34387
          ],
          [
            120.62706,
            24.3453
          ],
          [
            120.627,
            24.34541
          ],
          [
            120.62465,
            24.34621
          ],
          [
            120.62451,
            24.34627
          ],
          [
            120.62402,
            24.34673
          ],
          [
            120.62378,
            24.34698
          ],
          [
            120.62164,
            24.34772
          ],
          [
            120.62156,
            24.34782
          ],
          [
            120.62236,
            24.3497
          ]
        ]
      }
    },
    {
      "type": "Feature",
      "properties": {
        "feature_type": "route",
        "ref": "157",
        "name": "157",
        "name_en": "157",
        "color": "#9f1239",
        "direction": 1
      },
      "geometry": {
        "type": "LineString",
        "coordinates": [
          [
            120.67104,
            24.27979
          ],
          [
            120.67082,
            24.27974
          ],
          [
            120.67063,
            24.27972
          ],
          [
            120.6702,
            24.27973
          ],
          [
            120.66977,
            24.27976
          ],
          [
            120.66942,
            24.27981
          ],
          [
            120.66905,
            24.2798
          ],
          [
            120.66877,
            24.2797
          ],
          [
            120.66862,
            24.27961
          ],
          [
            120.66843,
            24.27948
          ],
          [
            120.66826,
            24.27926
          ],
          [
            120.66815,
            24.27903
          ],
          [
            120.66808,
            24.27882
          ],
          [
            120.66809,
            24.27858
          ],
          [
            120.66813,
            24.27839
          ],
          [
            120.66822,
            24.27822
          ],
          [
            120.66834,
            24.27806
          ],
          [
            120.66846,
            24.27791
          ],
          [
            120.6686,
            24.2778
          ],
          [
            120.66874,
            24.27773
          ],
          [
            120.66912,
            24.27758
          ],
          [
            120.66938,
            24.2775
          ],
          [
            120.66958,
            24.27744
          ],
          [
            120.66978,
            24.27733
          ],
          [
            120.67038,
            24.27682
          ],
          [
            120.67052,
            24.27679
          ],
          [
            120.67116,
            24.27616
          ]
        ]
      }
    },
    {
      "type": "Feature",
      "properties": {
        "feature_type": "route",
        "ref": "157",
        "name": "157",
        "name_en": "157",
        "color": "#9f1239",
        "direction": 1
      },
      "geometry": {
        "type": "LineString",
        "coordinates": [
          [
            120.68896,
            24.27005
          ],
          [
            120.6892,
            24.27007
          ],
          [
            120.68947,
            24.27007
          ],
          [
            120.68969,
            24.27006
          ],
          [
            120.68988,
            24.27005
          ],
          [
            120.69002,
            24.27004
          ],
          [
            120.69033,
            24.27002
          ],
          [
            120.69056,
            24.27001
          ],
          [
            120.69081,
            24.26995
          ],
          [
            120.69113,
            24.26986
          ],
          [
            120.69134,
            24.26977
          ],
          [
            120.69157,
            24.26966
          ],
          [
            120.6918,
            24.26952
          ],
          [
            120.69195,
            24.26938
          ],
          [
            120.69205,
            24.26926
          ],
          [
            120.69218,
            24.26908
          ],
          [
            120.69226,
            24.26886
          ],
          [
            120.69232,
            24.2686
          ],
          [
            120.69234,
            24.26829
          ],
          [
            120.69234,
            24.26804
          ]
        ]
      }
    },
    {
      "type": "Feature",
      "properties": {
        "feature_type": "route",
        "ref": "157",
        "name": "157",
        "name_en": "157",
        "color": "#9f1239",
        "direction": 1
      },
      "geometry": {
        "type": "LineString",
        "coordinates": [
          [
            120.65931,
            24.20723
          ],
          [
            120.65853,
            24.20701
          ],
          [
            120.65807,
            24.20685
          ],
          [
            120.65777,
            24.2067
          ],
          [
            120.65742,
            24.20641
          ],
          [
            120.65706,
            24.20622
          ],
          [
            120.65662,
            24.20601
          ],
          [
            120.65621,
            24.20583
          ],
          [
            120.65585,
            24.20564
          ],
          [
            120.65557,
            24.20556
          ],
          [
            120.65538,
            24.20554
          ],
          [
            120.65529,
            24.20556
          ],
          [
            120.65514,
            24.20561
          ],
          [
            120.65505,
            24.20568
          ],
          [
            120.65499,
            24.20576
          ],
          [
            120.65497,
            24.20579
          ],
          [
            120.65493,
            24.20587
          ],
          [
            120.65492,
            24.20596
          ],
          [
            120.65494,
            24.20605
          ],
          [
            120.65496,
            24.20619
          ],
          [
            120.65509,
            24.20639
          ],
          [
            120.65518,
            24.20648
          ],
          [
            120.65528,
            24.20654
          ],
          [
            120.65539,
            24.20657
          ],
          [
            120.65552,
            24.20659
          ],
          [
            120.6557,
            24.20656
          ],
          [
            120.65587,
            24.20648
          ],
          [
            120.65599,
            24.20639
          ],
          [
            120.65618,
            24.20623
          ],
          [
            120.6564,
            24.20593
          ],
          [
            120.6569,
            24.20475
          ],
          [
            120.65701,
            24.20435
          ]
        ]
      }
    },
    {
      "type": "Feature",
      "properties": {
        "feature_type": "station",
        "ref": "TXG2054",
        "name": "向上惠文路口",
        "name_en": "Xiangshang-Huiwen Intersection",
        "line": "157",
        "color": "#9f1239",
        "direction": 0
      },
      "geometry": {
        "type": "Point",
        "coordinates": [
          120.645176,
          24.146785
        ]
      }
    },
    {
      "type": "Feature",
      "properties": {
        "feature_type": "station",
        "ref": "TXG22005",
        "name": "文心公益路口",
        "name_en": "Wenxin-Gongyi Intersection",
        "line": "157",
        "color": "#9f1239",
        "direction": 0
      },
      "geometry": {
        "type": "Point",
        "coordinates": [
          120.646884,
          24.14974
        ]
      }
    },
    {
      "type": "Feature",
      "properties": {
        "feature_type": "station",
        "ref": "TXG21998",
        "name": "捷運水安宮站(文心路)",
        "name_en": "MRT Shui-An Temple Station(Wenxin Road)",
        "line": "157",
        "color": "#9f1239",
        "direction": 0
      },
      "geometry": {
        "type": "Point",
        "coordinates": [
          120.64693274086,
          24.152711742654
        ]
      }
    },
    {
      "type": "Feature",
      "properties": {
        "feature_type": "station",
        "ref": "TXG22003",
        "name": "文心市政路口",
        "name_en": "Wenxin-Shizheng Intersection",
        "line": "157",
        "color": "#9f1239",
        "direction": 0
      },
      "geometry": {
        "type": "Point",
        "coordinates": [
          120.6469581717,
          24.154607540293
        ]
      }
    },
    {
      "type": "Feature",
      "properties": {
        "feature_type": "station",
        "ref": "TXG22001",
        "name": "中央健保署(文心路)",
        "name_en": "NHI Administration(Wenxin Road)",
        "line": "157",
        "color": "#9f1239",
        "direction": 0
      },
      "geometry": {
        "type": "Point",
        "coordinates": [
          120.64689357951,
          24.157524034623
        ]
      }
    },
    {
      "type": "Feature",
      "properties": {
        "feature_type": "station",
        "ref": "TXG22000",
        "name": "文心第二市政大樓",
        "name_en": "Wenxin Second Municipal Building",
        "line": "157",
        "color": "#9f1239",
        "direction": 0
      },
      "geometry": {
        "type": "Point",
        "coordinates": [
          120.64760670669,
          24.1593923253
        ]
      }
    },
    {
      "type": "Feature",
      "properties": {
        "feature_type": "station",
        "ref": "TXG16659",
        "name": "臺中市政府",
        "name_en": "Taichung City Hall",
        "line": "157",
        "color": "#9f1239",
        "direction": 0
      },
      "geometry": {
        "type": "Point",
        "coordinates": [
          120.646936,
          24.164419
        ]
      }
    },
    {
      "type": "Feature",
      "properties": {
        "feature_type": "station",
        "ref": "TXG10346",
        "name": "新光三越",
        "name_en": "Shin Kong Mitsukoshi Department Store",
        "line": "157",
        "color": "#9f1239",
        "direction": 0
      },
      "geometry": {
        "type": "Point",
        "coordinates": [
          120.644217,
          24.165897
        ]
      }
    },
    {
      "type": "Feature",
      "properties": {
        "feature_type": "station",
        "ref": "TXG16551",
        "name": "教師新村",
        "name_en": "Teachers Community",
        "line": "157",
        "color": "#9f1239",
        "direction": 0
      },
      "geometry": {
        "type": "Point",
        "coordinates": [
          120.64198983969,
          24.167218488362
        ]
      }
    },
    {
      "type": "Feature",
      "properties": {
        "feature_type": "station",
        "ref": "TXG19271",
        "name": "河南臺灣大道口",
        "name_en": "Henan-Taiwan Boulevard Intersection",
        "line": "157",
        "color": "#9f1239",
        "direction": 0
      },
      "geometry": {
        "type": "Point",
        "coordinates": [
          120.641593,
          24.16839
        ]
      }
    },
    {
      "type": "Feature",
      "properties": {
        "feature_type": "station",
        "ref": "TXG8934",
        "name": "青海上仁街口",
        "name_en": "Qinghai-Shangren Intersection",
        "line": "157",
        "color": "#9f1239",
        "direction": 0
      },
      "geometry": {
        "type": "Point",
        "coordinates": [
          120.643197,
          24.172151
        ]
      }
    },
    {
      "type": "Feature",
      "properties": {
        "feature_type": "station",
        "ref": "TXG8933",
        "name": "至善國中(青海路)",
        "name_en": "Chihshan Junior High School(Qinghai Road)",
        "line": "157",
        "color": "#9f1239",
        "direction": 0
      },
      "geometry": {
        "type": "Point",
        "coordinates": [
          120.640649,
          24.173899
        ]
      }
    },
    {
      "type": "Feature",
      "properties": {
        "feature_type": "station",
        "ref": "TXG9353",
        "name": "至善國中(逢甲路)",
        "name_en": "Chihshan Junior High School(Fengjia Road)",
        "line": "157",
        "color": "#9f1239",
        "direction": 0
      },
      "geometry": {
        "type": "Point",
        "coordinates": [
          120.640255,
          24.175516
        ]
      }
    },
    {
      "type": "Feature",
      "properties": {
        "feature_type": "station",
        "ref": "TXG969",
        "name": "逢甲大學(逢甲路)",
        "name_en": "Feng Chia University(Fengjia Road)",
        "line": "157",
        "color": "#9f1239",
        "direction": 0
      },
      "geometry": {
        "type": "Point",
        "coordinates": [
          120.644031,
          24.178673
        ]
      }
    },
    {
      "type": "Feature",
      "properties": {
        "feature_type": "station",
        "ref": "TXG9355",
        "name": "逢甲大學(福星路)",
        "name_en": "Feng Chia University(Fuxing Road)",
        "line": "157",
        "color": "#9f1239",
        "direction": 0
      },
      "geometry": {
        "type": "Point",
        "coordinates": [
          120.645134,
          24.179341
        ]
      }
    },
    {
      "type": "Feature",
      "properties": {
        "feature_type": "station",
        "ref": "TXG9356",
        "name": "福星西安街口",
        "name_en": "Fuxing-Xian Intersection",
        "line": "157",
        "color": "#9f1239",
        "direction": 0
      },
      "geometry": {
        "type": "Point",
        "coordinates": [
          120.645053,
          24.181555
        ]
      }
    },
    {
      "type": "Feature",
      "properties": {
        "feature_type": "station",
        "ref": "TXG9358",
        "name": "漢翔公司(星享道)",
        "name_en": "AIDC(In Sky Hotel )",
        "line": "157",
        "color": "#9f1239",
        "direction": 0
      },
      "geometry": {
        "type": "Point",
        "coordinates": [
          120.644771,
          24.184097
        ]
      }
    },
    {
      "type": "Feature",
      "properties": {
        "feature_type": "station",
        "ref": "TXG1343",
        "name": "僑光科技大學",
        "name_en": "Overseas Chinese University",
        "line": "157",
        "color": "#9f1239",
        "direction": 0
      },
      "geometry": {
        "type": "Point",
        "coordinates": [
          120.644421,
          24.186585
        ]
      }
    },
    {
      "type": "Feature",
      "properties": {
        "feature_type": "station",
        "ref": "TXG14300",
        "name": "福星北西苑路口",
        "name_en": "Fuxing N. -Xiyuan Intersection",
        "line": "157",
        "color": "#9f1239",
        "direction": 0
      },
      "geometry": {
        "type": "Point",
        "coordinates": [
          120.641945,
          24.187294
        ]
      }
    },
    {
      "type": "Feature",
      "properties": {
        "feature_type": "station",
        "ref": "TXG6394",
        "name": "黎明福星北路口",
        "name_en": "Liming-Fuxing N. Intersection",
        "line": "157",
        "color": "#9f1239",
        "direction": 0
      },
      "geometry": {
        "type": "Point",
        "coordinates": [
          120.640901,
          24.188504
        ]
      }
    },
    {
      "type": "Feature",
      "properties": {
        "feature_type": "station",
        "ref": "TXG6398",
        "name": "黎明僑大三街口",
        "name_en": "Liming-Qiaoda 3rd Intersection",
        "line": "157",
        "color": "#9f1239",
        "direction": 0
      },
      "geometry": {
        "type": "Point",
        "coordinates": [
          120.642112,
          24.190211
        ]
      }
    },
    {
      "type": "Feature",
      "properties": {
        "feature_type": "station",
        "ref": "TXG12217",
        "name": "黎明僑大六路口",
        "name_en": "Liming-Qiaoda 6th Intersection",
        "line": "157",
        "color": "#9f1239",
        "direction": 0
      },
      "geometry": {
        "type": "Point",
        "coordinates": [
          120.646449,
          24.192677
        ]
      }
    },
    {
      "type": "Feature",
      "properties": {
        "feature_type": "station",
        "ref": "TXG12219",
        "name": "會展中心(展覽館)",
        "name_en": "TICEC - Exhibition Hall",
        "line": "157",
        "color": "#9f1239",
        "direction": 0
      },
      "geometry": {
        "type": "Point",
        "coordinates": [
          120.65023,
          24.1939632
        ]
      }
    },
    {
      "type": "Feature",
      "properties": {
        "feature_type": "station",
        "ref": "TXG12221",
        "name": "會展中心(會議中心)",
        "name_en": "TICEC-ConferenceCenter",
        "line": "157",
        "color": "#9f1239",
        "direction": 0
      },
      "geometry": {
        "type": "Point",
        "coordinates": [
          120.652499,
          24.194873
        ]
      }
    },
    {
      "type": "Feature",
      "properties": {
        "feature_type": "station",
        "ref": "TXG12223",
        "name": "黎明經貿路口",
        "name_en": "Liming-Jingmao Intersection",
        "line": "157",
        "color": "#9f1239",
        "direction": 0
      },
      "geometry": {
        "type": "Point",
        "coordinates": [
          120.654455,
          24.195582
        ]
      }
    },
    {
      "type": "Feature",
      "properties": {
        "feature_type": "station",
        "ref": "TXG19975",
        "name": "中清環中路口",
        "name_en": "Zhongqing-Huanzhong Intersection",
        "line": "157",
        "color": "#9f1239",
        "direction": 0
      },
      "geometry": {
        "type": "Point",
        "coordinates": [
          120.65654754639,
          24.198783874512
        ]
      }
    },
    {
      "type": "Feature",
      "properties": {
        "feature_type": "station",
        "ref": "TXG23812",
        "name": "后神舊社路口",
        "name_en": "Houshen-Jiushe Intersection",
        "line": "157",
        "color": "#9f1239",
        "direction": 0
      },
      "geometry": {
        "type": "Point",
        "coordinates": [
          120.676999,
          24.294843
        ]
      }
    },
    {
      "type": "Feature",
      "properties": {
        "feature_type": "station",
        "ref": "TXG23813",
        "name": "后神水門路口",
        "name_en": "Houshen-Shuimen Intersection",
        "line": "157",
        "color": "#9f1239",
        "direction": 0
      },
      "geometry": {
        "type": "Point",
        "coordinates": [
          120.678844,
          24.303807
        ]
      }
    },
    {
      "type": "Feature",
      "properties": {
        "feature_type": "station",
        "ref": "TXG23814",
        "name": "育英國小(后神路)",
        "name_en": "Yuh-Ing Elementary School(Houshen Road)",
        "line": "157",
        "color": "#9f1239",
        "direction": 0
      },
      "geometry": {
        "type": "Point",
        "coordinates": [
          120.68057,
          24.311564
        ]
      }
    },
    {
      "type": "Feature",
      "properties": {
        "feature_type": "station",
        "ref": "TXG23815",
        "name": "后神甲后721巷口",
        "name_en": "Houshen-Jiahou 721th Lane",
        "line": "157",
        "color": "#9f1239",
        "direction": 0
      },
      "geometry": {
        "type": "Point",
        "coordinates": [
          120.680771,
          24.313581
        ]
      }
    },
    {
      "type": "Feature",
      "properties": {
        "feature_type": "station",
        "ref": "TXG23645",
        "name": "眉山",
        "name_en": "Meishan",
        "line": "157",
        "color": "#9f1239",
        "direction": 0
      },
      "geometry": {
        "type": "Point",
        "coordinates": [
          120.680528,
          24.315937
        ]
      }
    },
    {
      "type": "Feature",
      "properties": {
        "feature_type": "station",
        "ref": "TXG11601",
        "name": "忠明新城",
        "name_en": "Zhongming Community",
        "line": "157",
        "color": "#9f1239",
        "direction": 0
      },
      "geometry": {
        "type": "Point",
        "coordinates": [
          120.676658,
          24.316618
        ]
      }
    },
    {
      "type": "Feature",
      "properties": {
        "feature_type": "station",
        "ref": "TXG11603",
        "name": "四塊厝(甲后路)",
        "name_en": "Sikuaicuo(Jiahou Road)",
        "line": "157",
        "color": "#9f1239",
        "direction": 0
      },
      "geometry": {
        "type": "Point",
        "coordinates": [
          120.674228,
          24.317002
        ]
      }
    },
    {
      "type": "Feature",
      "properties": {
        "feature_type": "station",
        "ref": "TXG11605",
        "name": "司普公司",
        "name_en": "Sipu Company",
        "line": "157",
        "color": "#9f1239",
        "direction": 0
      },
      "geometry": {
        "type": "Point",
        "coordinates": [
          120.66998285651,
          24.318577122472
        ]
      }
    },
    {
      "type": "Feature",
      "properties": {
        "feature_type": "station",
        "ref": "TXG11607",
        "name": "三崁中點",
        "name_en": "Sankan Zhongdian",
        "line": "157",
        "color": "#9f1239",
        "direction": 0
      },
      "geometry": {
        "type": "Point",
        "coordinates": [
          120.668463,
          24.319657
        ]
      }
    },
    {
      "type": "Feature",
      "properties": {
        "feature_type": "station",
        "ref": "TXG11609",
        "name": "三崁",
        "name_en": "Sankan",
        "line": "157",
        "color": "#9f1239",
        "direction": 0
      },
      "geometry": {
        "type": "Point",
        "coordinates": [
          120.664797,
          24.322073
        ]
      }
    },
    {
      "type": "Feature",
      "properties": {
        "feature_type": "station",
        "ref": "TXG11611",
        "name": "久輪公司",
        "name_en": "Jiulun Company",
        "line": "157",
        "color": "#9f1239",
        "direction": 0
      },
      "geometry": {
        "type": "Point",
        "coordinates": [
          120.661443,
          24.32401
        ]
      }
    },
    {
      "type": "Feature",
      "properties": {
        "feature_type": "station",
        "ref": "TXG11613",
        "name": "甲后六支巷口",
        "name_en": "Jiahou-Luzhi Intersection",
        "line": "157",
        "color": "#9f1239",
        "direction": 0
      },
      "geometry": {
        "type": "Point",
        "coordinates": [
          120.659081,
          24.326273
        ]
      }
    },
    {
      "type": "Feature",
      "properties": {
        "feature_type": "station",
        "ref": "TXG11615",
        "name": "二崁",
        "name_en": "Erkan",
        "line": "157",
        "color": "#9f1239",
        "direction": 0
      },
      "geometry": {
        "type": "Point",
        "coordinates": [
          120.658251,
          24.327142
        ]
      }
    },
    {
      "type": "Feature",
      "properties": {
        "feature_type": "station",
        "ref": "TXG10487",
        "name": "中山路284巷口(六分公園)",
        "name_en": "Zhongshan Road 284th Lane(Liufen Park)",
        "line": "157",
        "color": "#9f1239",
        "direction": 0
      },
      "geometry": {
        "type": "Point",
        "coordinates": [
          120.656834,
          24.3304
        ]
      }
    },
    {
      "type": "Feature",
      "properties": {
        "feature_type": "station",
        "ref": "TXG6890",
        "name": "外埔區公所",
        "name_en": "Waipu District Office",
        "line": "157",
        "color": "#9f1239",
        "direction": 0
      },
      "geometry": {
        "type": "Point",
        "coordinates": [
          120.65464315367,
          24.332067138693
        ]
      }
    },
    {
      "type": "Feature",
      "properties": {
        "feature_type": "station",
        "ref": "TXG13829",
        "name": "外埔",
        "name_en": "Waipu",
        "line": "157",
        "color": "#9f1239",
        "direction": 0
      },
      "geometry": {
        "type": "Point",
        "coordinates": [
          120.652576,
          24.332571
        ]
      }
    },
    {
      "type": "Feature",
      "properties": {
        "feature_type": "station",
        "ref": "TXG13830",
        "name": "后寮",
        "name_en": "Houliao",
        "line": "157",
        "color": "#9f1239",
        "direction": 0
      },
      "geometry": {
        "type": "Point",
        "coordinates": [
          120.64961,
          24.335371
        ]
      }
    },
    {
      "type": "Feature",
      "properties": {
        "feature_type": "station",
        "ref": "TXG13831",
        "name": "大甲東",
        "name_en": "Dajia East",
        "line": "157",
        "color": "#9f1239",
        "direction": 0
      },
      "geometry": {
        "type": "Point",
        "coordinates": [
          120.64127407714,
          24.34068131641
        ]
      }
    },
    {
      "type": "Feature",
      "properties": {
        "feature_type": "station",
        "ref": "TXG11678",
        "name": "大甲東新城",
        "name_en": "Dajiadong Community",
        "line": "157",
        "color": "#9f1239",
        "direction": 0
      },
      "geometry": {
        "type": "Point",
        "coordinates": [
          120.638077,
          24.342235
        ]
      }
    },
    {
      "type": "Feature",
      "properties": {
        "feature_type": "station",
        "ref": "TXG5893",
        "name": "東泰新城",
        "name_en": "Dongtai Community",
        "line": "157",
        "color": "#9f1239",
        "direction": 0
      },
      "geometry": {
        "type": "Point",
        "coordinates": [
          120.63651667205,
          24.343244456166
        ]
      }
    },
    {
      "type": "Feature",
      "properties": {
        "feature_type": "station",
        "ref": "TXG14459",
        "name": "甲后路五段316巷口",
        "name_en": "Jiahou Road Sec.5 316th Lane",
        "line": "157",
        "color": "#9f1239",
        "direction": 0
      },
      "geometry": {
        "type": "Point",
        "coordinates": [
          120.634626,
          24.344360000000002
        ]
      }
    },
    {
      "type": "Feature",
      "properties": {
        "feature_type": "station",
        "ref": "TXG18330",
        "name": "甲工入口",
        "name_en": "Jiagong Entrance",
        "line": "157",
        "color": "#9f1239",
        "direction": 0
      },
      "geometry": {
        "type": "Point",
        "coordinates": [
          120.632734,
          24.345569
        ]
      }
    },
    {
      "type": "Feature",
      "properties": {
        "feature_type": "station",
        "ref": "TXG5309",
        "name": "中山里",
        "name_en": "Zhongshan Village",
        "line": "157",
        "color": "#9f1239",
        "direction": 0
      },
      "geometry": {
        "type": "Point",
        "coordinates": [
          120.629244,
          24.344704
        ]
      }
    },
    {
      "type": "Feature",
      "properties": {
        "feature_type": "station",
        "ref": "TXG5612",
        "name": "永光寺",
        "name_en": "Yongguang Temple",
        "line": "157",
        "color": "#9f1239",
        "direction": 0
      },
      "geometry": {
        "type": "Point",
        "coordinates": [
          120.628366,
          24.34289
        ]
      }
    },
    {
      "type": "Feature",
      "properties": {
        "feature_type": "station",
        "ref": "TXG5451",
        "name": "中正紀念館",
        "name_en": "Zhongzheng Memorial Hall",
        "line": "157",
        "color": "#9f1239",
        "direction": 0
      },
      "geometry": {
        "type": "Point",
        "coordinates": [
          120.626203,
          24.340201
        ]
      }
    },
    {
      "type": "Feature",
      "properties": {
        "feature_type": "station",
        "ref": "TXG14155",
        "name": "大甲高中(水源路)",
        "name_en": "Dajia Senior High School(Shuiyuan Road)",
        "line": "157",
        "color": "#9f1239",
        "direction": 0
      },
      "geometry": {
        "type": "Point",
        "coordinates": [
          120.622831,
          24.34187
        ]
      }
    },
    {
      "type": "Feature",
      "properties": {
        "feature_type": "station",
        "ref": "TXG18682",
        "name": "南陽里(中山路)",
        "name_en": "Nanyang Village(Zhongshan Road)",
        "line": "157",
        "color": "#9f1239",
        "direction": 0
      },
      "geometry": {
        "type": "Point",
        "coordinates": [
          120.624191,
          24.342771
        ]
      }
    },
    {
      "type": "Feature",
      "properties": {
        "feature_type": "station",
        "ref": "TXG14540",
        "name": "大甲",
        "name_en": "Dajia",
        "line": "157",
        "color": "#9f1239",
        "direction": 0
      },
      "geometry": {
        "type": "Point",
        "coordinates": [
          120.625472,
          24.343072
        ]
      }
    },
    {
      "type": "Feature",
      "properties": {
        "feature_type": "station",
        "ref": "TXG21503",
        "name": "大甲車站(中山路)",
        "name_en": "Dajia Station(Zhongshan Road)",
        "line": "157",
        "color": "#9f1239",
        "direction": 0
      },
      "geometry": {
        "type": "Point",
        "coordinates": [
          120.626146,
          24.343898
        ]
      }
    },
    {
      "type": "Feature",
      "properties": {
        "feature_type": "station",
        "ref": "TXG5076",
        "name": "文昌祠",
        "name_en": "Wenchang Temple",
        "line": "157",
        "color": "#9f1239",
        "direction": 0
      },
      "geometry": {
        "type": "Point",
        "coordinates": [
          120.622719,
          24.347367
        ]
      }
    },
    {
      "type": "Feature",
      "properties": {
        "feature_type": "station",
        "ref": "TXG18918",
        "name": "大甲區公所",
        "name_en": "Dajia District Office",
        "line": "157",
        "color": "#9f1239",
        "direction": 0
      },
      "geometry": {
        "type": "Point",
        "coordinates": [
          120.622377,
          24.349705
        ]
      }
    },
    {
      "type": "Feature",
      "properties": {
        "feature_type": "station",
        "ref": "TXG11390",
        "name": "大甲區公所",
        "name_en": "Dajia District Office",
        "line": "157",
        "color": "#9f1239",
        "direction": 1
      },
      "geometry": {
        "type": "Point",
        "coordinates": [
          120.622377,
          24.349705
        ]
      }
    },
    {
      "type": "Feature",
      "properties": {
        "feature_type": "station",
        "ref": "TXG5076",
        "name": "文昌祠",
        "name_en": "Wenchang Temple",
        "line": "157",
        "color": "#9f1239",
        "direction": 1
      },
      "geometry": {
        "type": "Point",
        "coordinates": [
          120.622719,
          24.347367
        ]
      }
    },
    {
      "type": "Feature",
      "properties": {
        "feature_type": "station",
        "ref": "TXG14140",
        "name": "大甲車站(中山路)",
        "name_en": "Dajia Station(Zhongshan Road)",
        "line": "157",
        "color": "#9f1239",
        "direction": 1
      },
      "geometry": {
        "type": "Point",
        "coordinates": [
          120.626855,
          24.345071
        ]
      }
    },
    {
      "type": "Feature",
      "properties": {
        "feature_type": "station",
        "ref": "TXG14541",
        "name": "大甲",
        "name_en": "Dajia",
        "line": "157",
        "color": "#9f1239",
        "direction": 1
      },
      "geometry": {
        "type": "Point",
        "coordinates": [
          120.62549158986,
          24.343169891322
        ]
      }
    },
    {
      "type": "Feature",
      "properties": {
        "feature_type": "station",
        "ref": "TXG18682",
        "name": "南陽里(中山路)",
        "name_en": "Nanyang Village(Zhongshan Road)",
        "line": "157",
        "color": "#9f1239",
        "direction": 1
      },
      "geometry": {
        "type": "Point",
        "coordinates": [
          120.624191,
          24.342771
        ]
      }
    },
    {
      "type": "Feature",
      "properties": {
        "feature_type": "station",
        "ref": "TXG14155",
        "name": "大甲高中(水源路)",
        "name_en": "Dajia Senior High School(Shuiyuan Road)",
        "line": "157",
        "color": "#9f1239",
        "direction": 1
      },
      "geometry": {
        "type": "Point",
        "coordinates": [
          120.622831,
          24.34187
        ]
      }
    },
    {
      "type": "Feature",
      "properties": {
        "feature_type": "station",
        "ref": "TXG5451",
        "name": "中正紀念館",
        "name_en": "Zhongzheng Memorial Hall",
        "line": "157",
        "color": "#9f1239",
        "direction": 1
      },
      "geometry": {
        "type": "Point",
        "coordinates": [
          120.626203,
          24.340201
        ]
      }
    },
    {
      "type": "Feature",
      "properties": {
        "feature_type": "station",
        "ref": "TXG5612",
        "name": "永光寺",
        "name_en": "Yongguang Temple",
        "line": "157",
        "color": "#9f1239",
        "direction": 1
      },
      "geometry": {
        "type": "Point",
        "coordinates": [
          120.628366,
          24.34289
        ]
      }
    },
    {
      "type": "Feature",
      "properties": {
        "feature_type": "station",
        "ref": "TXG13835",
        "name": "中山里",
        "name_en": "Zhongshan Village",
        "line": "157",
        "color": "#9f1239",
        "direction": 1
      },
      "geometry": {
        "type": "Point",
        "coordinates": [
          120.62929842117,
          24.344691128904
        ]
      }
    },
    {
      "type": "Feature",
      "properties": {
        "feature_type": "station",
        "ref": "TXG18330",
        "name": "甲工入口",
        "name_en": "Jiagong Entrance",
        "line": "157",
        "color": "#9f1239",
        "direction": 1
      },
      "geometry": {
        "type": "Point",
        "coordinates": [
          120.632734,
          24.345569
        ]
      }
    },
    {
      "type": "Feature",
      "properties": {
        "feature_type": "station",
        "ref": "TXG14460",
        "name": "甲后路五段316巷口",
        "name_en": "Jiahou Road Sec.5 316th Lane",
        "line": "157",
        "color": "#9f1239",
        "direction": 1
      },
      "geometry": {
        "type": "Point",
        "coordinates": [
          120.634606,
          24.344335
        ]
      }
    },
    {
      "type": "Feature",
      "properties": {
        "feature_type": "station",
        "ref": "TXG5893",
        "name": "東泰新城",
        "name_en": "Dongtai Community",
        "line": "157",
        "color": "#9f1239",
        "direction": 1
      },
      "geometry": {
        "type": "Point",
        "coordinates": [
          120.63651667205,
          24.343244456166
        ]
      }
    },
    {
      "type": "Feature",
      "properties": {
        "feature_type": "station",
        "ref": "TXG5218",
        "name": "大甲東新城",
        "name_en": "Dajiadong Community",
        "line": "157",
        "color": "#9f1239",
        "direction": 1
      },
      "geometry": {
        "type": "Point",
        "coordinates": [
          120.638163,
          24.342082
        ]
      }
    },
    {
      "type": "Feature",
      "properties": {
        "feature_type": "station",
        "ref": "TXG13831",
        "name": "大甲東",
        "name_en": "Dajia East",
        "line": "157",
        "color": "#9f1239",
        "direction": 1
      },
      "geometry": {
        "type": "Point",
        "coordinates": [
          120.64127407714,
          24.34068131641
        ]
      }
    },
    {
      "type": "Feature",
      "properties": {
        "feature_type": "station",
        "ref": "TXG13830",
        "name": "后寮",
        "name_en": "Houliao",
        "line": "157",
        "color": "#9f1239",
        "direction": 1
      },
      "geometry": {
        "type": "Point",
        "coordinates": [
          120.64961,
          24.335371
        ]
      }
    },
    {
      "type": "Feature",
      "properties": {
        "feature_type": "station",
        "ref": "TXG19835",
        "name": "外埔",
        "name_en": "Waipu",
        "line": "157",
        "color": "#9f1239",
        "direction": 1
      },
      "geometry": {
        "type": "Point",
        "coordinates": [
          120.65206,
          24.33294
        ]
      }
    },
    {
      "type": "Feature",
      "properties": {
        "feature_type": "station",
        "ref": "TXG6942",
        "name": "外埔區公所",
        "name_en": "Waipu District Office",
        "line": "157",
        "color": "#9f1239",
        "direction": 1
      },
      "geometry": {
        "type": "Point",
        "coordinates": [
          120.654629,
          24.332005
        ]
      }
    },
    {
      "type": "Feature",
      "properties": {
        "feature_type": "station",
        "ref": "TXG10491",
        "name": "中山路284巷口(六分公園)",
        "name_en": "Zhongshan Road 284th Lane(Liufen Park)",
        "line": "157",
        "color": "#9f1239",
        "direction": 1
      },
      "geometry": {
        "type": "Point",
        "coordinates": [
          120.656664,
          24.330484
        ]
      }
    },
    {
      "type": "Feature",
      "properties": {
        "feature_type": "station",
        "ref": "TXG11616",
        "name": "二崁",
        "name_en": "Erkan",
        "line": "157",
        "color": "#9f1239",
        "direction": 1
      },
      "geometry": {
        "type": "Point",
        "coordinates": [
          120.658158,
          24.32712
        ]
      }
    },
    {
      "type": "Feature",
      "properties": {
        "feature_type": "station",
        "ref": "TXG11614",
        "name": "甲后六支巷口",
        "name_en": "Jiahou-Luzhi Intersection",
        "line": "157",
        "color": "#9f1239",
        "direction": 1
      },
      "geometry": {
        "type": "Point",
        "coordinates": [
          120.659233,
          24.326078
        ]
      }
    },
    {
      "type": "Feature",
      "properties": {
        "feature_type": "station",
        "ref": "TXG11612",
        "name": "久輪公司",
        "name_en": "Jiulun Company",
        "line": "157",
        "color": "#9f1239",
        "direction": 1
      },
      "geometry": {
        "type": "Point",
        "coordinates": [
          120.661352,
          24.323953
        ]
      }
    },
    {
      "type": "Feature",
      "properties": {
        "feature_type": "station",
        "ref": "TXG11610",
        "name": "三崁",
        "name_en": "Sankan",
        "line": "157",
        "color": "#9f1239",
        "direction": 1
      },
      "geometry": {
        "type": "Point",
        "coordinates": [
          120.664681,
          24.322001
        ]
      }
    },
    {
      "type": "Feature",
      "properties": {
        "feature_type": "station",
        "ref": "TXG11608",
        "name": "三崁中點",
        "name_en": "Sankan Zhongdian",
        "line": "157",
        "color": "#9f1239",
        "direction": 1
      },
      "geometry": {
        "type": "Point",
        "coordinates": [
          120.668301,
          24.319453
        ]
      }
    },
    {
      "type": "Feature",
      "properties": {
        "feature_type": "station",
        "ref": "TXG11606",
        "name": "司普公司",
        "name_en": "Sipu Company",
        "line": "157",
        "color": "#9f1239",
        "direction": 1
      },
      "geometry": {
        "type": "Point",
        "coordinates": [
          120.669993,
          24.318441
        ]
      }
    },
    {
      "type": "Feature",
      "properties": {
        "feature_type": "station",
        "ref": "TXG11604",
        "name": "四塊厝(甲后路)",
        "name_en": "Sikuaicuo(Jiahou Road)",
        "line": "157",
        "color": "#9f1239",
        "direction": 1
      },
      "geometry": {
        "type": "Point",
        "coordinates": [
          120.674303,
          24.316936
        ]
      }
    },
    {
      "type": "Feature",
      "properties": {
        "feature_type": "station",
        "ref": "TXG11602",
        "name": "忠明新城",
        "name_en": "Zhongming Community",
        "line": "157",
        "color": "#9f1239",
        "direction": 1
      },
      "geometry": {
        "type": "Point",
        "coordinates": [
          120.676631,
          24.316572
        ]
      }
    },
    {
      "type": "Feature",
      "properties": {
        "feature_type": "station",
        "ref": "TXG23646",
        "name": "眉山",
        "name_en": "Meishan",
        "line": "157",
        "color": "#9f1239",
        "direction": 1
      },
      "geometry": {
        "type": "Point",
        "coordinates": [
          120.680475,
          24.31591
        ]
      }
    },
    {
      "type": "Feature",
      "properties": {
        "feature_type": "station",
        "ref": "TXG23816",
        "name": "后神甲后721巷口",
        "name_en": "Houshen-Jiahou 721th Lane",
        "line": "157",
        "color": "#9f1239",
        "direction": 1
      },
      "geometry": {
        "type": "Point",
        "coordinates": [
          120.680563,
          24.3135
        ]
      }
    },
    {
      "type": "Feature",
      "properties": {
        "feature_type": "station",
        "ref": "TXG23817",
        "name": "育英國小(后神路)",
        "name_en": "Yuh-Ing Elementary School(Houshen Road)",
        "line": "157",
        "color": "#9f1239",
        "direction": 1
      },
      "geometry": {
        "type": "Point",
        "coordinates": [
          120.680283,
          24.311539
        ]
      }
    },
    {
      "type": "Feature",
      "properties": {
        "feature_type": "station",
        "ref": "TXG23818",
        "name": "后神水門路口",
        "name_en": "Houshen-Shuimen Intersection",
        "line": "157",
        "color": "#9f1239",
        "direction": 1
      },
      "geometry": {
        "type": "Point",
        "coordinates": [
          120.678648,
          24.303973
        ]
      }
    },
    {
      "type": "Feature",
      "properties": {
        "feature_type": "station",
        "ref": "TXG23819",
        "name": "后神舊社路口",
        "name_en": "Houshen-Jiushe Intersection",
        "line": "157",
        "color": "#9f1239",
        "direction": 1
      },
      "geometry": {
        "type": "Point",
        "coordinates": [
          120.676779,
          24.295273
        ]
      }
    },
    {
      "type": "Feature",
      "properties": {
        "feature_type": "station",
        "ref": "TXG3573",
        "name": "中清環中路口",
        "name_en": "Zhongqing-Huanzhong Intersection",
        "line": "157",
        "color": "#9f1239",
        "direction": 1
      },
      "geometry": {
        "type": "Point",
        "coordinates": [
          120.65633642305,
          24.198373650594
        ]
      }
    },
    {
      "type": "Feature",
      "properties": {
        "feature_type": "station",
        "ref": "TXG12216",
        "name": "黎明經貿路口",
        "name_en": "Liming-Jingmao Intersection",
        "line": "157",
        "color": "#9f1239",
        "direction": 1
      },
      "geometry": {
        "type": "Point",
        "coordinates": [
          120.655838,
          24.196131
        ]
      }
    },
    {
      "type": "Feature",
      "properties": {
        "feature_type": "station",
        "ref": "TXG12218",
        "name": "會展中心(會議中心)",
        "name_en": "TICEC-ConferenceCenter",
        "line": "157",
        "color": "#9f1239",
        "direction": 1
      },
      "geometry": {
        "type": "Point",
        "coordinates": [
          120.652301,
          24.194975
        ]
      }
    },
    {
      "type": "Feature",
      "properties": {
        "feature_type": "station",
        "ref": "TXG12220",
        "name": "會展中心(展覽館)",
        "name_en": "TICEC - Exhibition Hall",
        "line": "157",
        "color": "#9f1239",
        "direction": 1
      },
      "geometry": {
        "type": "Point",
        "coordinates": [
          120.65019,
          24.194127
        ]
      }
    },
    {
      "type": "Feature",
      "properties": {
        "feature_type": "station",
        "ref": "TXG12222",
        "name": "黎明僑大六路口",
        "name_en": "Liming-Qiaoda 6th Intersection",
        "line": "157",
        "color": "#9f1239",
        "direction": 1
      },
      "geometry": {
        "type": "Point",
        "coordinates": [
          120.646536,
          24.1928
        ]
      }
    },
    {
      "type": "Feature",
      "properties": {
        "feature_type": "station",
        "ref": "TXG6400",
        "name": "黎明僑大三街口",
        "name_en": "Liming-Qiaoda 3rd Intersection",
        "line": "157",
        "color": "#9f1239",
        "direction": 1
      },
      "geometry": {
        "type": "Point",
        "coordinates": [
          120.642214,
          24.190437
        ]
      }
    },
    {
      "type": "Feature",
      "properties": {
        "feature_type": "station",
        "ref": "TXG6395",
        "name": "黎明福星北路口",
        "name_en": "Liming-Fuxing N. Intersection",
        "line": "157",
        "color": "#9f1239",
        "direction": 1
      },
      "geometry": {
        "type": "Point",
        "coordinates": [
          120.640798,
          24.188424
        ]
      }
    },
    {
      "type": "Feature",
      "properties": {
        "feature_type": "station",
        "ref": "TXG14300",
        "name": "福星北西苑路口",
        "name_en": "Fuxing N. -Xiyuan Intersection",
        "line": "157",
        "color": "#9f1239",
        "direction": 1
      },
      "geometry": {
        "type": "Point",
        "coordinates": [
          120.641945,
          24.187294
        ]
      }
    },
    {
      "type": "Feature",
      "properties": {
        "feature_type": "station",
        "ref": "TXG411",
        "name": "僑光科技大學",
        "name_en": "Overseas Chinese University",
        "line": "157",
        "color": "#9f1239",
        "direction": 1
      },
      "geometry": {
        "type": "Point",
        "coordinates": [
          120.644254,
          24.186928
        ]
      }
    },
    {
      "type": "Feature",
      "properties": {
        "feature_type": "station",
        "ref": "TXG9366",
        "name": "漢翔公司(星享道)",
        "name_en": "AIDC(In Sky Hotel )",
        "line": "157",
        "color": "#9f1239",
        "direction": 1
      },
      "geometry": {
        "type": "Point",
        "coordinates": [
          120.644647,
          24.183945
        ]
      }
    },
    {
      "type": "Feature",
      "properties": {
        "feature_type": "station",
        "ref": "TXG9367",
        "name": "福星西安街口",
        "name_en": "Fuxing-Xian Intersection",
        "line": "157",
        "color": "#9f1239",
        "direction": 1
      },
      "geometry": {
        "type": "Point",
        "coordinates": [
          120.644946,
          24.181538
        ]
      }
    },
    {
      "type": "Feature",
      "properties": {
        "feature_type": "station",
        "ref": "TXG9369",
        "name": "逢甲大學(福星路)",
        "name_en": "Feng Chia University(Fuxing Road)",
        "line": "157",
        "color": "#9f1239",
        "direction": 1
      },
      "geometry": {
        "type": "Point",
        "coordinates": [
          120.64497,
          24.179275
        ]
      }
    },
    {
      "type": "Feature",
      "properties": {
        "feature_type": "station",
        "ref": "TXG970",
        "name": "逢甲大學(逢甲路)",
        "name_en": "Feng Chia University(Fengjia Road)",
        "line": "157",
        "color": "#9f1239",
        "direction": 1
      },
      "geometry": {
        "type": "Point",
        "coordinates": [
          120.644141,
          24.178778
        ]
      }
    },
    {
      "type": "Feature",
      "properties": {
        "feature_type": "station",
        "ref": "TXG9371",
        "name": "至善國中(逢甲路)",
        "name_en": "Chihshan Junior High School(Fengjia Road)",
        "line": "157",
        "color": "#9f1239",
        "direction": 1
      },
      "geometry": {
        "type": "Point",
        "coordinates": [
          120.640115,
          24.175506
        ]
      }
    },
    {
      "type": "Feature",
      "properties": {
        "feature_type": "station",
        "ref": "TXG8933",
        "name": "至善國中(青海路)",
        "name_en": "Chihshan Junior High School(Qinghai Road)",
        "line": "157",
        "color": "#9f1239",
        "direction": 1
      },
      "geometry": {
        "type": "Point",
        "coordinates": [
          120.640649,
          24.173899
        ]
      }
    },
    {
      "type": "Feature",
      "properties": {
        "feature_type": "station",
        "ref": "TXG9002",
        "name": "青海上仁街口",
        "name_en": "Qinghai-Shangren Intersection",
        "line": "157",
        "color": "#9f1239",
        "direction": 1
      },
      "geometry": {
        "type": "Point",
        "coordinates": [
          120.643101,
          24.172039
        ]
      }
    },
    {
      "type": "Feature",
      "properties": {
        "feature_type": "station",
        "ref": "TXG19270",
        "name": "河南青海路口",
        "name_en": "Henan-Qinghai Intersection",
        "line": "157",
        "color": "#9f1239",
        "direction": 1
      },
      "geometry": {
        "type": "Point",
        "coordinates": [
          120.643428,
          24.170622
        ]
      }
    },
    {
      "type": "Feature",
      "properties": {
        "feature_type": "station",
        "ref": "TXG19271",
        "name": "河南臺灣大道口",
        "name_en": "Henan-Taiwan Boulevard Intersection",
        "line": "157",
        "color": "#9f1239",
        "direction": 1
      },
      "geometry": {
        "type": "Point",
        "coordinates": [
          120.641593,
          24.16839
        ]
      }
    },
    {
      "type": "Feature",
      "properties": {
        "feature_type": "station",
        "ref": "TXG1309",
        "name": "新光/遠百(專用道)",
        "name_en": "Shin Kong Mitsukoshi/Top City Dept. Store(Dedicated Road)",
        "line": "157",
        "color": "#9f1239",
        "direction": 1
      },
      "geometry": {
        "type": "Point",
        "coordinates": [
          120.643231,
          24.165999
        ]
      }
    },
    {
      "type": "Feature",
      "properties": {
        "feature_type": "station",
        "ref": "TXG16616",
        "name": "臺中市政府",
        "name_en": "Taichung City Hall",
        "line": "157",
        "color": "#9f1239",
        "direction": 1
      },
      "geometry": {
        "type": "Point",
        "coordinates": [
          120.647355,
          24.163562
        ]
      }
    },
    {
      "type": "Feature",
      "properties": {
        "feature_type": "station",
        "ref": "TXG8994",
        "name": "捷運市政府站(文心路)",
        "name_en": "MRT Taichung City Hall Station(Wenxin Road)",
        "line": "157",
        "color": "#9f1239",
        "direction": 1
      },
      "geometry": {
        "type": "Point",
        "coordinates": [
          120.64865180283,
          24.161573024338
        ]
      }
    },
    {
      "type": "Feature",
      "properties": {
        "feature_type": "station",
        "ref": "TXG21999",
        "name": "文心第二市政大樓",
        "name_en": "Wenxin Second Municipal Building",
        "line": "157",
        "color": "#9f1239",
        "direction": 1
      },
      "geometry": {
        "type": "Point",
        "coordinates": [
          120.647536,
          24.159703
        ]
      }
    },
    {
      "type": "Feature",
      "properties": {
        "feature_type": "station",
        "ref": "TXG12506",
        "name": "中央健保署(文心路)",
        "name_en": "NHI Administration(Wenxin Road)",
        "line": "157",
        "color": "#9f1239",
        "direction": 1
      },
      "geometry": {
        "type": "Point",
        "coordinates": [
          120.646708,
          24.156816
        ]
      }
    },
    {
      "type": "Feature",
      "properties": {
        "feature_type": "station",
        "ref": "TXG22002",
        "name": "文心市政路口",
        "name_en": "Wenxin-Shizheng Intersection",
        "line": "157",
        "color": "#9f1239",
        "direction": 1
      },
      "geometry": {
        "type": "Point",
        "coordinates": [
          120.64658645424,
          24.154372552772
        ]
      }
    },
    {
      "type": "Feature",
      "properties": {
        "feature_type": "station",
        "ref": "TXG21997",
        "name": "捷運水安宮站(文心路)",
        "name_en": "MRT Shui-An Temple Station(Wenxin Road)",
        "line": "157",
        "color": "#9f1239",
        "direction": 1
      },
      "geometry": {
        "type": "Point",
        "coordinates": [
          120.64665547249,
          24.152669257244
        ]
      }
    },
    {
      "type": "Feature",
      "properties": {
        "feature_type": "station",
        "ref": "TXG22004",
        "name": "文心公益路口",
        "name_en": "Wenxin-Gongyi Intersection",
        "line": "157",
        "color": "#9f1239",
        "direction": 1
      },
      "geometry": {
        "type": "Point",
        "coordinates": [
          120.64657782588,
          24.150203533758
        ]
      }
    },
    {
      "type": "Feature",
      "properties": {
        "feature_type": "station",
        "ref": "TXG19834",
        "name": "捷運文心森林公園站(文心路)",
        "name_en": "MRT Wenxin Forest Park Station(Wenxin Road)",
        "line": "157",
        "color": "#9f1239",
        "direction": 1
      },
      "geometry": {
        "type": "Point",
        "coordinates": [
          120.646561,
          24.145244
        ]
      }
    }
  ]
}
