{
  "type": "FeatureCollection",
  "name": "115平日",
  "properties": {
    "id": "new_taipei_115_7bd9a44590",
    "name": "115平日",
    "name_en": "115平日",
    "ref": "115平日",
    "color": "#0B7A3E",
    "city_id": "NewTaipei",
    "source": "TDX Bus Shape / StopOfRoute",
    "official_map_url": "https://ebus.gov.taipei/File/Get/014e5d18-2467-4cf6-a0d2-9c3b919858d2?v=639248448629752363",
    "operator_id": "16186",
    "operator": "淡水客運"
  },
  "features": [
    {
      "type": "Feature",
      "properties": {
        "feature_type": "route",
        "ref": "115平日",
        "name": "115平日",
        "name_en": "115平日",
        "color": "#0B7A3E",
        "direction": 0
      },
      "geometry": {
        "type": "LineString",
        "coordinates": [
          [
            121.446781676324,
            25.1673387003248
          ],
          [
            121.447061845476,
            25.1671738949412
          ],
          [
            121.447314547064,
            25.1675602720072
          ],
          [
            121.444756928657,
            25.1689782091033
          ],
          [
            121.444382962545,
            25.1695610571886
          ],
          [
            121.44400471919165,
            25.170453779970877
          ],
          [
            121.44399408143876,
            25.170473075786273
          ],
          [
            121.44397965767418,
            25.170489885932994
          ],
          [
            121.44396190451957,
            25.170503799503884
          ],
          [
            121.44394150801713,
            25.170514278831288
          ],
          [
            121.44391925635698,
            25.17052091895841
          ],
          [
            121.44389602711163,
            25.170523462946125
          ],
          [
            121.442607465777,
            25.170548192963
          ],
          [
            121.442226761536,
            25.1706256814367
          ],
          [
            121.44106443443,
            25.1715892337626
          ],
          [
            121.440451264768,
            25.1723203206672
          ],
          [
            121.438904864356,
            25.1729065378165
          ],
          [
            121.438049122081,
            25.1729638119058
          ],
          [
            121.435458311806,
            25.1734961240299
          ],
          [
            121.433770410704,
            25.1743922950742
          ],
          [
            121.431590626246,
            25.174954928775
          ],
          [
            121.430623704856,
            25.175392907105
          ],
          [
            121.429272710162,
            25.1753423711438
          ],
          [
            121.428321413292,
            25.1756100994105
          ],
          [
            121.427084457329,
            25.1760047167457
          ],
          [
            121.426714560802,
            25.1761585351037
          ],
          [
            121.42639552944,
            25.1763530903668
          ],
          [
            121.42184603544038,
            25.179342424239103
          ],
          [
            121.4218251966261,
            25.1793534673051
          ],
          [
            121.42180273280015,
            25.17936037997215
          ],
          [
            121.4217792117094,
            25.179363100847045
          ],
          [
            121.42175556526902,
            25.179361522127618
          ],
          [
            121.42173273036062,
            25.17935570636337
          ],
          [
            121.42171129105435,
            25.179345695406763
          ],
          [
            121.421105798685,
            25.1789910513276
          ],
          [
            121.421204681915,
            25.1788384537502
          ],
          [
            121.4217955740889,
            25.179194228954426
          ],
          [
            121.42182358152304,
            25.179217965470027
          ],
          [
            121.4218420184992,
            25.1792488998789
          ],
          [
            121.42184862468699,
            25.179283584529134
          ],
          [
            121.42184270539094,
            25.179318372042157
          ],
          [
            121.42182488307412,
            25.17934960422253
          ],
          [
            121.42179735413988,
            25.179373793944283
          ],
          [
            121.421027859482,
            25.1798556692093
          ],
          [
            121.420035364838,
            25.1813077877561
          ],
          [
            121.4197227241047,
            25.182353602311235
          ],
          [
            121.41970656466019,
            25.182385876956992
          ],
          [
            121.41968001882252,
            25.18241156347234
          ],
          [
            121.41964583575235,
            25.182428134179023
          ],
          [
            121.4196076268933,
            25.182433838380785
          ],
          [
            121.41956942901385,
            25.18242807342833
          ],
          [
            121.41953495677774,
            25.182411223648135
          ],
          [
            121.418486194232,
            25.1816795154546
          ],
          [
            121.41738104100602,
            25.18088422984551
          ],
          [
            121.417345789911,
            25.180866570562614
          ],
          [
            121.4173065069887,
            25.18086060971097
          ],
          [
            121.41726726351068,
            25.180866782584108
          ],
          [
            121.41723244581146,
            25.18088439922569
          ],
          [
            121.41720594554604,
            25.180911490582833
          ],
          [
            121.41719068483427,
            25.18094518949678
          ],
          [
            121.416990127583,
            25.1817454376081
          ],
          [
            121.416305269656,
            25.1826060879447
          ],
          [
            121.414979501903,
            25.1835051928709
          ],
          [
            121.414793638054,
            25.1836388683487
          ],
          [
            121.413646409467,
            25.1840637000042
          ],
          [
            121.412702440853,
            25.1844097913098
          ],
          [
            121.41179510708074,
            25.184875174251676
          ],
          [
            121.41175967974156,
            25.184887207293006
          ],
          [
            121.41172225543838,
            25.184888555991975
          ],
          [
            121.41168622144359,
            25.184879247975825
          ],
          [
            121.41165513998799,
            25.184860203411805
          ],
          [
            121.41163208370675,
            25.184833304997994
          ],
          [
            121.41161930268409,
            25.184801073592684
          ],
          [
            121.41150393948,
            25.1842541417808
          ],
          [
            121.41264527411651,
            25.184067837816986
          ],
          [
            121.41266559849765,
            25.184066114968868
          ],
          [
            121.41268580329813,
            25.184067557952957
          ],
          [
            121.41270544725455,
            25.184072101465084
          ],
          [
            121.41272396174317,
            25.184079613986487
          ],
          [
            121.41274081083438,
            25.18408987805597
          ],
          [
            121.41275578218718,
            25.184102880322797
          ],
          [
            121.41293599863131,
            25.184287494742634
          ],
          [
            121.41294282158113,
            25.184293187412607
          ],
          [
            121.41295065260003,
            25.18429740572101
          ],
          [
            121.41295926409424,
            25.184300077062215
          ],
          [
            121.41296829281076,
            25.184301088752786
          ],
          [
            121.41297735789713,
            25.184300398117234
          ],
          [
            121.41298617878712,
            25.18429799579536
          ],
          [
            121.41449829773059,
            25.183728747139945
          ],
          [
            121.41452929987503,
            25.18371152116914
          ],
          [
            121.41455332563439,
            25.183686355465355
          ],
          [
            121.41456783265163,
            25.183655729701123
          ],
          [
            121.41457145117275,
            25.183622535564105
          ],
          [
            121.41456383953663,
            25.18358990724796
          ],
          [
            121.41454596986561,
            25.183561216670128
          ],
          [
            121.41420242281455,
            25.18316785575124
          ],
          [
            121.41419168300098,
            25.183149644249003
          ],
          [
            121.41418842486591,
            25.183128980738946
          ],
          [
            121.41419318706379,
            25.183108561096166
          ],
          [
            121.41420538514114,
            25.183090891375837
          ],
          [
            121.41422352205639,
            25.18307814014157
          ],
          [
            121.4142453135992,
            25.18307187922979
          ],
          [
            121.414365029602,
            25.183057848659132
          ],
          [
            121.41438101814687,
            25.183058085698388
          ],
          [
            121.414396209978,
            25.1830624893149
          ],
          [
            121.41440937464985,
            25.1830706828325
          ],
          [
            121.41441940344784,
            25.183081976201894
          ],
          [
            121.41442545175734,
            25.183095418307587
          ],
          [
            121.41442701104108,
            25.183109860379812
          ],
          [
            121.41439855167646,
            25.18365227994304
          ],
          [
            121.41440480680247,
            25.18369248383496
          ],
          [
            121.41442686025032,
            25.183727808092932
          ],
          [
            121.41446162293757,
            25.183753265628667
          ],
          [
            121.4145042226074,
            25.1837652883736
          ],
          [
            121.41454868858995,
            25.183762191247972
          ],
          [
            121.41458911043391,
            25.183744188926134
          ],
          [
            121.415119586479,
            25.1833843355895
          ],
          [
            121.416297944972,
            25.1825859450645
          ],
          [
            121.41684607235801,
            25.181896879357456
          ],
          [
            121.41685681004013,
            25.181878995399284
          ],
          [
            121.41686248708645,
            25.181858992240397
          ],
          [
            121.41686257449021,
            25.181838330976237
          ],
          [
            121.4168570668497,
            25.18181828851982
          ],
          [
            121.41684630454957,
            25.18180010354044
          ],
          [
            121.41683119389786,
            25.181785086534376
          ],
          [
            121.41651880479985,
            25.181544287578273
          ],
          [
            121.41649322405442,
            25.181516321439588
          ],
          [
            121.41647915090417,
            25.18148184984578
          ],
          [
            121.4164785155611,
            25.181445074163523
          ],
          [
            121.41649139095647,
            25.18141021588793
          ],
          [
            121.41651629911857,
            25.181381276414214
          ],
          [
            121.41655010571927,
            25.181361682580885
          ],
          [
            121.41748130222734,
            25.181008355269512
          ],
          [
            121.41750157027202,
            25.181002484129127
          ],
          [
            121.41752236312448,
            25.18100000237761
          ],
          [
            121.41754331130554,
            25.181000882185714
          ],
          [
            121.417563765568,
            25.18100509628555
          ],
          [
            121.4175830919727,
            25.18101251406947
          ],
          [
            121.4176010115704,
            25.181023134277776
          ],
          [
            121.41934812346635,
            25.182265758474482
          ],
          [
            121.41938000246716,
            25.18228208805302
          ],
          [
            121.4194154087896,
            25.18228881554573
          ],
          [
            121.41945139844228,
            25.182285549219017
          ],
          [
            121.41948465354312,
            25.182272590195193
          ],
          [
            121.41951210830806,
            25.182251133165224
          ],
          [
            121.41953135059039,
            25.182222902834067
          ],
          [
            121.419973105027,
            25.181283982534
          ],
          [
            121.42031488183731,
            25.180734393368187
          ],
          [
            121.42032487817013,
            25.180713182777662
          ],
          [
            121.42032975785742,
            25.18069019996165
          ],
          [
            121.4203291178049,
            25.180666798111897
          ],
          [
            121.42032298777457,
            25.180644065398365
          ],
          [
            121.42031165280864,
            25.180623058876648
          ],
          [
            121.42029593431047,
            25.180605026793046
          ],
          [
            121.419480748943,
            25.1798561270027
          ],
          [
            121.419067819899,
            25.1793232562624
          ],
          [
            121.418686936346,
            25.1786933334628
          ],
          [
            121.417698104044,
            25.1757195118741
          ],
          [
            121.416647011931,
            25.171416260191
          ],
          [
            121.416280777745,
            25.1702699471894
          ],
          [
            121.415811997987,
            25.1694056345109
          ],
          [
            121.415160101136,
            25.1685706205673
          ],
          [
            121.411007005469,
            25.1652598635277
          ],
          [
            121.412724643801,
            25.1631906403779
          ],
          [
            121.4131597931241,
            25.162337343600313
          ],
          [
            121.41316821558125,
            25.16231412259973
          ],
          [
            121.41317071479261,
            25.162289481431433
          ],
          [
            121.41316702675537,
            25.162264964579652
          ],
          [
            121.41315734311134,
            25.16224184601575
          ],
          [
            121.41314216705258,
            25.16222132705174
          ],
          [
            121.41312260909282,
            25.162204690820285
          ],
          [
            121.411530720355,
            25.1611360665955
          ],
          [
            121.410444835994,
            25.1604200787623
          ],
          [
            121.409732510503,
            25.1599458054917
          ],
          [
            121.408828827649,
            25.1592279864875
          ],
          [
            121.407800625173,
            25.1584277647916
          ],
          [
            121.406944552763,
            25.1577612185734
          ],
          [
            121.40602347378599,
            25.1569500098519
          ],
          [
            121.405749713732,
            25.1566899835799
          ],
          [
            121.40488902063579,
            25.156180714523302
          ],
          [
            121.40486255231717,
            25.15615916639511
          ],
          [
            121.40484407839227,
            25.15613114294375
          ],
          [
            121.40483559540328,
            25.156099376652772
          ],
          [
            121.40483787276122,
            25.156066748739367
          ],
          [
            121.40485070390862,
            25.15603621857025
          ],
          [
            121.40487262022724,
            25.156010815736817
          ],
          [
            121.40706138779093,
            25.154147744724217
          ],
          [
            121.40708926531472,
            25.15412992847224
          ],
          [
            121.40712112301338,
            25.154120099881222
          ],
          [
            121.40715472480592,
            25.154118782337942
          ],
          [
            121.40718739071318,
            25.154126080925728
          ],
          [
            121.40721651539945,
            25.154141413530912
          ],
          [
            121.4072400061015,
            25.1541638511332
          ],
          [
            121.408769085698,
            25.1561072134311
          ],
          [
            121.409512541095,
            25.1566236036331
          ],
          [
            121.410274308201,
            25.1571216821258
          ],
          [
            121.411708115039,
            25.1583632160157
          ],
          [
            121.41251932376,
            25.1588503074828
          ],
          [
            121.413378142926,
            25.1593190872406
          ],
          [
            121.41414721303553,
            25.159927081557537
          ],
          [
            121.41416882845522,
            25.159940778948503
          ],
          [
            121.41419281816262,
            25.159949709855585
          ],
          [
            121.41421835920973,
            25.159953699726927
          ],
          [
            121.41424424242153,
            25.15995255967235
          ],
          [
            121.41426924242404,
            25.159946343664803
          ],
          [
            121.41429249760694,
            25.159935147452444
          ],
          [
            121.415414404999,
            25.1592458404035
          ],
          [
            121.415542586964,
            25.1592238663523
          ],
          [
            121.41626406831,
            25.1592751391383
          ],
          [
            121.419171967745,
            25.1596743344008
          ],
          [
            121.419822147864,
            25.1596844058383
          ],
          [
            121.420514940866,
            25.1595208212353
          ],
          [
            121.421705201969,
            25.1590593661613
          ],
          [
            121.422507865226,
            25.1589507166863
          ],
          [
            121.424314010152,
            25.1589446127832
          ],
          [
            121.42606521995,
            25.1594231587858
          ],
          [
            121.426802571444,
            25.1594548990819
          ],
          [
            121.429388070358,
            25.1588869309014
          ],
          [
            121.431640410601,
            25.1584291381691
          ],
          [
            121.432460775177,
            25.1582863068367
          ],
          [
            121.432728126133,
            25.1582899691785
          ],
          [
            121.433586945298,
            25.1583522289901
          ],
          [
            121.434096010817,
            25.1582753198111
          ]
        ]
      }
    },
    {
      "type": "Feature",
      "properties": {
        "feature_type": "route",
        "ref": "115平日",
        "name": "115平日",
        "name_en": "115平日",
        "color": "#0B7A3E",
        "direction": 1
      },
      "geometry": {
        "type": "LineString",
        "coordinates": [
          [
            121.434119816039,
            25.158379696554
          ],
          [
            121.433883594989,
            25.1584291381691
          ],
          [
            121.433658360964,
            25.1584474498784
          ],
          [
            121.43287004188,
            25.1584071641179
          ],
          [
            121.432659457223,
            25.1583998394342
          ],
          [
            121.431982839564,
            25.1584913979807
          ],
          [
            121.431330942714,
            25.1586067617492
          ],
          [
            121.429441174315,
            25.1589766582769
          ],
          [
            121.426942961215,
            25.1595171588935
          ],
          [
            121.426306934512,
            25.1595415745059
          ],
          [
            121.424122957985,
            25.1589897816661
          ],
          [
            121.42265313812,
            25.1589653660537
          ],
          [
            121.421772955294,
            25.1590825609931
          ],
          [
            121.421020954432,
            25.1593267171169
          ],
          [
            121.420499681108,
            25.1595611069958
          ],
          [
            121.4198136024,
            25.159717366915
          ],
          [
            121.419159149549,
            25.159720113674
          ],
          [
            121.415818178189,
            25.1592696456255
          ],
          [
            121.415576463626,
            25.1592641521127
          ],
          [
            121.415409827071,
            25.1592879573348
          ],
          [
            121.41430188390781,
            25.159981163153407
          ],
          [
            121.41427867445302,
            25.159992560271807
          ],
          [
            121.41425366896077,
            25.15999896604082
          ],
          [
            121.4142277346172,
            25.160000278136625
          ],
          [
            121.4142021049888,
            25.15999643414942
          ],
          [
            121.41417799914842,
            25.15998761691838
          ],
          [
            121.41415624990914,
            25.159973999518908
          ],
          [
            121.413330532482,
            25.1593282430952
          ],
          [
            121.411697128013,
            25.1583906835796
          ],
          [
            121.410378684944,
            25.1572791628257
          ],
          [
            121.410037171566,
            25.1569953313317
          ],
          [
            121.408947624863,
            25.1563086422333
          ],
          [
            121.408697670031,
            25.1560870705509
          ],
          [
            121.40721543636063,
            25.15421770335725
          ],
          [
            121.40719193344033,
            25.154195398467717
          ],
          [
            121.40716285328517,
            25.154180173852538
          ],
          [
            121.40713026981656,
            25.154172942974803
          ],
          [
            121.407096766715,
            25.15417427920128
          ],
          [
            121.40706500058259,
            25.15418407657694
          ],
          [
            121.40703718523146,
            25.154201818383964
          ],
          [
            121.40498703104,
            25.1559424080475
          ],
          [
            121.404979706356,
            25.1559479015603
          ],
          [
            121.40607108423,
            25.1569706105241
          ],
          [
            121.407022377528,
            25.1578074556387
          ],
          [
            121.407886690206,
            25.1584721706859
          ],
          [
            121.408561476693,
            25.1589958855716
          ],
          [
            121.409760893652,
            25.1599426009419
          ],
          [
            121.410523576344,
            25.1604589911439
          ],
          [
            121.41304326249892,
            25.162134948520496
          ],
          [
            121.41305494849618,
            25.162145293334788
          ],
          [
            121.41306320412112,
            25.162158302682887
          ],
          [
            121.41306723737505,
            25.162172875020453
          ],
          [
            121.41306674013767,
            25.16218789709446
          ],
          [
            121.41306175039541,
            25.16220222129428
          ],
          [
            121.41305278675473,
            25.1622146109684
          ],
          [
            121.412982838901,
            25.162286499731
          ],
          [
            121.412913254406,
            25.1628962796504
          ],
          [
            121.412871137475,
            25.1630226304445
          ],
          [
            121.412720981459,
            25.1632405397851
          ],
          [
            121.411074758793,
            25.1652236979012
          ],
          [
            121.415290114272,
            25.1685381172827
          ],
          [
            121.415894400679,
            25.1692925597054
          ],
          [
            121.416436427274,
            25.170178846435
          ],
          [
            121.416897882348,
            25.1718488743223
          ],
          [
            121.418201676049,
            25.1765952693703
          ],
          [
            121.418908508028,
            25.1788585966385
          ],
          [
            121.419333339683,
            25.1794665453869
          ],
          [
            121.42030255343184,
            25.18045316284121
          ],
          [
            121.42033111497632,
            25.180474583598293
          ],
          [
            121.42036510390442,
            25.180486902866324
          ],
          [
            121.42040159201139,
            25.18048924196559
          ],
          [
            121.42043713855236,
            25.180481380324395
          ],
          [
            121.42046839157001,
            25.18046405927748
          ],
          [
            121.42049260457124,
            25.180438621154394
          ],
          [
            121.420911809024,
            25.1798327795728
          ],
          [
            121.42168968148522,
            25.17932255784429
          ],
          [
            121.4217161453791,
            25.179298433103348
          ],
          [
            121.42173320928559,
            25.179267669585684
          ],
          [
            121.42173883039868,
            25.17923358148569
          ],
          [
            121.42173244195219,
            25.179199605841532
          ],
          [
            121.42171468808105,
            25.1791691683527
          ],
          [
            121.42168768117048,
            25.17914554128056
          ],
          [
            121.421536123853,
            25.1790508695779
          ],
          [
            121.421485461458,
            25.179082609874
          ],
          [
            121.421172331229,
            25.1788897265362
          ],
          [
            121.42128799326322,
            25.17873204147264
          ],
          [
            121.42131436310882,
            25.17870608553752
          ],
          [
            121.4213481250583,
            25.178689349343763
          ],
          [
            121.42138597713627,
            25.178683282233653
          ],
          [
            121.42142397871807,
            25.17868851582915
          ],
          [
            121.42145817361488,
            25.178704505282088
          ],
          [
            121.4214852265595,
            25.178729879874798
          ],
          [
            121.421925552871,
            25.1793023503854
          ],
          [
            121.421046590825,
            25.1798468185415
          ],
          [
            121.420151758631,
            25.1811579369263
          ],
          [
            121.419986342858,
            25.1814600801295
          ],
          [
            121.41968711696892,
            25.182330642978062
          ],
          [
            121.41967000815299,
            25.18236189445985
          ],
          [
            121.41964308927463,
            25.18238645093593
          ],
          [
            121.41960904159863,
            25.182402008863804
          ],
          [
            121.41957134608906,
            25.182406977633057
          ],
          [
            121.41953385665691,
            25.182400849246992
          ],
          [
            121.41950008563454,
            25.18238402333031
          ],
          [
            121.41736507347868,
            25.180875676936804
          ],
          [
            121.41732947499267,
            25.18085825415182
          ],
          [
            121.41728993953417,
            25.180852673449845
          ],
          [
            121.41725060648274,
            25.180859337008997
          ],
          [
            121.41721591271875,
            25.180877493160807
          ],
          [
            121.41718977179771,
            25.180905093839577
          ],
          [
            121.41717509868693,
            25.180939174727264
          ],
          [
            121.416990547219,
            25.1817433012331
          ],
          [
            121.416353299736,
            25.1825465748804
          ],
          [
            121.414796804446,
            25.1836379527538
          ],
          [
            121.412946101028,
            25.1843313561454
          ],
          [
            121.412679970853,
            25.1844192523499
          ],
          [
            121.41179186943516,
            25.18487222996062
          ],
          [
            121.41175643564455,
            25.184884181408012
          ],
          [
            121.41171903245097,
            25.184885458653905
          ],
          [
            121.41168304076142,
            25.184876095411763
          ],
          [
            121.41165201404512,
            25.184857016117018
          ],
          [
            121.41162901557813,
            25.18483010447359
          ],
          [
            121.41161628714383,
            25.184797879991415
          ],
          [
            121.411503138336,
            25.1842581093082
          ],
          [
            121.412611607138,
            25.1840847584603
          ],
          [
            121.412957088054,
            25.1843020574105
          ],
          [
            121.41446882339646,
            25.18373855564432
          ],
          [
            121.4145009128514,
            25.183720641728307
          ],
          [
            121.41452542156196,
            25.183694269569855
          ],
          [
            121.41453959330894,
            25.183662213859296
          ],
          [
            121.41454199181263,
            25.183627723382212
          ],
          [
            121.41453237398919,
            25.18359429368317
          ],
          [
            121.41451199375022,
            25.183565594615807
          ],
          [
            121.4141584500417,
            25.18321096244581
          ],
          [
            121.41414581415651,
            25.183193206395064
          ],
          [
            121.41413983608189,
            25.183172516162
          ],
          [
            121.41414129444668,
            25.18315116199313
          ],
          [
            121.41415004152427,
            25.183131306982144
          ],
          [
            121.41416519126994,
            25.18311496236389
          ],
          [
            121.41418504006175,
            25.18310384729952
          ],
          [
            121.41431047859035,
            25.183057275062286
          ],
          [
            121.41433499261791,
            25.18305206816306
          ],
          [
            121.41435985774318,
            25.183054266910002
          ],
          [
            121.4143826562417,
            25.18306357522921
          ],
          [
            121.4144010088697,
            25.18307902170754
          ],
          [
            121.41441300035291,
            25.183098994355607
          ],
          [
            121.41441737929318,
            25.183121415726976
          ],
          [
            121.41442558319095,
            25.183656056563493
          ],
          [
            121.41443422231235,
            25.183695168634465
          ],
          [
            121.41445777422219,
            25.183728787388247
          ],
          [
            121.41449305966297,
            25.18375238501301
          ],
          [
            121.41453531523129,
            25.18376277591707
          ],
          [
            121.41457883658238,
            25.183758557366993
          ],
          [
            121.41461806895286,
            25.183740071530845
          ],
          [
            121.416350858174,
            25.1825148345843
          ],
          [
            121.416881897744,
            25.1818434052439
          ],
          [
            121.41636049136685,
            25.18140677740396
          ],
          [
            121.41633439515374,
            25.181374697865408
          ],
          [
            121.41632275836716,
            25.18133581016197
          ],
          [
            121.41632749192567,
            25.18129573381288
          ],
          [
            121.41634794323433,
            25.181259993968748
          ],
          [
            121.4163812927608,
            25.18123351792524
          ],
          [
            121.41642281501792,
            25.181219974229588
          ],
          [
            121.417336028134,
            25.1810889628213
          ],
          [
            121.417530132252,
            25.1810694303314
          ],
          [
            121.417666859682,
            25.1810840796988
          ],
          [
            121.41937782349363,
            25.182271131618332
          ],
          [
            121.41941014969802,
            25.18228719342998
          ],
          [
            121.41944590991974,
            25.182293478476396
          ],
          [
            121.41948208250555,
            25.182289622880482
          ],
          [
            121.41951528617449,
            25.18227598704925
          ],
          [
            121.4195424171691,
            25.18225384561029
          ],
          [
            121.41956104601816,
            25.18222502462735
          ],
          [
            121.41997169349,
            25.1812891708428
          ],
          [
            121.420302525038,
            25.1807495858092
          ],
          [
            121.420911694567,
            25.179834000345
          ],
          [
            121.42336740924,
            25.1782140244715
          ],
          [
            121.424674865283,
            25.1773405559384
          ],
          [
            121.42598964601,
            25.1765055419948
          ],
          [
            121.42679719239,
            25.1760147881858
          ],
          [
            121.427124056401,
            25.175881112708
          ],
          [
            121.428908532471,
            25.1753299302583
          ],
          [
            121.429252792606,
            25.1752786574723
          ],
          [
            121.4295869813,
            25.1752695016177
          ],
          [
            121.430559333063,
            25.175285982156
          ],
          [
            121.431005223185,
            25.1751156832596
          ],
          [
            121.431472171772,
            25.1748831245517
          ],
          [
            121.432878511045,
            25.1745553449554
          ],
          [
            121.433740992553,
            25.174306305709
          ],
          [
            121.4347710262,
            25.1737331492082
          ],
          [
            121.435433910076,
            25.1733925514155
          ],
          [
            121.437340159014,
            25.1730006808366
          ],
          [
            121.438032341625,
            25.1728670053588
          ],
          [
            121.438868271154,
            25.1728322131112
          ],
          [
            121.440367084559,
            25.1722535630976
          ],
          [
            121.440952143671,
            25.1715320817516
          ],
          [
            121.441732222487,
            25.1708453926532
          ],
          [
            121.442186352877,
            25.1705524053046
          ],
          [
            121.442538853281,
            25.1704681714418
          ],
          [
            121.44387232907589,
            25.170433549168884
          ],
          [
            121.44389580375152,
            25.170430790758065
          ],
          [
            121.44391823826489,
            25.170423847074904
          ],
          [
            121.4439387209748,
            25.17041299349971
          ],
          [
            121.44395644139446,
            25.170398659501018
          ],
          [
            121.44397069833899,
            25.17038141226536
          ],
          [
            121.44398101822509,
            25.17036170533333
          ],
          [
            121.444402985287,
            25.1692980532182
          ],
          [
            121.444590680307,
            25.1690343646044
          ],
          [
            121.444782953254,
            25.168840260486
          ],
          [
            121.445137284829,
            25.1686131952908
          ],
          [
            121.445776363483,
            25.1682799221817
          ],
          [
            121.446095902811,
            25.167864246380802
          ],
          [
            121.446773436054,
            25.1673515185207
          ]
        ]
      }
    },
    {
      "type": "Feature",
      "properties": {
        "feature_type": "station",
        "ref": "NWT224582",
        "name": "捷運淡水站",
        "name_en": "MRT Tamsui Sta.",
        "line": "115平日",
        "color": "#0B7A3E",
        "direction": 0,
        "station_id": "3842"
      },
      "geometry": {
        "type": "Point",
        "coordinates": [
          121.446540610778,
          25.1674549071321
        ]
      }
    },
    {
      "type": "Feature",
      "properties": {
        "feature_type": "station",
        "ref": "NWT224583",
        "name": "永樂巷口(中山市場)",
        "name_en": "Yongle Lane Intersection(Zhongshan Market)",
        "line": "115平日",
        "color": "#0B7A3E",
        "direction": 0,
        "station_id": "14662"
      },
      "geometry": {
        "type": "Point",
        "coordinates": [
          121.4430187,
          25.17060594
        ]
      }
    },
    {
      "type": "Feature",
      "properties": {
        "feature_type": "station",
        "ref": "NWT224584",
        "name": "重建街口",
        "name_en": "JhongJian St. Entrance",
        "line": "115平日",
        "color": "#0B7A3E",
        "direction": 0,
        "station_id": "180712"
      },
      "geometry": {
        "type": "Point",
        "coordinates": [
          121.439321,
          25.17277822
        ]
      }
    },
    {
      "type": "Feature",
      "properties": {
        "feature_type": "station",
        "ref": "NWT224585",
        "name": "小白宮(淡水分局)",
        "name_en": "Little White House (Danshui Precinct)",
        "line": "115平日",
        "color": "#0B7A3E",
        "direction": 0,
        "station_id": "180708"
      },
      "geometry": {
        "type": "Point",
        "coordinates": [
          121.435833,
          25.173459
        ]
      }
    },
    {
      "type": "Feature",
      "properties": {
        "feature_type": "station",
        "ref": "NWT224586",
        "name": "紅毛城(真理大學)",
        "name_en": "Fort Santo Domingo (Aletheia U.)",
        "line": "115平日",
        "color": "#0B7A3E",
        "direction": 0,
        "station_id": "180706"
      },
      "geometry": {
        "type": "Point",
        "coordinates": [
          121.4343127,
          25.17413801
        ]
      }
    },
    {
      "type": "Feature",
      "properties": {
        "feature_type": "station",
        "ref": "NWT224588",
        "name": "滬尾藝文園區(忠烈祠)",
        "name_en": "Huwei Cultural and Arts Park(Martyrs' Shrine)",
        "line": "115平日",
        "color": "#0B7A3E",
        "direction": 0,
        "station_id": "18072"
      },
      "geometry": {
        "type": "Point",
        "coordinates": [
          121.428,
          25.17582
        ]
      }
    },
    {
      "type": "Feature",
      "properties": {
        "feature_type": "station",
        "ref": "NWT224591",
        "name": "淡水轉運站",
        "name_en": "Tamsui Bus Station",
        "line": "115平日",
        "color": "#0B7A3E",
        "direction": 0,
        "station_id": "1165610553"
      },
      "geometry": {
        "type": "Point",
        "coordinates": [
          121.42112,
          25.179109
        ]
      }
    },
    {
      "type": "Feature",
      "properties": {
        "feature_type": "station",
        "ref": "NWT224589",
        "name": "情人橋",
        "name_en": "Lover's Bridge",
        "line": "115平日",
        "color": "#0B7A3E",
        "direction": 0,
        "station_id": "74892"
      },
      "geometry": {
        "type": "Point",
        "coordinates": [
          121.4114168,
          25.18443
        ]
      }
    },
    {
      "type": "Feature",
      "properties": {
        "feature_type": "station",
        "ref": "NWT224590",
        "name": "漁人碼頭",
        "name_en": "Fisherman's Wharf",
        "line": "115平日",
        "color": "#0B7A3E",
        "direction": 0,
        "station_id": "74898"
      },
      "geometry": {
        "type": "Point",
        "coordinates": [
          121.41446,
          25.18304
        ]
      }
    },
    {
      "type": "Feature",
      "properties": {
        "feature_type": "station",
        "ref": "NWT224592",
        "name": "八里(忠孝路)",
        "name_en": "Bali(Zhongxiao Rd.)",
        "line": "115平日",
        "color": "#0B7A3E",
        "direction": 0,
        "station_id": "1165610560"
      },
      "geometry": {
        "type": "Point",
        "coordinates": [
          121.412722,
          25.163111
        ]
      }
    },
    {
      "type": "Feature",
      "properties": {
        "feature_type": "station",
        "ref": "NWT224593",
        "name": "十三行博物館(博物館路)",
        "name_en": "Shihsanhang Museum(MuseumRd.)",
        "line": "115平日",
        "color": "#0B7A3E",
        "direction": 0,
        "station_id": "74549"
      },
      "geometry": {
        "type": "Point",
        "coordinates": [
          121.4059099,
          25.156937
        ]
      }
    },
    {
      "type": "Feature",
      "properties": {
        "feature_type": "station",
        "ref": "NWT224594",
        "name": "十三行路口",
        "name_en": "Shihsanhang Rd. Entrance",
        "line": "115平日",
        "color": "#0B7A3E",
        "direction": 0,
        "station_id": "1165604513"
      },
      "geometry": {
        "type": "Point",
        "coordinates": [
          121.406665,
          25.154431
        ]
      }
    },
    {
      "type": "Feature",
      "properties": {
        "feature_type": "station",
        "ref": "NWT224595",
        "name": "挖仔尾",
        "name_en": "Waziwei",
        "line": "115平日",
        "color": "#0B7A3E",
        "direction": 0,
        "station_id": "3804"
      },
      "geometry": {
        "type": "Point",
        "coordinates": [
          121.4139447,
          25.15970821
        ]
      }
    },
    {
      "type": "Feature",
      "properties": {
        "feature_type": "station",
        "ref": "NWT224599",
        "name": "渡船頭",
        "name_en": "Ferryboats' Dock",
        "line": "115平日",
        "color": "#0B7A3E",
        "direction": 0,
        "station_id": "3809"
      },
      "geometry": {
        "type": "Point",
        "coordinates": [
          121.43411,
          25.15823
        ]
      }
    },
    {
      "type": "Feature",
      "properties": {
        "feature_type": "station",
        "ref": "NWT224600",
        "name": "渡船頭",
        "name_en": "Ferryboats' Dock",
        "line": "115平日",
        "color": "#0B7A3E",
        "direction": 1,
        "station_id": "15023"
      },
      "geometry": {
        "type": "Point",
        "coordinates": [
          121.434178,
          25.158433
        ]
      }
    },
    {
      "type": "Feature",
      "properties": {
        "feature_type": "station",
        "ref": "NWT224604",
        "name": "挖仔尾",
        "name_en": "Waziwei",
        "line": "115平日",
        "color": "#0B7A3E",
        "direction": 1,
        "station_id": "3803"
      },
      "geometry": {
        "type": "Point",
        "coordinates": [
          121.4136018,
          25.15963289
        ]
      }
    },
    {
      "type": "Feature",
      "properties": {
        "feature_type": "station",
        "ref": "NWT224605",
        "name": "十三行路口",
        "name_en": "Shihsanhang Rd. Entrance",
        "line": "115平日",
        "color": "#0B7A3E",
        "direction": 1,
        "station_id": "1165604512"
      },
      "geometry": {
        "type": "Point",
        "coordinates": [
          121.406737,
          25.154523
        ]
      }
    },
    {
      "type": "Feature",
      "properties": {
        "feature_type": "station",
        "ref": "NWT224606",
        "name": "十三行博物館(十三行路)",
        "name_en": "Shihsanhang Museum(ShihsanhangRd.)",
        "line": "115平日",
        "color": "#0B7A3E",
        "direction": 1,
        "station_id": "1165609715"
      },
      "geometry": {
        "type": "Point",
        "coordinates": [
          121.40512,
          25.15591
        ]
      }
    },
    {
      "type": "Feature",
      "properties": {
        "feature_type": "station",
        "ref": "NWT224607",
        "name": "八里(忠孝路)",
        "name_en": "Bali(Zhongxiao Rd.)",
        "line": "115平日",
        "color": "#0B7A3E",
        "direction": 1,
        "station_id": "1165610561"
      },
      "geometry": {
        "type": "Point",
        "coordinates": [
          121.412692,
          25.163375
        ]
      }
    },
    {
      "type": "Feature",
      "properties": {
        "feature_type": "station",
        "ref": "NWT224608",
        "name": "淡水轉運站",
        "name_en": "Tamsui Bus Station",
        "line": "115平日",
        "color": "#0B7A3E",
        "direction": 1,
        "station_id": "1165610553"
      },
      "geometry": {
        "type": "Point",
        "coordinates": [
          121.42112,
          25.179109
        ]
      }
    },
    {
      "type": "Feature",
      "properties": {
        "feature_type": "station",
        "ref": "NWT224609",
        "name": "情人橋",
        "name_en": "Lover's Bridge",
        "line": "115平日",
        "color": "#0B7A3E",
        "direction": 1,
        "station_id": "74892"
      },
      "geometry": {
        "type": "Point",
        "coordinates": [
          121.4114168,
          25.18443
        ]
      }
    },
    {
      "type": "Feature",
      "properties": {
        "feature_type": "station",
        "ref": "NWT224610",
        "name": "漁人碼頭",
        "name_en": "Fisherman's Wharf",
        "line": "115平日",
        "color": "#0B7A3E",
        "direction": 1,
        "station_id": "75272"
      },
      "geometry": {
        "type": "Point",
        "coordinates": [
          121.41418,
          25.18333
        ]
      }
    },
    {
      "type": "Feature",
      "properties": {
        "feature_type": "station",
        "ref": "NWT224621",
        "name": "滬尾藝文園區(忠烈祠)",
        "name_en": "Huwei Cultural and Arts Park(Martyrs' Shrine)",
        "line": "115平日",
        "color": "#0B7A3E",
        "direction": 1,
        "station_id": "18071"
      },
      "geometry": {
        "type": "Point",
        "coordinates": [
          121.42796,
          25.17553
        ]
      }
    },
    {
      "type": "Feature",
      "properties": {
        "feature_type": "station",
        "ref": "NWT224613",
        "name": "紅毛城(真理大學)",
        "name_en": "Fort Santo Domingo (Aletheia U.)",
        "line": "115平日",
        "color": "#0B7A3E",
        "direction": 1,
        "station_id": "18075"
      },
      "geometry": {
        "type": "Point",
        "coordinates": [
          121.433254130323,
          25.1743599945731
        ]
      }
    },
    {
      "type": "Feature",
      "properties": {
        "feature_type": "station",
        "ref": "NWT224622",
        "name": "小白宮(淡水分局)",
        "name_en": "Little White House (Danshui Precinct)",
        "line": "115平日",
        "color": "#0B7A3E",
        "direction": 1,
        "station_id": "180707"
      },
      "geometry": {
        "type": "Point",
        "coordinates": [
          121.435832,
          25.173232
        ]
      }
    },
    {
      "type": "Feature",
      "properties": {
        "feature_type": "station",
        "ref": "NWT224623",
        "name": "重建街口",
        "name_en": "JhongJian St. Entrance",
        "line": "115平日",
        "color": "#0B7A3E",
        "direction": 1,
        "station_id": "180711"
      },
      "geometry": {
        "type": "Point",
        "coordinates": [
          121.43977,
          25.1724
        ]
      }
    },
    {
      "type": "Feature",
      "properties": {
        "feature_type": "station",
        "ref": "NWT224624",
        "name": "永樂巷口(中山市場)",
        "name_en": "Yongle Lane Intersection(Zhongshan Market)",
        "line": "115平日",
        "color": "#0B7A3E",
        "direction": 1,
        "station_id": "148"
      },
      "geometry": {
        "type": "Point",
        "coordinates": [
          121.442618297947,
          25.1704243596582
        ]
      }
    },
    {
      "type": "Feature",
      "properties": {
        "feature_type": "station",
        "ref": "NWT224620",
        "name": "捷運淡水站",
        "name_en": "MRT Tamsui Sta.",
        "line": "115平日",
        "color": "#0B7A3E",
        "direction": 1,
        "station_id": "3842"
      },
      "geometry": {
        "type": "Point",
        "coordinates": [
          121.446540610778,
          25.1674549071321
        ]
      }
    }
  ]
}
