{
  "type": "FeatureCollection",
  "name": "109",
  "properties": {
    "id": "taipei_109",
    "name": "109",
    "name_en": "109",
    "ref": "109",
    "color": "#0f766e",
    "city_id": "Taipei",
    "source": "TDX Bus Shape / StopOfRoute",
    "official_map_url": "https://ebus.gov.taipei/File/Get/b8a7455c-f9c4-41b2-a848-d23248e4156e?v=639234358428239269",
    "operator_id": "800",
    "operator": "大都會客運",
    "operator_en": "Metropolitan Bus Co., Ltd."
  },
  "features": [
    {
      "type": "Feature",
      "properties": {
        "feature_type": "route",
        "ref": "109",
        "name": "109",
        "name_en": "109",
        "color": "#0f766e",
        "direction": 0
      },
      "geometry": {
        "type": "LineString",
        "coordinates": [
          [
            121.570456999995,
            25.0017530000009
          ],
          [
            121.570526821728,
            25.0017516840841
          ],
          [
            121.570560513224,
            25.0017841899028
          ],
          [
            121.570573804755,
            25.0021558958142
          ],
          [
            121.570510005406,
            25.0023042336927
          ],
          [
            121.570183413502,
            25.0023180005401
          ],
          [
            121.568761599442,
            25.0024797608813
          ],
          [
            121.568386398509,
            25.0024928393677
          ],
          [
            121.568151708047,
            25.002482514247
          ],
          [
            121.567801571145,
            25.0024446554637
          ],
          [
            121.567081549922,
            25.0022601797707
          ],
          [
            121.566923570582,
            25.0022058006889
          ],
          [
            121.566668373187,
            25.0020674436761
          ],
          [
            121.566716982215,
            25.0019738288926
          ],
          [
            121.566873442522,
            25.0018926042431
          ],
          [
            121.567456750855,
            25.0014616996964
          ],
          [
            121.567853218237,
            25.001262078867
          ],
          [
            121.568147910467,
            25.0010555742194
          ],
          [
            121.568384879477,
            25.0008311721089
          ],
          [
            121.568705395253,
            25.000478736065
          ],
          [
            121.56895451652,
            24.9999583403706
          ],
          [
            121.569048696511,
            24.9995260523243
          ],
          [
            121.569024391998,
            24.9989134122014
          ],
          [
            121.568860336529,
            24.9988473294888
          ],
          [
            121.568261837876,
            24.9988913846345
          ],
          [
            121.567888155975,
            24.9990249266983
          ],
          [
            121.567450674726,
            24.9991047765229
          ],
          [
            121.567078511858,
            24.9991336876534
          ],
          [
            121.5667352106,
            24.9990744886645
          ],
          [
            121.566120002593,
            24.9988115346713
          ],
          [
            121.565501756522,
            24.9985100317562
          ],
          [
            121.565106808172,
            24.9983572149277
          ],
          [
            121.564661731762,
            24.9982374394427
          ],
          [
            121.564037409563,
            24.9981107801822
          ],
          [
            121.563523976708,
            24.997935935119
          ],
          [
            121.562501668095,
            24.9975077701735
          ],
          [
            121.562032287171,
            24.997304012698
          ],
          [
            121.561666200431,
            24.9972351756367
          ],
          [
            121.561411003036,
            24.9972296686701
          ],
          [
            121.561003902429,
            24.9971401804288
          ],
          [
            121.560429708289,
            24.9970011293398
          ],
          [
            121.560097040256,
            24.9968565711102
          ],
          [
            121.559954251237,
            24.9968620780935
          ],
          [
            121.559743105773,
            24.9973948775599
          ],
          [
            121.559475756121,
            24.9976729786893
          ],
          [
            121.55898662778,
            24.9980488272355
          ],
          [
            121.558708644903,
            24.9982773646173
          ],
          [
            121.558210402369,
            24.9988225484624
          ],
          [
            121.557894443689,
            24.9990937627571
          ],
          [
            121.557238221815,
            24.9995411961987
          ],
          [
            121.556863020883,
            24.9997821212233
          ],
          [
            121.556442248987,
            25.0000354361681
          ],
          [
            121.555623490676,
            25.0004635923061
          ],
          [
            121.555084234275,
            25.0007279194664
          ],
          [
            121.554203195649,
            25.0010335470365
          ],
          [
            121.552948475121,
            25.0014727132499
          ],
          [
            121.552096298105,
            25.0017673254413
          ],
          [
            121.551739325558,
            25.0018926042431
          ],
          [
            121.551397543332,
            25.0018692005206
          ],
          [
            121.550815754031,
            25.0015222742288
          ],
          [
            121.550047123781,
            25.0009619586648
          ],
          [
            121.549791926386,
            25.0008394323165
          ],
          [
            121.54914178064,
            25.0006728513549
          ],
          [
            121.548648095203,
            25.0004883730015
          ],
          [
            121.548189347504,
            25.0001276757194
          ],
          [
            121.547486035635,
            24.9995411961987
          ],
          [
            121.547226281143,
            24.9993801203474
          ],
          [
            121.546927031816,
            24.9992355649165
          ],
          [
            121.545812062244,
            24.9989023984184
          ],
          [
            121.544941656842,
            24.9986807458264
          ],
          [
            121.544677345254,
            24.9986628483946
          ],
          [
            121.544429743019,
            24.9987729863946
          ],
          [
            121.544286954,
            24.9989409466545
          ],
          [
            121.543811496948,
            24.9999445732588
          ],
          [
            121.543545666328,
            25.0003094012
          ],
          [
            121.543020081216,
            25.0008972537546
          ],
          [
            121.542140561621,
            25.0018898508642
          ],
          [
            121.540885841094,
            25.003770394273
          ],
          [
            121.54080381336,
            25.0039066843677
          ],
          [
            121.540544058868,
            25.0041035475708
          ],
          [
            121.54023721438,
            25.0042329539801
          ],
          [
            121.538967303532,
            25.0044077900824
          ],
          [
            121.538874642573,
            25.0044601031985
          ],
          [
            121.538842853386,
            25.0046606954446
          ],
          [
            121.538911099344,
            25.0050148961907
          ],
          [
            121.539000722239,
            25.0056330124792
          ],
          [
            121.539019907146,
            25.0059082587207
          ],
          [
            121.539000726322,
            25.0063241103304
          ],
          [
            121.538954987434,
            25.006580841168
          ],
          [
            121.53888679483,
            25.0068017806576
          ],
          [
            121.538753120004,
            25.0071748480174
          ],
          [
            121.538653996042,
            25.0073209450326
          ],
          [
            121.538428806647,
            25.007743394988
          ],
          [
            121.53810069571,
            25.0083009263865
          ],
          [
            121.53791765234,
            25.0086209895644
          ],
          [
            121.537766508645,
            25.0088956237554
          ],
          [
            121.537675366718,
            25.0091186345264
          ],
          [
            121.537534096731,
            25.0094848118276
          ],
          [
            121.53744371432,
            25.0097725217984
          ],
          [
            121.53728573498,
            25.0103995620072
          ],
          [
            121.537215859503,
            25.0107870726323
          ],
          [
            121.537005473555,
            25.0115022089235
          ],
          [
            121.536691033907,
            25.0120762421635
          ],
          [
            121.536422165223,
            25.0125236283198
          ],
          [
            121.536186389449,
            25.0128809143581
          ],
          [
            121.535917531322,
            25.0132174656291
          ],
          [
            121.53557912856,
            25.0135884506139
          ],
          [
            121.535324609533,
            25.0138359898841
          ],
          [
            121.53485715487,
            25.0142992313244
          ],
          [
            121.534556750723,
            25.0145747064716
          ],
          [
            121.534226951421,
            25.0149008578515
          ],
          [
            121.533850550044,
            25.0152283077678
          ],
          [
            121.533444753511,
            25.0156402177318
          ],
          [
            121.533090577739,
            25.0159553214244
          ],
          [
            121.532978732758,
            25.0160553747989
          ],
          [
            121.532895565978,
            25.0161846644282
          ],
          [
            121.532909188123,
            25.0163392920474
          ],
          [
            121.532973714073,
            25.0164627341246
          ],
          [
            121.533384529291,
            25.0168687927135
          ],
          [
            121.533539391572,
            25.0175054898772
          ],
          [
            121.533668443473,
            25.018269522115
          ],
          [
            121.533900736894,
            25.0194597397336
          ],
          [
            121.534379662837,
            25.0215360961196
          ],
          [
            121.534468565258,
            25.0222247422339
          ],
          [
            121.534946057291,
            25.0258874950365
          ],
          [
            121.535043563171,
            25.026978893676
          ],
          [
            121.53486575833,
            25.0275687646143
          ],
          [
            121.534134464226,
            25.0296397868207
          ],
          [
            121.533811834473,
            25.0305518570321
          ],
          [
            121.533669877383,
            25.0309104468824
          ],
          [
            121.53325834521,
            25.0320667620874
          ],
          [
            121.533066201269,
            25.032582553108
          ],
          [
            121.532928545908,
            25.0330385781236
          ],
          [
            121.532822436567,
            25.0333607828107
          ],
          [
            121.532765080167,
            25.0337011755529
          ],
          [
            121.532846813037,
            25.0378806537165
          ],
          [
            121.532902735528,
            25.0420820744884
          ],
          [
            121.532902330884,
            25.0442237048269
          ],
          [
            121.532915640718,
            25.0452038161966
          ],
          [
            121.532934281548,
            25.0457416363307
          ],
          [
            121.532955815874,
            25.0465696405946
          ],
          [
            121.532961717666,
            25.0466859336787
          ],
          [
            121.532965827568,
            25.0469679613409
          ],
          [
            121.532970129298,
            25.047479792516
          ],
          [
            121.532980166668,
            25.0475674791146
          ],
          [
            121.532962242793,
            25.0476902402473
          ],
          [
            121.532967619458,
            25.0478876224221
          ],
          [
            121.532983849386,
            25.0483126885904
          ],
          [
            121.532990204038,
            25.0487457211047
          ],
          [
            121.533000958363,
            25.0490522959954
          ],
          [
            121.533010995733,
            25.0494537000958
          ],
          [
            121.533023900923,
            25.0500707426709
          ],
          [
            121.533001923624,
            25.05133990573
          ],
          [
            121.533013727208,
            25.0518043909821
          ],
          [
            121.533041824799,
            25.0522777811123
          ],
          [
            121.533057597809,
            25.0530266582876
          ],
          [
            121.533063333449,
            25.0535430106568
          ],
          [
            121.533082691234,
            25.0538781514078
          ],
          [
            121.53309155709,
            25.0546641110449
          ],
          [
            121.533112086389,
            25.055103096047
          ],
          [
            121.533115671164,
            25.0555337072935
          ],
          [
            121.533117822029,
            25.0558688426012
          ],
          [
            121.533119972894,
            25.0560929151156
          ],
          [
            121.533138033702,
            25.0574084840217
          ],
          [
            121.533138771426,
            25.0577152297946
          ],
          [
            121.533221780505,
            25.0602235698156
          ],
          [
            121.533208875315,
            25.0609925316698
          ],
          [
            121.53322106355,
            25.0614224727653
          ],
          [
            121.533193819259,
            25.0617751272506
          ],
          [
            121.533183064934,
            25.0618757927094
          ],
          [
            121.533184498844,
            25.06226741303
          ],
          [
            121.533019599193,
            25.0625194002361
          ],
          [
            121.532345661489,
            25.0625414815645
          ],
          [
            121.531859565996,
            25.0625609650863
          ],
          [
            121.531125404071,
            25.0625856442094
          ],
          [
            121.53091031757,
            25.0625739540991
          ],
          [
            121.529092119678,
            25.062606426625
          ],
          [
            121.527969368141,
            25.0626674749505
          ],
          [
            121.527883333541,
            25.0629298525138
          ],
          [
            121.527949293401,
            25.0639403905526
          ],
          [
            121.527957896861,
            25.0647236167435
          ],
          [
            121.528042497552,
            25.0682175498675
          ],
          [
            121.528013819352,
            25.0684331573458
          ],
          [
            121.528038195822,
            25.068808521267
          ],
          [
            121.527995178521,
            25.0689332093739
          ],
          [
            121.528028158452,
            25.0701502105847
          ],
          [
            121.528018121082,
            25.0708255955803
          ],
          [
            121.527924916931,
            25.0712542033572
          ],
          [
            121.527652474029,
            25.0716464430993
          ],
          [
            121.525905971638,
            25.0737569830593
          ],
          [
            121.525736770257,
            25.0739154344377
          ],
          [
            121.525533155036,
            25.074257013351
          ],
          [
            121.525530287216,
            25.0746479447023
          ],
          [
            121.525601982716,
            25.0751064107767
          ],
          [
            121.525584775796,
            25.0756064355581
          ],
          [
            121.525259278224,
            25.0765181637998
          ],
          [
            121.525135961963,
            25.0767973954503
          ],
          [
            121.525102982033,
            25.0773805329832
          ],
          [
            121.525048493453,
            25.0777156085274
          ],
          [
            121.5245968118,
            25.07931434782
          ],
          [
            121.524457722529,
            25.0798351349093
          ],
          [
            121.524347311458,
            25.0802961789876
          ],
          [
            121.524343009728,
            25.0805844929935
          ],
          [
            121.524351613188,
            25.0807364419937
          ],
          [
            121.52457386924,
            25.0811429371098
          ],
          [
            121.525102982033,
            25.0818403393243
          ],
          [
            121.525246373034,
            25.0820741045407
          ],
          [
            121.525418442235,
            25.0824247515281
          ],
          [
            121.525617755726,
            25.0828572147627
          ],
          [
            121.525636396556,
            25.0831351332722
          ],
          [
            121.525596247076,
            25.0838026545909
          ],
          [
            121.525584775796,
            25.0840662855487
          ],
          [
            121.525709525967,
            25.0845935457608
          ],
          [
            121.525791258837,
            25.0853130055388
          ],
          [
            121.525752543267,
            25.085587022501
          ],
          [
            121.525732468527,
            25.0856909150277
          ],
          [
            121.526099549489,
            25.0864181602453
          ],
          [
            121.526413575781,
            25.0868025595431
          ],
          [
            121.526749110723,
            25.0871817630729
          ],
          [
            121.527083211756,
            25.0876297931264
          ],
          [
            121.527238074037,
            25.0878674431847
          ],
          [
            121.527454594448,
            25.0883063803304
          ],
          [
            121.527557835969,
            25.0886089603455
          ],
          [
            121.527630965379,
            25.0889660817184
          ],
          [
            121.527661077489,
            25.0893959246068
          ],
          [
            121.527586514169,
            25.0902166476202
          ],
          [
            121.527575042889,
            25.0904270219366
          ],
          [
            121.527599419359,
            25.0906347986843
          ],
          [
            121.527691189599,
            25.0912282590768
          ],
          [
            121.527889069181,
            25.0923177773376
          ],
          [
            121.528023856722,
            25.0930475803297
          ],
          [
            121.528147889937,
            25.0937864689598
          ],
          [
            121.531628706485,
            25.0960615424431
          ],
          [
            121.531847377761,
            25.0961926957319
          ],
          [
            121.532181478793,
            25.0964861664552
          ],
          [
            121.532418073945,
            25.0965705716214
          ],
          [
            121.533778854543,
            25.0974405907095
          ],
          [
            121.534650671829,
            25.0980327195651
          ],
          [
            121.535812138936,
            25.0988222202471
          ],
          [
            121.536108958308,
            25.0989533703603
          ],
          [
            121.53647173754,
            25.0992104761147
          ],
          [
            121.537525661397,
            25.1006596075322
          ],
          [
            121.537762256549,
            25.1009946193413
          ],
          [
            121.537798104299,
            25.1012491238232
          ],
          [
            121.537720673158,
            25.1017048932811
          ],
          [
            121.537627469008,
            25.1021022293715
          ],
          [
            121.537511322297,
            25.1023346574011
          ],
          [
            121.537330649636,
            25.1026008453841
          ],
          [
            121.537082583204,
            25.1032695589803
          ],
          [
            121.536850289783,
            25.1039811181701
          ],
          [
            121.536774292552,
            25.1042576902415
          ],
          [
            121.536718370062,
            25.1048536814522
          ],
          [
            121.53643588979,
            25.1053535846939
          ],
          [
            121.536044432358,
            25.1059716440584
          ],
          [
            121.535800667656,
            25.1063378038049
          ],
          [
            121.534954660751,
            25.1070675231504
          ],
          [
            121.53478115764,
            25.1071869785715
          ],
          [
            121.534633464909,
            25.1073116275822
          ],
          [
            121.534507280828,
            25.1075180772266
          ],
          [
            121.534485055223,
            25.1076414274767
          ],
          [
            121.534484338268,
            25.1077777618189
          ],
          [
            121.534542411623,
            25.107914096009
          ],
          [
            121.534636332729,
            25.1080225140422
          ],
          [
            121.534890851755,
            25.1081523558716
          ],
          [
            121.535571242055,
            25.1084600804567
          ],
          [
            121.535812138936,
            25.1085749900715
          ],
          [
            121.536030810212,
            25.1086016075374
          ],
          [
            121.536319743079,
            25.1085256503631
          ],
          [
            121.536476756225,
            25.108454237592
          ],
          [
            121.536869647568,
            25.1079050070677
          ],
          [
            121.537018774209,
            25.1077031025551
          ],
          [
            121.537044584589,
            25.1076349353614
          ],
          [
            121.536959983898,
            25.1070311671295
          ],
          [
            121.536914815733,
            25.1065864542134
          ],
          [
            121.536906212273,
            25.1064481708894
          ],
          [
            121.536942776978,
            25.1062806725691
          ],
          [
            121.537327781816,
            25.1058788055087
          ],
          [
            121.537448230257,
            25.1057061126343
          ],
          [
            121.537702749283,
            25.1051899802216
          ],
          [
            121.537917835784,
            25.1046589134022
          ],
          [
            121.538022511215,
            25.1045167325298
          ],
          [
            121.538246201177,
            25.1041460227199
          ],
          [
            121.538395327818,
            25.1038291980338
          ],
          [
            121.538508606708,
            25.1036175482985
          ],
          [
            121.538619017779,
            25.1034610830746
          ],
          [
            121.538955269676,
            25.1030364834915
          ],
          [
            121.539037719502,
            25.1029027408099
          ],
          [
            121.539125188012,
            25.1027449761965
          ],
          [
            121.539321633683,
            25.1023145309691
          ],
          [
            121.539404800464,
            25.1021366391356
          ],
          [
            121.539479363784,
            25.1020126340913
          ],
          [
            121.539562530565,
            25.1019204417779
          ],
          [
            121.539766145786,
            25.101865256205
          ],
          [
            121.539892329867,
            25.1018639577206
          ],
          [
            121.540151867579,
            25.1019840674664
          ],
          [
            121.540757694558,
            25.1023229710862
          ],
          [
            121.541379294547,
            25.1026878432821
          ],
          [
            121.541503327762,
            25.1027767888303
          ],
          [
            121.541628077933,
            25.1030371327275
          ],
          [
            121.541744941599,
            25.1032994237741
          ],
          [
            121.541903388655,
            25.1035000370909
          ],
          [
            121.542488423939,
            25.1038863304149
          ],
          [
            121.542925049536,
            25.1042628840773
          ],
          [
            121.543500764405,
            25.1047900572566
          ],
          [
            121.543923767858,
            25.1050776643262
          ],
          [
            121.544125232214,
            25.105239321276
          ],
          [
            121.544395524251,
            25.1054282453923
          ],
          [
            121.544640722862,
            25.1056100277716
          ],
          [
            121.544794868188,
            25.1057476628219
          ],
          [
            121.54511749794,
            25.1062676881937
          ],
          [
            121.545212852956,
            25.1064605060279
          ],
          [
            121.545390657797,
            25.1070616802192
          ],
          [
            121.545542652258,
            25.1074103079588
          ],
          [
            121.545630120769,
            25.1075927366033
          ],
          [
            121.545810076475,
            25.1078589131408
          ],
          [
            121.546109763667,
            25.1081731305515
          ],
          [
            121.546415186499,
            25.1085587599064
          ],
          [
            121.546731363656,
            25.1089456864542
          ],
          [
            121.547093425933,
            25.1093144341052
          ],
          [
            121.547403150495,
            25.1096117685491
          ],
          [
            121.547911471593,
            25.1099668810093
          ],
          [
            121.548695820368,
            25.1105459652952
          ],
          [
            121.549047845275,
            25.1108419983549
          ],
          [
            121.549214895791,
            25.1110159823625
          ],
          [
            121.549361154612,
            25.1111912645079
          ],
          [
            121.549478018278,
            25.1113840745776
          ],
          [
            121.54976193246,
            25.1120761109089
          ],
          [
            121.550085996122,
            25.113092085855
          ],
          [
            121.550295346983,
            25.1137250372233
          ],
          [
            121.550453077084,
            25.1140853311538
          ],
          [
            121.550603637635,
            25.1144573091787
          ],
          [
            121.550794347666,
            25.1148500596168
          ],
          [
            121.551031659773,
            25.1153635545671
          ],
          [
            121.551068941433,
            25.1155557088864
          ],
          [
            121.551023056313,
            25.1158776965279
          ],
          [
            121.550959964272,
            25.11618150667
          ],
          [
            121.550998679843,
            25.1163918363259
          ],
          [
            121.551225237624,
            25.116782633059
          ],
          [
            121.55207841408,
            25.1177693567912
          ],
          [
            121.55217161823,
            25.1179459275662
          ],
          [
            121.552851291575,
            25.1188872012893
          ],
          [
            121.552920119255,
            25.1190118383698
          ],
          [
            121.552998984305,
            25.119322132216
          ],
          [
            121.553044869426,
            25.1197557633004
          ],
          [
            121.553059208526,
            25.1203633635487
          ],
          [
            121.553019059046,
            25.1206100380009
          ],
          [
            121.552738012684,
            25.1211773873514
          ],
          [
            121.552236144181,
            25.1220770915612
          ],
          [
            121.552021057679,
            25.1223795880254
          ],
          [
            121.551437456305,
            25.1230352108386
          ],
          [
            121.551132033474,
            25.1234610392169
          ],
          [
            121.550789328981,
            25.1239517786172
          ],
          [
            121.550329043868,
            25.1246508841206
          ],
          [
            121.550214331068,
            25.1248423747165
          ],
          [
            121.550056600967,
            25.1251747237841
          ],
          [
            121.5497963463,
            25.1257005085484
          ],
          [
            121.549293760842,
            25.1264911287862
          ],
          [
            121.549176897176,
            25.1267338962069
          ],
          [
            121.548976149775,
            25.127170097419
          ],
          [
            121.548602616217,
            25.127828940047
          ],
          [
            121.548307947711,
            25.1282923996287
          ],
          [
            121.548027618304,
            25.1287545592533
          ],
          [
            121.547857699968,
            25.1290466536199
          ],
          [
            121.547687064677,
            25.129510757677
          ],
          [
            121.547599596166,
            25.1297041879381
          ],
          [
            121.547390245305,
            25.1300391201493
          ],
          [
            121.546963657077,
            25.1310387185744
          ],
          [
            121.546746419711,
            25.1315794070406
          ],
          [
            121.546048105536,
            25.1334526501296
          ],
          [
            121.545946297926,
            25.1337460314068
          ],
          [
            121.545887507615,
            25.1339933279093
          ],
          [
            121.545865998965,
            25.1341491049767
          ],
          [
            121.5458638481,
            25.134375630441
          ],
          [
            121.546115499307,
            25.1355705615373
          ],
          [
            121.546179308302,
            25.1359041795382
          ],
          [
            121.546535634939,
            25.1374112907432
          ],
          [
            121.54658582179,
            25.1380564480797
          ],
          [
            121.54656718096,
            25.138631504965
          ],
          [
            121.546473976809,
            25.1390014611232
          ],
          [
            121.546370735288,
            25.1394869457494
          ],
          [
            121.546403715218,
            25.1396531004721
          ],
          [
            121.54656718096,
            25.1397971875877
          ],
          [
            121.546740684071,
            25.1398309376983
          ],
          [
            121.547288437694,
            25.1399114186937
          ],
          [
            121.547585257066,
            25.1399373802937
          ],
          [
            121.547818984397,
            25.1400775728388
          ],
          [
            121.54814161415,
            25.1404215631237
          ],
          [
            121.54827496778,
            25.140470889953
          ],
          [
            121.549502394748,
            25.1406643028546
          ],
          [
            121.549698840419,
            25.1407266103013
          ],
          [
            121.549880946991,
            25.1408538212396
          ],
          [
            121.549961245951,
            25.1410199741022
          ],
          [
            121.549948340761,
            25.1412782894316
          ],
          [
            121.549391983677,
            25.142662019529
          ],
          [
            121.549281572607,
            25.1429735513465
          ],
          [
            121.548987621055,
            25.1437225225047
          ],
          [
            121.548936000295,
            25.1439289106297
          ],
          [
            121.548983319325,
            25.1441223180528
          ],
          [
            121.549242857037,
            25.144459806782
          ],
          [
            121.549703142149,
            25.1447765261253
          ],
          [
            121.54981211931,
            25.1448855604632
          ],
          [
            121.549870909621,
            25.1450478137618
          ],
          [
            121.5498393636,
            25.1453424652007
          ],
          [
            121.549584127619,
            25.1459382560252
          ],
          [
            121.549215612746,
            25.1467248512215
          ],
          [
            121.549136030741,
            25.1468968371196
          ],
          [
            121.549110220361,
            25.147048054709
          ],
          [
            121.549184783681,
            25.1479138204766
          ],
          [
            121.549333910322,
            25.1482512987225
          ],
          [
            121.549413492328,
            25.1484219844799
          ],
          [
            121.549412058418,
            25.1486361525832
          ],
          [
            121.549405605823,
            25.1487958049247
          ],
          [
            121.549470131773,
            25.1490599447223
          ],
          [
            121.549498809973,
            25.1495116419211
          ],
          [
            121.549575524159,
            25.1496797299634
          ],
          [
            121.549878079171,
            25.149943218861
          ],
          [
            121.549988490241,
            25.1500541955417
          ],
          [
            121.550021470172,
            25.1501813967593
          ],
          [
            121.550048714462,
            25.1503799861501
          ],
          [
            121.550022187127,
            25.1507012330099
          ],
          [
            121.550030790587,
            25.1509381114658
          ],
          [
            121.550108221727,
            25.1511496792322
          ],
          [
            121.550026488857,
            25.1512768793078
          ],
          [
            121.549611371909,
            25.1513612466318
          ],
          [
            121.549422095788,
            25.1514209527028
          ],
          [
            121.549303081257,
            25.1515429606699
          ],
          [
            121.549067920015,
            25.1519557101226
          ],
          [
            121.548934566385,
            25.1521432640509
          ],
          [
            121.548855701334,
            25.1522328225725
          ],
          [
            121.548362436291,
            25.1524755388148
          ],
          [
            121.548095729029,
            25.1525196689888
          ],
          [
            121.547864152563,
            25.1525183710427
          ],
          [
            121.547531485441,
            25.1524820285473
          ],
          [
            121.547272664684,
            25.152417131207
          ],
          [
            121.547001655692,
            25.152342499223
          ],
          [
            121.546846793411,
            25.1522996669334
          ],
          [
            121.54666181902,
            25.1522717610396
          ],
          [
            121.546443864699,
            25.1522483979608
          ],
          [
            121.546049539446,
            25.1522665692447
          ],
          [
            121.545923355365,
            25.1522678671934
          ],
          [
            121.545676722844,
            25.1521835004963
          ],
          [
            121.545609329073,
            25.1521588394507
          ],
          [
            121.545442995512,
            25.1521555945759
          ],
          [
            121.545240814201,
            25.1522256838521
          ],
          [
            121.54507161282,
            25.1522776018086
          ],
          [
            121.544834300714,
            25.1523230300023
          ],
          [
            121.544475106256,
            25.1523606704929
          ],
          [
            121.544006934638,
            25.1523937681561
          ],
          [
            121.543860675817,
            25.1524333555453
          ],
          [
            121.543722303501,
            25.1525125302853
          ],
          [
            121.543679286201,
            25.1526183128495
          ],
          [
            121.543678569246,
            25.1527130627985
          ],
          [
            121.543748830837,
            25.1527967801579
          ],
          [
            121.543897240523,
            25.152833771531
          ],
          [
            121.544206965085,
            25.1527818538112
          ],
          [
            121.544398392071,
            25.1527818538112
          ],
          [
            121.544661514557,
            25.1527948332432
          ],
          [
            121.544951881334,
            25.1528662200947
          ],
          [
            121.545648044644,
            25.1530531236533
          ],
          [
            121.546342774043,
            25.1534009711808
          ],
          [
            121.546759324901,
            25.1535800863119
          ],
          [
            121.546990184412,
            25.1537546584149
          ],
          [
            121.547149348423,
            25.1539363688888
          ],
          [
            121.547268362954,
            25.1539811474997
          ],
          [
            121.547662688207,
            25.1540278729893
          ],
          [
            121.547775967097,
            25.1540538315868
          ],
          [
            121.547867737338,
            25.1540953653315
          ],
          [
            121.547918641143,
            25.1541589638505
          ],
          [
            121.547944451523,
            25.154270585661
          ],
          [
            121.547927961558,
            25.1543406737223
          ],
          [
            121.547902151178,
            25.1544153044841
          ],
          [
            121.547720761562,
            25.1546404944191
          ],
          [
            121.547563031461,
            25.1548527047268
          ],
          [
            121.54747556295,
            25.1549519956614
          ],
          [
            121.547322851534,
            25.1550071572569
          ],
          [
            121.547154367108,
            25.1549954759799
          ],
          [
            121.546848227321,
            25.1549156538908
          ],
          [
            121.546696949815,
            25.154885801714
          ],
          [
            121.546585104835,
            25.1548669818596
          ],
          [
            121.546519861929,
            25.1548890465162
          ],
          [
            121.546351377503,
            25.1550668615438
          ],
          [
            121.546180025257,
            25.1552284523478
          ],
          [
            121.546040219031,
            25.1553842023178
          ],
          [
            121.545825849485,
            25.1553893939801
          ],
          [
            121.545461636343,
            25.1550441479598
          ],
          [
            121.544994,
            25.1546890000001
          ],
          [
            121.544617489087,
            25.1542220898534
          ],
          [
            121.54448197883,
            25.1540835300751
          ],
          [
            121.54450026444391,
            25.153998532127066
          ],
          [
            121.54469900000008,
            25.153906999999624
          ]
        ]
      }
    },
    {
      "type": "Feature",
      "properties": {
        "feature_type": "station",
        "ref": "TPE43229",
        "name": "萬芳社區",
        "name_en": "Wanfang Community",
        "line": "109",
        "color": "#0f766e",
        "direction": 0
      },
      "geometry": {
        "type": "Point",
        "coordinates": [
          121.570457,
          25.001753
        ]
      }
    },
    {
      "type": "Feature",
      "properties": {
        "feature_type": "station",
        "ref": "TPE43230",
        "name": "萬芳活動中心",
        "name_en": "Wanfang Activity Center",
        "line": "109",
        "color": "#0f766e",
        "direction": 0
      },
      "geometry": {
        "type": "Point",
        "coordinates": [
          121.569474,
          25.002436
        ]
      }
    },
    {
      "type": "Feature",
      "properties": {
        "feature_type": "station",
        "ref": "TPE43231",
        "name": "萬芳國小",
        "name_en": "Wanfang Elementary School",
        "line": "109",
        "color": "#0f766e",
        "direction": 0
      },
      "geometry": {
        "type": "Point",
        "coordinates": [
          121.5672991,
          25.00146028
        ]
      }
    },
    {
      "type": "Feature",
      "properties": {
        "feature_type": "station",
        "ref": "TPE197405",
        "name": "萬芳6號公園",
        "name_en": "Wanfang No.6 Park",
        "line": "109",
        "color": "#0f766e",
        "direction": 0
      },
      "geometry": {
        "type": "Point",
        "coordinates": [
          121.56892,
          24.999962
        ]
      }
    },
    {
      "type": "Feature",
      "properties": {
        "feature_type": "station",
        "ref": "TPE59274",
        "name": "萬利街口",
        "name_en": "Wanli St. Entrance",
        "line": "109",
        "color": "#0f766e",
        "direction": 0
      },
      "geometry": {
        "type": "Point",
        "coordinates": [
          121.567262,
          24.999065
        ]
      }
    },
    {
      "type": "Feature",
      "properties": {
        "feature_type": "station",
        "ref": "TPE43232",
        "name": "棕櫚泉社區",
        "name_en": "Palm Spring Community",
        "line": "109",
        "color": "#0f766e",
        "direction": 0
      },
      "geometry": {
        "type": "Point",
        "coordinates": [
          121.5625566,
          24.99756829
        ]
      }
    },
    {
      "type": "Feature",
      "properties": {
        "feature_type": "station",
        "ref": "TPE43233",
        "name": "文山運動中心(萬芳)",
        "name_en": "Wen Shan Sports Center (Wanfang)",
        "line": "109",
        "color": "#0f766e",
        "direction": 0
      },
      "geometry": {
        "type": "Point",
        "coordinates": [
          121.5603813,
          24.99706037
        ]
      }
    },
    {
      "type": "Feature",
      "properties": {
        "feature_type": "station",
        "ref": "TPE43234",
        "name": "臺灣警察專科學校",
        "name_en": "Taiwan Police College",
        "line": "109",
        "color": "#0f766e",
        "direction": 0
      },
      "geometry": {
        "type": "Point",
        "coordinates": [
          121.55947313859588,
          24.9977449509898
        ]
      }
    },
    {
      "type": "Feature",
      "properties": {
        "feature_type": "station",
        "ref": "TPE43235",
        "name": "捷運萬芳醫院站",
        "name_en": "MRT Wanfang Hospital Sta.",
        "line": "109",
        "color": "#0f766e",
        "direction": 0
      },
      "geometry": {
        "type": "Point",
        "coordinates": [
          121.557829,
          24.999259
        ]
      }
    },
    {
      "type": "Feature",
      "properties": {
        "feature_type": "station",
        "ref": "TPE43236",
        "name": "中國科技大學(興隆)",
        "name_en": "China University of Technology (Xinglong)",
        "line": "109",
        "color": "#0f766e",
        "direction": 0
      },
      "geometry": {
        "type": "Point",
        "coordinates": [
          121.555797991874,
          25.0004051038435
        ]
      }
    },
    {
      "type": "Feature",
      "properties": {
        "feature_type": "station",
        "ref": "TPE43237",
        "name": "興隆國小",
        "name_en": "Xinglong Elementary School",
        "line": "109",
        "color": "#0f766e",
        "direction": 0
      },
      "geometry": {
        "type": "Point",
        "coordinates": [
          121.553039816886,
          25.001459963615
        ]
      }
    },
    {
      "type": "Feature",
      "properties": {
        "feature_type": "station",
        "ref": "TPE43238",
        "name": "興德國小",
        "name_en": "Xingde Elementary School",
        "line": "109",
        "color": "#0f766e",
        "direction": 0
      },
      "geometry": {
        "type": "Point",
        "coordinates": [
          121.550073640107,
          25.0009828977016
        ]
      }
    },
    {
      "type": "Feature",
      "properties": {
        "feature_type": "station",
        "ref": "TPE43239",
        "name": "興隆市場",
        "name_en": "Xinglong Market",
        "line": "109",
        "color": "#0f766e",
        "direction": 0
      },
      "geometry": {
        "type": "Point",
        "coordinates": [
          121.547448469573,
          24.9995842974218
        ]
      }
    },
    {
      "type": "Feature",
      "properties": {
        "feature_type": "station",
        "ref": "TPE170944",
        "name": "靜心高中",
        "name_en": "Chingshin Academy",
        "line": "109",
        "color": "#0f766e",
        "direction": 0
      },
      "geometry": {
        "type": "Point",
        "coordinates": [
          121.545835,
          24.998953
        ]
      }
    },
    {
      "type": "Feature",
      "properties": {
        "feature_type": "station",
        "ref": "TPE43241",
        "name": "憲光公寓",
        "name_en": "Xianguang Apartment",
        "line": "109",
        "color": "#0f766e",
        "direction": 0
      },
      "geometry": {
        "type": "Point",
        "coordinates": [
          121.54393655953,
          24.999719170953
        ]
      }
    },
    {
      "type": "Feature",
      "properties": {
        "feature_type": "station",
        "ref": "TPE43242",
        "name": "景明街口",
        "name_en": "Jingming St. Entrance",
        "line": "109",
        "color": "#0f766e",
        "direction": 0
      },
      "geometry": {
        "type": "Point",
        "coordinates": [
          121.542530095186,
          25.0015098013863
        ]
      }
    },
    {
      "type": "Feature",
      "properties": {
        "feature_type": "station",
        "ref": "TPE43243",
        "name": "武功國小(興隆)",
        "name_en": "Changan Elementary School (Xinglong)",
        "line": "109",
        "color": "#0f766e",
        "direction": 0
      },
      "geometry": {
        "type": "Point",
        "coordinates": [
          121.539995594657,
          25.0042661031504
        ]
      }
    },
    {
      "type": "Feature",
      "properties": {
        "feature_type": "station",
        "ref": "TPE43244",
        "name": "師大分部",
        "name_en": "National Taiwan Normal University Branch",
        "line": "109",
        "color": "#0f766e",
        "direction": 0
      },
      "geometry": {
        "type": "Point",
        "coordinates": [
          121.538470307254,
          25.0076706783786
        ]
      }
    },
    {
      "type": "Feature",
      "properties": {
        "feature_type": "station",
        "ref": "TPE43245",
        "name": "捷運公館站",
        "name_en": "MRT Gongguan Sta.",
        "line": "109",
        "color": "#0f766e",
        "direction": 0
      },
      "geometry": {
        "type": "Point",
        "coordinates": [
          121.535185,
          25.013993
        ]
      }
    },
    {
      "type": "Feature",
      "properties": {
        "feature_type": "station",
        "ref": "TPE43246",
        "name": "臺大",
        "name_en": "National Taiwan U.",
        "line": "109",
        "color": "#0f766e",
        "direction": 0
      },
      "geometry": {
        "type": "Point",
        "coordinates": [
          121.5337036,
          25.01800299
        ]
      }
    },
    {
      "type": "Feature",
      "properties": {
        "feature_type": "station",
        "ref": "TPE43247",
        "name": "臺大綜合體育館",
        "name_en": "NTU Sports Center",
        "line": "109",
        "color": "#0f766e",
        "direction": 0
      },
      "geometry": {
        "type": "Point",
        "coordinates": [
          121.534388191196,
          25.0214053337175
        ]
      }
    },
    {
      "type": "Feature",
      "properties": {
        "feature_type": "station",
        "ref": "TPE43248",
        "name": "龍安國小(公務人力發展學院)",
        "name_en": "Longan Elementary School (Civil Service Development Institute)",
        "line": "109",
        "color": "#0f766e",
        "direction": 0
      },
      "geometry": {
        "type": "Point",
        "coordinates": [
          121.5349231,
          25.02527096
        ]
      }
    },
    {
      "type": "Feature",
      "properties": {
        "feature_type": "station",
        "ref": "TPE43249",
        "name": "金華新生路口",
        "name_en": "Jinhua and Xinsheng Intersection",
        "line": "109",
        "color": "#0f766e",
        "direction": 0
      },
      "geometry": {
        "type": "Point",
        "coordinates": [
          121.53384,
          25.03048
        ]
      }
    },
    {
      "type": "Feature",
      "properties": {
        "feature_type": "station",
        "ref": "TPE43250",
        "name": "信義新生路口",
        "name_en": "Xinyi & Xinsheng Intersection",
        "line": "109",
        "color": "#0f766e",
        "direction": 0
      },
      "geometry": {
        "type": "Point",
        "coordinates": [
          121.5329027,
          25.03320526
        ]
      }
    },
    {
      "type": "Feature",
      "properties": {
        "feature_type": "station",
        "ref": "TPE43251",
        "name": "仁愛新生路口",
        "name_en": "Renai and Xinsheng Intersection",
        "line": "109",
        "color": "#0f766e",
        "direction": 0
      },
      "geometry": {
        "type": "Point",
        "coordinates": [
          121.5328703,
          25.03779674
        ]
      }
    },
    {
      "type": "Feature",
      "properties": {
        "feature_type": "station",
        "ref": "TPE43252",
        "name": "捷運忠孝新生站",
        "name_en": "MRT Zhongxiao Xinsheng Sta.",
        "line": "109",
        "color": "#0f766e",
        "direction": 0
      },
      "geometry": {
        "type": "Point",
        "coordinates": [
          121.5328758,
          25.04198981
        ]
      }
    },
    {
      "type": "Feature",
      "properties": {
        "feature_type": "station",
        "ref": "TPE43253",
        "name": "光華商場",
        "name_en": "Guanghua Market",
        "line": "109",
        "color": "#0f766e",
        "direction": 0
      },
      "geometry": {
        "type": "Point",
        "coordinates": [
          121.53299,
          25.045
        ]
      }
    },
    {
      "type": "Feature",
      "properties": {
        "feature_type": "station",
        "ref": "TPE43254",
        "name": "長安松江路口",
        "name_en": "Changan&SongJiang Intersection",
        "line": "109",
        "color": "#0f766e",
        "direction": 0
      },
      "geometry": {
        "type": "Point",
        "coordinates": [
          121.532997019655,
          25.0482736559236
        ]
      }
    },
    {
      "type": "Feature",
      "properties": {
        "feature_type": "station",
        "ref": "TPE43255",
        "name": "捷運松江南京站",
        "name_en": "MRT Songjiang Nanjing Sta.",
        "line": "109",
        "color": "#0f766e",
        "direction": 0
      },
      "geometry": {
        "type": "Point",
        "coordinates": [
          121.533087,
          25.0517997
        ]
      }
    },
    {
      "type": "Feature",
      "properties": {
        "feature_type": "station",
        "ref": "TPE43256",
        "name": "長春松江路口",
        "name_en": "ChangChun&SongJiang Intersection",
        "line": "109",
        "color": "#0f766e",
        "direction": 0
      },
      "geometry": {
        "type": "Point",
        "coordinates": [
          121.5331386,
          25.05453652
        ]
      }
    },
    {
      "type": "Feature",
      "properties": {
        "feature_type": "station",
        "ref": "TPE43257",
        "name": "捷運行天宮站(松江路)",
        "name_en": "MRT Xingtian Temple Sta. (Songjiang Rd.)",
        "line": "109",
        "color": "#0f766e",
        "direction": 0
      },
      "geometry": {
        "type": "Point",
        "coordinates": [
          121.533176617617,
          25.057613818954
        ]
      }
    },
    {
      "type": "Feature",
      "properties": {
        "feature_type": "station",
        "ref": "TPE43258",
        "name": "民權松江路口",
        "name_en": "Minquan and Songjiang Intersection",
        "line": "109",
        "color": "#0f766e",
        "direction": 0
      },
      "geometry": {
        "type": "Point",
        "coordinates": [
          121.53321393502,
          25.062118989233
        ]
      }
    },
    {
      "type": "Feature",
      "properties": {
        "feature_type": "station",
        "ref": "TPE43259",
        "name": "民權吉林路口",
        "name_en": "Minquan and Jilin Intersection",
        "line": "109",
        "color": "#0f766e",
        "direction": 0
      },
      "geometry": {
        "type": "Point",
        "coordinates": [
          121.529148,
          25.062636
        ]
      }
    },
    {
      "type": "Feature",
      "properties": {
        "feature_type": "station",
        "ref": "TPE43260",
        "name": "中山國小(新生)",
        "name_en": "Zhongshan Elementary School",
        "line": "109",
        "color": "#0f766e",
        "direction": 0
      },
      "geometry": {
        "type": "Point",
        "coordinates": [
          121.52798329556133,
          25.06385884449781
        ]
      }
    },
    {
      "type": "Feature",
      "properties": {
        "feature_type": "station",
        "ref": "TPE43261",
        "name": "稻江護校",
        "name_en": "Daojiang High School of Nursing and Home Economics",
        "line": "109",
        "color": "#0f766e",
        "direction": 0
      },
      "geometry": {
        "type": "Point",
        "coordinates": [
          121.528089,
          25.066076
        ]
      }
    },
    {
      "type": "Feature",
      "properties": {
        "feature_type": "station",
        "ref": "TPE43262",
        "name": "民族東路口",
        "name_en": "Minzu E. Rd. Entrance",
        "line": "109",
        "color": "#0f766e",
        "direction": 0
      },
      "geometry": {
        "type": "Point",
        "coordinates": [
          121.52804750361558,
          25.06761882553957
        ]
      }
    },
    {
      "type": "Feature",
      "properties": {
        "feature_type": "station",
        "ref": "TPE58298",
        "name": "劍潭",
        "name_en": "Jiantan",
        "line": "109",
        "color": "#0f766e",
        "direction": 0
      },
      "geometry": {
        "type": "Point",
        "coordinates": [
          121.524381872313,
          25.0805889011559
        ]
      }
    },
    {
      "type": "Feature",
      "properties": {
        "feature_type": "station",
        "ref": "TPE43263",
        "name": "銘傳大學",
        "name_en": "Mingchuan U.",
        "line": "109",
        "color": "#0f766e",
        "direction": 0
      },
      "geometry": {
        "type": "Point",
        "coordinates": [
          121.52663,
          25.08697
        ]
      }
    },
    {
      "type": "Feature",
      "properties": {
        "feature_type": "station",
        "ref": "TPE43264",
        "name": "台電台北北區營業處",
        "name_en": "Taiwan Power Company North Taipei Dist. Office",
        "line": "109",
        "color": "#0f766e",
        "direction": 0
      },
      "geometry": {
        "type": "Point",
        "coordinates": [
          121.527703,
          25.091209
        ]
      }
    },
    {
      "type": "Feature",
      "properties": {
        "feature_type": "station",
        "ref": "TPE43265",
        "name": "泰北中學",
        "name_en": "Taibei High School",
        "line": "109",
        "color": "#0f766e",
        "direction": 0
      },
      "geometry": {
        "type": "Point",
        "coordinates": [
          121.533481875716,
          25.0972847950979
        ]
      }
    },
    {
      "type": "Feature",
      "properties": {
        "feature_type": "station",
        "ref": "TPE184056",
        "name": "岩山里",
        "name_en": "Yanshan Village",
        "line": "109",
        "color": "#0f766e",
        "direction": 0
      },
      "geometry": {
        "type": "Point",
        "coordinates": [
          121.537708683954,
          25.101779204864
        ]
      }
    },
    {
      "type": "Feature",
      "properties": {
        "feature_type": "station",
        "ref": "TPE184057",
        "name": "岩山里一",
        "name_en": "Yanshan Village 1",
        "line": "109",
        "color": "#0f766e",
        "direction": 0
      },
      "geometry": {
        "type": "Point",
        "coordinates": [
          121.53702433513,
          25.1035131480372
        ]
      }
    },
    {
      "type": "Feature",
      "properties": {
        "feature_type": "station",
        "ref": "TPE184058",
        "name": "芝蘭新村",
        "name_en": "Zhilan New Village",
        "line": "109",
        "color": "#0f766e",
        "direction": 0
      },
      "geometry": {
        "type": "Point",
        "coordinates": [
          121.536903542185,
          25.1069424036663
        ]
      }
    },
    {
      "type": "Feature",
      "properties": {
        "feature_type": "station",
        "ref": "TPE184059",
        "name": "華興中學",
        "name_en": "Huaxing High School",
        "line": "109",
        "color": "#0f766e",
        "direction": 0
      },
      "geometry": {
        "type": "Point",
        "coordinates": [
          121.5381247,
          25.10410142
        ]
      }
    },
    {
      "type": "Feature",
      "properties": {
        "feature_type": "station",
        "ref": "TPE184060",
        "name": "嶺頭",
        "name_en": "Lingtou",
        "line": "109",
        "color": "#0f766e",
        "direction": 0
      },
      "geometry": {
        "type": "Point",
        "coordinates": [
          121.540318712854,
          25.1020154099508
        ]
      }
    },
    {
      "type": "Feature",
      "properties": {
        "feature_type": "station",
        "ref": "TPE184061",
        "name": "拔子埔",
        "name_en": "Bazipu",
        "line": "109",
        "color": "#0f766e",
        "direction": 0
      },
      "geometry": {
        "type": "Point",
        "coordinates": [
          121.543899657612,
          25.1050667160996
        ]
      }
    },
    {
      "type": "Feature",
      "properties": {
        "feature_type": "station",
        "ref": "TPE184062",
        "name": "永嶺",
        "name_en": "Yongling",
        "line": "109",
        "color": "#0f766e",
        "direction": 0
      },
      "geometry": {
        "type": "Point",
        "coordinates": [
          121.5453823,
          25.10696523
        ]
      }
    },
    {
      "type": "Feature",
      "properties": {
        "feature_type": "station",
        "ref": "TPE43266",
        "name": "永福(林語堂故居)",
        "name_en": "YongFu",
        "line": "109",
        "color": "#0f766e",
        "direction": 0
      },
      "geometry": {
        "type": "Point",
        "coordinates": [
          121.547020026043,
          25.1092441758524
        ]
      }
    },
    {
      "type": "Feature",
      "properties": {
        "feature_type": "station",
        "ref": "TPE184063",
        "name": "陽明教養院",
        "name_en": "Yang Ming Home for the Disabled",
        "line": "109",
        "color": "#0f766e",
        "direction": 0
      },
      "geometry": {
        "type": "Point",
        "coordinates": [
          121.548654,
          25.110508
        ]
      }
    },
    {
      "type": "Feature",
      "properties": {
        "feature_type": "station",
        "ref": "TPE184064",
        "name": "福音",
        "name_en": "Fuyin",
        "line": "109",
        "color": "#0f766e",
        "direction": 0
      },
      "geometry": {
        "type": "Point",
        "coordinates": [
          121.55056001317,
          25.1143365915433
        ]
      }
    },
    {
      "type": "Feature",
      "properties": {
        "feature_type": "station",
        "ref": "TPE149156",
        "name": "陽明山國小",
        "name_en": "Yangmingshan Elementary School",
        "line": "109",
        "color": "#0f766e",
        "direction": 0
      },
      "geometry": {
        "type": "Point",
        "coordinates": [
          121.5521,
          25.11785
        ]
      }
    },
    {
      "type": "Feature",
      "properties": {
        "feature_type": "station",
        "ref": "TPE184065",
        "name": "明德新村",
        "name_en": "Mingde New Village",
        "line": "109",
        "color": "#0f766e",
        "direction": 0
      },
      "geometry": {
        "type": "Point",
        "coordinates": [
          121.55309076524317,
          25.120427697654744
        ]
      }
    },
    {
      "type": "Feature",
      "properties": {
        "feature_type": "station",
        "ref": "TPE184066",
        "name": "白雲山莊",
        "name_en": "Baiyun Shanzhuang",
        "line": "109",
        "color": "#0f766e",
        "direction": 0
      },
      "geometry": {
        "type": "Point",
        "coordinates": [
          121.55146530005,
          25.1230700246186
        ]
      }
    },
    {
      "type": "Feature",
      "properties": {
        "feature_type": "station",
        "ref": "TPE149157",
        "name": "新安",
        "name_en": "Xinan",
        "line": "109",
        "color": "#0f766e",
        "direction": 0
      },
      "geometry": {
        "type": "Point",
        "coordinates": [
          121.55027648092783,
          25.124902973723618
        ]
      }
    },
    {
      "type": "Feature",
      "properties": {
        "feature_type": "station",
        "ref": "TPE184067",
        "name": "下竹林",
        "name_en": "Xiazhulin",
        "line": "109",
        "color": "#0f766e",
        "direction": 0
      },
      "geometry": {
        "type": "Point",
        "coordinates": [
          121.547624545151,
          25.1297799480943
        ]
      }
    },
    {
      "type": "Feature",
      "properties": {
        "feature_type": "station",
        "ref": "TPE184068",
        "name": "格致國中",
        "name_en": "Gerzhi High School",
        "line": "109",
        "color": "#0f766e",
        "direction": 0
      },
      "geometry": {
        "type": "Point",
        "coordinates": [
          121.54684,
          25.13135
        ]
      }
    },
    {
      "type": "Feature",
      "properties": {
        "feature_type": "station",
        "ref": "TPE43267",
        "name": "山仔后派出所",
        "name_en": "Shanzihou Police Substation",
        "line": "109",
        "color": "#0f766e",
        "direction": 0
      },
      "geometry": {
        "type": "Point",
        "coordinates": [
          121.546296671701,
          25.1361057782174
        ]
      }
    },
    {
      "type": "Feature",
      "properties": {
        "feature_type": "station",
        "ref": "TPE43268",
        "name": "文化大學",
        "name_en": "Chinese Culture U.",
        "line": "109",
        "color": "#0f766e",
        "direction": 0
      },
      "geometry": {
        "type": "Point",
        "coordinates": [
          121.5465825,
          25.13875593
        ]
      }
    },
    {
      "type": "Feature",
      "properties": {
        "feature_type": "station",
        "ref": "TPE184069",
        "name": "磺溪底",
        "name_en": "Huangxidi",
        "line": "109",
        "color": "#0f766e",
        "direction": 0
      },
      "geometry": {
        "type": "Point",
        "coordinates": [
          121.54965081795456,
          25.14067928068319
        ]
      }
    },
    {
      "type": "Feature",
      "properties": {
        "feature_type": "station",
        "ref": "TPE59593",
        "name": "格致大亨路口",
        "name_en": "Gezhi & Daheng Intersection",
        "line": "109",
        "color": "#0f766e",
        "direction": 0
      },
      "geometry": {
        "type": "Point",
        "coordinates": [
          121.54926514715302,
          25.14305029076675
        ]
      }
    },
    {
      "type": "Feature",
      "properties": {
        "feature_type": "station",
        "ref": "TPE184070",
        "name": "福壽橋",
        "name_en": "Fushou Bridge",
        "line": "109",
        "color": "#0f766e",
        "direction": 0
      },
      "geometry": {
        "type": "Point",
        "coordinates": [
          121.549608408559,
          25.1459354022478
        ]
      }
    },
    {
      "type": "Feature",
      "properties": {
        "feature_type": "station",
        "ref": "TPE184071",
        "name": "聯勤陽明山招待所",
        "name_en": "CSF Yangmingshan Hostel",
        "line": "109",
        "color": "#0f766e",
        "direction": 0
      },
      "geometry": {
        "type": "Point",
        "coordinates": [
          121.549325751061,
          25.1480738467069
        ]
      }
    },
    {
      "type": "Feature",
      "properties": {
        "feature_type": "station",
        "ref": "TPE184072",
        "name": "錫安堂",
        "name_en": "Zion Church",
        "line": "109",
        "color": "#0f766e",
        "direction": 0
      },
      "geometry": {
        "type": "Point",
        "coordinates": [
          121.54960015536507,
          25.149638967548405
        ]
      }
    },
    {
      "type": "Feature",
      "properties": {
        "feature_type": "station",
        "ref": "TPE184073",
        "name": "教師中心",
        "name_en": "Teachers' Center",
        "line": "109",
        "color": "#0f766e",
        "direction": 0
      },
      "geometry": {
        "type": "Point",
        "coordinates": [
          121.5500578,
          25.1507481
        ]
      }
    },
    {
      "type": "Feature",
      "properties": {
        "feature_type": "station",
        "ref": "TPE43269",
        "name": "中山樓",
        "name_en": "Zhongshan Hall",
        "line": "109",
        "color": "#0f766e",
        "direction": 0
      },
      "geometry": {
        "type": "Point",
        "coordinates": [
          121.5496419,
          25.15151625
        ]
      }
    },
    {
      "type": "Feature",
      "properties": {
        "feature_type": "station",
        "ref": "TPE43270",
        "name": "陽明山",
        "name_en": "Yangmingshan",
        "line": "109",
        "color": "#0f766e",
        "direction": 0
      },
      "geometry": {
        "type": "Point",
        "coordinates": [
          121.5474217,
          25.15249728
        ]
      }
    },
    {
      "type": "Feature",
      "properties": {
        "feature_type": "station",
        "ref": "TPE43271",
        "name": "陽明山國家公園管理處",
        "name_en": "Yangmingshan National Park Headquarters",
        "line": "109",
        "color": "#0f766e",
        "direction": 0
      },
      "geometry": {
        "type": "Point",
        "coordinates": [
          121.54469305068612,
          25.153887276501916
        ]
      }
    },
    {
      "type": "Feature",
      "properties": {
        "feature_type": "station",
        "ref": "TPE43272",
        "name": "陽明山國家公園管理處",
        "name_en": "Yangmingshan National Park Headquarters",
        "line": "109",
        "color": "#0f766e",
        "direction": 1
      },
      "geometry": {
        "type": "Point",
        "coordinates": [
          121.54469305068612,
          25.153887276501916
        ]
      }
    },
    {
      "type": "Feature",
      "properties": {
        "feature_type": "station",
        "ref": "TPE43273",
        "name": "陽明山",
        "name_en": "Yangmingshan",
        "line": "109",
        "color": "#0f766e",
        "direction": 1
      },
      "geometry": {
        "type": "Point",
        "coordinates": [
          121.5473281,
          25.15233918
        ]
      }
    },
    {
      "type": "Feature",
      "properties": {
        "feature_type": "station",
        "ref": "TPE43274",
        "name": "中山樓",
        "name_en": "Zhongshan Hall",
        "line": "109",
        "color": "#0f766e",
        "direction": 1
      },
      "geometry": {
        "type": "Point",
        "coordinates": [
          121.5497128929114,
          25.151258917059053
        ]
      }
    },
    {
      "type": "Feature",
      "properties": {
        "feature_type": "station",
        "ref": "TPE184074",
        "name": "教師中心",
        "name_en": "Teachers' Center",
        "line": "109",
        "color": "#0f766e",
        "direction": 1
      },
      "geometry": {
        "type": "Point",
        "coordinates": [
          121.5494676,
          25.14972197
        ]
      }
    },
    {
      "type": "Feature",
      "properties": {
        "feature_type": "station",
        "ref": "TPE184075",
        "name": "聯勤陽明山招待所",
        "name_en": "CSF Yangmingshan Hostel",
        "line": "109",
        "color": "#0f766e",
        "direction": 1
      },
      "geometry": {
        "type": "Point",
        "coordinates": [
          121.54915093472783,
          25.14817175082818
        ]
      }
    },
    {
      "type": "Feature",
      "properties": {
        "feature_type": "station",
        "ref": "TPE184076",
        "name": "福壽橋",
        "name_en": "Fushou Bridge",
        "line": "109",
        "color": "#0f766e",
        "direction": 1
      },
      "geometry": {
        "type": "Point",
        "coordinates": [
          121.54954,
          25.14569
        ]
      }
    },
    {
      "type": "Feature",
      "properties": {
        "feature_type": "station",
        "ref": "TPE59594",
        "name": "格致大亨路口",
        "name_en": "Gezhi & Daheng Intersection",
        "line": "109",
        "color": "#0f766e",
        "direction": 1
      },
      "geometry": {
        "type": "Point",
        "coordinates": [
          121.54926,
          25.14275
        ]
      }
    },
    {
      "type": "Feature",
      "properties": {
        "feature_type": "station",
        "ref": "TPE184077",
        "name": "磺溪底",
        "name_en": "Huangxidi",
        "line": "109",
        "color": "#0f766e",
        "direction": 1
      },
      "geometry": {
        "type": "Point",
        "coordinates": [
          121.5496272,
          25.14086137
        ]
      }
    },
    {
      "type": "Feature",
      "properties": {
        "feature_type": "station",
        "ref": "TPE43275",
        "name": "文化大學",
        "name_en": "Chinese Culture U.",
        "line": "109",
        "color": "#0f766e",
        "direction": 1
      },
      "geometry": {
        "type": "Point",
        "coordinates": [
          121.54648,
          25.13809
        ]
      }
    },
    {
      "type": "Feature",
      "properties": {
        "feature_type": "station",
        "ref": "TPE43276",
        "name": "山仔后派出所",
        "name_en": "Shanzihou Police Substation",
        "line": "109",
        "color": "#0f766e",
        "direction": 1
      },
      "geometry": {
        "type": "Point",
        "coordinates": [
          121.54581401932357,
          25.13472716039782
        ]
      }
    },
    {
      "type": "Feature",
      "properties": {
        "feature_type": "station",
        "ref": "TPE184078",
        "name": "格致國中",
        "name_en": "Gezhi Junior High School",
        "line": "109",
        "color": "#0f766e",
        "direction": 1
      },
      "geometry": {
        "type": "Point",
        "coordinates": [
          121.54690862019565,
          25.13082779909332
        ]
      }
    },
    {
      "type": "Feature",
      "properties": {
        "feature_type": "station",
        "ref": "TPE184079",
        "name": "下竹林",
        "name_en": "Xiazhulin",
        "line": "109",
        "color": "#0f766e",
        "direction": 1
      },
      "geometry": {
        "type": "Point",
        "coordinates": [
          121.54753736436147,
          25.12946964750175
        ]
      }
    },
    {
      "type": "Feature",
      "properties": {
        "feature_type": "station",
        "ref": "TPE148841",
        "name": "新安",
        "name_en": "Xinan",
        "line": "109",
        "color": "#0f766e",
        "direction": 1
      },
      "geometry": {
        "type": "Point",
        "coordinates": [
          121.55004336876296,
          25.124924540354783
        ]
      }
    },
    {
      "type": "Feature",
      "properties": {
        "feature_type": "station",
        "ref": "TPE184080",
        "name": "白雲山莊",
        "name_en": "Baiyun Shanzhuang",
        "line": "109",
        "color": "#0f766e",
        "direction": 1
      },
      "geometry": {
        "type": "Point",
        "coordinates": [
          121.55169540467806,
          25.12257511145472
        ]
      }
    },
    {
      "type": "Feature",
      "properties": {
        "feature_type": "station",
        "ref": "TPE184081",
        "name": "明德新村",
        "name_en": "Mingde New Village",
        "line": "109",
        "color": "#0f766e",
        "direction": 1
      },
      "geometry": {
        "type": "Point",
        "coordinates": [
          121.55293378688096,
          25.11993179445477
        ]
      }
    },
    {
      "type": "Feature",
      "properties": {
        "feature_type": "station",
        "ref": "TPE149158",
        "name": "陽明山國小",
        "name_en": "Yangmingshan Elementary School",
        "line": "109",
        "color": "#0f766e",
        "direction": 1
      },
      "geometry": {
        "type": "Point",
        "coordinates": [
          121.55202263410142,
          25.11799052630939
        ]
      }
    },
    {
      "type": "Feature",
      "properties": {
        "feature_type": "station",
        "ref": "TPE184082",
        "name": "福音",
        "name_en": "Fuyin",
        "line": "109",
        "color": "#0f766e",
        "direction": 1
      },
      "geometry": {
        "type": "Point",
        "coordinates": [
          121.550310398218,
          25.1140124257428
        ]
      }
    },
    {
      "type": "Feature",
      "properties": {
        "feature_type": "station",
        "ref": "TPE184083",
        "name": "陽明教養院",
        "name_en": "Yang Ming Home for the Disabled",
        "line": "109",
        "color": "#0f766e",
        "direction": 1
      },
      "geometry": {
        "type": "Point",
        "coordinates": [
          121.54836175021,
          25.1104191040479
        ]
      }
    },
    {
      "type": "Feature",
      "properties": {
        "feature_type": "station",
        "ref": "TPE43277",
        "name": "永福(林語堂故居)",
        "name_en": "YongFu",
        "line": "109",
        "color": "#0f766e",
        "direction": 1
      },
      "geometry": {
        "type": "Point",
        "coordinates": [
          121.547154139609,
          25.1095275064689
        ]
      }
    },
    {
      "type": "Feature",
      "properties": {
        "feature_type": "station",
        "ref": "TPE184084",
        "name": "永嶺",
        "name_en": "Yongling",
        "line": "109",
        "color": "#0f766e",
        "direction": 1
      },
      "geometry": {
        "type": "Point",
        "coordinates": [
          121.545213090496,
          25.1068495776368
        ]
      }
    },
    {
      "type": "Feature",
      "properties": {
        "feature_type": "station",
        "ref": "TPE184085",
        "name": "拔子埔",
        "name_en": "Bazipu",
        "line": "109",
        "color": "#0f766e",
        "direction": 1
      },
      "geometry": {
        "type": "Point",
        "coordinates": [
          121.543591,
          25.104977
        ]
      }
    },
    {
      "type": "Feature",
      "properties": {
        "feature_type": "station",
        "ref": "TPE184086",
        "name": "嶺頭",
        "name_en": "Lingtou",
        "line": "109",
        "color": "#0f766e",
        "direction": 1
      },
      "geometry": {
        "type": "Point",
        "coordinates": [
          121.541536360844,
          25.1031851590031
        ]
      }
    },
    {
      "type": "Feature",
      "properties": {
        "feature_type": "station",
        "ref": "TPE184087",
        "name": "華興中學",
        "name_en": "Huaxing High School",
        "line": "109",
        "color": "#0f766e",
        "direction": 1
      },
      "geometry": {
        "type": "Point",
        "coordinates": [
          121.538359218545,
          25.104112892574
        ]
      }
    },
    {
      "type": "Feature",
      "properties": {
        "feature_type": "station",
        "ref": "TPE184088",
        "name": "芝蘭新村",
        "name_en": "Zhilan New Village",
        "line": "109",
        "color": "#0f766e",
        "direction": 1
      },
      "geometry": {
        "type": "Point",
        "coordinates": [
          121.537298719254,
          25.1072897892355
        ]
      }
    },
    {
      "type": "Feature",
      "properties": {
        "feature_type": "station",
        "ref": "TPE184089",
        "name": "岩山里一",
        "name_en": "Yanshan Village 1",
        "line": "109",
        "color": "#0f766e",
        "direction": 1
      },
      "geometry": {
        "type": "Point",
        "coordinates": [
          121.53692,
          25.10331
        ]
      }
    },
    {
      "type": "Feature",
      "properties": {
        "feature_type": "station",
        "ref": "TPE184090",
        "name": "岩山里",
        "name_en": "Yanshan Village",
        "line": "109",
        "color": "#0f766e",
        "direction": 1
      },
      "geometry": {
        "type": "Point",
        "coordinates": [
          121.537579799115,
          25.1018780140349
        ]
      }
    },
    {
      "type": "Feature",
      "properties": {
        "feature_type": "station",
        "ref": "TPE43278",
        "name": "泰北中學",
        "name_en": "Taibei High School",
        "line": "109",
        "color": "#0f766e",
        "direction": 1
      },
      "geometry": {
        "type": "Point",
        "coordinates": [
          121.534030294965,
          25.0977513146504
        ]
      }
    },
    {
      "type": "Feature",
      "properties": {
        "feature_type": "station",
        "ref": "TPE57517",
        "name": "捷運士林站(中山)",
        "name_en": "MRT Shilin Sta. (Zhongshan )",
        "line": "109",
        "color": "#0f766e",
        "direction": 1
      },
      "geometry": {
        "type": "Point",
        "coordinates": [
          121.5276799453955,
          25.092853732851424
        ]
      }
    },
    {
      "type": "Feature",
      "properties": {
        "feature_type": "station",
        "ref": "TPE43279",
        "name": "台電台北北區營業處",
        "name_en": "Taiwan Power Company North Taipei Dist. Office",
        "line": "109",
        "color": "#0f766e",
        "direction": 1
      },
      "geometry": {
        "type": "Point",
        "coordinates": [
          121.5273919,
          25.09069989
        ]
      }
    },
    {
      "type": "Feature",
      "properties": {
        "feature_type": "station",
        "ref": "TPE43280",
        "name": "銘傳大學",
        "name_en": "Mingchuan U.",
        "line": "109",
        "color": "#0f766e",
        "direction": 1
      },
      "geometry": {
        "type": "Point",
        "coordinates": [
          121.5269357,
          25.08800277
        ]
      }
    },
    {
      "type": "Feature",
      "properties": {
        "feature_type": "station",
        "ref": "TPE43281",
        "name": "捷運劍潭站(中山)",
        "name_en": "MRT Jiantan Sta. (Zhongshan)",
        "line": "109",
        "color": "#0f766e",
        "direction": 1
      },
      "geometry": {
        "type": "Point",
        "coordinates": [
          121.525327,
          25.085353
        ]
      }
    },
    {
      "type": "Feature",
      "properties": {
        "feature_type": "station",
        "ref": "TPE58299",
        "name": "劍潭",
        "name_en": "Jiantan",
        "line": "109",
        "color": "#0f766e",
        "direction": 1
      },
      "geometry": {
        "type": "Point",
        "coordinates": [
          121.524712226022,
          25.0817595131148
        ]
      }
    },
    {
      "type": "Feature",
      "properties": {
        "feature_type": "station",
        "ref": "TPE43282",
        "name": "民族東路口",
        "name_en": "Minzu E. Rd. Entrance",
        "line": "109",
        "color": "#0f766e",
        "direction": 1
      },
      "geometry": {
        "type": "Point",
        "coordinates": [
          121.52756,
          25.06731
        ]
      }
    },
    {
      "type": "Feature",
      "properties": {
        "feature_type": "station",
        "ref": "TPE43283",
        "name": "稻江護校",
        "name_en": "Daojiang High School of Nursing and Home Economics",
        "line": "109",
        "color": "#0f766e",
        "direction": 1
      },
      "geometry": {
        "type": "Point",
        "coordinates": [
          121.5276297,
          25.0650407
        ]
      }
    },
    {
      "type": "Feature",
      "properties": {
        "feature_type": "station",
        "ref": "TPE43284",
        "name": "中山國小(新生)",
        "name_en": "Zhongshan Elementary School",
        "line": "109",
        "color": "#0f766e",
        "direction": 1
      },
      "geometry": {
        "type": "Point",
        "coordinates": [
          121.52748,
          25.06333
        ]
      }
    },
    {
      "type": "Feature",
      "properties": {
        "feature_type": "station",
        "ref": "TPE43285",
        "name": "民權吉林路口",
        "name_en": "Minquan and Jilin Intersection",
        "line": "109",
        "color": "#0f766e",
        "direction": 1
      },
      "geometry": {
        "type": "Point",
        "coordinates": [
          121.5300637,
          25.06254664
        ]
      }
    },
    {
      "type": "Feature",
      "properties": {
        "feature_type": "station",
        "ref": "TPE43286",
        "name": "捷運行天宮站(松江路)",
        "name_en": "MRT Xingtian Temple Sta. (Songjiang Rd.)",
        "line": "109",
        "color": "#0f766e",
        "direction": 1
      },
      "geometry": {
        "type": "Point",
        "coordinates": [
          121.53313278818085,
          25.060643374791923
        ]
      }
    },
    {
      "type": "Feature",
      "properties": {
        "feature_type": "station",
        "ref": "TPE43287",
        "name": "長春松江路口",
        "name_en": "ChangChun&SongJiang Intersection",
        "line": "109",
        "color": "#0f766e",
        "direction": 1
      },
      "geometry": {
        "type": "Point",
        "coordinates": [
          121.533011,
          25.05500621
        ]
      }
    },
    {
      "type": "Feature",
      "properties": {
        "feature_type": "station",
        "ref": "TPE43288",
        "name": "捷運松江南京站",
        "name_en": "MRT Songjiang Nanjing Sta.",
        "line": "109",
        "color": "#0f766e",
        "direction": 1
      },
      "geometry": {
        "type": "Point",
        "coordinates": [
          121.5329812,
          25.05228153
        ]
      }
    },
    {
      "type": "Feature",
      "properties": {
        "feature_type": "station",
        "ref": "TPE43289",
        "name": "長安松江路口",
        "name_en": "Changan&SongJiang Intersection",
        "line": "109",
        "color": "#0f766e",
        "direction": 1
      },
      "geometry": {
        "type": "Point",
        "coordinates": [
          121.5329145,
          25.04864879
        ]
      }
    },
    {
      "type": "Feature",
      "properties": {
        "feature_type": "station",
        "ref": "TPE43290",
        "name": "光華商場",
        "name_en": "Guanghua Market",
        "line": "109",
        "color": "#0f766e",
        "direction": 1
      },
      "geometry": {
        "type": "Point",
        "coordinates": [
          121.5328606,
          25.04460839
        ]
      }
    },
    {
      "type": "Feature",
      "properties": {
        "feature_type": "station",
        "ref": "TPE43291",
        "name": "捷運忠孝新生站",
        "name_en": "MRT Zhongxiao Xinsheng Sta.",
        "line": "109",
        "color": "#0f766e",
        "direction": 1
      },
      "geometry": {
        "type": "Point",
        "coordinates": [
          121.532693,
          25.040288
        ]
      }
    },
    {
      "type": "Feature",
      "properties": {
        "feature_type": "station",
        "ref": "TPE43292",
        "name": "仁愛新生路口",
        "name_en": "Renai and Xinsheng Intersection",
        "line": "109",
        "color": "#0f766e",
        "direction": 1
      },
      "geometry": {
        "type": "Point",
        "coordinates": [
          121.5326821,
          25.03851244
        ]
      }
    },
    {
      "type": "Feature",
      "properties": {
        "feature_type": "station",
        "ref": "TPE43293",
        "name": "信義新生路口",
        "name_en": "Xinyi & Xinsheng Intersection",
        "line": "109",
        "color": "#0f766e",
        "direction": 1
      },
      "geometry": {
        "type": "Point",
        "coordinates": [
          121.5325798,
          25.03403642
        ]
      }
    },
    {
      "type": "Feature",
      "properties": {
        "feature_type": "station",
        "ref": "TPE43294",
        "name": "金華新生路口",
        "name_en": "Jinhua and Xinsheng Intersection",
        "line": "109",
        "color": "#0f766e",
        "direction": 1
      },
      "geometry": {
        "type": "Point",
        "coordinates": [
          121.53346,
          25.03087
        ]
      }
    },
    {
      "type": "Feature",
      "properties": {
        "feature_type": "station",
        "ref": "TPE43295",
        "name": "和平新生路口",
        "name_en": "Heping and Xinsheng Intersection",
        "line": "109",
        "color": "#0f766e",
        "direction": 1
      },
      "geometry": {
        "type": "Point",
        "coordinates": [
          121.53478,
          25.02639
        ]
      }
    },
    {
      "type": "Feature",
      "properties": {
        "feature_type": "station",
        "ref": "TPE43296",
        "name": "龍安國小(公務人力發展學院)",
        "name_en": "Longan Elementary School (Civil Service Development Institute)",
        "line": "109",
        "color": "#0f766e",
        "direction": 1
      },
      "geometry": {
        "type": "Point",
        "coordinates": [
          121.5345198,
          25.02466421
        ]
      }
    },
    {
      "type": "Feature",
      "properties": {
        "feature_type": "station",
        "ref": "TPE43297",
        "name": "臺大綜合體育館",
        "name_en": "NTU Sports Center",
        "line": "109",
        "color": "#0f766e",
        "direction": 1
      },
      "geometry": {
        "type": "Point",
        "coordinates": [
          121.534113646475,
          25.0215502113013
        ]
      }
    },
    {
      "type": "Feature",
      "properties": {
        "feature_type": "station",
        "ref": "TPE43298",
        "name": "臺大",
        "name_en": "National Taiwan U.",
        "line": "109",
        "color": "#0f766e",
        "direction": 1
      },
      "geometry": {
        "type": "Point",
        "coordinates": [
          121.533425339383,
          25.018246284477
        ]
      }
    },
    {
      "type": "Feature",
      "properties": {
        "feature_type": "station",
        "ref": "TPE43299",
        "name": "捷運公館站",
        "name_en": "MRT Gongguan Sta.",
        "line": "109",
        "color": "#0f766e",
        "direction": 1
      },
      "geometry": {
        "type": "Point",
        "coordinates": [
          121.534722,
          25.014321
        ]
      }
    },
    {
      "type": "Feature",
      "properties": {
        "feature_type": "station",
        "ref": "TPE43300",
        "name": "師大分部",
        "name_en": "National Taiwan Normal University Branch",
        "line": "109",
        "color": "#0f766e",
        "direction": 1
      },
      "geometry": {
        "type": "Point",
        "coordinates": [
          121.538064047069,
          25.0081406778406
        ]
      }
    },
    {
      "type": "Feature",
      "properties": {
        "feature_type": "station",
        "ref": "TPE43301",
        "name": "武功國小(興隆)",
        "name_en": "Changan Elementary School (Xinglong)",
        "line": "109",
        "color": "#0f766e",
        "direction": 1
      },
      "geometry": {
        "type": "Point",
        "coordinates": [
          121.53985642693925,
          25.004134202331223
        ]
      }
    },
    {
      "type": "Feature",
      "properties": {
        "feature_type": "station",
        "ref": "TPE43302",
        "name": "景明街口",
        "name_en": "Jingming St. Entrance",
        "line": "109",
        "color": "#0f766e",
        "direction": 1
      },
      "geometry": {
        "type": "Point",
        "coordinates": [
          121.542377053436,
          25.0014489083498
        ]
      }
    },
    {
      "type": "Feature",
      "properties": {
        "feature_type": "station",
        "ref": "TPE43303",
        "name": "憲光公寓",
        "name_en": "Xianguang Apartment",
        "line": "109",
        "color": "#0f766e",
        "direction": 1
      },
      "geometry": {
        "type": "Point",
        "coordinates": [
          121.54389161859,
          24.9994337628866
        ]
      }
    },
    {
      "type": "Feature",
      "properties": {
        "feature_type": "station",
        "ref": "TPE57518",
        "name": "靜心高中",
        "name_en": "Chingshin Academy",
        "line": "109",
        "color": "#0f766e",
        "direction": 1
      },
      "geometry": {
        "type": "Point",
        "coordinates": [
          121.545859,
          24.998797
        ]
      }
    },
    {
      "type": "Feature",
      "properties": {
        "feature_type": "station",
        "ref": "TPE43305",
        "name": "興隆市場",
        "name_en": "Xinglong Market",
        "line": "109",
        "color": "#0f766e",
        "direction": 1
      },
      "geometry": {
        "type": "Point",
        "coordinates": [
          121.547902045529,
          24.9996328919305
        ]
      }
    },
    {
      "type": "Feature",
      "properties": {
        "feature_type": "station",
        "ref": "TPE43306",
        "name": "興德國小",
        "name_en": "Xingde Elementary School",
        "line": "109",
        "color": "#0f766e",
        "direction": 1
      },
      "geometry": {
        "type": "Point",
        "coordinates": [
          121.550307886322,
          25.0009702685655
        ]
      }
    },
    {
      "type": "Feature",
      "properties": {
        "feature_type": "station",
        "ref": "TPE43307",
        "name": "興隆國小",
        "name_en": "Xinglong Elementary School",
        "line": "109",
        "color": "#0f766e",
        "direction": 1
      },
      "geometry": {
        "type": "Point",
        "coordinates": [
          121.553328388246,
          25.0012218102124
        ]
      }
    },
    {
      "type": "Feature",
      "properties": {
        "feature_type": "station",
        "ref": "TPE43308",
        "name": "捷運萬芳醫院站",
        "name_en": "MRT Wanfang Hospital Sta.",
        "line": "109",
        "color": "#0f766e",
        "direction": 1
      },
      "geometry": {
        "type": "Point",
        "coordinates": [
          121.557681,
          24.999051
        ]
      }
    },
    {
      "type": "Feature",
      "properties": {
        "feature_type": "station",
        "ref": "TPE43309",
        "name": "臺灣警察專科學校",
        "name_en": "Taiwan Police College",
        "line": "109",
        "color": "#0f766e",
        "direction": 1
      },
      "geometry": {
        "type": "Point",
        "coordinates": [
          121.558494894192,
          24.9982684874929
        ]
      }
    },
    {
      "type": "Feature",
      "properties": {
        "feature_type": "station",
        "ref": "TPE43310",
        "name": "文山運動中心(萬芳)",
        "name_en": "Wen Shan Sports Center (Wanfang)",
        "line": "109",
        "color": "#0f766e",
        "direction": 1
      },
      "geometry": {
        "type": "Point",
        "coordinates": [
          121.56078,
          24.996958
        ]
      }
    },
    {
      "type": "Feature",
      "properties": {
        "feature_type": "station",
        "ref": "TPE43311",
        "name": "棕櫚泉社區",
        "name_en": "Palm Spring Community",
        "line": "109",
        "color": "#0f766e",
        "direction": 1
      },
      "geometry": {
        "type": "Point",
        "coordinates": [
          121.56229,
          24.99729
        ]
      }
    },
    {
      "type": "Feature",
      "properties": {
        "feature_type": "station",
        "ref": "TPE59275",
        "name": "萬利街口",
        "name_en": "Wanli St. Entrance",
        "line": "109",
        "color": "#0f766e",
        "direction": 1
      },
      "geometry": {
        "type": "Point",
        "coordinates": [
          121.56623,
          24.998733
        ]
      }
    },
    {
      "type": "Feature",
      "properties": {
        "feature_type": "station",
        "ref": "TPE43312",
        "name": "捷運萬芳社區站",
        "name_en": "MRT Wanfang Community Sta.",
        "line": "109",
        "color": "#0f766e",
        "direction": 1
      },
      "geometry": {
        "type": "Point",
        "coordinates": [
          121.56808367448,
          24.9988589682607
        ]
      }
    },
    {
      "type": "Feature",
      "properties": {
        "feature_type": "station",
        "ref": "TPE197406",
        "name": "萬芳6號公園",
        "name_en": "Wanfang No.6 Park",
        "line": "109",
        "color": "#0f766e",
        "direction": 1
      },
      "geometry": {
        "type": "Point",
        "coordinates": [
          121.5691055,
          24.99976765
        ]
      }
    },
    {
      "type": "Feature",
      "properties": {
        "feature_type": "station",
        "ref": "TPE43313",
        "name": "萬芳國小",
        "name_en": "Wanfang Elementary School",
        "line": "109",
        "color": "#0f766e",
        "direction": 1
      },
      "geometry": {
        "type": "Point",
        "coordinates": [
          121.567472,
          25.001533
        ]
      }
    },
    {
      "type": "Feature",
      "properties": {
        "feature_type": "station",
        "ref": "TPE43314",
        "name": "萬芳活動中心",
        "name_en": "Wanfang Activity Center",
        "line": "109",
        "color": "#0f766e",
        "direction": 1
      },
      "geometry": {
        "type": "Point",
        "coordinates": [
          121.568378960175,
          25.002391659383
        ]
      }
    },
    {
      "type": "Feature",
      "properties": {
        "feature_type": "station",
        "ref": "TPE43315",
        "name": "萬芳社區",
        "name_en": "Wanfang Community",
        "line": "109",
        "color": "#0f766e",
        "direction": 1
      },
      "geometry": {
        "type": "Point",
        "coordinates": [
          121.569815966856,
          25.0022533526966
        ]
      }
    }
  ]
}
