{
  "type": "FeatureCollection",
  "name": "8035A",
  "properties": {
    "id": "kaohsiung_8035a",
    "name": "8035A",
    "name_en": "8035A",
    "ref": "8035A",
    "color": "#166534",
    "city_id": "Kaohsiung",
    "source": "TDX Bus Shape / StopOfRoute",
    "official_map_url": "http://ibus.tbkc.gov.tw/cms/api/route/8035/map/1191/image",
    "operator_id": "10320",
    "operator": "高雄客運",
    "operator_en": "Kaohsiung Bus Co., Ltd."
  },
  "features": [
    {
      "type": "Feature",
      "properties": {
        "feature_type": "route",
        "ref": "8035A",
        "name": "8035A",
        "name_en": "8035A",
        "color": "#166534",
        "direction": 0
      },
      "geometry": {
        "type": "LineString",
        "coordinates": [
          [
            120.48433,
            22.88386
          ],
          [
            120.48436,
            22.88413
          ],
          [
            120.48479,
            22.8841
          ],
          [
            120.48475743407893,
            22.883587899460878
          ],
          [
            120.48475179427511,
            22.883560372757493
          ],
          [
            120.4847387748221,
            22.883535139697727
          ],
          [
            120.48471923751353,
            22.883513831401405
          ],
          [
            120.48469447980328,
            22.883497862931954
          ],
          [
            120.48466614582702,
            22.88348829474005
          ],
          [
            120.48463608543753,
            22.883485763385014
          ],
          [
            120.48319455804453,
            22.883537317439547
          ],
          [
            120.48316496014726,
            22.88354195731097
          ],
          [
            120.48313758162261,
            22.88355344673458
          ],
          [
            120.48311425990522,
            22.883571026802443
          ],
          [
            120.4830965331502,
            22.883593538042863
          ],
          [
            120.48308557050383,
            22.883619495754743
          ],
          [
            120.48308209494928,
            22.88364717816212
          ],
          [
            120.4831,
            22.88494
          ],
          [
            120.4831,
            22.88707
          ],
          [
            120.48331,
            22.88914
          ],
          [
            120.48351,
            22.89133
          ],
          [
            120.48345,
            22.89182
          ],
          [
            120.48349,
            22.8946
          ],
          [
            120.48352,
            22.89568
          ],
          [
            120.48382,
            22.89568
          ],
          [
            120.48382,
            22.89597
          ],
          [
            120.48354,
            22.89598
          ],
          [
            120.48352754693435,
            22.897713283176717
          ],
          [
            120.48352574217893,
            22.897731570554722
          ],
          [
            120.48352064243113,
            22.89774930930226
          ],
          [
            120.48351239350664,
            22.89776599716014
          ],
          [
            120.48350123132442,
            22.897781156856208
          ],
          [
            120.48348747512247,
            22.89779435482368
          ],
          [
            120.48347183087087,
            22.89780503590142
          ],
          [
            120.47995,
            22.8998
          ],
          [
            120.47902,
            22.90087
          ],
          [
            120.47898,
            22.90125
          ],
          [
            120.47918,
            22.90389
          ],
          [
            120.47902,
            22.90504
          ],
          [
            120.47881517318504,
            22.905748026190636
          ],
          [
            120.47880749325903,
            22.905767253181452
          ],
          [
            120.4787961751914,
            22.905784644621164
          ],
          [
            120.47878156231695,
            22.905799775413417
          ],
          [
            120.47876416636575,
            22.905812115691134
          ],
          [
            120.47874459652873,
            22.905821233308632
          ],
          [
            120.4787236843356,
            22.90582678359111
          ],
          [
            120.47697,
            22.90613
          ],
          [
            120.47535,
            22.90677
          ],
          [
            120.47513,
            22.90696
          ],
          [
            120.47492,
            22.90728
          ],
          [
            120.47436,
            22.90836
          ],
          [
            120.4741,
            22.90864
          ],
          [
            120.47364,
            22.9089
          ],
          [
            120.4731,
            22.90901
          ],
          [
            120.47175,
            22.90878
          ],
          [
            120.4712,
            22.90883
          ],
          [
            120.4692,
            22.90939
          ],
          [
            120.46749,
            22.90979
          ],
          [
            120.46715,
            22.90993
          ],
          [
            120.46674,
            22.91034
          ],
          [
            120.46629,
            22.91094
          ],
          [
            120.46613,
            22.91155
          ],
          [
            120.46601,
            22.91214
          ],
          [
            120.46576,
            22.91268
          ],
          [
            120.46543,
            22.91323
          ],
          [
            120.46488,
            22.91398
          ],
          [
            120.46425,
            22.91468
          ],
          [
            120.46321,
            22.91562
          ],
          [
            120.46245,
            22.91686
          ],
          [
            120.46206,
            22.91719
          ],
          [
            120.46165,
            22.91731
          ],
          [
            120.46117,
            22.91726
          ],
          [
            120.4598,
            22.91665
          ],
          [
            120.45937,
            22.91656
          ],
          [
            120.45904,
            22.91658
          ],
          [
            120.45837,
            22.91684
          ],
          [
            120.45779,
            22.91716
          ],
          [
            120.45769,
            22.9171
          ],
          [
            120.45744,
            22.91714
          ],
          [
            120.45324,
            22.91853
          ],
          [
            120.45095798151516,
            22.919416255516012
          ],
          [
            120.4509315651354,
            22.919430623595318
          ],
          [
            120.45090989441744,
            22.919451073709222
          ],
          [
            120.45089475235221,
            22.91947607335933
          ],
          [
            120.4508871954247,
            22.91950387828197
          ],
          [
            120.45088775089323,
            22.919532548485318
          ],
          [
            120.45089625810517,
            22.919559826193233
          ],
          [
            120.45151,
            22.92085
          ],
          [
            120.45239,
            22.92129
          ],
          [
            120.45261,
            22.9215
          ],
          [
            120.45403,
            22.92378
          ],
          [
            120.45556,
            22.92602
          ],
          [
            120.45605,
            22.92712
          ],
          [
            120.4564,
            22.92737
          ],
          [
            120.45789,
            22.928
          ],
          [
            120.45827,
            22.9284
          ],
          [
            120.4591,
            22.93064
          ],
          [
            120.46144,
            22.93634
          ],
          [
            120.46131,
            22.94011
          ],
          [
            120.46141,
            22.94056
          ],
          [
            120.46214,
            22.94137
          ],
          [
            120.46235,
            22.94173
          ],
          [
            120.46337,
            22.94487
          ],
          [
            120.466,
            22.94669
          ],
          [
            120.46709,
            22.94755
          ],
          [
            120.46744,
            22.94852
          ],
          [
            120.46871,
            22.95292
          ],
          [
            120.46879,
            22.95435
          ],
          [
            120.46888,
            22.9546
          ],
          [
            120.47186,
            22.96065
          ],
          [
            120.47189,
            22.96084
          ],
          [
            120.47172,
            22.9617
          ],
          [
            120.47172,
            22.9623
          ],
          [
            120.472,
            22.96343
          ],
          [
            120.47258382725792,
            22.964809149506664
          ],
          [
            120.47258964661735,
            22.964827760913604
          ],
          [
            120.47259180827112,
            22.964847294037927
          ],
          [
            120.47259013984184,
            22.964866868693527
          ],
          [
            120.4725846959149,
            22.96488584446311
          ],
          [
            120.47257565459745,
            22.96490360052293
          ],
          [
            120.47256357734197,
            22.96491926995594
          ],
          [
            120.47191,
            22.96562
          ],
          [
            120.4716,
            22.96575
          ],
          [
            120.47038,
            22.9659
          ],
          [
            120.4688,
            22.9664
          ],
          [
            120.46683381431019,
            22.967562345951293
          ],
          [
            120.46681857956368,
            22.96757314844545
          ],
          [
            120.46680521909717,
            22.967586383808804
          ],
          [
            120.46679442029198,
            22.967601496134307
          ],
          [
            120.46678648429129,
            22.967618063988848
          ],
          [
            120.46678163240412,
            22.967635625349384
          ],
          [
            120.46678,
            22.967653690487275
          ],
          [
            120.46678,
            22.96823
          ],
          [
            120.46792,
            22.97076
          ],
          [
            120.46861,
            22.97526
          ],
          [
            120.46948,
            22.97835
          ],
          [
            120.46956,
            22.97995
          ],
          [
            120.46976,
            22.98118
          ],
          [
            120.46949,
            22.98245
          ],
          [
            120.46922,
            22.98574
          ],
          [
            120.46869,
            22.98966
          ],
          [
            120.46849,
            22.99008
          ],
          [
            120.4674,
            22.99099
          ],
          [
            120.46719,
            22.99135
          ],
          [
            120.46707,
            22.99315
          ],
          [
            120.46761,
            22.99467
          ],
          [
            120.46794,
            22.99652
          ],
          [
            120.46815,
            22.99729
          ],
          [
            120.46814,
            22.99779
          ],
          [
            120.46782,
            22.99916
          ],
          [
            120.46787,
            22.99961
          ],
          [
            120.46838,
            23.00127
          ],
          [
            120.46904,
            23.00245
          ],
          [
            120.46915,
            23.00289
          ],
          [
            120.46912,
            23.00358
          ],
          [
            120.46901,
            23.00409
          ],
          [
            120.4686,
            23.00521
          ],
          [
            120.46862,
            23.00555
          ],
          [
            120.469,
            23.00613
          ],
          [
            120.46954,
            23.00665
          ],
          [
            120.46981,
            23.00702
          ],
          [
            120.47003,
            23.00749
          ],
          [
            120.47006,
            23.00779
          ],
          [
            120.46994,
            23.00852
          ],
          [
            120.46946,
            23.00952
          ],
          [
            120.4693,
            23.01003
          ],
          [
            120.46948,
            23.01176
          ],
          [
            120.47005,
            23.01313
          ],
          [
            120.47118,
            23.01482
          ],
          [
            120.47327,
            23.01623
          ],
          [
            120.47354,
            23.01661
          ],
          [
            120.47355,
            23.01772
          ],
          [
            120.47367,
            23.01802
          ],
          [
            120.47434,
            23.01877
          ],
          [
            120.47443,
            23.01912
          ],
          [
            120.47443,
            23.01951
          ],
          [
            120.47417,
            23.021
          ],
          [
            120.47405,
            23.02136
          ],
          [
            120.47308,
            23.02291
          ],
          [
            120.4726,
            23.02397
          ],
          [
            120.47276,
            23.02505
          ],
          [
            120.47265,
            23.02676
          ],
          [
            120.47305,
            23.02787
          ],
          [
            120.47344,
            23.029
          ],
          [
            120.47377,
            23.02985
          ],
          [
            120.4777,
            23.03809
          ],
          [
            120.47775,
            23.0384
          ],
          [
            120.47724,
            23.03954
          ],
          [
            120.4769,
            23.04111
          ],
          [
            120.47671,
            23.04138
          ],
          [
            120.47598773322458,
            23.041897004036482
          ],
          [
            120.47596065767195,
            23.04192470946675
          ],
          [
            120.47594524218519,
            23.041959644216266
          ],
          [
            120.47594366529118,
            23.041997358706546
          ],
          [
            120.47595611760049,
            23.042033294115033
          ],
          [
            120.47598109391267,
            23.042063106669612
          ],
          [
            120.4760153082809,
            23.042083091699315
          ],
          [
            120.47752,
            23.04265
          ],
          [
            120.47825,
            23.0432
          ],
          [
            120.4785,
            23.04355
          ]
        ]
      }
    },
    {
      "type": "Feature",
      "properties": {
        "feature_type": "route",
        "ref": "8035A",
        "name": "8035A",
        "name_en": "8035A",
        "color": "#166534",
        "direction": 1
      },
      "geometry": {
        "type": "LineString",
        "coordinates": [
          [
            120.47849,
            23.04353
          ],
          [
            120.47825,
            23.0432
          ],
          [
            120.47752,
            23.04265
          ],
          [
            120.47601530837788,
            23.042083091454412
          ],
          [
            120.47598109416985,
            23.042063106386223
          ],
          [
            120.47595611796741,
            23.04203329389041
          ],
          [
            120.47594366570002,
            23.04199735858369
          ],
          [
            120.47594524255437,
            23.04195964420084
          ],
          [
            120.47596065792585,
            23.041924709525148
          ],
          [
            120.47598773328048,
            23.041897004065085
          ],
          [
            120.47671,
            23.04138
          ],
          [
            120.4769,
            23.04111
          ],
          [
            120.47724,
            23.03954
          ],
          [
            120.47775,
            23.0384
          ],
          [
            120.4777,
            23.03809
          ],
          [
            120.47371,
            23.02987
          ],
          [
            120.47335,
            23.02903
          ],
          [
            120.47265,
            23.02676
          ],
          [
            120.47276,
            23.02505
          ],
          [
            120.4726,
            23.02397
          ],
          [
            120.47308,
            23.02291
          ],
          [
            120.47405,
            23.02136
          ],
          [
            120.47417,
            23.021
          ],
          [
            120.47443,
            23.01951
          ],
          [
            120.47443,
            23.01912
          ],
          [
            120.47432,
            23.01882
          ],
          [
            120.47367,
            23.01802
          ],
          [
            120.47355,
            23.01772
          ],
          [
            120.47354,
            23.01661
          ],
          [
            120.47339,
            23.01636
          ],
          [
            120.47118,
            23.01482
          ],
          [
            120.47023,
            23.01347
          ],
          [
            120.46964,
            23.01224
          ],
          [
            120.46948,
            23.01176
          ],
          [
            120.4693,
            23.01003
          ],
          [
            120.46946,
            23.00952
          ],
          [
            120.46994,
            23.00852
          ],
          [
            120.47006,
            23.00779
          ],
          [
            120.47003,
            23.00749
          ],
          [
            120.46981,
            23.00702
          ],
          [
            120.46954,
            23.00665
          ],
          [
            120.469,
            23.00613
          ],
          [
            120.46862,
            23.00555
          ],
          [
            120.4686,
            23.00521
          ],
          [
            120.46901,
            23.00409
          ],
          [
            120.46912,
            23.00358
          ],
          [
            120.46915,
            23.00289
          ],
          [
            120.46904,
            23.00245
          ],
          [
            120.46838,
            23.00127
          ],
          [
            120.46787,
            22.99961
          ],
          [
            120.46782,
            22.99916
          ],
          [
            120.46814,
            22.99779
          ],
          [
            120.46815,
            22.99729
          ],
          [
            120.46794,
            22.99652
          ],
          [
            120.46761,
            22.99467
          ],
          [
            120.46707,
            22.99315
          ],
          [
            120.46719,
            22.99135
          ],
          [
            120.4674,
            22.99099
          ],
          [
            120.46849,
            22.99008
          ],
          [
            120.46869,
            22.98966
          ],
          [
            120.46922,
            22.98574
          ],
          [
            120.46949,
            22.98245
          ],
          [
            120.46976,
            22.98118
          ],
          [
            120.46956,
            22.97995
          ],
          [
            120.46948,
            22.97835
          ],
          [
            120.46861,
            22.97526
          ],
          [
            120.46792,
            22.97076
          ],
          [
            120.46668374303232,
            22.968014903284892
          ],
          [
            120.46667775853719,
            22.967997510138066
          ],
          [
            120.4666749861232,
            22.96797916276424
          ],
          [
            120.46667561871628,
            22.967960645468004
          ],
          [
            120.46667963789214,
            22.967942497567076
          ],
          [
            120.46668692659193,
            22.967925247620503
          ],
          [
            120.46669704253993,
            22.9679096916835
          ],
          [
            120.46709,
            22.96741
          ],
          [
            120.4688,
            22.9664
          ],
          [
            120.47038,
            22.9659
          ],
          [
            120.4716,
            22.96575
          ],
          [
            120.47191,
            22.96562
          ],
          [
            120.47256357697034,
            22.964919269706428
          ],
          [
            120.4725756540326,
            22.964903600321414
          ],
          [
            120.47258469524745,
            22.96488584438114
          ],
          [
            120.47259013912479,
            22.964866868753226
          ],
          [
            120.47259180756187,
            22.96484729424739
          ],
          [
            120.47258964597384,
            22.96482776126632
          ],
          [
            120.47258382680347,
            22.964809149954327
          ],
          [
            120.472,
            22.96343
          ],
          [
            120.47172,
            22.9623
          ],
          [
            120.47172,
            22.9617
          ],
          [
            120.47189,
            22.96084
          ],
          [
            120.47186,
            22.96065
          ],
          [
            120.46888,
            22.9546
          ],
          [
            120.46879,
            22.95435
          ],
          [
            120.46871,
            22.95292
          ],
          [
            120.46744,
            22.94852
          ],
          [
            120.46709,
            22.94755
          ],
          [
            120.466,
            22.94669
          ],
          [
            120.46337,
            22.94487
          ],
          [
            120.46235,
            22.94173
          ],
          [
            120.46214,
            22.94137
          ],
          [
            120.46141,
            22.94056
          ],
          [
            120.46131,
            22.94011
          ],
          [
            120.46144,
            22.93634
          ],
          [
            120.4591,
            22.93064
          ],
          [
            120.45827,
            22.9284
          ],
          [
            120.45789,
            22.928
          ],
          [
            120.4564,
            22.92737
          ],
          [
            120.45605,
            22.92712
          ],
          [
            120.45556,
            22.92602
          ],
          [
            120.45403,
            22.92378
          ],
          [
            120.45261,
            22.9215
          ],
          [
            120.45239,
            22.92129
          ],
          [
            120.45151,
            22.92085
          ],
          [
            120.45089992867159,
            22.919567587617927
          ],
          [
            120.45089151551043,
            22.919540877346794
          ],
          [
            120.45089073035427,
            22.919512781089722
          ],
          [
            120.45089774781427,
            22.91948543950604
          ],
          [
            120.45091209751453,
            22.91946068528456
          ],
          [
            120.4509328176039,
            22.919440177684844
          ],
          [
            120.45095823587772,
            22.91942541173794
          ],
          [
            120.45168,
            22.91912
          ],
          [
            120.4547,
            22.91804
          ],
          [
            120.45769,
            22.9171
          ],
          [
            120.45821,
            22.91678
          ],
          [
            120.45903,
            22.91648
          ],
          [
            120.45956,
            22.91648
          ],
          [
            120.46163814599214,
            22.917332448052832
          ],
          [
            120.46166050880326,
            22.917339283104806
          ],
          [
            120.46168358888895,
            22.91734182294797
          ],
          [
            120.46170675494652,
            22.917340082247446
          ],
          [
            120.46172909335807,
            22.917334129652602
          ],
          [
            120.46174972314608,
            22.917324199920586
          ],
          [
            120.46176812359916,
            22.917310416634205
          ],
          [
            120.46235,
            22.91678
          ],
          [
            120.46287,
            22.91583
          ],
          [
            120.46311,
            22.91552
          ],
          [
            120.46415,
            22.91457
          ],
          [
            120.46511,
            22.91342
          ],
          [
            120.46585,
            22.91218
          ],
          [
            120.46615,
            22.91095
          ],
          [
            120.46662,
            22.9103
          ],
          [
            120.46712,
            22.90982
          ],
          [
            120.47118,
            22.90874
          ],
          [
            120.47176,
            22.90869
          ],
          [
            120.47309,
            22.90892
          ],
          [
            120.47361,
            22.90882
          ],
          [
            120.47404,
            22.90858
          ],
          [
            120.47428,
            22.9083
          ],
          [
            120.47486,
            22.9071
          ],
          [
            120.47522,
            22.9067
          ],
          [
            120.47695,
            22.90602
          ],
          [
            120.4786287397237,
            22.90577097135528
          ],
          [
            120.47864961197892,
            22.905765987484898
          ],
          [
            120.47866925614261,
            22.905757477059954
          ],
          [
            120.47868687080948,
            22.90574575112097
          ],
          [
            120.47870185137864,
            22.90573121214578
          ],
          [
            120.47871368366128,
            22.905714359166097
          ],
          [
            120.47872202941086,
            22.90569556586439
          ],
          [
            120.47894,
            22.90504
          ],
          [
            120.47908,
            22.9041
          ],
          [
            120.4791,
            22.90322
          ],
          [
            120.47888,
            22.9012
          ],
          [
            120.47892,
            22.9008
          ],
          [
            120.47993,
            22.8997
          ],
          [
            120.48325530273925,
            22.897742028100936
          ],
          [
            120.4832705111704,
            22.897731290391103
          ],
          [
            120.48328386521118,
            22.897718128897072
          ],
          [
            120.4832946801829,
            22.897703094302177
          ],
          [
            120.48330265627084,
            22.897686603398284
          ],
          [
            120.48330757236042,
            22.89766911334936
          ],
          [
            120.48330929225385,
            22.897651105185723
          ],
          [
            120.48331953609265,
            22.895765977041957
          ],
          [
            120.48332414479826,
            22.89573634934971
          ],
          [
            120.48333729833286,
            22.89570901902335
          ],
          [
            120.48335799681858,
            22.895686059810096
          ],
          [
            120.48338466680939,
            22.89566921701077
          ],
          [
            120.48341528092055,
            22.895659770972014
          ],
          [
            120.48344758860064,
            22.895658446481587
          ],
          [
            120.48381,
            22.89569
          ],
          [
            120.48382,
            22.89598
          ],
          [
            120.48332,
            22.89597
          ],
          [
            120.48326,
            22.89182
          ],
          [
            120.48342,
            22.89125
          ],
          [
            120.48304,
            22.88709
          ],
          [
            120.48297,
            22.88494
          ],
          [
            120.48306,
            22.88355
          ],
          [
            120.48429,
            22.88348
          ],
          [
            120.48473,
            22.88345
          ]
        ]
      }
    },
    {
      "type": "Feature",
      "properties": {
        "feature_type": "station",
        "ref": "KHH108035167091",
        "name": "旗山轉運站",
        "name_en": "Cishan Bus Transfer Station",
        "line": "8035A",
        "color": "#166534",
        "direction": 0,
        "station_id": "443"
      },
      "geometry": {
        "type": "Point",
        "coordinates": [
          120.48455,
          22.883529
        ]
      }
    },
    {
      "type": "Feature",
      "properties": {
        "feature_type": "station",
        "ref": "KHH108035167101",
        "name": "延平路(旗山區公所)",
        "name_en": "Yanping Rd.(Cishan district office)",
        "line": "8035A",
        "color": "#166534",
        "direction": 0,
        "station_id": "441"
      },
      "geometry": {
        "type": "Point",
        "coordinates": [
          120.483364,
          22.888673
        ]
      }
    },
    {
      "type": "Feature",
      "properties": {
        "feature_type": "station",
        "ref": "KHH10803523361",
        "name": "旗山市場",
        "name_en": "Cishan Market",
        "line": "8035A",
        "color": "#166534",
        "direction": 0,
        "station_id": "28"
      },
      "geometry": {
        "type": "Point",
        "coordinates": [
          120.483484,
          22.889873
        ]
      }
    },
    {
      "type": "Feature",
      "properties": {
        "feature_type": "station",
        "ref": "KHH108035167121",
        "name": "中華路口(旗山)",
        "name_en": "Xizhou Hospital",
        "line": "8035A",
        "color": "#166534",
        "direction": 0,
        "station_id": "439"
      },
      "geometry": {
        "type": "Point",
        "coordinates": [
          120.483622,
          22.892774
        ]
      }
    },
    {
      "type": "Feature",
      "properties": {
        "feature_type": "station",
        "ref": "KHH108035167131",
        "name": "旗山北站",
        "name_en": "Cishan North Station",
        "line": "8035A",
        "color": "#166534",
        "direction": 0,
        "station_id": "438"
      },
      "geometry": {
        "type": "Point",
        "coordinates": [
          120.483657,
          22.895993
        ]
      }
    },
    {
      "type": "Feature",
      "properties": {
        "feature_type": "station",
        "ref": "KHH10803524481",
        "name": "旗山監理站",
        "name_en": "Cishan Motor Vehicles Supervision Station",
        "line": "8035A",
        "color": "#166534",
        "direction": 0,
        "station_id": "30"
      },
      "geometry": {
        "type": "Point",
        "coordinates": [
          120.47939,
          22.90059
        ]
      }
    },
    {
      "type": "Feature",
      "properties": {
        "feature_type": "station",
        "ref": "KHH108035167151",
        "name": "朝天宮(旗文路)",
        "name_en": "Chaotian Temple(Ciwun Rd.)",
        "line": "8035A",
        "color": "#166534",
        "direction": 0,
        "station_id": "1845"
      },
      "geometry": {
        "type": "Point",
        "coordinates": [
          120.479228,
          22.904329
        ]
      }
    },
    {
      "type": "Feature",
      "properties": {
        "feature_type": "station",
        "ref": "KHH108035167161",
        "name": "嶺頂",
        "name_en": "Lingding",
        "line": "8035A",
        "color": "#166534",
        "direction": 0,
        "station_id": "1847"
      },
      "geometry": {
        "type": "Point",
        "coordinates": [
          120.47456,
          22.90826
        ]
      }
    },
    {
      "type": "Feature",
      "properties": {
        "feature_type": "station",
        "ref": "KHH108035167171",
        "name": "石溝",
        "name_en": "Shihgou",
        "line": "8035A",
        "color": "#166534",
        "direction": 0,
        "station_id": "1849"
      },
      "geometry": {
        "type": "Point",
        "coordinates": [
          120.466239,
          22.911329
        ]
      }
    },
    {
      "type": "Feature",
      "properties": {
        "feature_type": "station",
        "ref": "KHH108035167181",
        "name": "二層橋",
        "name_en": "Erceng Bridge",
        "line": "8035A",
        "color": "#166534",
        "direction": 0,
        "station_id": "1851"
      },
      "geometry": {
        "type": "Point",
        "coordinates": [
          120.46231,
          22.91712
        ]
      }
    },
    {
      "type": "Feature",
      "properties": {
        "feature_type": "station",
        "ref": "KHH108035167191",
        "name": "農會(內門)",
        "name_en": "Farmers' Association(Neimen)",
        "line": "8035A",
        "color": "#166534",
        "direction": 0,
        "station_id": "1853"
      },
      "geometry": {
        "type": "Point",
        "coordinates": [
          120.45692,
          22.91737
        ]
      }
    },
    {
      "type": "Feature",
      "properties": {
        "feature_type": "station",
        "ref": "KHH108035167201",
        "name": "觀音亭",
        "name_en": "Guanyin Pavilion",
        "line": "8035A",
        "color": "#166534",
        "direction": 0,
        "station_id": "1855"
      },
      "geometry": {
        "type": "Point",
        "coordinates": [
          120.45387,
          22.91833
        ]
      }
    },
    {
      "type": "Feature",
      "properties": {
        "feature_type": "station",
        "ref": "KHH108035167211",
        "name": "中埔",
        "name_en": "Jhongpu",
        "line": "8035A",
        "color": "#166534",
        "direction": 0,
        "station_id": "1857"
      },
      "geometry": {
        "type": "Point",
        "coordinates": [
          120.45116,
          22.92002
        ]
      }
    },
    {
      "type": "Feature",
      "properties": {
        "feature_type": "station",
        "ref": "KHH108035167221",
        "name": "內門國中",
        "name_en": "Neiman Junior High School",
        "line": "8035A",
        "color": "#166534",
        "direction": 0,
        "station_id": "1859"
      },
      "geometry": {
        "type": "Point",
        "coordinates": [
          120.45337,
          22.92253
        ]
      }
    },
    {
      "type": "Feature",
      "properties": {
        "feature_type": "station",
        "ref": "KHH108035167231",
        "name": "中埔頭",
        "name_en": "Jhongputou",
        "line": "8035A",
        "color": "#166534",
        "direction": 0,
        "station_id": "1861"
      },
      "geometry": {
        "type": "Point",
        "coordinates": [
          120.45396,
          22.92349
        ]
      }
    },
    {
      "type": "Feature",
      "properties": {
        "feature_type": "station",
        "ref": "KHH108035167241",
        "name": "菜公坑",
        "name_en": "Caigongkeng",
        "line": "8035A",
        "color": "#166534",
        "direction": 0,
        "station_id": "1863"
      },
      "geometry": {
        "type": "Point",
        "coordinates": [
          120.456747,
          22.927358
        ]
      }
    },
    {
      "type": "Feature",
      "properties": {
        "feature_type": "station",
        "ref": "KHH108035167251",
        "name": "內埔橋",
        "name_en": "Neipu Bridge",
        "line": "8035A",
        "color": "#166534",
        "direction": 0,
        "station_id": "1865"
      },
      "geometry": {
        "type": "Point",
        "coordinates": [
          120.461388,
          22.935882
        ]
      }
    },
    {
      "type": "Feature",
      "properties": {
        "feature_type": "station",
        "ref": "KHH108035167261",
        "name": "十三甲",
        "name_en": "Shihsanjia",
        "line": "8035A",
        "color": "#166534",
        "direction": 0,
        "station_id": "1867"
      },
      "geometry": {
        "type": "Point",
        "coordinates": [
          120.46151,
          22.93676
        ]
      }
    },
    {
      "type": "Feature",
      "properties": {
        "feature_type": "station",
        "ref": "KHH108035167271",
        "name": "內門國小",
        "name_en": "Neimen Elementary School",
        "line": "8035A",
        "color": "#166534",
        "direction": 0,
        "station_id": "1869"
      },
      "geometry": {
        "type": "Point",
        "coordinates": [
          120.46144,
          22.939569
        ]
      }
    },
    {
      "type": "Feature",
      "properties": {
        "feature_type": "station",
        "ref": "KHH108035167281",
        "name": "內門區公所",
        "name_en": "Neimen Districr Office",
        "line": "8035A",
        "color": "#166534",
        "direction": 0,
        "station_id": "1872"
      },
      "geometry": {
        "type": "Point",
        "coordinates": [
          120.462345,
          22.94165
        ]
      }
    },
    {
      "type": "Feature",
      "properties": {
        "feature_type": "station",
        "ref": "KHH108035167291",
        "name": "內門",
        "name_en": "Neimen",
        "line": "8035A",
        "color": "#166534",
        "direction": 0,
        "station_id": "1874"
      },
      "geometry": {
        "type": "Point",
        "coordinates": [
          120.4637,
          22.94509
        ]
      }
    },
    {
      "type": "Feature",
      "properties": {
        "feature_type": "station",
        "ref": "KHH108035167301",
        "name": "口湖",
        "name_en": "Kouhu",
        "line": "8035A",
        "color": "#166534",
        "direction": 0,
        "station_id": "37"
      },
      "geometry": {
        "type": "Point",
        "coordinates": [
          120.46751,
          22.94843
        ]
      }
    },
    {
      "type": "Feature",
      "properties": {
        "feature_type": "station",
        "ref": "KHH10803561541",
        "name": "內湖登山步道入口",
        "name_en": "Neihu Hiking Trail Entrance",
        "line": "8035A",
        "color": "#166534",
        "direction": 0,
        "station_id": "5588"
      },
      "geometry": {
        "type": "Point",
        "coordinates": [
          120.469317,
          22.955415
        ]
      }
    },
    {
      "type": "Feature",
      "properties": {
        "feature_type": "station",
        "ref": "KHH108035167311",
        "name": "內湖",
        "name_en": "Neihu",
        "line": "8035A",
        "color": "#166534",
        "direction": 0,
        "station_id": "1876"
      },
      "geometry": {
        "type": "Point",
        "coordinates": [
          120.47184,
          22.9616
        ]
      }
    },
    {
      "type": "Feature",
      "properties": {
        "feature_type": "station",
        "ref": "KHH108035167321",
        "name": "蘇遠埔",
        "name_en": "Suyuanpu",
        "line": "8035A",
        "color": "#166534",
        "direction": 0,
        "station_id": "1878"
      },
      "geometry": {
        "type": "Point",
        "coordinates": [
          120.46814,
          22.96688
        ]
      }
    },
    {
      "type": "Feature",
      "properties": {
        "feature_type": "station",
        "ref": "KHH108035167331",
        "name": "木柵",
        "name_en": "Mujha",
        "line": "8035A",
        "color": "#166534",
        "direction": 0,
        "station_id": "1880"
      },
      "geometry": {
        "type": "Point",
        "coordinates": [
          120.46876,
          22.97558
        ]
      }
    },
    {
      "type": "Feature",
      "properties": {
        "feature_type": "station",
        "ref": "KHH108035167341",
        "name": "頂寮橋",
        "name_en": "Dingliao Bridge",
        "line": "8035A",
        "color": "#166534",
        "direction": 0,
        "station_id": "1882"
      },
      "geometry": {
        "type": "Point",
        "coordinates": [
          120.46961,
          22.98219
        ]
      }
    },
    {
      "type": "Feature",
      "properties": {
        "feature_type": "station",
        "ref": "KHH108035167351",
        "name": "椰樹橋",
        "name_en": "Yeshu Bridge",
        "line": "8035A",
        "color": "#166534",
        "direction": 0,
        "station_id": "1884"
      },
      "geometry": {
        "type": "Point",
        "coordinates": [
          120.46886,
          22.98934
        ]
      }
    },
    {
      "type": "Feature",
      "properties": {
        "feature_type": "station",
        "ref": "KHH108035167361",
        "name": "內興里",
        "name_en": "Neising Village",
        "line": "8035A",
        "color": "#166534",
        "direction": 0,
        "station_id": "1886"
      },
      "geometry": {
        "type": "Point",
        "coordinates": [
          120.46728,
          22.99359
        ]
      }
    },
    {
      "type": "Feature",
      "properties": {
        "feature_type": "station",
        "ref": "KHH108035167371",
        "name": "分水嶺",
        "name_en": "Watershed",
        "line": "8035A",
        "color": "#166534",
        "direction": 0,
        "station_id": "1888"
      },
      "geometry": {
        "type": "Point",
        "coordinates": [
          120.468344,
          23.000864
        ]
      }
    },
    {
      "type": "Feature",
      "properties": {
        "feature_type": "station",
        "ref": "KHH108035167381",
        "name": "茄冬橋",
        "name_en": "Jiadong Bridge",
        "line": "8035A",
        "color": "#166534",
        "direction": 0,
        "station_id": "1890"
      },
      "geometry": {
        "type": "Point",
        "coordinates": [
          120.468712,
          23.00517
        ]
      }
    },
    {
      "type": "Feature",
      "properties": {
        "feature_type": "station",
        "ref": "KHH108035167391",
        "name": "金馬寮",
        "name_en": "Jinmaliao",
        "line": "8035A",
        "color": "#166534",
        "direction": 0,
        "station_id": "1892"
      },
      "geometry": {
        "type": "Point",
        "coordinates": [
          120.4701,
          23.00834
        ]
      }
    },
    {
      "type": "Feature",
      "properties": {
        "feature_type": "station",
        "ref": "KHH108035167401",
        "name": "北頭",
        "name_en": "Beitou",
        "line": "8035A",
        "color": "#166534",
        "direction": 0,
        "station_id": "1894"
      },
      "geometry": {
        "type": "Point",
        "coordinates": [
          120.47259,
          23.01571
        ]
      }
    },
    {
      "type": "Feature",
      "properties": {
        "feature_type": "station",
        "ref": "KHH108035167411",
        "name": "大坪",
        "name_en": "Daping",
        "line": "8035A",
        "color": "#166534",
        "direction": 0,
        "station_id": "1896"
      },
      "geometry": {
        "type": "Point",
        "coordinates": [
          120.47395,
          23.02171
        ]
      }
    },
    {
      "type": "Feature",
      "properties": {
        "feature_type": "station",
        "ref": "KHH10803524971",
        "name": "東埔派出所",
        "name_en": "Dongpu Police Station",
        "line": "8035A",
        "color": "#166534",
        "direction": 0,
        "station_id": "34"
      },
      "geometry": {
        "type": "Point",
        "coordinates": [
          120.47313,
          23.02809
        ]
      }
    },
    {
      "type": "Feature",
      "properties": {
        "feature_type": "station",
        "ref": "KHH108035167431",
        "name": "西部",
        "name_en": "Sibu",
        "line": "8035A",
        "color": "#166534",
        "direction": 0,
        "station_id": "1898"
      },
      "geometry": {
        "type": "Point",
        "coordinates": [
          120.47517,
          23.03267
        ]
      }
    },
    {
      "type": "Feature",
      "properties": {
        "feature_type": "station",
        "ref": "KHH108035167441",
        "name": "界址",
        "name_en": "Jiejhih",
        "line": "8035A",
        "color": "#166534",
        "direction": 0,
        "station_id": "1900"
      },
      "geometry": {
        "type": "Point",
        "coordinates": [
          120.47736,
          23.03713
        ]
      }
    },
    {
      "type": "Feature",
      "properties": {
        "feature_type": "station",
        "ref": "KHH108035167451",
        "name": "南化派出所",
        "name_en": "Nanhua Police Station",
        "line": "8035A",
        "color": "#166534",
        "direction": 0,
        "station_id": "1902"
      },
      "geometry": {
        "type": "Point",
        "coordinates": [
          120.477288,
          23.042438
        ]
      }
    },
    {
      "type": "Feature",
      "properties": {
        "feature_type": "station",
        "ref": "KHH108035167461",
        "name": "南化(加油站)",
        "name_en": "Nanhua(Gas Station)",
        "line": "8035A",
        "color": "#166534",
        "direction": 0,
        "station_id": "1904"
      },
      "geometry": {
        "type": "Point",
        "coordinates": [
          120.478548,
          23.043529
        ]
      }
    },
    {
      "type": "Feature",
      "properties": {
        "feature_type": "station",
        "ref": "KHH108035167472",
        "name": "南化(加油站)",
        "name_en": "Nanhua(Gas Station)",
        "line": "8035A",
        "color": "#166534",
        "direction": 1,
        "station_id": "1905"
      },
      "geometry": {
        "type": "Point",
        "coordinates": [
          120.47848,
          23.043544
        ]
      }
    },
    {
      "type": "Feature",
      "properties": {
        "feature_type": "station",
        "ref": "KHH108035167482",
        "name": "南化派出所",
        "name_en": "Nanhua Police Station",
        "line": "8035A",
        "color": "#166534",
        "direction": 1,
        "station_id": "1903"
      },
      "geometry": {
        "type": "Point",
        "coordinates": [
          120.477097,
          23.04252
        ]
      }
    },
    {
      "type": "Feature",
      "properties": {
        "feature_type": "station",
        "ref": "KHH108035167492",
        "name": "界址",
        "name_en": "Jiejhih",
        "line": "8035A",
        "color": "#166534",
        "direction": 1,
        "station_id": "1901"
      },
      "geometry": {
        "type": "Point",
        "coordinates": [
          120.47737,
          23.03742
        ]
      }
    },
    {
      "type": "Feature",
      "properties": {
        "feature_type": "station",
        "ref": "KHH108035167502",
        "name": "西部",
        "name_en": "Sibu",
        "line": "8035A",
        "color": "#166534",
        "direction": 1,
        "station_id": "1899"
      },
      "geometry": {
        "type": "Point",
        "coordinates": [
          120.47506,
          23.03276
        ]
      }
    },
    {
      "type": "Feature",
      "properties": {
        "feature_type": "station",
        "ref": "KHH10803525832",
        "name": "東埔派出所",
        "name_en": "Dongpu Police Station",
        "line": "8035A",
        "color": "#166534",
        "direction": 1,
        "station_id": "35"
      },
      "geometry": {
        "type": "Point",
        "coordinates": [
          120.473035,
          23.028074
        ]
      }
    },
    {
      "type": "Feature",
      "properties": {
        "feature_type": "station",
        "ref": "KHH108035167522",
        "name": "大坪",
        "name_en": "Daping",
        "line": "8035A",
        "color": "#166534",
        "direction": 1,
        "station_id": "1897"
      },
      "geometry": {
        "type": "Point",
        "coordinates": [
          120.47401,
          23.02118
        ]
      }
    },
    {
      "type": "Feature",
      "properties": {
        "feature_type": "station",
        "ref": "KHH108035167532",
        "name": "北頭",
        "name_en": "Beitou",
        "line": "8035A",
        "color": "#166534",
        "direction": 1,
        "station_id": "1895"
      },
      "geometry": {
        "type": "Point",
        "coordinates": [
          120.47268,
          23.01592
        ]
      }
    },
    {
      "type": "Feature",
      "properties": {
        "feature_type": "station",
        "ref": "KHH108035167542",
        "name": "金馬寮",
        "name_en": "Jinmaliao",
        "line": "8035A",
        "color": "#166534",
        "direction": 1,
        "station_id": "1893"
      },
      "geometry": {
        "type": "Point",
        "coordinates": [
          120.469937,
          23.008043
        ]
      }
    },
    {
      "type": "Feature",
      "properties": {
        "feature_type": "station",
        "ref": "KHH108035167552",
        "name": "茄冬橋",
        "name_en": "Jiadong Bridge",
        "line": "8035A",
        "color": "#166534",
        "direction": 1,
        "station_id": "1891"
      },
      "geometry": {
        "type": "Point",
        "coordinates": [
          120.46854,
          23.00514
        ]
      }
    },
    {
      "type": "Feature",
      "properties": {
        "feature_type": "station",
        "ref": "KHH108035167562",
        "name": "分水嶺",
        "name_en": "Watershed",
        "line": "8035A",
        "color": "#166534",
        "direction": 1,
        "station_id": "1889"
      },
      "geometry": {
        "type": "Point",
        "coordinates": [
          120.46826,
          23.00107
        ]
      }
    },
    {
      "type": "Feature",
      "properties": {
        "feature_type": "station",
        "ref": "KHH108035167572",
        "name": "內興里",
        "name_en": "Neising Village",
        "line": "8035A",
        "color": "#166534",
        "direction": 1,
        "station_id": "1887"
      },
      "geometry": {
        "type": "Point",
        "coordinates": [
          120.46713,
          22.99364
        ]
      }
    },
    {
      "type": "Feature",
      "properties": {
        "feature_type": "station",
        "ref": "KHH108035167582",
        "name": "椰樹橋",
        "name_en": "Yeshu Bridge",
        "line": "8035A",
        "color": "#166534",
        "direction": 1,
        "station_id": "1885"
      },
      "geometry": {
        "type": "Point",
        "coordinates": [
          120.46873,
          22.989
        ]
      }
    },
    {
      "type": "Feature",
      "properties": {
        "feature_type": "station",
        "ref": "KHH108035167592",
        "name": "頂寮橋",
        "name_en": "Dingliao Bridge",
        "line": "8035A",
        "color": "#166534",
        "direction": 1,
        "station_id": "1883"
      },
      "geometry": {
        "type": "Point",
        "coordinates": [
          120.4695,
          22.98209
        ]
      }
    },
    {
      "type": "Feature",
      "properties": {
        "feature_type": "station",
        "ref": "KHH108035167602",
        "name": "木柵",
        "name_en": "Mujha",
        "line": "8035A",
        "color": "#166534",
        "direction": 1,
        "station_id": "1881"
      },
      "geometry": {
        "type": "Point",
        "coordinates": [
          120.468674,
          22.975688
        ]
      }
    },
    {
      "type": "Feature",
      "properties": {
        "feature_type": "station",
        "ref": "KHH108035167612",
        "name": "蘇遠埔",
        "name_en": "Suyuanpu",
        "line": "8035A",
        "color": "#166534",
        "direction": 1,
        "station_id": "1879"
      },
      "geometry": {
        "type": "Point",
        "coordinates": [
          120.46808,
          22.96675
        ]
      }
    },
    {
      "type": "Feature",
      "properties": {
        "feature_type": "station",
        "ref": "KHH108035167622",
        "name": "內湖",
        "name_en": "Neihu",
        "line": "8035A",
        "color": "#166534",
        "direction": 1,
        "station_id": "1877"
      },
      "geometry": {
        "type": "Point",
        "coordinates": [
          120.471761,
          22.9611
        ]
      }
    },
    {
      "type": "Feature",
      "properties": {
        "feature_type": "station",
        "ref": "KHH10803561552",
        "name": "內湖登山步道入口",
        "name_en": "Neihu Hiking Trail Entrance",
        "line": "8035A",
        "color": "#166534",
        "direction": 1,
        "station_id": "5589"
      },
      "geometry": {
        "type": "Point",
        "coordinates": [
          120.469078,
          22.955133
        ]
      }
    },
    {
      "type": "Feature",
      "properties": {
        "feature_type": "station",
        "ref": "KHH10803526402",
        "name": "口湖",
        "name_en": "Kouhu",
        "line": "8035A",
        "color": "#166534",
        "direction": 1,
        "station_id": "36"
      },
      "geometry": {
        "type": "Point",
        "coordinates": [
          120.46739,
          22.94852
        ]
      }
    },
    {
      "type": "Feature",
      "properties": {
        "feature_type": "station",
        "ref": "KHH108035167642",
        "name": "內門",
        "name_en": "Neimen",
        "line": "8035A",
        "color": "#166534",
        "direction": 1,
        "station_id": "1875"
      },
      "geometry": {
        "type": "Point",
        "coordinates": [
          120.46355,
          22.94508
        ]
      }
    },
    {
      "type": "Feature",
      "properties": {
        "feature_type": "station",
        "ref": "KHH108035167652",
        "name": "內門區公所",
        "name_en": "Neimen Districr Office",
        "line": "8035A",
        "color": "#166534",
        "direction": 1,
        "station_id": "1873"
      },
      "geometry": {
        "type": "Point",
        "coordinates": [
          120.462294,
          22.941725
        ]
      }
    },
    {
      "type": "Feature",
      "properties": {
        "feature_type": "station",
        "ref": "KHH108035167662",
        "name": "內門國小",
        "name_en": "Neimen Elementary School",
        "line": "8035A",
        "color": "#166534",
        "direction": 1,
        "station_id": "1870"
      },
      "geometry": {
        "type": "Point",
        "coordinates": [
          120.4613,
          22.93956
        ]
      }
    },
    {
      "type": "Feature",
      "properties": {
        "feature_type": "station",
        "ref": "KHH108035167672",
        "name": "十三甲",
        "name_en": "Shihsanjia",
        "line": "8035A",
        "color": "#166534",
        "direction": 1,
        "station_id": "1868"
      },
      "geometry": {
        "type": "Point",
        "coordinates": [
          120.46141,
          22.93671
        ]
      }
    },
    {
      "type": "Feature",
      "properties": {
        "feature_type": "station",
        "ref": "KHH108035167682",
        "name": "內埔橋",
        "name_en": "Neipu Bridge",
        "line": "8035A",
        "color": "#166534",
        "direction": 1,
        "station_id": "1866"
      },
      "geometry": {
        "type": "Point",
        "coordinates": [
          120.45939,
          22.93141
        ]
      }
    },
    {
      "type": "Feature",
      "properties": {
        "feature_type": "station",
        "ref": "KHH108035167692",
        "name": "菜公坑",
        "name_en": "Caigongkeng",
        "line": "8035A",
        "color": "#166534",
        "direction": 1,
        "station_id": "1864"
      },
      "geometry": {
        "type": "Point",
        "coordinates": [
          120.456552,
          22.927455
        ]
      }
    },
    {
      "type": "Feature",
      "properties": {
        "feature_type": "station",
        "ref": "KHH108035167702",
        "name": "中埔頭",
        "name_en": "Jhongputou",
        "line": "8035A",
        "color": "#166534",
        "direction": 1,
        "station_id": "1862"
      },
      "geometry": {
        "type": "Point",
        "coordinates": [
          120.453889,
          22.923567
        ]
      }
    },
    {
      "type": "Feature",
      "properties": {
        "feature_type": "station",
        "ref": "KHH108035167712",
        "name": "內門國中",
        "name_en": "Neiman Junior High School",
        "line": "8035A",
        "color": "#166534",
        "direction": 1,
        "station_id": "1860"
      },
      "geometry": {
        "type": "Point",
        "coordinates": [
          120.453116,
          22.922348
        ]
      }
    },
    {
      "type": "Feature",
      "properties": {
        "feature_type": "station",
        "ref": "KHH108035167722",
        "name": "中埔",
        "name_en": "Jhongpu",
        "line": "8035A",
        "color": "#166534",
        "direction": 1,
        "station_id": "1858"
      },
      "geometry": {
        "type": "Point",
        "coordinates": [
          120.451073,
          22.920002
        ]
      }
    },
    {
      "type": "Feature",
      "properties": {
        "feature_type": "station",
        "ref": "KHH108035167732",
        "name": "觀音亭",
        "name_en": "Guanyin Pavilion",
        "line": "8035A",
        "color": "#166534",
        "direction": 1,
        "station_id": "1856"
      },
      "geometry": {
        "type": "Point",
        "coordinates": [
          120.453839,
          22.918242
        ]
      }
    },
    {
      "type": "Feature",
      "properties": {
        "feature_type": "station",
        "ref": "KHH108035167742",
        "name": "農會(內門)",
        "name_en": "Farmers' Association(Neimen)",
        "line": "8035A",
        "color": "#166534",
        "direction": 1,
        "station_id": "1854"
      },
      "geometry": {
        "type": "Point",
        "coordinates": [
          120.45712,
          22.91721
        ]
      }
    },
    {
      "type": "Feature",
      "properties": {
        "feature_type": "station",
        "ref": "KHH108035167752",
        "name": "二層橋",
        "name_en": "Erceng Bridge",
        "line": "8035A",
        "color": "#166534",
        "direction": 1,
        "station_id": "1852"
      },
      "geometry": {
        "type": "Point",
        "coordinates": [
          120.46149,
          22.91713
        ]
      }
    },
    {
      "type": "Feature",
      "properties": {
        "feature_type": "station",
        "ref": "KHH108035167762",
        "name": "石溝",
        "name_en": "Shihgou",
        "line": "8035A",
        "color": "#166534",
        "direction": 1,
        "station_id": "1850"
      },
      "geometry": {
        "type": "Point",
        "coordinates": [
          120.46606,
          22.9112
        ]
      }
    },
    {
      "type": "Feature",
      "properties": {
        "feature_type": "station",
        "ref": "KHH108035167772",
        "name": "嶺頂",
        "name_en": "Lingding",
        "line": "8035A",
        "color": "#166534",
        "direction": 1,
        "station_id": "1848"
      },
      "geometry": {
        "type": "Point",
        "coordinates": [
          120.475079,
          22.906832
        ]
      }
    },
    {
      "type": "Feature",
      "properties": {
        "feature_type": "station",
        "ref": "KHH108035167782",
        "name": "朝天宮(旗文路)",
        "name_en": "Chaotian Temple(Ciwun Rd.)",
        "line": "8035A",
        "color": "#166534",
        "direction": 1,
        "station_id": "1846"
      },
      "geometry": {
        "type": "Point",
        "coordinates": [
          120.479063,
          22.903714
        ]
      }
    },
    {
      "type": "Feature",
      "properties": {
        "feature_type": "station",
        "ref": "KHH10803526532",
        "name": "旗山監理站",
        "name_en": "Cishan Motor Vehicles Supervision Station",
        "line": "8035A",
        "color": "#166534",
        "direction": 1,
        "station_id": "31"
      },
      "geometry": {
        "type": "Point",
        "coordinates": [
          120.4791,
          22.90052
        ]
      }
    },
    {
      "type": "Feature",
      "properties": {
        "feature_type": "station",
        "ref": "KHH108035167802",
        "name": "旗山北站",
        "name_en": "Cishan North Station",
        "line": "8035A",
        "color": "#166534",
        "direction": 1,
        "station_id": "438"
      },
      "geometry": {
        "type": "Point",
        "coordinates": [
          120.483657,
          22.895993
        ]
      }
    },
    {
      "type": "Feature",
      "properties": {
        "feature_type": "station",
        "ref": "KHH108035167812",
        "name": "中華路口(旗山)",
        "name_en": "Xizhou Hospital",
        "line": "8035A",
        "color": "#166534",
        "direction": 1,
        "station_id": "440"
      },
      "geometry": {
        "type": "Point",
        "coordinates": [
          120.483186,
          22.892493
        ]
      }
    },
    {
      "type": "Feature",
      "properties": {
        "feature_type": "station",
        "ref": "KHH10803526692",
        "name": "旗山市場",
        "name_en": "Cishan Market",
        "line": "8035A",
        "color": "#166534",
        "direction": 1,
        "station_id": "29"
      },
      "geometry": {
        "type": "Point",
        "coordinates": [
          120.483283,
          22.88984
        ]
      }
    },
    {
      "type": "Feature",
      "properties": {
        "feature_type": "station",
        "ref": "KHH108035167832",
        "name": "延平路(旗山區公所)",
        "name_en": "Yanping Rd.(Cishan district office)",
        "line": "8035A",
        "color": "#166534",
        "direction": 1,
        "station_id": "442"
      },
      "geometry": {
        "type": "Point",
        "coordinates": [
          120.483085,
          22.887726
        ]
      }
    },
    {
      "type": "Feature",
      "properties": {
        "feature_type": "station",
        "ref": "KHH108035160832",
        "name": "旗山轉運站",
        "name_en": "Cishan Bus Transfer Station",
        "line": "8035A",
        "color": "#166534",
        "direction": 1,
        "station_id": "443"
      },
      "geometry": {
        "type": "Point",
        "coordinates": [
          120.48455,
          22.883529
        ]
      }
    }
  ]
}
