{
  "type": "FeatureCollection",
  "name": "藍17",
  "properties": {
    "id": "new_taipei_lan17",
    "name": "藍17",
    "name_en": "藍17",
    "ref": "藍17",
    "color": "#0891b2",
    "city_id": "NewTaipei",
    "source": "TDX Bus Shape / StopOfRoute",
    "official_map_url": "https://ebus.gov.taipei/File/Get/d9fcd239-3743-4350-b5da-d0c6b93a2f32?v=639234358644939086",
    "operator_id": "16176",
    "operator": "臺北客運",
    "operator_en": "Taipei Bus Co., Ltd."
  },
  "features": [
    {
      "type": "Feature",
      "properties": {
        "feature_type": "route",
        "ref": "藍17",
        "name": "藍17",
        "name_en": "藍17",
        "color": "#0891b2",
        "direction": 0
      },
      "geometry": {
        "type": "LineString",
        "coordinates": [
          [
            121.483153309671,
            25.0277714687316
          ],
          [
            121.481853163719,
            25.0274941977155
          ],
          [
            121.481485622954,
            25.0273654965104
          ],
          [
            121.481205990635,
            25.0284991865721
          ],
          [
            121.480704000088,
            25.0285935203662
          ],
          [
            121.480527124224,
            25.0288579918962
          ],
          [
            121.480183479688,
            25.0292791249058
          ],
          [
            121.47966464382,
            25.0297019424474
          ],
          [
            121.479315945688,
            25.0301466589055
          ],
          [
            121.478547799079,
            25.0312550809867
          ],
          [
            121.477907676904,
            25.0320131204039
          ],
          [
            121.477173220936,
            25.0326684033668
          ],
          [
            121.476379806346,
            25.0320468110446
          ],
          [
            121.475994048509,
            25.0318564589243
          ],
          [
            121.475370771655,
            25.0323921401125
          ],
          [
            121.474819929678,
            25.0328284339104
          ],
          [
            121.473561388358,
            25.0314356692562
          ],
          [
            121.472097472931,
            25.029748662638
          ],
          [
            121.47105604372,
            25.0286050650966
          ],
          [
            121.470171017529,
            25.0270169701
          ],
          [
            121.469079068275,
            25.0249996884267
          ],
          [
            121.468445039111,
            25.0238824280338
          ],
          [
            121.467502174439,
            25.0242573252596
          ],
          [
            121.46671854147,
            25.0258830585781
          ],
          [
            121.466295362677,
            25.025643877332
          ],
          [
            121.467083673109,
            25.0242360563759
          ],
          [
            121.468897848692,
            25.0213898203529
          ],
          [
            121.470139616855,
            25.019456430701
          ],
          [
            121.471420055129,
            25.017807488288
          ],
          [
            121.473217030376,
            25.0154624631652
          ],
          [
            121.470290700892,
            25.0140966295864
          ],
          [
            121.468557443801,
            25.0132763608283
          ],
          [
            121.470717849727,
            25.0101362069827
          ],
          [
            121.471646271318,
            25.0081837301909
          ],
          [
            121.472512120786,
            25.0064402395313
          ],
          [
            121.471799563734,
            25.0065632103701
          ],
          [
            121.472021921963,
            25.0048180351785
          ],
          [
            121.472417786992,
            25.0023569338706
          ],
          [
            121.472646883349,
            25.0007616820304
          ],
          [
            121.472791753104,
            24.9998166595569
          ],
          [
            121.47271561301,
            24.9993521183799
          ],
          [
            121.472461584825,
            24.9989002741281
          ],
          [
            121.471327548798,
            24.9975052787535
          ],
          [
            121.47058164707,
            24.9966345785367
          ],
          [
            121.469599564892,
            24.9954284535973
          ],
          [
            121.469008294146,
            24.9947782242305
          ],
          [
            121.467461893735,
            24.9935518849067
          ],
          [
            121.467778585758,
            24.9929235544564
          ],
          [
            121.468045900547,
            24.9919453611824
          ],
          [
            121.46835469571501,
            24.9904169707835
          ],
          [
            121.467682567432,
            24.9902080888108
          ],
          [
            121.466976748508,
            24.989864444275
          ],
          [
            121.464367408381,
            24.9883011985435
          ],
          [
            121.463452707484,
            24.9874993612933
          ],
          [
            121.463799721084,
            24.9871860383342
          ],
          [
            121.464229276754,
            24.9866638334023
          ],
          [
            121.464596504738,
            24.986123098618
          ],
          [
            121.465085019029,
            24.9851309092475
          ],
          [
            121.465403395584,
            24.9837984444052
          ],
          [
            121.465533104551,
            24.9828584755279
          ],
          [
            121.46548256859,
            24.9818140656642
          ],
          [
            121.465410709222,
            24.981505204677
          ],
          [
            121.465294942581,
            24.9809359319279
          ],
          [
            121.465157157749,
            24.9804887895689
          ],
          [
            121.465017311032,
            24.9801335544622
          ],
          [
            121.464859824559,
            24.9798707859492
          ],
          [
            121.464300217583,
            24.9793557732619
          ],
          [
            121.46371380995,
            24.9789133014943
          ],
          [
            121.462313417263,
            24.9780895752882
          ],
          [
            121.460856843613,
            24.9774865028579
          ],
          [
            121.459158835319,
            24.9771159058095
          ],
          [
            121.458946624945,
            24.9770920841255
          ],
          [
            121.458558686331,
            24.9771697966059
          ],
          [
            121.456498442385,
            24.9777098233319
          ],
          [
            121.455220869297,
            24.978076176938
          ],
          [
            121.45466453922,
            24.9782766697769
          ],
          [
            121.45437198724,
            24.9784445504933
          ],
          [
            121.453863017241,
            24.9788114920743
          ],
          [
            121.452522100541,
            24.9800839561022
          ],
          [
            121.451866387413,
            24.9794912105203
          ],
          [
            121.450145674948,
            24.9780794024054
          ],
          [
            121.446851644247,
            24.975680684513
          ],
          [
            121.445345420365,
            24.9741927067388
          ],
          [
            121.443914718699,
            24.9727118495027
          ],
          [
            121.443142280928,
            24.9717697779865
          ],
          [
            121.44195302508,
            24.9702396460294
          ],
          [
            121.441069360312,
            24.9696564744451
          ],
          [
            121.441654988904,
            24.9688784064962
          ],
          [
            121.442162580948,
            24.9683035280738
          ],
          [
            121.441070330292,
            24.9673388818596
          ],
          [
            121.437827291085,
            24.9645252016669
          ],
          [
            121.436517989319,
            24.9655384083686
          ],
          [
            121.435711776862,
            24.9664182674153
          ]
        ]
      }
    },
    {
      "type": "Feature",
      "properties": {
        "feature_type": "route",
        "ref": "藍17",
        "name": "藍17",
        "name_en": "藍17",
        "color": "#0891b2",
        "direction": 1
      },
      "geometry": {
        "type": "LineString",
        "coordinates": [
          [
            121.438402031543,
            24.9684338276844
          ],
          [
            121.439409381702,
            24.9688852822707
          ]
        ]
      }
    },
    {
      "type": "Feature",
      "properties": {
        "feature_type": "route",
        "ref": "藍17",
        "name": "藍17",
        "name_en": "藍17",
        "color": "#0891b2",
        "direction": 1
      },
      "geometry": {
        "type": "LineString",
        "coordinates": [
          [
            121.474162962183,
            25.0143962843479
          ],
          [
            121.474368475092,
            25.0145243087828
          ]
        ]
      }
    },
    {
      "type": "Feature",
      "properties": {
        "feature_type": "route",
        "ref": "藍17",
        "name": "藍17",
        "name_en": "藍17",
        "color": "#0891b2",
        "direction": 1
      },
      "geometry": {
        "type": "LineString",
        "coordinates": [
          [
            121.473297112716,
            25.0162122098852
          ],
          [
            121.472716400088,
            25.0169668714065
          ],
          [
            121.471690069151,
            25.0183448274456
          ]
        ]
      }
    },
    {
      "type": "Feature",
      "properties": {
        "feature_type": "route",
        "ref": "藍17",
        "name": "藍17",
        "name_en": "藍17",
        "color": "#0891b2",
        "direction": 1
      },
      "geometry": {
        "type": "LineString",
        "coordinates": [
          [
            121.476649331472,
            25.0311540090644
          ],
          [
            121.47718501266,
            25.0305324167423
          ],
          [
            121.477967449406,
            25.0289580714704
          ],
          [
            121.478448313062,
            25.0281025782932
          ],
          [
            121.479095271991,
            25.0271431382813
          ],
          [
            121.479679462173,
            25.0263924423013
          ],
          [
            121.480028502741,
            25.0261054665458
          ],
          [
            121.480960609195,
            25.0266944187251
          ]
        ]
      }
    },
    {
      "type": "Feature",
      "properties": {
        "feature_type": "station",
        "ref": "NWT127460",
        "name": "五福新村",
        "name_en": "Wufu New Village",
        "line": "藍17",
        "color": "#0891b2",
        "direction": 0
      },
      "geometry": {
        "type": "Point",
        "coordinates": [
          121.482761,
          25.027716
        ]
      }
    },
    {
      "type": "Feature",
      "properties": {
        "feature_type": "station",
        "ref": "NWT188735",
        "name": "富貴新村",
        "name_en": "FugueiNewVillage",
        "line": "藍17",
        "color": "#0891b2",
        "direction": 0
      },
      "geometry": {
        "type": "Point",
        "coordinates": [
          121.480675,
          25.028821
        ]
      }
    },
    {
      "type": "Feature",
      "properties": {
        "feature_type": "station",
        "ref": "NWT127461",
        "name": "冷凍廠(懷德)",
        "name_en": "Freezing Plant",
        "line": "藍17",
        "color": "#0891b2",
        "direction": 0
      },
      "geometry": {
        "type": "Point",
        "coordinates": [
          121.479456,
          25.030025
        ]
      }
    },
    {
      "type": "Feature",
      "properties": {
        "feature_type": "station",
        "ref": "NWT127462",
        "name": "懷德街(懷德)",
        "name_en": "Huaide St.",
        "line": "藍17",
        "color": "#0891b2",
        "direction": 0
      },
      "geometry": {
        "type": "Point",
        "coordinates": [
          121.478429,
          25.03143554
        ]
      }
    },
    {
      "type": "Feature",
      "properties": {
        "feature_type": "station",
        "ref": "NWT127463",
        "name": "江子翠",
        "name_en": "Jiangzicui",
        "line": "藍17",
        "color": "#0891b2",
        "direction": 0
      },
      "geometry": {
        "type": "Point",
        "coordinates": [
          121.476953,
          25.032535
        ]
      }
    },
    {
      "type": "Feature",
      "properties": {
        "feature_type": "station",
        "ref": "NWT127464",
        "name": "江翠國小",
        "name_en": "Jiangcui Elementary School",
        "line": "藍17",
        "color": "#0891b2",
        "direction": 0
      },
      "geometry": {
        "type": "Point",
        "coordinates": [
          121.475313,
          25.032472
        ]
      }
    },
    {
      "type": "Feature",
      "properties": {
        "feature_type": "station",
        "ref": "NWT187474",
        "name": "江翠國小(文化路)",
        "name_en": "Jiangcui Elementary School(Wenhua Rd.)",
        "line": "藍17",
        "color": "#0891b2",
        "direction": 0
      },
      "geometry": {
        "type": "Point",
        "coordinates": [
          121.47366,
          25.03163
        ]
      }
    },
    {
      "type": "Feature",
      "properties": {
        "feature_type": "station",
        "ref": "NWT127465",
        "name": "捷運江子翠站",
        "name_en": "MRT Jiangzicui Station",
        "line": "藍17",
        "color": "#0891b2",
        "direction": 0
      },
      "geometry": {
        "type": "Point",
        "coordinates": [
          121.472668,
          25.030537
        ]
      }
    },
    {
      "type": "Feature",
      "properties": {
        "feature_type": "station",
        "ref": "NWT127466",
        "name": "江翠國中",
        "name_en": "Jiangcui Junior High School",
        "line": "藍17",
        "color": "#0891b2",
        "direction": 0
      },
      "geometry": {
        "type": "Point",
        "coordinates": [
          121.470732,
          25.02821
        ]
      }
    },
    {
      "type": "Feature",
      "properties": {
        "feature_type": "station",
        "ref": "NWT127467",
        "name": "捷運新埔站(文化路)",
        "name_en": "MRT Xinpu Sta.(Wenhua Rd.)",
        "line": "藍17",
        "color": "#0891b2",
        "direction": 0
      },
      "geometry": {
        "type": "Point",
        "coordinates": [
          121.468869,
          25.02478
        ]
      }
    },
    {
      "type": "Feature",
      "properties": {
        "feature_type": "station",
        "ref": "NWT199681",
        "name": "捷運新埔站",
        "name_en": "MRT Xinpu Sta.",
        "line": "藍17",
        "color": "#0891b2",
        "direction": 0
      },
      "geometry": {
        "type": "Point",
        "coordinates": [
          121.46687,
          25.024488
        ]
      }
    },
    {
      "type": "Feature",
      "properties": {
        "feature_type": "station",
        "ref": "NWT127468",
        "name": "板橋花市",
        "name_en": "Banqiao Flower Market",
        "line": "藍17",
        "color": "#0891b2",
        "direction": 0
      },
      "geometry": {
        "type": "Point",
        "coordinates": [
          121.468393,
          25.021831
        ]
      }
    },
    {
      "type": "Feature",
      "properties": {
        "feature_type": "station",
        "ref": "NWT127469",
        "name": "民生路橋",
        "name_en": "Minsheng Rd. Bridge",
        "line": "藍17",
        "color": "#0891b2",
        "direction": 0
      },
      "geometry": {
        "type": "Point",
        "coordinates": [
          121.471608,
          25.017445
        ]
      }
    },
    {
      "type": "Feature",
      "properties": {
        "feature_type": "station",
        "ref": "NWT127470",
        "name": "西安里",
        "name_en": "Xian Village",
        "line": "藍17",
        "color": "#0891b2",
        "direction": 0
      },
      "geometry": {
        "type": "Point",
        "coordinates": [
          121.47229,
          25.015119
        ]
      }
    },
    {
      "type": "Feature",
      "properties": {
        "feature_type": "station",
        "ref": "NWT127471",
        "name": "中山漢生路口",
        "name_en": "Zhongshan Hansheng Rd. Intersection",
        "line": "藍17",
        "color": "#0891b2",
        "direction": 0
      },
      "geometry": {
        "type": "Point",
        "coordinates": [
          121.470005,
          25.014023
        ]
      }
    },
    {
      "type": "Feature",
      "properties": {
        "feature_type": "station",
        "ref": "NWT127472",
        "name": "漢生路",
        "name_en": "Hansheng Rd.",
        "line": "藍17",
        "color": "#0891b2",
        "direction": 0
      },
      "geometry": {
        "type": "Point",
        "coordinates": [
          121.469082,
          25.012348
        ]
      }
    },
    {
      "type": "Feature",
      "properties": {
        "feature_type": "station",
        "ref": "NWT127473",
        "name": "海山高中",
        "name_en": "Haishan High School",
        "line": "藍17",
        "color": "#0891b2",
        "direction": 0
      },
      "geometry": {
        "type": "Point",
        "coordinates": [
          121.47013,
          25.010734
        ]
      }
    },
    {
      "type": "Feature",
      "properties": {
        "feature_type": "station",
        "ref": "NWT127474",
        "name": "海山國小",
        "name_en": "Haishan Elementary School",
        "line": "藍17",
        "color": "#0891b2",
        "direction": 0
      },
      "geometry": {
        "type": "Point",
        "coordinates": [
          121.4714132,
          25.00862512
        ]
      }
    },
    {
      "type": "Feature",
      "properties": {
        "feature_type": "station",
        "ref": "NWT127475",
        "name": "瑞穗里",
        "name_en": "Hanmin Rd. Entrance",
        "line": "藍17",
        "color": "#0891b2",
        "direction": 0
      },
      "geometry": {
        "type": "Point",
        "coordinates": [
          121.4722542,
          25.00672218
        ]
      }
    },
    {
      "type": "Feature",
      "properties": {
        "feature_type": "station",
        "ref": "NWT127476",
        "name": "莒光路口",
        "name_en": "Juguang Rd. Entrance",
        "line": "藍17",
        "color": "#0891b2",
        "direction": 0
      },
      "geometry": {
        "type": "Point",
        "coordinates": [
          121.471823,
          25.005926
        ]
      }
    },
    {
      "type": "Feature",
      "properties": {
        "feature_type": "station",
        "ref": "NWT127477",
        "name": "莒光路",
        "name_en": "Juguang Rd.",
        "line": "藍17",
        "color": "#0891b2",
        "direction": 0
      },
      "geometry": {
        "type": "Point",
        "coordinates": [
          121.4721813,
          25.0032
        ]
      }
    },
    {
      "type": "Feature",
      "properties": {
        "feature_type": "station",
        "ref": "NWT127478",
        "name": "國光派出所",
        "name_en": "Guoguang Police Station",
        "line": "藍17",
        "color": "#0891b2",
        "direction": 0
      },
      "geometry": {
        "type": "Point",
        "coordinates": [
          121.4725926,
          25.00043
        ]
      }
    },
    {
      "type": "Feature",
      "properties": {
        "feature_type": "station",
        "ref": "NWT127479",
        "name": "自強國小",
        "name_en": "Ziqiang Elementary School",
        "line": "藍17",
        "color": "#0891b2",
        "direction": 0
      },
      "geometry": {
        "type": "Point",
        "coordinates": [
          121.4715882,
          24.997954
        ]
      }
    },
    {
      "type": "Feature",
      "properties": {
        "feature_type": "station",
        "ref": "NWT127480",
        "name": "華安街口",
        "name_en": "Huaan St. Entrance",
        "line": "藍17",
        "color": "#0891b2",
        "direction": 0
      },
      "geometry": {
        "type": "Point",
        "coordinates": [
          121.4677569,
          24.993908
        ]
      }
    },
    {
      "type": "Feature",
      "properties": {
        "feature_type": "station",
        "ref": "NWT127481",
        "name": "延和路",
        "name_en": "Yanhe Rd.",
        "line": "藍17",
        "color": "#0891b2",
        "direction": 0
      },
      "geometry": {
        "type": "Point",
        "coordinates": [
          121.4666724,
          24.989782
        ]
      }
    },
    {
      "type": "Feature",
      "properties": {
        "feature_type": "station",
        "ref": "NWT127482",
        "name": "安和國小",
        "name_en": "Anhe Elementary School",
        "line": "藍17",
        "color": "#0891b2",
        "direction": 0
      },
      "geometry": {
        "type": "Point",
        "coordinates": [
          121.4642633,
          24.988264
        ]
      }
    },
    {
      "type": "Feature",
      "properties": {
        "feature_type": "station",
        "ref": "NWT127483",
        "name": "金城路口",
        "name_en": "Jincheng Rd. Entrance",
        "line": "藍17",
        "color": "#0891b2",
        "direction": 0
      },
      "geometry": {
        "type": "Point",
        "coordinates": [
          121.463946,
          24.986937
        ]
      }
    },
    {
      "type": "Feature",
      "properties": {
        "feature_type": "station",
        "ref": "NWT127484",
        "name": "明德路",
        "name_en": "Mingde Rd.",
        "line": "藍17",
        "color": "#0891b2",
        "direction": 0
      },
      "geometry": {
        "type": "Point",
        "coordinates": [
          121.4650801,
          24.984654
        ]
      }
    },
    {
      "type": "Feature",
      "properties": {
        "feature_type": "station",
        "ref": "NWT127485",
        "name": "清水高中",
        "name_en": "Qingshui Junior High School",
        "line": "藍17",
        "color": "#0891b2",
        "direction": 0
      },
      "geometry": {
        "type": "Point",
        "coordinates": [
          121.465462,
          24.982145
        ]
      }
    },
    {
      "type": "Feature",
      "properties": {
        "feature_type": "station",
        "ref": "NWT127486",
        "name": "手信坊文化館",
        "name_en": "International Park",
        "line": "藍17",
        "color": "#0891b2",
        "direction": 0
      },
      "geometry": {
        "type": "Point",
        "coordinates": [
          121.465094,
          24.980501
        ]
      }
    },
    {
      "type": "Feature",
      "properties": {
        "feature_type": "station",
        "ref": "NWT127487",
        "name": "仁愛路口",
        "name_en": "Renai Rd. Entrance",
        "line": "藍17",
        "color": "#0891b2",
        "direction": 0
      },
      "geometry": {
        "type": "Point",
        "coordinates": [
          121.463438,
          24.978778
        ]
      }
    },
    {
      "type": "Feature",
      "properties": {
        "feature_type": "station",
        "ref": "NWT127488",
        "name": "青山路",
        "name_en": "Qingshan Rd.",
        "line": "藍17",
        "color": "#0891b2",
        "direction": 0
      },
      "geometry": {
        "type": "Point",
        "coordinates": [
          121.45959,
          24.97723
        ]
      }
    },
    {
      "type": "Feature",
      "properties": {
        "feature_type": "station",
        "ref": "NWT127489",
        "name": "明德路一",
        "name_en": "Mingde Rd. 1",
        "line": "藍17",
        "color": "#0891b2",
        "direction": 0
      },
      "geometry": {
        "type": "Point",
        "coordinates": [
          121.4548005,
          24.978325
        ]
      }
    },
    {
      "type": "Feature",
      "properties": {
        "feature_type": "station",
        "ref": "NWT127490",
        "name": "新北高工(金城)",
        "name_en": "New Taipei Vocational High School(Jincheng)",
        "line": "藍17",
        "color": "#0891b2",
        "direction": 0
      },
      "geometry": {
        "type": "Point",
        "coordinates": [
          121.45213,
          24.97976
        ]
      }
    },
    {
      "type": "Feature",
      "properties": {
        "feature_type": "station",
        "ref": "NWT127491",
        "name": "柑林橋",
        "name_en": "Ganlin Bridge",
        "line": "藍17",
        "color": "#0891b2",
        "direction": 0
      },
      "geometry": {
        "type": "Point",
        "coordinates": [
          121.450533,
          24.978481
        ]
      }
    },
    {
      "type": "Feature",
      "properties": {
        "feature_type": "station",
        "ref": "NWT127492",
        "name": "土城醫院",
        "name_en": "Tucheng Hospital",
        "line": "藍17",
        "color": "#0891b2",
        "direction": 0
      },
      "geometry": {
        "type": "Point",
        "coordinates": [
          121.44737,
          24.97613
        ]
      }
    },
    {
      "type": "Feature",
      "properties": {
        "feature_type": "station",
        "ref": "NWT127493",
        "name": "捷運土城站",
        "name_en": "MRT Tucheng Station",
        "line": "藍17",
        "color": "#0891b2",
        "direction": 0
      },
      "geometry": {
        "type": "Point",
        "coordinates": [
          121.444004,
          24.972964
        ]
      }
    },
    {
      "type": "Feature",
      "properties": {
        "feature_type": "station",
        "ref": "NWT127494",
        "name": "土城區公所",
        "name_en": "Tucheng Dist. Office",
        "line": "藍17",
        "color": "#0891b2",
        "direction": 0
      },
      "geometry": {
        "type": "Point",
        "coordinates": [
          121.44303,
          24.97172
        ]
      }
    },
    {
      "type": "Feature",
      "properties": {
        "feature_type": "station",
        "ref": "NWT195126",
        "name": "千歲路",
        "name_en": "Ciansuei Rd.",
        "line": "藍17",
        "color": "#0891b2",
        "direction": 0
      },
      "geometry": {
        "type": "Point",
        "coordinates": [
          121.4417363,
          24.968726
        ]
      }
    },
    {
      "type": "Feature",
      "properties": {
        "feature_type": "station",
        "ref": "NWT195127",
        "name": "忠承路",
        "name_en": "Zhongcheng Rd.",
        "line": "藍17",
        "color": "#0891b2",
        "direction": 0
      },
      "geometry": {
        "type": "Point",
        "coordinates": [
          121.440174,
          24.966663
        ]
      }
    },
    {
      "type": "Feature",
      "properties": {
        "feature_type": "station",
        "ref": "NWT127495",
        "name": "承天路",
        "name_en": "Chengtian Rd.",
        "line": "藍17",
        "color": "#0891b2",
        "direction": 0
      },
      "geometry": {
        "type": "Point",
        "coordinates": [
          121.436047,
          24.966064
        ]
      }
    },
    {
      "type": "Feature",
      "properties": {
        "feature_type": "station",
        "ref": "NWT127496",
        "name": "捷運永寧站",
        "name_en": "MRT Yongning Station",
        "line": "藍17",
        "color": "#0891b2",
        "direction": 1
      },
      "geometry": {
        "type": "Point",
        "coordinates": [
          121.4365891,
          24.96693499
        ]
      }
    },
    {
      "type": "Feature",
      "properties": {
        "feature_type": "station",
        "ref": "NWT127497",
        "name": "忠義路口",
        "name_en": "Zhongyi Rd. Entrance",
        "line": "藍17",
        "color": "#0891b2",
        "direction": 1
      },
      "geometry": {
        "type": "Point",
        "coordinates": [
          121.439524,
          24.968824
        ]
      }
    },
    {
      "type": "Feature",
      "properties": {
        "feature_type": "station",
        "ref": "NWT127498",
        "name": "土城區公所",
        "name_en": "Tucheng Dist. Office",
        "line": "藍17",
        "color": "#0891b2",
        "direction": 1
      },
      "geometry": {
        "type": "Point",
        "coordinates": [
          121.443347,
          24.971621
        ]
      }
    },
    {
      "type": "Feature",
      "properties": {
        "feature_type": "station",
        "ref": "NWT127499",
        "name": "捷運土城站",
        "name_en": "MRT Tucheng Station",
        "line": "藍17",
        "color": "#0891b2",
        "direction": 1
      },
      "geometry": {
        "type": "Point",
        "coordinates": [
          121.445122,
          24.973711
        ]
      }
    },
    {
      "type": "Feature",
      "properties": {
        "feature_type": "station",
        "ref": "NWT127500",
        "name": "土城醫院",
        "name_en": "Tucheng Hospital",
        "line": "藍17",
        "color": "#0891b2",
        "direction": 1
      },
      "geometry": {
        "type": "Point",
        "coordinates": [
          121.448771,
          24.976884
        ]
      }
    },
    {
      "type": "Feature",
      "properties": {
        "feature_type": "station",
        "ref": "NWT127501",
        "name": "柑林橋",
        "name_en": "Ganlin Bridge",
        "line": "藍17",
        "color": "#0891b2",
        "direction": 1
      },
      "geometry": {
        "type": "Point",
        "coordinates": [
          121.450576,
          24.978201
        ]
      }
    },
    {
      "type": "Feature",
      "properties": {
        "feature_type": "station",
        "ref": "NWT216223",
        "name": "新北高工(清水)",
        "name_en": "New Taipei Senior High School(Qingshui)",
        "line": "藍17",
        "color": "#0891b2",
        "direction": 1
      },
      "geometry": {
        "type": "Point",
        "coordinates": [
          121.452408,
          24.979512
        ]
      }
    },
    {
      "type": "Feature",
      "properties": {
        "feature_type": "station",
        "ref": "NWT127503",
        "name": "明德路一",
        "name_en": "Mingde Rd. 1",
        "line": "藍17",
        "color": "#0891b2",
        "direction": 1
      },
      "geometry": {
        "type": "Point",
        "coordinates": [
          121.4545296,
          24.978243
        ]
      }
    },
    {
      "type": "Feature",
      "properties": {
        "feature_type": "station",
        "ref": "NWT127504",
        "name": "青山路",
        "name_en": "Qingshan Rd.",
        "line": "藍17",
        "color": "#0891b2",
        "direction": 1
      },
      "geometry": {
        "type": "Point",
        "coordinates": [
          121.45973,
          24.97717
        ]
      }
    },
    {
      "type": "Feature",
      "properties": {
        "feature_type": "station",
        "ref": "NWT127505",
        "name": "仁愛路口",
        "name_en": "Renai Rd. Entrance",
        "line": "藍17",
        "color": "#0891b2",
        "direction": 1
      },
      "geometry": {
        "type": "Point",
        "coordinates": [
          121.463057,
          24.978438
        ]
      }
    },
    {
      "type": "Feature",
      "properties": {
        "feature_type": "station",
        "ref": "NWT127506",
        "name": "手信坊文化館",
        "name_en": "International Park",
        "line": "藍17",
        "color": "#0891b2",
        "direction": 1
      },
      "geometry": {
        "type": "Point",
        "coordinates": [
          121.46519,
          24.98038
        ]
      }
    },
    {
      "type": "Feature",
      "properties": {
        "feature_type": "station",
        "ref": "NWT127507",
        "name": "清水高中",
        "name_en": "Chingshui High School",
        "line": "藍17",
        "color": "#0891b2",
        "direction": 1
      },
      "geometry": {
        "type": "Point",
        "coordinates": [
          121.46561,
          24.98288
        ]
      }
    },
    {
      "type": "Feature",
      "properties": {
        "feature_type": "station",
        "ref": "NWT127508",
        "name": "明德路",
        "name_en": "Mingde Rd.",
        "line": "藍17",
        "color": "#0891b2",
        "direction": 1
      },
      "geometry": {
        "type": "Point",
        "coordinates": [
          121.4653,
          24.98463
        ]
      }
    },
    {
      "type": "Feature",
      "properties": {
        "feature_type": "station",
        "ref": "NWT127509",
        "name": "金城路口",
        "name_en": "Jincheng Rd. Entrance",
        "line": "藍17",
        "color": "#0891b2",
        "direction": 1
      },
      "geometry": {
        "type": "Point",
        "coordinates": [
          121.464106,
          24.987097
        ]
      }
    },
    {
      "type": "Feature",
      "properties": {
        "feature_type": "station",
        "ref": "NWT127510",
        "name": "安和國小",
        "name_en": "Anhe Elementary School",
        "line": "藍17",
        "color": "#0891b2",
        "direction": 1
      },
      "geometry": {
        "type": "Point",
        "coordinates": [
          121.4648498,
          24.988481
        ]
      }
    },
    {
      "type": "Feature",
      "properties": {
        "feature_type": "station",
        "ref": "NWT127511",
        "name": "延和路",
        "name_en": "Yanhe Rd.",
        "line": "藍17",
        "color": "#0891b2",
        "direction": 1
      },
      "geometry": {
        "type": "Point",
        "coordinates": [
          121.466743,
          24.989637
        ]
      }
    },
    {
      "type": "Feature",
      "properties": {
        "feature_type": "station",
        "ref": "NWT127512",
        "name": "華安街口",
        "name_en": "Huaan St. Entrance",
        "line": "藍17",
        "color": "#0891b2",
        "direction": 1
      },
      "geometry": {
        "type": "Point",
        "coordinates": [
          121.4679844,
          24.993825
        ]
      }
    },
    {
      "type": "Feature",
      "properties": {
        "feature_type": "station",
        "ref": "NWT127513",
        "name": "自強國小",
        "name_en": "Ziqiang Elementary School",
        "line": "藍17",
        "color": "#0891b2",
        "direction": 1
      },
      "geometry": {
        "type": "Point",
        "coordinates": [
          121.4720362,
          24.998187
        ]
      }
    },
    {
      "type": "Feature",
      "properties": {
        "feature_type": "station",
        "ref": "NWT127514",
        "name": "國光派出所",
        "name_en": "Guoguang Police Station",
        "line": "藍17",
        "color": "#0891b2",
        "direction": 1
      },
      "geometry": {
        "type": "Point",
        "coordinates": [
          121.472624,
          25.001522
        ]
      }
    },
    {
      "type": "Feature",
      "properties": {
        "feature_type": "station",
        "ref": "NWT127515",
        "name": "莒光路",
        "name_en": "Juguang Rd.",
        "line": "藍17",
        "color": "#0891b2",
        "direction": 1
      },
      "geometry": {
        "type": "Point",
        "coordinates": [
          121.472377,
          25.003205
        ]
      }
    },
    {
      "type": "Feature",
      "properties": {
        "feature_type": "station",
        "ref": "NWT127516",
        "name": "莒光德光路口",
        "name_en": "Juguang & Deguang Intersection",
        "line": "藍17",
        "color": "#0891b2",
        "direction": 1
      },
      "geometry": {
        "type": "Point",
        "coordinates": [
          121.472091,
          25.005221
        ]
      }
    },
    {
      "type": "Feature",
      "properties": {
        "feature_type": "station",
        "ref": "NWT127517",
        "name": "瑞穗里",
        "name_en": "Hanmin Rd. Entrance",
        "line": "藍17",
        "color": "#0891b2",
        "direction": 1
      },
      "geometry": {
        "type": "Point",
        "coordinates": [
          121.4723534,
          25.00693083
        ]
      }
    },
    {
      "type": "Feature",
      "properties": {
        "feature_type": "station",
        "ref": "NWT127518",
        "name": "海山高中",
        "name_en": "Haishan High School",
        "line": "藍17",
        "color": "#0891b2",
        "direction": 1
      },
      "geometry": {
        "type": "Point",
        "coordinates": [
          121.47106,
          25.009636
        ]
      }
    },
    {
      "type": "Feature",
      "properties": {
        "feature_type": "station",
        "ref": "NWT127519",
        "name": "漢生路",
        "name_en": "Hansheng Rd.",
        "line": "藍17",
        "color": "#0891b2",
        "direction": 1
      },
      "geometry": {
        "type": "Point",
        "coordinates": [
          121.469318,
          25.012472
        ]
      }
    },
    {
      "type": "Feature",
      "properties": {
        "feature_type": "station",
        "ref": "NWT127520",
        "name": "中山漢生路口",
        "name_en": "Zhongshan Hansheng Rd. Intersection",
        "line": "藍17",
        "color": "#0891b2",
        "direction": 1
      },
      "geometry": {
        "type": "Point",
        "coordinates": [
          121.471041,
          25.014344
        ]
      }
    },
    {
      "type": "Feature",
      "properties": {
        "feature_type": "station",
        "ref": "NWT127521",
        "name": "西安里",
        "name_en": "Xian Village",
        "line": "藍17",
        "color": "#0891b2",
        "direction": 1
      },
      "geometry": {
        "type": "Point",
        "coordinates": [
          121.4724073,
          25.01497569
        ]
      }
    },
    {
      "type": "Feature",
      "properties": {
        "feature_type": "station",
        "ref": "NWT127522",
        "name": "民生中山路口",
        "name_en": "Minsheng Zongshan Road Intersection",
        "line": "藍17",
        "color": "#0891b2",
        "direction": 1
      },
      "geometry": {
        "type": "Point",
        "coordinates": [
          121.4740357,
          25.01501499
        ]
      }
    },
    {
      "type": "Feature",
      "properties": {
        "feature_type": "station",
        "ref": "NWT127523",
        "name": "玉光里",
        "name_en": "Yuguang Village",
        "line": "藍17",
        "color": "#0891b2",
        "direction": 1
      },
      "geometry": {
        "type": "Point",
        "coordinates": [
          121.473016,
          25.016673
        ]
      }
    },
    {
      "type": "Feature",
      "properties": {
        "feature_type": "station",
        "ref": "NWT127524",
        "name": "民生路橋",
        "name_en": "Minsheng Rd. Bridge",
        "line": "藍17",
        "color": "#0891b2",
        "direction": 1
      },
      "geometry": {
        "type": "Point",
        "coordinates": [
          121.47202,
          25.01795
        ]
      }
    },
    {
      "type": "Feature",
      "properties": {
        "feature_type": "station",
        "ref": "NWT127525",
        "name": "板橋花市",
        "name_en": "Banqiao Flower Market",
        "line": "藍17",
        "color": "#0891b2",
        "direction": 1
      },
      "geometry": {
        "type": "Point",
        "coordinates": [
          121.469272,
          25.021691
        ]
      }
    },
    {
      "type": "Feature",
      "properties": {
        "feature_type": "station",
        "ref": "NWT127526",
        "name": "捷運新埔站(文化路)",
        "name_en": "MRT Xinpu Sta.(Wenhua Rd.)",
        "line": "藍17",
        "color": "#0891b2",
        "direction": 1
      },
      "geometry": {
        "type": "Point",
        "coordinates": [
          121.46891,
          25.02419
        ]
      }
    },
    {
      "type": "Feature",
      "properties": {
        "feature_type": "station",
        "ref": "NWT127527",
        "name": "新北市議會",
        "name_en": "New Taipei City Council",
        "line": "藍17",
        "color": "#0891b2",
        "direction": 1
      },
      "geometry": {
        "type": "Point",
        "coordinates": [
          121.470516,
          25.027135
        ]
      }
    },
    {
      "type": "Feature",
      "properties": {
        "feature_type": "station",
        "ref": "NWT127528",
        "name": "江翠國中",
        "name_en": "Jiangcui Junior High School",
        "line": "藍17",
        "color": "#0891b2",
        "direction": 1
      },
      "geometry": {
        "type": "Point",
        "coordinates": [
          121.471658,
          25.028965
        ]
      }
    },
    {
      "type": "Feature",
      "properties": {
        "feature_type": "station",
        "ref": "NWT127529",
        "name": "捷運江子翠站",
        "name_en": "MRT Jiangzicui Sta.",
        "line": "藍17",
        "color": "#0891b2",
        "direction": 1
      },
      "geometry": {
        "type": "Point",
        "coordinates": [
          121.47362,
          25.03116
        ]
      }
    },
    {
      "type": "Feature",
      "properties": {
        "feature_type": "station",
        "ref": "NWT127530",
        "name": "江翠國小",
        "name_en": "Jiangcui Elementary School",
        "line": "藍17",
        "color": "#0891b2",
        "direction": 1
      },
      "geometry": {
        "type": "Point",
        "coordinates": [
          121.475567,
          25.032101
        ]
      }
    },
    {
      "type": "Feature",
      "properties": {
        "feature_type": "station",
        "ref": "NWT127531",
        "name": "懷德街(文聖)",
        "name_en": "Huaide St. (Wensheng)",
        "line": "藍17",
        "color": "#0891b2",
        "direction": 1
      },
      "geometry": {
        "type": "Point",
        "coordinates": [
          121.47731,
          25.03015
        ]
      }
    },
    {
      "type": "Feature",
      "properties": {
        "feature_type": "station",
        "ref": "NWT127532",
        "name": "冷凍廠(文聖)",
        "name_en": "Refrigeration Plant(Wensheng)",
        "line": "藍17",
        "color": "#0891b2",
        "direction": 1
      },
      "geometry": {
        "type": "Point",
        "coordinates": [
          121.478431,
          25.028079
        ]
      }
    },
    {
      "type": "Feature",
      "properties": {
        "feature_type": "station",
        "ref": "NWT188736",
        "name": "音樂公園",
        "name_en": "Music Park",
        "line": "藍17",
        "color": "#0891b2",
        "direction": 1
      },
      "geometry": {
        "type": "Point",
        "coordinates": [
          121.4805,
          25.02629
        ]
      }
    }
  ]
}
