{
  "type": "FeatureCollection",
  "name": "5667（龍港）",
  "properties": {
    "id": "inter_city_5667",
    "name": "5667（龍港）",
    "name_en": "5667 (龍港)",
    "ref": "5667",
    "color": "#0369a1",
    "city_id": "InterCity",
    "source": "TDX Bus Shape / StopOfRoute",
    "via": "龍港",
    "official_map_url": "https://web.taiwanbus.tw/MISUploadData/Schematic/file/5667.jpg",
    "operator_id": "122",
    "operator": "亦捷科際"
  },
  "features": [
    {
      "type": "Feature",
      "properties": {
        "feature_type": "route",
        "ref": "5667",
        "name": "5667（龍港）",
        "name_en": "5667 (龍港)",
        "color": "#0369a1",
        "direction": 0
      },
      "geometry": {
        "type": "LineString",
        "coordinates": [
          [
            120.78727,
            24.61533
          ],
          [
            120.78739,
            24.61541
          ],
          [
            120.78761,
            24.61556
          ],
          [
            120.78767,
            24.61561
          ],
          [
            120.78767,
            24.61561
          ],
          [
            120.7881,
            24.61521
          ],
          [
            120.78841,
            24.61494
          ],
          [
            120.78845,
            24.61491
          ],
          [
            120.78878,
            24.61466
          ],
          [
            120.78878,
            24.61466
          ],
          [
            120.78862,
            24.61455
          ],
          [
            120.78811,
            24.61424
          ],
          [
            120.78784,
            24.61366
          ],
          [
            120.78775,
            24.61344
          ],
          [
            120.78748,
            24.61281
          ],
          [
            120.78748,
            24.61281
          ],
          [
            120.78712,
            24.61294
          ],
          [
            120.7864,
            24.6132
          ],
          [
            120.78588,
            24.61345
          ],
          [
            120.78545,
            24.61369
          ],
          [
            120.78543,
            24.6137
          ],
          [
            120.78542,
            24.61365
          ],
          [
            120.78533,
            24.61352
          ],
          [
            120.78523,
            24.61338
          ],
          [
            120.78516,
            24.61328
          ],
          [
            120.78507,
            24.61314
          ],
          [
            120.785,
            24.613
          ],
          [
            120.78493,
            24.61284
          ],
          [
            120.78486,
            24.61265
          ],
          [
            120.78479,
            24.61242
          ],
          [
            120.78475,
            24.6123
          ],
          [
            120.78469,
            24.61208
          ],
          [
            120.78453,
            24.61149
          ],
          [
            120.78444,
            24.61117
          ],
          [
            120.78424,
            24.61065
          ],
          [
            120.78418,
            24.61048
          ],
          [
            120.78418,
            24.61035
          ],
          [
            120.78417,
            24.6103
          ],
          [
            120.78417,
            24.61022
          ],
          [
            120.78401,
            24.60935
          ],
          [
            120.784,
            24.60933
          ],
          [
            120.78398,
            24.60918
          ],
          [
            120.78377,
            24.60809
          ],
          [
            120.78376,
            24.60805
          ],
          [
            120.78373,
            24.60791
          ],
          [
            120.78369000000001,
            24.60775
          ],
          [
            120.78368,
            24.6077
          ],
          [
            120.78365,
            24.60761
          ],
          [
            120.78363,
            24.60755
          ],
          [
            120.78359,
            24.60744
          ],
          [
            120.78352,
            24.60727
          ],
          [
            120.7835,
            24.60721
          ],
          [
            120.78345,
            24.6071
          ],
          [
            120.78332,
            24.60684
          ],
          [
            120.78309,
            24.60645
          ],
          [
            120.78301,
            24.60633
          ],
          [
            120.78292,
            24.60619
          ],
          [
            120.78268,
            24.60592
          ],
          [
            120.78209,
            24.60514
          ],
          [
            120.78204,
            24.60507
          ],
          [
            120.78204,
            24.60507
          ],
          [
            120.78195,
            24.60494
          ],
          [
            120.78183,
            24.6048
          ],
          [
            120.78152,
            24.60442
          ],
          [
            120.7815,
            24.60439
          ],
          [
            120.7813,
            24.60414
          ],
          [
            120.78129,
            24.60412
          ],
          [
            120.78127,
            24.6041
          ],
          [
            120.78066,
            24.60332
          ],
          [
            120.78066,
            24.60332
          ],
          [
            120.78041,
            24.603
          ],
          [
            120.78016,
            24.6027
          ],
          [
            120.78001,
            24.60251
          ],
          [
            120.77971,
            24.60215
          ],
          [
            120.77957,
            24.60198
          ],
          [
            120.77896,
            24.60237
          ],
          [
            120.77777,
            24.60307
          ],
          [
            120.77766,
            24.60314
          ],
          [
            120.77683,
            24.60364
          ],
          [
            120.77665,
            24.60362
          ],
          [
            120.77661,
            24.60362
          ],
          [
            120.77658,
            24.60362
          ],
          [
            120.77655,
            24.60362
          ],
          [
            120.77652,
            24.60362
          ],
          [
            120.77649,
            24.60363
          ],
          [
            120.77636,
            24.60365
          ],
          [
            120.77621,
            24.60367
          ],
          [
            120.77602,
            24.6037
          ],
          [
            120.77582,
            24.60373
          ],
          [
            120.77564,
            24.60375
          ],
          [
            120.77554,
            24.60377
          ],
          [
            120.77553,
            24.60377
          ],
          [
            120.77544,
            24.60379
          ],
          [
            120.77531,
            24.60384
          ],
          [
            120.77528,
            24.60385
          ],
          [
            120.77516,
            24.6039
          ],
          [
            120.77506,
            24.60394
          ],
          [
            120.77505,
            24.60395
          ],
          [
            120.77503,
            24.60396
          ],
          [
            120.77503,
            24.60396
          ],
          [
            120.775,
            24.60398
          ],
          [
            120.77494,
            24.60401
          ],
          [
            120.77484,
            24.60407
          ],
          [
            120.77478,
            24.60411
          ],
          [
            120.77474,
            24.60415
          ],
          [
            120.77461,
            24.60427
          ],
          [
            120.77419,
            24.60465
          ],
          [
            120.7741,
            24.60474
          ],
          [
            120.77407,
            24.60478
          ],
          [
            120.77405,
            24.60482
          ],
          [
            120.77404,
            24.60487
          ],
          [
            120.77403,
            24.60489
          ],
          [
            120.77403,
            24.60492
          ],
          [
            120.77382,
            24.60497
          ],
          [
            120.77364,
            24.60502
          ],
          [
            120.77339,
            24.60509
          ],
          [
            120.77308,
            24.60521
          ],
          [
            120.77276,
            24.60536
          ],
          [
            120.77228,
            24.6056
          ],
          [
            120.77157,
            24.60597
          ],
          [
            120.77145,
            24.60602
          ],
          [
            120.77145,
            24.60602
          ],
          [
            120.77121,
            24.60612
          ],
          [
            120.77099,
            24.60618
          ],
          [
            120.77078,
            24.60623
          ],
          [
            120.77039,
            24.6063
          ],
          [
            120.76962,
            24.60643
          ],
          [
            120.76939,
            24.60647
          ],
          [
            120.7692,
            24.60651
          ],
          [
            120.769,
            24.60657
          ],
          [
            120.76888,
            24.60661
          ],
          [
            120.7687,
            24.60667
          ],
          [
            120.7686,
            24.60672
          ],
          [
            120.76859,
            24.60672
          ],
          [
            120.76841,
            24.60681
          ],
          [
            120.76833,
            24.60685
          ],
          [
            120.76824,
            24.60689
          ],
          [
            120.76797,
            24.60703
          ],
          [
            120.76768,
            24.60718
          ],
          [
            120.76742,
            24.60734
          ],
          [
            120.76717,
            24.6075
          ],
          [
            120.76695,
            24.60766
          ],
          [
            120.76676,
            24.60781
          ],
          [
            120.76652,
            24.60804
          ],
          [
            120.76624,
            24.60833
          ],
          [
            120.76618,
            24.60839
          ],
          [
            120.7661,
            24.60847
          ],
          [
            120.76597,
            24.6086
          ],
          [
            120.76549,
            24.60911
          ],
          [
            120.76532,
            24.60927
          ],
          [
            120.76518,
            24.60941
          ],
          [
            120.76478,
            24.6098
          ],
          [
            120.7644,
            24.6101
          ],
          [
            120.7642,
            24.61025
          ],
          [
            120.76395,
            24.61042
          ],
          [
            120.76372,
            24.61057
          ],
          [
            120.76349,
            24.61071
          ],
          [
            120.76302,
            24.61094
          ],
          [
            120.76276,
            24.61103
          ],
          [
            120.76263,
            24.61106
          ],
          [
            120.762634,
            24.611062
          ],
          [
            120.762071,
            24.611249
          ],
          [
            120.76184,
            24.611374
          ],
          [
            120.761433,
            24.61147
          ],
          [
            120.760403,
            24.611562
          ],
          [
            120.759989,
            24.611615
          ],
          [
            120.75966,
            24.611599
          ],
          [
            120.759395,
            24.611577
          ],
          [
            120.758905,
            24.611458
          ],
          [
            120.759421,
            24.611461
          ],
          [
            120.759719,
            24.611458
          ],
          [
            120.75999,
            24.611396
          ],
          [
            120.75999,
            24.6114
          ],
          [
            120.76006,
            24.61138
          ],
          [
            120.76035,
            24.61118
          ],
          [
            120.76036,
            24.61108
          ],
          [
            120.76034,
            24.61099
          ],
          [
            120.76033,
            24.61096
          ],
          [
            120.76032,
            24.61088
          ],
          [
            120.76035,
            24.61088
          ],
          [
            120.76037,
            24.61087
          ],
          [
            120.76039,
            24.61087
          ],
          [
            120.76041,
            24.61086
          ],
          [
            120.76044,
            24.61086
          ],
          [
            120.76045,
            24.61085
          ],
          [
            120.76048,
            24.61082
          ],
          [
            120.76057,
            24.61076
          ],
          [
            120.7606,
            24.61074
          ],
          [
            120.76076,
            24.61063
          ],
          [
            120.76085,
            24.61055
          ],
          [
            120.76092,
            24.61048
          ],
          [
            120.76096,
            24.61041
          ],
          [
            120.76104,
            24.6103
          ],
          [
            120.76108,
            24.61023
          ],
          [
            120.7611,
            24.61017
          ],
          [
            120.76115,
            24.61007
          ],
          [
            120.76124,
            24.60989
          ],
          [
            120.76131,
            24.60974
          ],
          [
            120.76136,
            24.60963
          ],
          [
            120.76143,
            24.60943
          ],
          [
            120.76144,
            24.60942
          ],
          [
            120.76149,
            24.60928
          ],
          [
            120.76149,
            24.60928
          ],
          [
            120.76151,
            24.60925
          ],
          [
            120.76152,
            24.60909
          ],
          [
            120.76153,
            24.60903
          ],
          [
            120.76153,
            24.609
          ],
          [
            120.76153,
            24.60896
          ],
          [
            120.76152,
            24.60892
          ],
          [
            120.76151,
            24.60888
          ],
          [
            120.7615,
            24.60885
          ],
          [
            120.76149,
            24.60881
          ],
          [
            120.76145,
            24.60873
          ],
          [
            120.76139,
            24.60861
          ],
          [
            120.76131,
            24.60849
          ],
          [
            120.76084,
            24.6078
          ],
          [
            120.76074,
            24.60766
          ],
          [
            120.76062,
            24.6075
          ],
          [
            120.76053,
            24.60737
          ],
          [
            120.76042,
            24.60719
          ],
          [
            120.76032,
            24.60704
          ],
          [
            120.76016,
            24.60679
          ],
          [
            120.76012,
            24.60673
          ],
          [
            120.76009,
            24.60669
          ],
          [
            120.76006,
            24.60665
          ],
          [
            120.76003,
            24.60662
          ],
          [
            120.75999,
            24.60659
          ],
          [
            120.75994,
            24.60656
          ],
          [
            120.75989,
            24.60653
          ],
          [
            120.75984,
            24.6065
          ],
          [
            120.75978,
            24.60647
          ],
          [
            120.75969,
            24.60644
          ],
          [
            120.75942,
            24.60634
          ],
          [
            120.75909,
            24.60622
          ],
          [
            120.75878,
            24.6061
          ],
          [
            120.75853,
            24.606
          ],
          [
            120.75849,
            24.60597
          ],
          [
            120.75846,
            24.60595
          ],
          [
            120.75843,
            24.60592
          ],
          [
            120.7584,
            24.6059
          ],
          [
            120.75838,
            24.60587
          ],
          [
            120.75837,
            24.60584
          ],
          [
            120.75836,
            24.60582
          ],
          [
            120.75835,
            24.60579
          ],
          [
            120.75834,
            24.60572
          ],
          [
            120.75836,
            24.60561
          ],
          [
            120.75837,
            24.60557
          ],
          [
            120.75837,
            24.60557
          ],
          [
            120.75838,
            24.60551
          ],
          [
            120.75838,
            24.60539
          ],
          [
            120.75838,
            24.6053
          ],
          [
            120.75837,
            24.6052
          ],
          [
            120.75835,
            24.60509
          ],
          [
            120.75827,
            24.60491
          ],
          [
            120.7582,
            24.60479
          ],
          [
            120.75816,
            24.60471
          ],
          [
            120.75807,
            24.60459
          ],
          [
            120.75793,
            24.60442
          ],
          [
            120.75778,
            24.6043
          ],
          [
            120.75772,
            24.60425
          ],
          [
            120.75766,
            24.60421
          ],
          [
            120.75763,
            24.60418
          ],
          [
            120.75754,
            24.60412
          ],
          [
            120.75747,
            24.60407
          ],
          [
            120.75739,
            24.60401
          ],
          [
            120.75717,
            24.60387
          ],
          [
            120.75695,
            24.60374
          ],
          [
            120.7561,
            24.60327
          ],
          [
            120.75591,
            24.60317
          ],
          [
            120.75585,
            24.60313
          ],
          [
            120.75584,
            24.60312
          ],
          [
            120.75579,
            24.60309
          ],
          [
            120.75568,
            24.60301
          ],
          [
            120.75567,
            24.60301
          ],
          [
            120.75538,
            24.60279
          ],
          [
            120.75527,
            24.60271
          ],
          [
            120.75527,
            24.60271
          ],
          [
            120.75525,
            24.6027
          ],
          [
            120.75482,
            24.60237
          ],
          [
            120.75476,
            24.60232
          ],
          [
            120.75466,
            24.60225
          ],
          [
            120.75459,
            24.60221
          ],
          [
            120.75457,
            24.60219
          ],
          [
            120.75454,
            24.60216
          ],
          [
            120.75452,
            24.60214
          ],
          [
            120.7545,
            24.60211
          ],
          [
            120.75449,
            24.60207
          ],
          [
            120.75447,
            24.60203
          ],
          [
            120.75445,
            24.60195
          ],
          [
            120.75442,
            24.60182
          ],
          [
            120.7544,
            24.60171
          ],
          [
            120.75436,
            24.60163
          ],
          [
            120.75431,
            24.60155
          ],
          [
            120.75427,
            24.6015
          ],
          [
            120.75418,
            24.60143
          ],
          [
            120.75412,
            24.60139
          ],
          [
            120.75402,
            24.60134
          ],
          [
            120.75388,
            24.60129
          ],
          [
            120.75373,
            24.60125
          ],
          [
            120.75354,
            24.60123
          ],
          [
            120.75353,
            24.60123
          ],
          [
            120.7533,
            24.60121
          ],
          [
            120.75305,
            24.60119
          ],
          [
            120.75287,
            24.60116
          ],
          [
            120.75277,
            24.60112
          ],
          [
            120.7527,
            24.60109
          ],
          [
            120.75263,
            24.60104
          ],
          [
            120.75258,
            24.60099
          ],
          [
            120.75255,
            24.60095
          ],
          [
            120.75252,
            24.60091
          ],
          [
            120.75249,
            24.60086
          ],
          [
            120.75246,
            24.6008
          ],
          [
            120.75243,
            24.60072
          ],
          [
            120.75243,
            24.60072
          ],
          [
            120.75242,
            24.6007
          ],
          [
            120.75242,
            24.60061
          ],
          [
            120.75242,
            24.60054
          ],
          [
            120.75242,
            24.60046
          ],
          [
            120.75243,
            24.6004
          ],
          [
            120.75244000000001,
            24.60035
          ],
          [
            120.75245,
            24.60032
          ],
          [
            120.75249,
            24.60022
          ],
          [
            120.75253,
            24.60014
          ],
          [
            120.75258,
            24.60006
          ],
          [
            120.7526,
            24.60002
          ],
          [
            120.75264,
            24.59996
          ],
          [
            120.75268,
            24.5999
          ],
          [
            120.7527,
            24.59988
          ],
          [
            120.75272,
            24.59981
          ],
          [
            120.75273,
            24.59974
          ],
          [
            120.75275,
            24.59966
          ],
          [
            120.75276,
            24.59949
          ],
          [
            120.75276,
            24.59935
          ],
          [
            120.75276,
            24.59917
          ],
          [
            120.75276,
            24.59874
          ],
          [
            120.75278,
            24.59865
          ],
          [
            120.75278,
            24.59865
          ],
          [
            120.75279,
            24.59863
          ],
          [
            120.75284,
            24.5985
          ],
          [
            120.75286,
            24.59845
          ],
          [
            120.75286,
            24.5984
          ],
          [
            120.75287,
            24.59836
          ],
          [
            120.75287,
            24.59829
          ],
          [
            120.75286,
            24.59823
          ],
          [
            120.75284,
            24.59815
          ],
          [
            120.75281,
            24.59808
          ],
          [
            120.75278,
            24.598
          ],
          [
            120.75272,
            24.59789
          ],
          [
            120.75267,
            24.59782
          ],
          [
            120.75241,
            24.59743
          ],
          [
            120.75229,
            24.59726
          ],
          [
            120.75221,
            24.5971
          ],
          [
            120.75213,
            24.59693
          ],
          [
            120.75205,
            24.59676
          ],
          [
            120.75201,
            24.59669
          ],
          [
            120.75201,
            24.59669
          ],
          [
            120.75192,
            24.59649
          ],
          [
            120.75186,
            24.59634
          ],
          [
            120.75181,
            24.59625
          ],
          [
            120.7518,
            24.59622
          ],
          [
            120.75163,
            24.59577
          ],
          [
            120.75153,
            24.59551
          ],
          [
            120.75151,
            24.59541
          ],
          [
            120.75149,
            24.59529
          ],
          [
            120.75145,
            24.59505
          ],
          [
            120.75145,
            24.59476
          ],
          [
            120.75145,
            24.59456
          ],
          [
            120.75144,
            24.59443
          ],
          [
            120.75144,
            24.59432
          ],
          [
            120.75143,
            24.59421
          ],
          [
            120.75141,
            24.59407
          ],
          [
            120.75139,
            24.59399
          ],
          [
            120.75137,
            24.5939
          ],
          [
            120.75132,
            24.59376
          ],
          [
            120.75125,
            24.59357
          ],
          [
            120.75119,
            24.59343
          ],
          [
            120.75119,
            24.59343
          ],
          [
            120.75088,
            24.59274
          ],
          [
            120.75079,
            24.59251
          ],
          [
            120.75074,
            24.59229
          ],
          [
            120.75073,
            24.59217
          ],
          [
            120.75073,
            24.59199
          ],
          [
            120.75089,
            24.59159
          ],
          [
            120.75113,
            24.59111
          ],
          [
            120.75145,
            24.59061
          ],
          [
            120.75153,
            24.59052
          ],
          [
            120.75153,
            24.59052
          ],
          [
            120.75168,
            24.59037
          ],
          [
            120.75201,
            24.59013
          ],
          [
            120.75224,
            24.58994
          ],
          [
            120.75233,
            24.58976
          ],
          [
            120.75235,
            24.58958
          ],
          [
            120.7524,
            24.58853
          ],
          [
            120.75227,
            24.58755
          ],
          [
            120.75227,
            24.58755
          ],
          [
            120.75223,
            24.58727
          ],
          [
            120.75221,
            24.58701
          ],
          [
            120.75228,
            24.58667
          ],
          [
            120.7524,
            24.58615
          ],
          [
            120.75252,
            24.58587
          ],
          [
            120.75273,
            24.58558
          ],
          [
            120.75307,
            24.58526
          ],
          [
            120.75345,
            24.58501
          ],
          [
            120.75378,
            24.58487
          ],
          [
            120.75392,
            24.58479
          ],
          [
            120.75403,
            24.58469
          ],
          [
            120.75423,
            24.58446
          ],
          [
            120.75431,
            24.5843
          ],
          [
            120.75442,
            24.58392
          ],
          [
            120.75449,
            24.58371
          ],
          [
            120.75456,
            24.58359
          ],
          [
            120.75482,
            24.58318
          ],
          [
            120.75486,
            24.58306
          ],
          [
            120.75492,
            24.58274
          ],
          [
            120.75506,
            24.5821
          ],
          [
            120.75508,
            24.58193
          ],
          [
            120.75508,
            24.58181
          ],
          [
            120.75506,
            24.58154
          ],
          [
            120.75501,
            24.58114
          ],
          [
            120.75501,
            24.58114
          ],
          [
            120.75497,
            24.58067
          ],
          [
            120.75498,
            24.58037
          ],
          [
            120.755,
            24.58028
          ],
          [
            120.75511,
            24.57998
          ],
          [
            120.75522,
            24.57968
          ],
          [
            120.75528,
            24.57932
          ],
          [
            120.75528,
            24.57932
          ],
          [
            120.75531,
            24.57915
          ],
          [
            120.75544,
            24.57884
          ],
          [
            120.7562,
            24.57757
          ],
          [
            120.75625,
            24.57742
          ],
          [
            120.75627,
            24.5773
          ],
          [
            120.75627,
            24.57614
          ],
          [
            120.75627,
            24.57614
          ],
          [
            120.75627,
            24.57517
          ],
          [
            120.75619,
            24.5746
          ],
          [
            120.7561,
            24.57371
          ],
          [
            120.75603,
            24.57339
          ],
          [
            120.75579,
            24.57242
          ],
          [
            120.75567,
            24.57201
          ],
          [
            120.75564,
            24.57183
          ],
          [
            120.75562,
            24.57144
          ],
          [
            120.75559,
            24.57092
          ],
          [
            120.75556,
            24.57084
          ],
          [
            120.75556,
            24.57084
          ],
          [
            120.75554,
            24.57079
          ],
          [
            120.75547,
            24.5707
          ],
          [
            120.75527,
            24.57051
          ],
          [
            120.75521,
            24.57043
          ],
          [
            120.75518,
            24.57036
          ],
          [
            120.75514,
            24.57027
          ],
          [
            120.75512,
            24.57022
          ],
          [
            120.7547,
            24.56894
          ],
          [
            120.75413,
            24.56711
          ],
          [
            120.75394,
            24.56654
          ],
          [
            120.75378,
            24.56605
          ],
          [
            120.75376,
            24.566
          ],
          [
            120.75376,
            24.566
          ],
          [
            120.75366,
            24.5657
          ],
          [
            120.7534,
            24.5649
          ],
          [
            120.75341,
            24.56454
          ],
          [
            120.75344,
            24.56409
          ],
          [
            120.75345,
            24.56395
          ],
          [
            120.75347,
            24.56385
          ],
          [
            120.75348,
            24.56381
          ],
          [
            120.75349,
            24.56377
          ],
          [
            120.75351,
            24.56374
          ],
          [
            120.75353,
            24.5637
          ],
          [
            120.75358,
            24.56361
          ],
          [
            120.75362,
            24.56352
          ],
          [
            120.75362,
            24.56352
          ],
          [
            120.75376,
            24.56317
          ],
          [
            120.75381,
            24.56304
          ],
          [
            120.75393,
            24.56278
          ],
          [
            120.75398,
            24.56261
          ],
          [
            120.754,
            24.56254
          ],
          [
            120.75406,
            24.5623
          ],
          [
            120.75408,
            24.56226
          ],
          [
            120.7541,
            24.56221
          ],
          [
            120.75416,
            24.56212
          ],
          [
            120.75422,
            24.56207
          ],
          [
            120.75429,
            24.56203
          ],
          [
            120.75449,
            24.56195
          ],
          [
            120.75461,
            24.56193
          ],
          [
            120.75469,
            24.56191
          ],
          [
            120.75502,
            24.56192
          ],
          [
            120.75513,
            24.56192
          ],
          [
            120.75524,
            24.5619
          ],
          [
            120.75533,
            24.56187
          ],
          [
            120.75539,
            24.56184
          ],
          [
            120.75545,
            24.56176
          ],
          [
            120.75568,
            24.56138
          ],
          [
            120.75569,
            24.56136
          ],
          [
            120.75607,
            24.56073
          ],
          [
            120.75608,
            24.56071
          ],
          [
            120.75622,
            24.56051
          ],
          [
            120.75625,
            24.56048
          ],
          [
            120.75628,
            24.56047
          ],
          [
            120.75631,
            24.56045
          ],
          [
            120.75636,
            24.56042
          ],
          [
            120.7564,
            24.56041
          ],
          [
            120.75643,
            24.56039
          ],
          [
            120.75681,
            24.56025
          ],
          [
            120.75691,
            24.56022
          ],
          [
            120.75699,
            24.56017
          ],
          [
            120.75716,
            24.56008
          ],
          [
            120.75732000000001,
            24.55997
          ],
          [
            120.75745,
            24.55985
          ],
          [
            120.75754,
            24.55974
          ],
          [
            120.75765,
            24.55945
          ],
          [
            120.75771,
            24.55924
          ],
          [
            120.75771,
            24.5591
          ],
          [
            120.7577,
            24.55898
          ],
          [
            120.7577,
            24.55898
          ],
          [
            120.7577,
            24.55889
          ],
          [
            120.75756,
            24.55841
          ],
          [
            120.7575,
            24.55813
          ],
          [
            120.75745,
            24.55785
          ],
          [
            120.75736,
            24.55721
          ],
          [
            120.75735,
            24.55719
          ]
        ]
      }
    },
    {
      "type": "Feature",
      "properties": {
        "feature_type": "route",
        "ref": "5667",
        "name": "5667（龍港）",
        "name_en": "5667 (龍港)",
        "color": "#0369a1",
        "direction": 1
      },
      "geometry": {
        "type": "LineString",
        "coordinates": [
          [
            120.75734,
            24.55717
          ],
          [
            120.75736,
            24.55721
          ],
          [
            120.75745,
            24.55785
          ],
          [
            120.7575,
            24.55813
          ],
          [
            120.75756,
            24.55841
          ],
          [
            120.7577,
            24.55889
          ],
          [
            120.7577,
            24.55889
          ],
          [
            120.75771,
            24.5591
          ],
          [
            120.75771,
            24.55924
          ],
          [
            120.75765,
            24.55945
          ],
          [
            120.75754,
            24.55974
          ],
          [
            120.75745,
            24.55985
          ],
          [
            120.75732000000001,
            24.55997
          ],
          [
            120.75716,
            24.56008
          ],
          [
            120.75699,
            24.56017
          ],
          [
            120.75691,
            24.56022
          ],
          [
            120.75681,
            24.56025
          ],
          [
            120.75643,
            24.56039
          ],
          [
            120.7564,
            24.56041
          ],
          [
            120.75636,
            24.56042
          ],
          [
            120.75631,
            24.56045
          ],
          [
            120.75628,
            24.56047
          ],
          [
            120.75625,
            24.56048
          ],
          [
            120.75622,
            24.56051
          ],
          [
            120.75608,
            24.56071
          ],
          [
            120.75607,
            24.56073
          ],
          [
            120.75569,
            24.56136
          ],
          [
            120.75568,
            24.56138
          ],
          [
            120.75545,
            24.56176
          ],
          [
            120.75539,
            24.56184
          ],
          [
            120.75533,
            24.56187
          ],
          [
            120.75524,
            24.5619
          ],
          [
            120.75513,
            24.56192
          ],
          [
            120.75502,
            24.56192
          ],
          [
            120.75469,
            24.56191
          ],
          [
            120.75461,
            24.56193
          ],
          [
            120.75449,
            24.56195
          ],
          [
            120.75429,
            24.56203
          ],
          [
            120.75422,
            24.56207
          ],
          [
            120.75416,
            24.56212
          ],
          [
            120.7541,
            24.56221
          ],
          [
            120.75408,
            24.56226
          ],
          [
            120.75406,
            24.5623
          ],
          [
            120.754,
            24.56254
          ],
          [
            120.75398,
            24.56261
          ],
          [
            120.75393,
            24.56278
          ],
          [
            120.75381,
            24.56304
          ],
          [
            120.75376,
            24.56317
          ],
          [
            120.75363,
            24.56348
          ],
          [
            120.75363,
            24.56348
          ],
          [
            120.75358,
            24.56361
          ],
          [
            120.75353,
            24.5637
          ],
          [
            120.75351,
            24.56374
          ],
          [
            120.75349,
            24.56377
          ],
          [
            120.75348,
            24.56381
          ],
          [
            120.75347,
            24.56385
          ],
          [
            120.75345,
            24.56395
          ],
          [
            120.75344,
            24.56409
          ],
          [
            120.75341,
            24.56454
          ],
          [
            120.7534,
            24.5649
          ],
          [
            120.75366,
            24.5657
          ],
          [
            120.75375,
            24.56595
          ],
          [
            120.75375,
            24.56595
          ],
          [
            120.75378,
            24.56605
          ],
          [
            120.75394,
            24.56654
          ],
          [
            120.75413,
            24.56711
          ],
          [
            120.7547,
            24.56894
          ],
          [
            120.75512,
            24.57022
          ],
          [
            120.75514,
            24.57027
          ],
          [
            120.75518,
            24.57036
          ],
          [
            120.75521,
            24.57043
          ],
          [
            120.75527,
            24.57051
          ],
          [
            120.75547,
            24.5707
          ],
          [
            120.75554,
            24.57079
          ],
          [
            120.75559,
            24.57092
          ],
          [
            120.75559,
            24.57092
          ],
          [
            120.7556,
            24.57099
          ],
          [
            120.75562,
            24.57144
          ],
          [
            120.75564,
            24.57183
          ],
          [
            120.75567,
            24.57201
          ],
          [
            120.75574,
            24.57225
          ],
          [
            120.75579,
            24.57242
          ],
          [
            120.75592,
            24.57293
          ],
          [
            120.75594,
            24.57304
          ],
          [
            120.75602,
            24.57331
          ],
          [
            120.75603,
            24.57339
          ],
          [
            120.75607,
            24.57355
          ],
          [
            120.75607,
            24.57356
          ],
          [
            120.7561,
            24.57369
          ],
          [
            120.7561,
            24.57371
          ],
          [
            120.75612,
            24.57385
          ],
          [
            120.75613,
            24.574
          ],
          [
            120.75615,
            24.57418
          ],
          [
            120.75619,
            24.5746
          ],
          [
            120.75623,
            24.57489
          ],
          [
            120.75627,
            24.57517
          ],
          [
            120.75628,
            24.57522
          ],
          [
            120.75627,
            24.57614
          ],
          [
            120.75627,
            24.57626
          ],
          [
            120.75627,
            24.57626
          ],
          [
            120.75627,
            24.57678
          ],
          [
            120.75627,
            24.57708
          ],
          [
            120.75627,
            24.57719
          ],
          [
            120.75627,
            24.5773
          ],
          [
            120.75626,
            24.57736
          ],
          [
            120.75625,
            24.57742
          ],
          [
            120.75623,
            24.5775
          ],
          [
            120.7562,
            24.57757
          ],
          [
            120.75616,
            24.57764
          ],
          [
            120.75604,
            24.57784
          ],
          [
            120.7556,
            24.57856
          ],
          [
            120.75544,
            24.57884
          ],
          [
            120.75533,
            24.57906
          ],
          [
            120.75531,
            24.57915
          ],
          [
            120.75528,
            24.57931
          ],
          [
            120.75528,
            24.57934
          ],
          [
            120.75528,
            24.57934
          ],
          [
            120.75526,
            24.57946
          ],
          [
            120.75522,
            24.57968
          ],
          [
            120.75516,
            24.57986
          ],
          [
            120.75511,
            24.57998
          ],
          [
            120.75507,
            24.58009
          ],
          [
            120.75502,
            24.58019
          ],
          [
            120.75501,
            24.58024
          ],
          [
            120.755,
            24.58028
          ],
          [
            120.75499,
            24.58033
          ],
          [
            120.75498,
            24.58037
          ],
          [
            120.75497,
            24.58043
          ],
          [
            120.75497,
            24.58067
          ],
          [
            120.75498,
            24.58081
          ],
          [
            120.75499,
            24.58095
          ],
          [
            120.755,
            24.58109
          ],
          [
            120.75501,
            24.58117
          ],
          [
            120.75501,
            24.58117
          ],
          [
            120.75501,
            24.5812
          ],
          [
            120.75504,
            24.58135
          ],
          [
            120.75506,
            24.58154
          ],
          [
            120.75509,
            24.58175
          ],
          [
            120.75508,
            24.58181
          ],
          [
            120.75508,
            24.58188
          ],
          [
            120.75508,
            24.58193
          ],
          [
            120.75508,
            24.58201
          ],
          [
            120.75506,
            24.5821
          ],
          [
            120.75499,
            24.58243
          ],
          [
            120.75492,
            24.58274
          ],
          [
            120.75488,
            24.58298
          ],
          [
            120.75486,
            24.58306
          ],
          [
            120.75484,
            24.58314
          ],
          [
            120.75482,
            24.58318
          ],
          [
            120.75479,
            24.58325
          ],
          [
            120.75472,
            24.58336
          ],
          [
            120.75463,
            24.58349
          ],
          [
            120.75456,
            24.58359
          ],
          [
            120.75452,
            24.58365
          ],
          [
            120.75449,
            24.58371
          ],
          [
            120.75446,
            24.58378
          ],
          [
            120.75442,
            24.58392
          ],
          [
            120.75438,
            24.58409
          ],
          [
            120.75436,
            24.58418
          ],
          [
            120.75434,
            24.58424
          ],
          [
            120.75431,
            24.5843
          ],
          [
            120.75428,
            24.58438
          ],
          [
            120.75423,
            24.58446
          ],
          [
            120.75417,
            24.58454
          ],
          [
            120.75403,
            24.58469
          ],
          [
            120.75398,
            24.58474
          ],
          [
            120.75392,
            24.58479
          ],
          [
            120.75386,
            24.58483
          ],
          [
            120.75378,
            24.58487
          ],
          [
            120.75365,
            24.58492
          ],
          [
            120.75357,
            24.58496
          ],
          [
            120.75347,
            24.585
          ],
          [
            120.75345,
            24.58501
          ],
          [
            120.75336,
            24.58507
          ],
          [
            120.75329,
            24.58512
          ],
          [
            120.75316,
            24.5852
          ],
          [
            120.75307,
            24.58526
          ],
          [
            120.75287,
            24.58543
          ],
          [
            120.75273,
            24.58558
          ],
          [
            120.7526,
            24.58575
          ],
          [
            120.75252,
            24.58587
          ],
          [
            120.75246,
            24.58598
          ],
          [
            120.75245,
            24.58599
          ],
          [
            120.75243,
            24.58606
          ],
          [
            120.7524,
            24.58615
          ],
          [
            120.75236,
            24.58626
          ],
          [
            120.75228,
            24.58667
          ],
          [
            120.75223,
            24.58687
          ],
          [
            120.75221,
            24.58701
          ],
          [
            120.75221,
            24.58712
          ],
          [
            120.75223,
            24.58727
          ],
          [
            120.75225,
            24.58741
          ],
          [
            120.75226,
            24.58748
          ],
          [
            120.75226,
            24.58748
          ],
          [
            120.75236,
            24.58813
          ],
          [
            120.7524,
            24.58853
          ],
          [
            120.7524,
            24.58879
          ],
          [
            120.75235,
            24.58958
          ],
          [
            120.75234,
            24.58968
          ],
          [
            120.75233,
            24.58976
          ],
          [
            120.75232,
            24.58982
          ],
          [
            120.7523,
            24.58987
          ],
          [
            120.75227,
            24.58991
          ],
          [
            120.75224,
            24.58994
          ],
          [
            120.75221,
            24.58998
          ],
          [
            120.75215,
            24.59003
          ],
          [
            120.75207,
            24.59009
          ],
          [
            120.75201,
            24.59013
          ],
          [
            120.75177,
            24.59029
          ],
          [
            120.75168,
            24.59037
          ],
          [
            120.75155,
            24.59049
          ],
          [
            120.7515,
            24.59056
          ],
          [
            120.7515,
            24.59056
          ],
          [
            120.75145,
            24.59061
          ],
          [
            120.75139,
            24.59069
          ],
          [
            120.75132,
            24.59079
          ],
          [
            120.75117,
            24.59104
          ],
          [
            120.75113,
            24.59111
          ],
          [
            120.75109,
            24.5912
          ],
          [
            120.75089,
            24.59159
          ],
          [
            120.75075,
            24.59191
          ],
          [
            120.75073,
            24.59199
          ],
          [
            120.75072,
            24.59207
          ],
          [
            120.75073,
            24.59217
          ],
          [
            120.75073,
            24.59221
          ],
          [
            120.75074,
            24.59229
          ],
          [
            120.75077,
            24.59241
          ],
          [
            120.75079,
            24.59251
          ],
          [
            120.75083,
            24.59263
          ],
          [
            120.75088,
            24.59274
          ],
          [
            120.75095,
            24.5929
          ],
          [
            120.751,
            24.59301
          ],
          [
            120.75116,
            24.59336
          ],
          [
            120.75125,
            24.59357
          ],
          [
            120.75129,
            24.59368
          ],
          [
            120.75129,
            24.59368
          ],
          [
            120.75132,
            24.59376
          ],
          [
            120.75137,
            24.5939
          ],
          [
            120.75139,
            24.59399
          ],
          [
            120.75141,
            24.59407
          ],
          [
            120.75143,
            24.59421
          ],
          [
            120.75144,
            24.59432
          ],
          [
            120.75144,
            24.59443
          ],
          [
            120.75145,
            24.59456
          ],
          [
            120.75145,
            24.59476
          ],
          [
            120.75145,
            24.59505
          ],
          [
            120.75149,
            24.59529
          ],
          [
            120.75151,
            24.59541
          ],
          [
            120.75153,
            24.59551
          ],
          [
            120.75163,
            24.59577
          ],
          [
            120.7518,
            24.59622
          ],
          [
            120.75181,
            24.59625
          ],
          [
            120.75186,
            24.59634
          ],
          [
            120.75192,
            24.59649
          ],
          [
            120.75198,
            24.59663
          ],
          [
            120.75198,
            24.59663
          ],
          [
            120.75205,
            24.59676
          ],
          [
            120.75213,
            24.59693
          ],
          [
            120.75221,
            24.5971
          ],
          [
            120.75229,
            24.59726
          ],
          [
            120.75241,
            24.59743
          ],
          [
            120.75267,
            24.59782
          ],
          [
            120.75272,
            24.59789
          ],
          [
            120.75278,
            24.598
          ],
          [
            120.75281,
            24.59808
          ],
          [
            120.75284,
            24.59815
          ],
          [
            120.75286,
            24.59823
          ],
          [
            120.75286,
            24.59826
          ],
          [
            120.75286,
            24.59826
          ],
          [
            120.75287,
            24.59829
          ],
          [
            120.75287,
            24.59836
          ],
          [
            120.75286,
            24.5984
          ],
          [
            120.75286,
            24.59845
          ],
          [
            120.75284,
            24.5985
          ],
          [
            120.75279,
            24.59863
          ],
          [
            120.75276,
            24.59874
          ],
          [
            120.75276,
            24.59917
          ],
          [
            120.75276,
            24.59935
          ],
          [
            120.75276,
            24.59949
          ],
          [
            120.75275,
            24.59966
          ],
          [
            120.75273,
            24.59974
          ],
          [
            120.75272,
            24.59981
          ],
          [
            120.7527,
            24.59988
          ],
          [
            120.75268,
            24.5999
          ],
          [
            120.75264,
            24.59996
          ],
          [
            120.7526,
            24.60002
          ],
          [
            120.75258,
            24.60006
          ],
          [
            120.75253,
            24.60014
          ],
          [
            120.75249,
            24.60022
          ],
          [
            120.75245,
            24.60032
          ],
          [
            120.75244000000001,
            24.60035
          ],
          [
            120.75243,
            24.6004
          ],
          [
            120.75242,
            24.60046
          ],
          [
            120.75242,
            24.60054
          ],
          [
            120.75242,
            24.60061
          ],
          [
            120.75242,
            24.6007
          ],
          [
            120.75242,
            24.6007
          ],
          [
            120.75246,
            24.6008
          ],
          [
            120.75249,
            24.60086
          ],
          [
            120.75252,
            24.60091
          ],
          [
            120.75255,
            24.60095
          ],
          [
            120.75258,
            24.60099
          ],
          [
            120.75263,
            24.60104
          ],
          [
            120.7527,
            24.60109
          ],
          [
            120.75277,
            24.60112
          ],
          [
            120.75287,
            24.60116
          ],
          [
            120.75305,
            24.60119
          ],
          [
            120.7533,
            24.60121
          ],
          [
            120.75353,
            24.60123
          ],
          [
            120.75354,
            24.60123
          ],
          [
            120.75373,
            24.60125
          ],
          [
            120.75388,
            24.60129
          ],
          [
            120.75402,
            24.60134
          ],
          [
            120.75412,
            24.60139
          ],
          [
            120.75418,
            24.60143
          ],
          [
            120.75427,
            24.6015
          ],
          [
            120.75431,
            24.60155
          ],
          [
            120.75436,
            24.60163
          ],
          [
            120.7544,
            24.60171
          ],
          [
            120.75442,
            24.60182
          ],
          [
            120.75445,
            24.60195
          ],
          [
            120.75447,
            24.60203
          ],
          [
            120.75449,
            24.60207
          ],
          [
            120.7545,
            24.60211
          ],
          [
            120.75452,
            24.60214
          ],
          [
            120.75454,
            24.60216
          ],
          [
            120.75457,
            24.60219
          ],
          [
            120.75459,
            24.60221
          ],
          [
            120.75466,
            24.60225
          ],
          [
            120.75476,
            24.60232
          ],
          [
            120.75482,
            24.60237
          ],
          [
            120.75525,
            24.6027
          ],
          [
            120.75532,
            24.60274
          ],
          [
            120.75532,
            24.60274
          ],
          [
            120.75538,
            24.60279
          ],
          [
            120.75567,
            24.60301
          ],
          [
            120.75568,
            24.60301
          ],
          [
            120.75579,
            24.60309
          ],
          [
            120.75584,
            24.60312
          ],
          [
            120.75585,
            24.60313
          ],
          [
            120.75591,
            24.60317
          ],
          [
            120.7561,
            24.60327
          ],
          [
            120.75695,
            24.60374
          ],
          [
            120.75717,
            24.60387
          ],
          [
            120.75739,
            24.60401
          ],
          [
            120.75747,
            24.60407
          ],
          [
            120.75754,
            24.60412
          ],
          [
            120.75763,
            24.60418
          ],
          [
            120.75766,
            24.60421
          ],
          [
            120.75772,
            24.60425
          ],
          [
            120.75778,
            24.6043
          ],
          [
            120.75793,
            24.60442
          ],
          [
            120.75807,
            24.60459
          ],
          [
            120.75816,
            24.60471
          ],
          [
            120.7582,
            24.60479
          ],
          [
            120.75827,
            24.60491
          ],
          [
            120.75835,
            24.60509
          ],
          [
            120.75837,
            24.6052
          ],
          [
            120.75838,
            24.6053
          ],
          [
            120.75838,
            24.60539
          ],
          [
            120.75838,
            24.60549
          ],
          [
            120.75838,
            24.60549
          ],
          [
            120.75838,
            24.60551
          ],
          [
            120.75836,
            24.60561
          ],
          [
            120.75834,
            24.60572
          ],
          [
            120.75835,
            24.60579
          ],
          [
            120.75836,
            24.60582
          ],
          [
            120.75837,
            24.60584
          ],
          [
            120.75838,
            24.60587
          ],
          [
            120.7584,
            24.6059
          ],
          [
            120.75843,
            24.60592
          ],
          [
            120.75846,
            24.60595
          ],
          [
            120.75849,
            24.60597
          ],
          [
            120.75853,
            24.606
          ],
          [
            120.75878,
            24.6061
          ],
          [
            120.75909,
            24.60622
          ],
          [
            120.75942,
            24.60634
          ],
          [
            120.75969,
            24.60644
          ],
          [
            120.75978,
            24.60647
          ],
          [
            120.75984,
            24.6065
          ],
          [
            120.75989,
            24.60653
          ],
          [
            120.75994,
            24.60656
          ],
          [
            120.75999,
            24.60659
          ],
          [
            120.76003,
            24.60662
          ],
          [
            120.76006,
            24.60665
          ],
          [
            120.76009,
            24.60669
          ],
          [
            120.76012,
            24.60673
          ],
          [
            120.76016,
            24.60679
          ],
          [
            120.76032,
            24.60704
          ],
          [
            120.76042,
            24.60719
          ],
          [
            120.76053,
            24.60737
          ],
          [
            120.76062,
            24.6075
          ],
          [
            120.76074,
            24.60766
          ],
          [
            120.76084,
            24.6078
          ],
          [
            120.76131,
            24.60849
          ],
          [
            120.76139,
            24.60861
          ],
          [
            120.76145,
            24.60873
          ],
          [
            120.76149,
            24.60881
          ],
          [
            120.7615,
            24.60885
          ],
          [
            120.76151,
            24.60888
          ],
          [
            120.76152,
            24.60892
          ],
          [
            120.76153,
            24.60896
          ],
          [
            120.76153,
            24.609
          ],
          [
            120.76153,
            24.60903
          ],
          [
            120.76152,
            24.60909
          ],
          [
            120.76151,
            24.60925
          ],
          [
            120.76147,
            24.60935
          ],
          [
            120.76147,
            24.60935
          ],
          [
            120.76144,
            24.60942
          ],
          [
            120.76143,
            24.60943
          ],
          [
            120.76136,
            24.60963
          ],
          [
            120.76131,
            24.60974
          ],
          [
            120.76124,
            24.60989
          ],
          [
            120.76115,
            24.61007
          ],
          [
            120.7611,
            24.61017
          ],
          [
            120.76108,
            24.61023
          ],
          [
            120.76104,
            24.6103
          ],
          [
            120.76096,
            24.61041
          ],
          [
            120.76092,
            24.61048
          ],
          [
            120.76085,
            24.61055
          ],
          [
            120.76076,
            24.61063
          ],
          [
            120.7606,
            24.61074
          ],
          [
            120.76057,
            24.61076
          ],
          [
            120.76049,
            24.61081
          ],
          [
            120.76049,
            24.61081
          ],
          [
            120.76048,
            24.61082
          ],
          [
            120.76045,
            24.61085
          ],
          [
            120.76044,
            24.61086
          ],
          [
            120.76041,
            24.61086
          ],
          [
            120.76039,
            24.61087
          ],
          [
            120.76037,
            24.61087
          ],
          [
            120.76035,
            24.61088
          ],
          [
            120.76032,
            24.61088
          ],
          [
            120.76033,
            24.61096
          ],
          [
            120.76034,
            24.61099
          ],
          [
            120.76036,
            24.61108
          ],
          [
            120.76048,
            24.6112
          ],
          [
            120.76051,
            24.61124
          ],
          [
            120.76055,
            24.61127
          ],
          [
            120.76067,
            24.61135
          ],
          [
            120.76122,
            24.61133
          ],
          [
            120.76138,
            24.61132
          ],
          [
            120.76153,
            24.61132
          ],
          [
            120.76154,
            24.61131
          ],
          [
            120.7617,
            24.6113
          ],
          [
            120.76184,
            24.61128
          ],
          [
            120.762,
            24.61125
          ],
          [
            120.76219,
            24.61119
          ],
          [
            120.76238,
            24.61114
          ],
          [
            120.76249,
            24.6111
          ],
          [
            120.76276,
            24.61103
          ],
          [
            120.76302,
            24.61094
          ],
          [
            120.76305,
            24.61093
          ],
          [
            120.76305,
            24.61093
          ],
          [
            120.76349,
            24.61071
          ],
          [
            120.76372,
            24.61057
          ],
          [
            120.7642,
            24.61025
          ],
          [
            120.76478,
            24.6098
          ],
          [
            120.76532,
            24.60927
          ],
          [
            120.76618,
            24.60839
          ],
          [
            120.76652,
            24.60804
          ],
          [
            120.76695,
            24.60766
          ],
          [
            120.76742,
            24.60734
          ],
          [
            120.76797,
            24.60703
          ],
          [
            120.76859,
            24.60672
          ],
          [
            120.769,
            24.60657
          ],
          [
            120.76939,
            24.60647
          ],
          [
            120.77039,
            24.6063
          ],
          [
            120.77099,
            24.60618
          ],
          [
            120.77137,
            24.60605
          ],
          [
            120.77137,
            24.60605
          ],
          [
            120.77157,
            24.60597
          ],
          [
            120.77228,
            24.6056
          ],
          [
            120.77276,
            24.60536
          ],
          [
            120.77308,
            24.60521
          ],
          [
            120.77339,
            24.60509
          ],
          [
            120.77364,
            24.60502
          ],
          [
            120.77382,
            24.60497
          ],
          [
            120.77403,
            24.60492
          ],
          [
            120.77403,
            24.60489
          ],
          [
            120.77404,
            24.60487
          ],
          [
            120.77405,
            24.60482
          ],
          [
            120.77407,
            24.60478
          ],
          [
            120.7741,
            24.60474
          ],
          [
            120.77419,
            24.60465
          ],
          [
            120.77461,
            24.60427
          ],
          [
            120.77474,
            24.60415
          ],
          [
            120.77478,
            24.60411
          ],
          [
            120.77484,
            24.60407
          ],
          [
            120.77494,
            24.60401
          ],
          [
            120.775,
            24.60398
          ],
          [
            120.77505,
            24.60395
          ],
          [
            120.77506,
            24.60394
          ],
          [
            120.77516,
            24.6039
          ],
          [
            120.77528,
            24.60385
          ],
          [
            120.77531,
            24.60384
          ],
          [
            120.77533,
            24.60383
          ],
          [
            120.77544,
            24.60379
          ],
          [
            120.77553,
            24.60377
          ],
          [
            120.77554,
            24.60377
          ],
          [
            120.77564,
            24.60375
          ],
          [
            120.77582,
            24.60373
          ],
          [
            120.77602,
            24.6037
          ],
          [
            120.77621,
            24.60367
          ],
          [
            120.77636,
            24.60365
          ],
          [
            120.77649,
            24.60363
          ],
          [
            120.77652,
            24.60362
          ],
          [
            120.77655,
            24.60362
          ],
          [
            120.77658,
            24.60362
          ],
          [
            120.77661,
            24.60362
          ],
          [
            120.77665,
            24.60362
          ],
          [
            120.77683,
            24.60364
          ],
          [
            120.77766,
            24.60314
          ],
          [
            120.77777,
            24.60307
          ],
          [
            120.77896,
            24.60237
          ],
          [
            120.77957,
            24.60198
          ],
          [
            120.77968,
            24.60192
          ],
          [
            120.77991,
            24.60219
          ],
          [
            120.77991,
            24.60219
          ],
          [
            120.78051,
            24.60293
          ],
          [
            120.78052,
            24.60294
          ],
          [
            120.78138,
            24.60403
          ],
          [
            120.7814,
            24.60406
          ],
          [
            120.7816,
            24.60432
          ],
          [
            120.78172,
            24.60447
          ],
          [
            120.78193,
            24.60474
          ],
          [
            120.78205,
            24.60489
          ],
          [
            120.78212,
            24.60499
          ],
          [
            120.78212,
            24.60499
          ],
          [
            120.78219,
            24.60507
          ],
          [
            120.78299,
            24.60599
          ],
          [
            120.78316,
            24.60622
          ],
          [
            120.78332,
            24.60649
          ],
          [
            120.78333,
            24.60651
          ],
          [
            120.78343,
            24.6067
          ],
          [
            120.78359,
            24.60705
          ],
          [
            120.78366,
            24.60721
          ],
          [
            120.78372,
            24.60737
          ],
          [
            120.78373,
            24.60738
          ],
          [
            120.78379,
            24.60755
          ],
          [
            120.78382,
            24.60765
          ],
          [
            120.78388,
            24.60797
          ],
          [
            120.78399,
            24.60849
          ],
          [
            120.78413,
            24.60926
          ],
          [
            120.78416,
            24.60943
          ],
          [
            120.78429,
            24.61013
          ],
          [
            120.7843,
            24.6102
          ],
          [
            120.78433,
            24.61024
          ],
          [
            120.78437,
            24.61032
          ],
          [
            120.78439,
            24.61035
          ],
          [
            120.78439,
            24.61036
          ],
          [
            120.78444,
            24.61043
          ],
          [
            120.78448,
            24.61049
          ],
          [
            120.78449,
            24.6105
          ],
          [
            120.78454,
            24.61055
          ],
          [
            120.7846,
            24.61061
          ],
          [
            120.78462,
            24.61063
          ],
          [
            120.78462,
            24.61064
          ],
          [
            120.78467,
            24.61067
          ],
          [
            120.7847,
            24.61069
          ],
          [
            120.78492,
            24.6108
          ],
          [
            120.78486,
            24.61092
          ],
          [
            120.78474,
            24.61109
          ],
          [
            120.7847,
            24.61116
          ],
          [
            120.78465,
            24.61122
          ],
          [
            120.78465,
            24.61123
          ],
          [
            120.78462,
            24.61129
          ],
          [
            120.7846,
            24.61132
          ],
          [
            120.78453,
            24.61149
          ],
          [
            120.78469,
            24.61208
          ],
          [
            120.78475,
            24.6123
          ],
          [
            120.78479,
            24.61242
          ],
          [
            120.78486,
            24.61265
          ],
          [
            120.78493,
            24.61284
          ],
          [
            120.785,
            24.613
          ],
          [
            120.78507,
            24.61314
          ],
          [
            120.78516,
            24.61328
          ],
          [
            120.78523,
            24.61338
          ],
          [
            120.78533,
            24.61352
          ],
          [
            120.78538,
            24.61359
          ],
          [
            120.78538,
            24.61359
          ],
          [
            120.78545,
            24.61369
          ],
          [
            120.78567,
            24.61399
          ],
          [
            120.78583,
            24.61421
          ],
          [
            120.78596,
            24.61433
          ],
          [
            120.78606,
            24.61443
          ],
          [
            120.78622,
            24.61455
          ],
          [
            120.78636,
            24.61465
          ],
          [
            120.78648,
            24.61473
          ],
          [
            120.78692,
            24.61505
          ],
          [
            120.78716,
            24.61524
          ]
        ]
      }
    },
    {
      "type": "Feature",
      "properties": {
        "feature_type": "station",
        "ref": "THB127293",
        "name": "後龍",
        "name_en": "Houlong",
        "line": "5667（龍港）",
        "color": "#0369a1",
        "direction": 0
      },
      "geometry": {
        "type": "Point",
        "coordinates": [
          120.7872467,
          24.61535194
        ]
      }
    },
    {
      "type": "Feature",
      "properties": {
        "feature_type": "station",
        "ref": "THB103040",
        "name": "中南街",
        "name_en": "Zhongnan St.",
        "line": "5667（龍港）",
        "color": "#0369a1",
        "direction": 0
      },
      "geometry": {
        "type": "Point",
        "coordinates": [
          120.78543,
          24.61368
        ]
      }
    },
    {
      "type": "Feature",
      "properties": {
        "feature_type": "station",
        "ref": "THB127295",
        "name": "大橋頭",
        "name_en": "Daqiaotou",
        "line": "5667（龍港）",
        "color": "#0369a1",
        "direction": 0
      },
      "geometry": {
        "type": "Point",
        "coordinates": [
          120.7819941,
          24.60510512
        ]
      }
    },
    {
      "type": "Feature",
      "properties": {
        "feature_type": "station",
        "ref": "THB275635",
        "name": "十班坑",
        "name_en": "Shibankeng",
        "line": "5667（龍港）",
        "color": "#0369a1",
        "direction": 0
      },
      "geometry": {
        "type": "Point",
        "coordinates": [
          120.780013,
          24.602125
        ]
      }
    },
    {
      "type": "Feature",
      "properties": {
        "feature_type": "station",
        "ref": "THB103066",
        "name": "南社",
        "name_en": "Nanshe",
        "line": "5667（龍港）",
        "color": "#0369a1",
        "direction": 0
      },
      "geometry": {
        "type": "Point",
        "coordinates": [
          120.77528,
          24.6039
        ]
      }
    },
    {
      "type": "Feature",
      "properties": {
        "feature_type": "station",
        "ref": "THB127297",
        "name": "南龍",
        "name_en": "Nanlong",
        "line": "5667（龍港）",
        "color": "#0369a1",
        "direction": 0
      },
      "geometry": {
        "type": "Point",
        "coordinates": [
          120.7715,
          24.60613
        ]
      }
    },
    {
      "type": "Feature",
      "properties": {
        "feature_type": "station",
        "ref": "THB103068",
        "name": "同興",
        "name_en": "Tongxing",
        "line": "5667（龍港）",
        "color": "#0369a1",
        "direction": 0
      },
      "geometry": {
        "type": "Point",
        "coordinates": [
          120.76267,
          24.61117
        ]
      }
    },
    {
      "type": "Feature",
      "properties": {
        "feature_type": "station",
        "ref": "THB127298",
        "name": "龍港",
        "name_en": "Longgang",
        "line": "5667（龍港）",
        "color": "#0369a1",
        "direction": 0
      },
      "geometry": {
        "type": "Point",
        "coordinates": [
          120.76005,
          24.61136
        ]
      }
    },
    {
      "type": "Feature",
      "properties": {
        "feature_type": "station",
        "ref": "THB127299",
        "name": "同光國小",
        "name_en": "Tongguang Elementary School",
        "line": "5667（龍港）",
        "color": "#0369a1",
        "direction": 0
      },
      "geometry": {
        "type": "Point",
        "coordinates": [
          120.76137,
          24.60943
        ]
      }
    },
    {
      "type": "Feature",
      "properties": {
        "feature_type": "station",
        "ref": "THB127300",
        "name": "獅尾",
        "name_en": "Shiwei",
        "line": "5667（龍港）",
        "color": "#0369a1",
        "direction": 0
      },
      "geometry": {
        "type": "Point",
        "coordinates": [
          120.7583,
          24.60548
        ]
      }
    },
    {
      "type": "Feature",
      "properties": {
        "feature_type": "station",
        "ref": "THB127301",
        "name": "芭樂埔",
        "name_en": "Balepu",
        "line": "5667（龍港）",
        "color": "#0369a1",
        "direction": 0
      },
      "geometry": {
        "type": "Point",
        "coordinates": [
          120.75514,
          24.60274
        ]
      }
    },
    {
      "type": "Feature",
      "properties": {
        "feature_type": "station",
        "ref": "THB127302",
        "name": "下庄",
        "name_en": "Xiazhuang",
        "line": "5667（龍港）",
        "color": "#0369a1",
        "direction": 0
      },
      "geometry": {
        "type": "Point",
        "coordinates": [
          120.75237,
          24.60074
        ]
      }
    },
    {
      "type": "Feature",
      "properties": {
        "feature_type": "station",
        "ref": "THB127303",
        "name": "福寧宮",
        "name_en": "Funing Temple",
        "line": "5667（龍港）",
        "color": "#0369a1",
        "direction": 0
      },
      "geometry": {
        "type": "Point",
        "coordinates": [
          120.75272,
          24.59865
        ]
      }
    },
    {
      "type": "Feature",
      "properties": {
        "feature_type": "station",
        "ref": "THB127304",
        "name": "上店",
        "name_en": "Shangdian",
        "line": "5667（龍港）",
        "color": "#0369a1",
        "direction": 0
      },
      "geometry": {
        "type": "Point",
        "coordinates": [
          120.75197,
          24.59678
        ]
      }
    },
    {
      "type": "Feature",
      "properties": {
        "feature_type": "station",
        "ref": "THB127305",
        "name": "林厝",
        "name_en": "Lincuo",
        "line": "5667（龍港）",
        "color": "#0369a1",
        "direction": 0
      },
      "geometry": {
        "type": "Point",
        "coordinates": [
          120.75114,
          24.59345
        ]
      }
    },
    {
      "type": "Feature",
      "properties": {
        "feature_type": "station",
        "ref": "THB127306",
        "name": "黃厝",
        "name_en": "Huangcuo",
        "line": "5667（龍港）",
        "color": "#0369a1",
        "direction": 0
      },
      "geometry": {
        "type": "Point",
        "coordinates": [
          120.75151,
          24.59051
        ]
      }
    },
    {
      "type": "Feature",
      "properties": {
        "feature_type": "station",
        "ref": "THB127307",
        "name": "趙屋",
        "name_en": "Zhaowu",
        "line": "5667（龍港）",
        "color": "#0369a1",
        "direction": 0
      },
      "geometry": {
        "type": "Point",
        "coordinates": [
          120.75223,
          24.58756
        ]
      }
    },
    {
      "type": "Feature",
      "properties": {
        "feature_type": "station",
        "ref": "THB127308",
        "name": "彭屋前",
        "name_en": "Pengwuqian",
        "line": "5667（龍港）",
        "color": "#0369a1",
        "direction": 0
      },
      "geometry": {
        "type": "Point",
        "coordinates": [
          120.75496,
          24.58114
        ]
      }
    },
    {
      "type": "Feature",
      "properties": {
        "feature_type": "station",
        "ref": "THB127309",
        "name": "二湖",
        "name_en": "Erhu",
        "line": "5667（龍港）",
        "color": "#0369a1",
        "direction": 0
      },
      "geometry": {
        "type": "Point",
        "coordinates": [
          120.7552259,
          24.57933122
        ]
      }
    },
    {
      "type": "Feature",
      "properties": {
        "feature_type": "station",
        "ref": "THB127310",
        "name": "吳屋",
        "name_en": "Wuwu",
        "line": "5667（龍港）",
        "color": "#0369a1",
        "direction": 0
      },
      "geometry": {
        "type": "Point",
        "coordinates": [
          120.75621,
          24.57613
        ]
      }
    },
    {
      "type": "Feature",
      "properties": {
        "feature_type": "station",
        "ref": "THB127311",
        "name": "營盤下",
        "name_en": "Yingpanxia",
        "line": "5667（龍港）",
        "color": "#0369a1",
        "direction": 0
      },
      "geometry": {
        "type": "Point",
        "coordinates": [
          120.75549,
          24.57086
        ]
      }
    },
    {
      "type": "Feature",
      "properties": {
        "feature_type": "station",
        "ref": "THB127312",
        "name": "宋屋",
        "name_en": "Songwu",
        "line": "5667（龍港）",
        "color": "#0369a1",
        "direction": 0
      },
      "geometry": {
        "type": "Point",
        "coordinates": [
          120.75372,
          24.56607
        ]
      }
    },
    {
      "type": "Feature",
      "properties": {
        "feature_type": "station",
        "ref": "THB127313",
        "name": "湖東",
        "name_en": "Hudong",
        "line": "5667（龍港）",
        "color": "#0369a1",
        "direction": 0
      },
      "geometry": {
        "type": "Point",
        "coordinates": [
          120.75356,
          24.56358
        ]
      }
    },
    {
      "type": "Feature",
      "properties": {
        "feature_type": "station",
        "ref": "THB236440",
        "name": "西湖圖書館",
        "name_en": "Xihu Township Library",
        "line": "5667（龍港）",
        "color": "#0369a1",
        "direction": 0
      },
      "geometry": {
        "type": "Point",
        "coordinates": [
          120.757592695908,
          24.5589245469514
        ]
      }
    },
    {
      "type": "Feature",
      "properties": {
        "feature_type": "station",
        "ref": "THB127315",
        "name": "三湖",
        "name_en": "Sanhu",
        "line": "5667（龍港）",
        "color": "#0369a1",
        "direction": 0
      },
      "geometry": {
        "type": "Point",
        "coordinates": [
          120.757219267705,
          24.557228530025
        ]
      }
    },
    {
      "type": "Feature",
      "properties": {
        "feature_type": "station",
        "ref": "THB275640",
        "name": "三湖",
        "name_en": "Sanhu",
        "line": "5667（龍港）",
        "color": "#0369a1",
        "direction": 1
      },
      "geometry": {
        "type": "Point",
        "coordinates": [
          120.7573997,
          24.55714951
        ]
      }
    },
    {
      "type": "Feature",
      "properties": {
        "feature_type": "station",
        "ref": "THB236408",
        "name": "西湖圖書館",
        "name_en": "Xihu Township Library",
        "line": "5667（龍港）",
        "color": "#0369a1",
        "direction": 1
      },
      "geometry": {
        "type": "Point",
        "coordinates": [
          120.75774,
          24.55891
        ]
      }
    },
    {
      "type": "Feature",
      "properties": {
        "feature_type": "station",
        "ref": "THB127317",
        "name": "湖東",
        "name_en": "Hudong",
        "line": "5667（龍港）",
        "color": "#0369a1",
        "direction": 1
      },
      "geometry": {
        "type": "Point",
        "coordinates": [
          120.75363,
          24.56357
        ]
      }
    },
    {
      "type": "Feature",
      "properties": {
        "feature_type": "station",
        "ref": "THB127318",
        "name": "宋屋",
        "name_en": "Songwu",
        "line": "5667（龍港）",
        "color": "#0369a1",
        "direction": 1
      },
      "geometry": {
        "type": "Point",
        "coordinates": [
          120.75376,
          24.56598
        ]
      }
    },
    {
      "type": "Feature",
      "properties": {
        "feature_type": "station",
        "ref": "THB127319",
        "name": "營盤下",
        "name_en": "Yingpanxia",
        "line": "5667（龍港）",
        "color": "#0369a1",
        "direction": 1
      },
      "geometry": {
        "type": "Point",
        "coordinates": [
          120.7556322,
          24.57089316
        ]
      }
    },
    {
      "type": "Feature",
      "properties": {
        "feature_type": "station",
        "ref": "THB127320",
        "name": "吳屋",
        "name_en": "Wuwu",
        "line": "5667（龍港）",
        "color": "#0369a1",
        "direction": 1
      },
      "geometry": {
        "type": "Point",
        "coordinates": [
          120.7563223,
          24.57626731
        ]
      }
    },
    {
      "type": "Feature",
      "properties": {
        "feature_type": "station",
        "ref": "THB275639",
        "name": "二湖",
        "name_en": "Erhu",
        "line": "5667（龍港）",
        "color": "#0369a1",
        "direction": 1
      },
      "geometry": {
        "type": "Point",
        "coordinates": [
          120.7553309,
          24.57934834
        ]
      }
    },
    {
      "type": "Feature",
      "properties": {
        "feature_type": "station",
        "ref": "THB127322",
        "name": "彭屋前",
        "name_en": "Pengwuqian",
        "line": "5667（龍港）",
        "color": "#0369a1",
        "direction": 1
      },
      "geometry": {
        "type": "Point",
        "coordinates": [
          120.7550516,
          24.58117402
        ]
      }
    },
    {
      "type": "Feature",
      "properties": {
        "feature_type": "station",
        "ref": "THB127323",
        "name": "趙屋",
        "name_en": "Zhaowu",
        "line": "5667（龍港）",
        "color": "#0369a1",
        "direction": 1
      },
      "geometry": {
        "type": "Point",
        "coordinates": [
          120.75229,
          24.58744
        ]
      }
    },
    {
      "type": "Feature",
      "properties": {
        "feature_type": "station",
        "ref": "THB127324",
        "name": "黃厝",
        "name_en": "Huangcuo",
        "line": "5667（龍港）",
        "color": "#0369a1",
        "direction": 1
      },
      "geometry": {
        "type": "Point",
        "coordinates": [
          120.7515,
          24.59056
        ]
      }
    },
    {
      "type": "Feature",
      "properties": {
        "feature_type": "station",
        "ref": "THB127325",
        "name": "林厝",
        "name_en": "Lincuo",
        "line": "5667（龍港）",
        "color": "#0369a1",
        "direction": 1
      },
      "geometry": {
        "type": "Point",
        "coordinates": [
          120.7513276,
          24.59367609
        ]
      }
    },
    {
      "type": "Feature",
      "properties": {
        "feature_type": "station",
        "ref": "THB127326",
        "name": "上店",
        "name_en": "Shangdian",
        "line": "5667（龍港）",
        "color": "#0369a1",
        "direction": 1
      },
      "geometry": {
        "type": "Point",
        "coordinates": [
          120.7520269,
          24.59660708
        ]
      }
    },
    {
      "type": "Feature",
      "properties": {
        "feature_type": "station",
        "ref": "THB127327",
        "name": "福寧宮",
        "name_en": "Funing Temple",
        "line": "5667（龍港）",
        "color": "#0369a1",
        "direction": 1
      },
      "geometry": {
        "type": "Point",
        "coordinates": [
          120.75288,
          24.59831
        ]
      }
    },
    {
      "type": "Feature",
      "properties": {
        "feature_type": "station",
        "ref": "THB127328",
        "name": "下庄",
        "name_en": "Xiazhuang",
        "line": "5667（龍港）",
        "color": "#0369a1",
        "direction": 1
      },
      "geometry": {
        "type": "Point",
        "coordinates": [
          120.75245,
          24.60075
        ]
      }
    },
    {
      "type": "Feature",
      "properties": {
        "feature_type": "station",
        "ref": "THB275638",
        "name": "芭樂埔",
        "name_en": "Balepu",
        "line": "5667（龍港）",
        "color": "#0369a1",
        "direction": 1
      },
      "geometry": {
        "type": "Point",
        "coordinates": [
          120.7553558,
          24.60269768
        ]
      }
    },
    {
      "type": "Feature",
      "properties": {
        "feature_type": "station",
        "ref": "THB275637",
        "name": "獅尾",
        "name_en": "Shiwei",
        "line": "5667（龍港）",
        "color": "#0369a1",
        "direction": 1
      },
      "geometry": {
        "type": "Point",
        "coordinates": [
          120.7584,
          24.60549
        ]
      }
    },
    {
      "type": "Feature",
      "properties": {
        "feature_type": "station",
        "ref": "THB275636",
        "name": "同光國小",
        "name_en": "Tongguang Elementary School",
        "line": "5667（龍港）",
        "color": "#0369a1",
        "direction": 1
      },
      "geometry": {
        "type": "Point",
        "coordinates": [
          120.76149,
          24.60944
        ]
      }
    },
    {
      "type": "Feature",
      "properties": {
        "feature_type": "station",
        "ref": "THB127332",
        "name": "龍港",
        "name_en": "Longgang",
        "line": "5667（龍港）",
        "color": "#0369a1",
        "direction": 1
      },
      "geometry": {
        "type": "Point",
        "coordinates": [
          120.76048,
          24.61096
        ]
      }
    },
    {
      "type": "Feature",
      "properties": {
        "feature_type": "station",
        "ref": "THB139571",
        "name": "同興",
        "name_en": "Tongxing",
        "line": "5667（龍港）",
        "color": "#0369a1",
        "direction": 1
      },
      "geometry": {
        "type": "Point",
        "coordinates": [
          120.76302,
          24.61088
        ]
      }
    },
    {
      "type": "Feature",
      "properties": {
        "feature_type": "station",
        "ref": "THB103071",
        "name": "南龍",
        "name_en": "Nanlong",
        "line": "5667（龍港）",
        "color": "#0369a1",
        "direction": 1
      },
      "geometry": {
        "type": "Point",
        "coordinates": [
          120.77134,
          24.606
        ]
      }
    },
    {
      "type": "Feature",
      "properties": {
        "feature_type": "station",
        "ref": "THB103072",
        "name": "南社",
        "name_en": "Nanshe",
        "line": "5667（龍港）",
        "color": "#0369a1",
        "direction": 1
      },
      "geometry": {
        "type": "Point",
        "coordinates": [
          120.77528,
          24.60382
        ]
      }
    },
    {
      "type": "Feature",
      "properties": {
        "feature_type": "station",
        "ref": "THB275641",
        "name": "十班坑",
        "name_en": "Shibankeng",
        "line": "5667（龍港）",
        "color": "#0369a1",
        "direction": 1
      },
      "geometry": {
        "type": "Point",
        "coordinates": [
          120.77993,
          24.6021
        ]
      }
    },
    {
      "type": "Feature",
      "properties": {
        "feature_type": "station",
        "ref": "THB139573",
        "name": "大橋頭",
        "name_en": "Daqiaotou",
        "line": "5667（龍港）",
        "color": "#0369a1",
        "direction": 1
      },
      "geometry": {
        "type": "Point",
        "coordinates": [
          120.7821817,
          24.60494659
        ]
      }
    },
    {
      "type": "Feature",
      "properties": {
        "feature_type": "station",
        "ref": "THB102955",
        "name": "中南街",
        "name_en": "Zhongnan St.",
        "line": "5667（龍港）",
        "color": "#0369a1",
        "direction": 1
      },
      "geometry": {
        "type": "Point",
        "coordinates": [
          120.78545,
          24.61347
        ]
      }
    },
    {
      "type": "Feature",
      "properties": {
        "feature_type": "station",
        "ref": "THB139574",
        "name": "後龍",
        "name_en": "Houlong",
        "line": "5667（龍港）",
        "color": "#0369a1",
        "direction": 1
      },
      "geometry": {
        "type": "Point",
        "coordinates": [
          120.787222107533,
          24.6151711274854
        ]
      }
    }
  ]
}
