{
  "type": "FeatureCollection",
  "name": "843",
  "properties": {
    "id": "new_taipei_843",
    "name": "843",
    "name_en": "843",
    "ref": "843",
    "color": "#0891b2",
    "city_id": "NewTaipei",
    "source": "TDX Bus Shape / StopOfRoute",
    "official_map_url": "https://ebus.gov.taipei/File/Get/fdd26215-524d-4f59-8ea5-752fc5d81659?v=639234358638566522",
    "operator_id": "16176",
    "operator": "臺北客運",
    "operator_en": "Taipei Bus Co., Ltd."
  },
  "features": [
    {
      "type": "Feature",
      "properties": {
        "feature_type": "route",
        "ref": "843",
        "name": "843",
        "name_en": "843",
        "color": "#0891b2",
        "direction": 0
      },
      "geometry": {
        "type": "LineString",
        "coordinates": [
          [
            121.427260198953,
            24.9948147522498
          ],
          [
            121.427616431512,
            24.9952812052788
          ],
          [
            121.42984376677,
            24.9980702240516
          ],
          [
            121.430265249847,
            24.9986319075667
          ],
          [
            121.430508616645,
            24.9990692623916
          ],
          [
            121.431053546649,
            25.0002085011695
          ],
          [
            121.431259879369,
            25.0006335113018
          ],
          [
            121.432079919665,
            25.0021527902602
          ],
          [
            121.432748296595,
            25.0032567584877
          ],
          [
            121.432998717503,
            25.003608582228
          ],
          [
            121.433402565305,
            25.0048086627053
          ],
          [
            121.433420200581,
            25.0050608471406
          ],
          [
            121.433087325278,
            25.0060888293976
          ],
          [
            121.431637274258,
            25.0052618892779
          ],
          [
            121.430857795094,
            25.0048368791456
          ],
          [
            121.428612824561,
            25.0036888227301
          ],
          [
            121.428351161122,
            25.0035624555654
          ],
          [
            121.427750459604,
            25.0048121897603
          ],
          [
            121.427441842288,
            25.0053994444245
          ],
          [
            121.427168495522,
            25.0058835327287
          ],
          [
            121.426489537427,
            25.0070307073804
          ],
          [
            121.42566244302,
            25.00843535705
          ],
          [
            121.425205689393,
            25.0093312290302
          ],
          [
            121.424812422756,
            25.0101450969806
          ],
          [
            121.424658995861,
            25.0104545960604
          ],
          [
            121.424563765375,
            25.0106953175668
          ],
          [
            121.42449675133,
            25.0109607284586
          ],
          [
            121.424405047899,
            25.0116044160034
          ],
          [
            121.424292182137,
            25.012318644649
          ],
          [
            121.424174025793,
            25.0126043361072
          ],
          [
            121.423881280225,
            25.0131289855444
          ],
          [
            121.423602642877,
            25.0139252182196
          ],
          [
            121.423004807048,
            25.0141050980267
          ],
          [
            121.422710297952,
            25.0142294267168
          ],
          [
            121.422417552384,
            25.0143581642258
          ],
          [
            121.420902682244,
            25.0152064209629
          ],
          [
            121.420433583924,
            25.0154489059969
          ],
          [
            121.420065006672,
            25.0155600082306
          ],
          [
            121.419865728062,
            25.0155899881985
          ],
          [
            121.419005126633,
            25.0155758799783
          ],
          [
            121.41720809209,
            25.0154929941849
          ],
          [
            121.416377470628,
            25.0153607296209
          ],
          [
            121.415054824988,
            25.01550357535
          ],
          [
            121.414199514141,
            25.0156040964186
          ],
          [
            121.413097309441,
            25.0156922727946
          ],
          [
            121.41174644736,
            25.0154683047996
          ],
          [
            121.410519032207,
            25.0152540362059
          ],
          [
            121.411219152632,
            25.0143731542097
          ],
          [
            121.412543561799,
            25.0126581236965
          ],
          [
            121.412548852382,
            25.0113672215519
          ],
          [
            121.412531217107,
            25.0100428123845
          ],
          [
            121.412471257171,
            25.0078833729363
          ],
          [
            121.412450094841,
            25.0066524307274
          ],
          [
            121.412511818304,
            25.0063588033953
          ],
          [
            121.412663481671,
            25.0059276209167
          ],
          [
            121.413069093,
            25.0047866186113
          ],
          [
            121.413370656206,
            25.0040009671011
          ],
          [
            121.413472940802,
            25.0038475402069
          ],
          [
            121.413580515981,
            25.0037893437988
          ],
          [
            121.414130736567,
            25.0036500251247
          ],
          [
            121.414959594502,
            25.0034639729713
          ],
          [
            121.415222360102,
            25.0034410471136
          ],
          [
            121.415291137675,
            25.0028467383393
          ],
          [
            121.4154657269,
            25.0017216077816
          ],
          [
            121.415550376221,
            25.0015919885089
          ],
          [
            121.415804324184,
            25.0012807259016
          ],
          [
            121.416026528651,
            25.0008636516432
          ],
          [
            121.416077670949,
            25.0003010863643
          ],
          [
            121.416188773183,
            25.0000771183693
          ],
          [
            121.416738993769,
            24.9994157955493
          ],
          [
            121.417537871736,
            24.9984952341839
          ],
          [
            121.418038713552,
            24.9979229695037
          ],
          [
            121.418215066304,
            24.9977624884993
          ],
          [
            121.419091539481,
            24.9972537108098
          ],
          [
            121.419904525668,
            24.9967123078612
          ],
          [
            121.420888574024,
            24.9959883798143
          ],
          [
            121.42184440594,
            24.9970491416175
          ],
          [
            121.422877833066,
            24.998200725088
          ],
          [
            121.424558474793,
            25.0000268578349
          ],
          [
            121.425337280527,
            25.0009020778356
          ],
          [
            121.426454266877,
            25.0001212065573
          ],
          [
            121.428098430074,
            24.9989001151559
          ],
          [
            121.429774989197,
            24.9976875385797
          ],
          [
            121.430928336195,
            24.9968172377487
          ],
          [
            121.432196312482,
            24.995916075186
          ],
          [
            121.432393827564,
            24.9958217264636
          ],
          [
            121.432683046077,
            24.9957370771427
          ],
          [
            121.43319270553,
            24.9956136302163
          ],
          [
            121.436365291539,
            24.9953314658131
          ],
          [
            121.438172907247,
            24.9951498224785
          ],
          [
            121.440398478977,
            24.9949408444674
          ],
          [
            121.44196096436,
            24.9947195217637
          ],
          [
            121.443999602173,
            24.9943897421175
          ],
          [
            121.446577879407,
            24.9939356337811
          ],
          [
            121.449059162627,
            24.9934806436809
          ],
          [
            121.449912709947,
            24.9930203629982
          ],
          [
            121.450358000646,
            24.9935820465133
          ],
          [
            121.450730104953,
            24.9939206437971
          ],
          [
            121.451038722269,
            24.9941058141867
          ],
          [
            121.451058121071,
            24.9943412451107
          ],
          [
            121.45163479457,
            24.9956647725144
          ],
          [
            121.451922249556,
            24.9963049330041
          ],
          [
            121.452627660564,
            24.9985137512228
          ],
          [
            121.453059724806,
            24.9998205251151
          ],
          [
            121.453303091604,
            25.0005735513661
          ],
          [
            121.453682250021,
            25.001599042619
          ],
          [
            121.453983813227,
            25.0022392031087
          ],
          [
            121.454611629024,
            25.0035556764024
          ],
          [
            121.454805617051,
            25.0039313077641
          ],
          [
            121.455043693266,
            25.0044894642242
          ],
          [
            121.455269424789,
            25.0049232919941
          ],
          [
            121.455660927898,
            25.00566573708
          ],
          [
            121.456094755668,
            25.0064355168424
          ],
          [
            121.456687300915,
            25.007587100313
          ],
          [
            121.457350387262,
            25.0087378020197
          ],
          [
            121.45778597856,
            25.0095111088372
          ],
          [
            121.458142211119,
            25.0093568001792
          ],
          [
            121.45932906514,
            25.0085491045751
          ]
        ]
      }
    },
    {
      "type": "Feature",
      "properties": {
        "feature_type": "route",
        "ref": "843",
        "name": "843",
        "name_en": "843",
        "color": "#0891b2",
        "direction": 1
      },
      "geometry": {
        "type": "LineString",
        "coordinates": [
          [
            121.458404822828,
            25.0074912726188
          ],
          [
            121.457318449023,
            25.006262286036
          ],
          [
            121.456410427094,
            25.0052671798605
          ],
          [
            121.456237601397,
            25.0050070595513
          ],
          [
            121.455840807705,
            25.004626137607
          ]
        ]
      }
    },
    {
      "type": "Feature",
      "properties": {
        "feature_type": "station",
        "ref": "NWT204315",
        "name": "樹林藝文綜合行政大樓",
        "name_en": "Shulin Arts Administration Building",
        "line": "843",
        "color": "#0891b2",
        "direction": 0
      },
      "geometry": {
        "type": "Point",
        "coordinates": [
          121.42796,
          24.995638
        ]
      }
    },
    {
      "type": "Feature",
      "properties": {
        "feature_type": "station",
        "ref": "NWT127967",
        "name": "十三公",
        "name_en": "Shisangong",
        "line": "843",
        "color": "#0891b2",
        "direction": 0
      },
      "geometry": {
        "type": "Point",
        "coordinates": [
          121.430021,
          24.998244
        ]
      }
    },
    {
      "type": "Feature",
      "properties": {
        "feature_type": "station",
        "ref": "NWT127968",
        "name": "圳福里",
        "name_en": "ZunFu Village",
        "line": "843",
        "color": "#0891b2",
        "direction": 0
      },
      "geometry": {
        "type": "Point",
        "coordinates": [
          121.431245,
          25.000554
        ]
      }
    },
    {
      "type": "Feature",
      "properties": {
        "feature_type": "station",
        "ref": "NWT127969",
        "name": "許厝",
        "name_en": "Xucuo",
        "line": "843",
        "color": "#0891b2",
        "direction": 0
      },
      "geometry": {
        "type": "Point",
        "coordinates": [
          121.432111,
          25.002077
        ]
      }
    },
    {
      "type": "Feature",
      "properties": {
        "feature_type": "station",
        "ref": "NWT127970",
        "name": "大安變電所(大安路)",
        "name_en": "DaAn Transformer Station (Daan Rd.)",
        "line": "843",
        "color": "#0891b2",
        "direction": 0
      },
      "geometry": {
        "type": "Point",
        "coordinates": [
          121.4314169,
          25.005292
        ]
      }
    },
    {
      "type": "Feature",
      "properties": {
        "feature_type": "station",
        "ref": "NWT127971",
        "name": "圳安里",
        "name_en": "ZunAn Village",
        "line": "843",
        "color": "#0891b2",
        "direction": 0
      },
      "geometry": {
        "type": "Point",
        "coordinates": [
          121.427744,
          25.005066
        ]
      }
    },
    {
      "type": "Feature",
      "properties": {
        "feature_type": "station",
        "ref": "NWT127972",
        "name": "新日興",
        "name_en": "XinRiXing Company",
        "line": "843",
        "color": "#0891b2",
        "direction": 0
      },
      "geometry": {
        "type": "Point",
        "coordinates": [
          121.4263218,
          25.007465
        ]
      }
    },
    {
      "type": "Feature",
      "properties": {
        "feature_type": "station",
        "ref": "NWT127973",
        "name": "俊保路口",
        "name_en": "JunBao Rd. Entrance",
        "line": "843",
        "color": "#0891b2",
        "direction": 0
      },
      "geometry": {
        "type": "Point",
        "coordinates": [
          121.425117,
          25.00966
        ]
      }
    },
    {
      "type": "Feature",
      "properties": {
        "feature_type": "station",
        "ref": "NWT127974",
        "name": "圳民里",
        "name_en": "ZunMin Village",
        "line": "843",
        "color": "#0891b2",
        "direction": 0
      },
      "geometry": {
        "type": "Point",
        "coordinates": [
          121.4244533,
          25.011713
        ]
      }
    },
    {
      "type": "Feature",
      "properties": {
        "feature_type": "station",
        "ref": "NWT127975",
        "name": "三俊街口",
        "name_en": "SanJun St. Entrance",
        "line": "843",
        "color": "#0891b2",
        "direction": 0
      },
      "geometry": {
        "type": "Point",
        "coordinates": [
          121.4231396,
          25.01413145
        ]
      }
    },
    {
      "type": "Feature",
      "properties": {
        "feature_type": "station",
        "ref": "NWT127976",
        "name": "三俊街",
        "name_en": "SanJun St.",
        "line": "843",
        "color": "#0891b2",
        "direction": 0
      },
      "geometry": {
        "type": "Point",
        "coordinates": [
          121.4203598,
          25.015508
        ]
      }
    },
    {
      "type": "Feature",
      "properties": {
        "feature_type": "station",
        "ref": "NWT127977",
        "name": "俊興街口",
        "name_en": "JunXing St. Entrance",
        "line": "843",
        "color": "#0891b2",
        "direction": 0
      },
      "geometry": {
        "type": "Point",
        "coordinates": [
          121.4176708,
          25.015585
        ]
      }
    },
    {
      "type": "Feature",
      "properties": {
        "feature_type": "station",
        "ref": "NWT127978",
        "name": "高印公司",
        "name_en": "GaoYin Company",
        "line": "843",
        "color": "#0891b2",
        "direction": 0
      },
      "geometry": {
        "type": "Point",
        "coordinates": [
          121.413921,
          25.015699
        ]
      }
    },
    {
      "type": "Feature",
      "properties": {
        "feature_type": "station",
        "ref": "NWT127979",
        "name": "公路新村",
        "name_en": "Gonglu New Village",
        "line": "843",
        "color": "#0891b2",
        "direction": 0
      },
      "geometry": {
        "type": "Point",
        "coordinates": [
          121.410695,
          25.014922
        ]
      }
    },
    {
      "type": "Feature",
      "properties": {
        "feature_type": "station",
        "ref": "NWT127980",
        "name": "三多里",
        "name_en": "SanDuo Village",
        "line": "843",
        "color": "#0891b2",
        "direction": 0
      },
      "geometry": {
        "type": "Point",
        "coordinates": [
          121.4121818,
          25.01301809
        ]
      }
    },
    {
      "type": "Feature",
      "properties": {
        "feature_type": "station",
        "ref": "NWT127981",
        "name": "保安中正路口",
        "name_en": "BaoAn & ZhongZheng Intersection",
        "line": "843",
        "color": "#0891b2",
        "direction": 0
      },
      "geometry": {
        "type": "Point",
        "coordinates": [
          121.412521,
          25.011393
        ]
      }
    },
    {
      "type": "Feature",
      "properties": {
        "feature_type": "station",
        "ref": "NWT127982",
        "name": "世紀",
        "name_en": "Shiji",
        "line": "843",
        "color": "#0891b2",
        "direction": 0
      },
      "geometry": {
        "type": "Point",
        "coordinates": [
          121.412454,
          25.009174
        ]
      }
    },
    {
      "type": "Feature",
      "properties": {
        "feature_type": "station",
        "ref": "NWT127983",
        "name": "中華電信",
        "name_en": "Chunghwa Telecom Co.,Ltd",
        "line": "843",
        "color": "#0891b2",
        "direction": 0
      },
      "geometry": {
        "type": "Point",
        "coordinates": [
          121.412371,
          25.007453
        ]
      }
    },
    {
      "type": "Feature",
      "properties": {
        "feature_type": "station",
        "ref": "NWT127984",
        "name": "光華",
        "name_en": "Guanghua",
        "line": "843",
        "color": "#0891b2",
        "direction": 0
      },
      "geometry": {
        "type": "Point",
        "coordinates": [
          121.412873,
          25.005212
        ]
      }
    },
    {
      "type": "Feature",
      "properties": {
        "feature_type": "station",
        "ref": "NWT197090",
        "name": "光榮街口",
        "name_en": "Guangrong St. Entrance",
        "line": "843",
        "color": "#0891b2",
        "direction": 0
      },
      "geometry": {
        "type": "Point",
        "coordinates": [
          121.413269,
          25.004148
        ]
      }
    },
    {
      "type": "Feature",
      "properties": {
        "feature_type": "station",
        "ref": "NWT127985",
        "name": "武林國小",
        "name_en": "WuLin Elementary School",
        "line": "843",
        "color": "#0891b2",
        "direction": 0
      },
      "geometry": {
        "type": "Point",
        "coordinates": [
          121.415266,
          25.002505
        ]
      }
    },
    {
      "type": "Feature",
      "properties": {
        "feature_type": "station",
        "ref": "NWT127986",
        "name": "工業區",
        "name_en": "Industrial Area",
        "line": "843",
        "color": "#0891b2",
        "direction": 0
      },
      "geometry": {
        "type": "Point",
        "coordinates": [
          121.415994,
          25.000401
        ]
      }
    },
    {
      "type": "Feature",
      "properties": {
        "feature_type": "station",
        "ref": "NWT127987",
        "name": "潭底",
        "name_en": "TanDi",
        "line": "843",
        "color": "#0891b2",
        "direction": 0
      },
      "geometry": {
        "type": "Point",
        "coordinates": [
          121.418579,
          24.997451
        ]
      }
    },
    {
      "type": "Feature",
      "properties": {
        "feature_type": "station",
        "ref": "NWT127988",
        "name": "保安街口",
        "name_en": "BaoAn St. Entrance",
        "line": "843",
        "color": "#0891b2",
        "direction": 0
      },
      "geometry": {
        "type": "Point",
        "coordinates": [
          121.421456,
          24.996476
        ]
      }
    },
    {
      "type": "Feature",
      "properties": {
        "feature_type": "station",
        "ref": "NWT127989",
        "name": "家樂福公司",
        "name_en": "Carrefour Company",
        "line": "843",
        "color": "#0891b2",
        "direction": 0
      },
      "geometry": {
        "type": "Point",
        "coordinates": [
          121.422776,
          24.997953
        ]
      }
    },
    {
      "type": "Feature",
      "properties": {
        "feature_type": "station",
        "ref": "NWT127990",
        "name": "大安中正路口",
        "name_en": "DaAn & ZhongZheng Intersection",
        "line": "843",
        "color": "#0891b2",
        "direction": 0
      },
      "geometry": {
        "type": "Point",
        "coordinates": [
          121.424737,
          25.000055
        ]
      }
    },
    {
      "type": "Feature",
      "properties": {
        "feature_type": "station",
        "ref": "NWT127991",
        "name": "亞東科技大學(南雅南路)",
        "name_en": "Oriental University of Science & Technology(Nanya S. Rd.)",
        "line": "843",
        "color": "#0891b2",
        "direction": 0
      },
      "geometry": {
        "type": "Point",
        "coordinates": [
          121.4515397,
          24.995237
        ]
      }
    },
    {
      "type": "Feature",
      "properties": {
        "feature_type": "station",
        "ref": "NWT127992",
        "name": "捷運亞東醫院站",
        "name_en": "MRT Far Eastern Hospital Station",
        "line": "843",
        "color": "#0891b2",
        "direction": 0
      },
      "geometry": {
        "type": "Point",
        "coordinates": [
          121.453027,
          24.999426
        ]
      }
    },
    {
      "type": "Feature",
      "properties": {
        "feature_type": "station",
        "ref": "NWT127993",
        "name": "光華商職",
        "name_en": "KwangHwa Vocational High School",
        "line": "843",
        "color": "#0891b2",
        "direction": 0
      },
      "geometry": {
        "type": "Point",
        "coordinates": [
          121.453807,
          25.001745
        ]
      }
    },
    {
      "type": "Feature",
      "properties": {
        "feature_type": "station",
        "ref": "NWT127994",
        "name": "板橋夜市(南雅南路)",
        "name_en": "BanQiao Night Market(Nanya S. Rd.)",
        "line": "843",
        "color": "#0891b2",
        "direction": 0
      },
      "geometry": {
        "type": "Point",
        "coordinates": [
          121.4563695,
          25.006681
        ]
      }
    },
    {
      "type": "Feature",
      "properties": {
        "feature_type": "station",
        "ref": "NWT127995",
        "name": "捷運府中站(府中路)",
        "name_en": "MRT Fuzhong Station(Fuzhong Rd.)",
        "line": "843",
        "color": "#0891b2",
        "direction": 0
      },
      "geometry": {
        "type": "Point",
        "coordinates": [
          121.458454,
          25.009036
        ]
      }
    },
    {
      "type": "Feature",
      "properties": {
        "feature_type": "station",
        "ref": "NWT127997",
        "name": "館前西路口",
        "name_en": "Guanqian W. Rd. Entrance",
        "line": "843",
        "color": "#0891b2",
        "direction": 1
      },
      "geometry": {
        "type": "Point",
        "coordinates": [
          121.457562,
          25.006612
        ]
      }
    },
    {
      "type": "Feature",
      "properties": {
        "feature_type": "station",
        "ref": "NWT127998",
        "name": "板橋夜市(縣民大道)",
        "name_en": "Banqiao Night Market (Xianmin Blvd.)",
        "line": "843",
        "color": "#0891b2",
        "direction": 1
      },
      "geometry": {
        "type": "Point",
        "coordinates": [
          121.4561457,
          25.005009
        ]
      }
    },
    {
      "type": "Feature",
      "properties": {
        "feature_type": "station",
        "ref": "NWT127999",
        "name": "光華商職",
        "name_en": "Kwang-Hwa Vocational High School",
        "line": "843",
        "color": "#0891b2",
        "direction": 1
      },
      "geometry": {
        "type": "Point",
        "coordinates": [
          121.453862,
          25.00238
        ]
      }
    },
    {
      "type": "Feature",
      "properties": {
        "feature_type": "station",
        "ref": "NWT128000",
        "name": "捷運亞東醫院站",
        "name_en": "MRT Far Eastern Hospital Station",
        "line": "843",
        "color": "#0891b2",
        "direction": 1
      },
      "geometry": {
        "type": "Point",
        "coordinates": [
          121.452517,
          24.998579
        ]
      }
    },
    {
      "type": "Feature",
      "properties": {
        "feature_type": "station",
        "ref": "NWT128001",
        "name": "亞東科技大學(南雅南路)",
        "name_en": "Oriental University of Science & Technology(Nanya S. Rd.)",
        "line": "843",
        "color": "#0891b2",
        "direction": 1
      },
      "geometry": {
        "type": "Point",
        "coordinates": [
          121.451532,
          24.995799
        ]
      }
    },
    {
      "type": "Feature",
      "properties": {
        "feature_type": "station",
        "ref": "NWT128002",
        "name": "南雅站",
        "name_en": "Nanya Stop",
        "line": "843",
        "color": "#0891b2",
        "direction": 1
      },
      "geometry": {
        "type": "Point",
        "coordinates": [
          121.450379,
          24.993821
        ]
      }
    },
    {
      "type": "Feature",
      "properties": {
        "feature_type": "station",
        "ref": "NWT128003",
        "name": "大安中正路口",
        "name_en": "DaAn & ZhongZheng Intersection",
        "line": "843",
        "color": "#0891b2",
        "direction": 1
      },
      "geometry": {
        "type": "Point",
        "coordinates": [
          121.424538,
          25.000388
        ]
      }
    },
    {
      "type": "Feature",
      "properties": {
        "feature_type": "station",
        "ref": "NWT128004",
        "name": "家樂福公司",
        "name_en": "Carrefour Company",
        "line": "843",
        "color": "#0891b2",
        "direction": 1
      },
      "geometry": {
        "type": "Point",
        "coordinates": [
          121.42248,
          24.998127
        ]
      }
    },
    {
      "type": "Feature",
      "properties": {
        "feature_type": "station",
        "ref": "NWT128005",
        "name": "保安街口",
        "name_en": "BaoAn St. Entrance",
        "line": "843",
        "color": "#0891b2",
        "direction": 1
      },
      "geometry": {
        "type": "Point",
        "coordinates": [
          121.420567,
          24.99636
        ]
      }
    },
    {
      "type": "Feature",
      "properties": {
        "feature_type": "station",
        "ref": "NWT128006",
        "name": "潭底",
        "name_en": "TanDi",
        "line": "843",
        "color": "#0891b2",
        "direction": 1
      },
      "geometry": {
        "type": "Point",
        "coordinates": [
          121.418479,
          24.997718
        ]
      }
    },
    {
      "type": "Feature",
      "properties": {
        "feature_type": "station",
        "ref": "NWT128007",
        "name": "工業區",
        "name_en": "Industrial Area",
        "line": "843",
        "color": "#0891b2",
        "direction": 1
      },
      "geometry": {
        "type": "Point",
        "coordinates": [
          121.416039,
          25.001027
        ]
      }
    },
    {
      "type": "Feature",
      "properties": {
        "feature_type": "station",
        "ref": "NWT128008",
        "name": "武林國小",
        "name_en": "WuLin Elementary School",
        "line": "843",
        "color": "#0891b2",
        "direction": 1
      },
      "geometry": {
        "type": "Point",
        "coordinates": [
          121.415362,
          25.002904
        ]
      }
    },
    {
      "type": "Feature",
      "properties": {
        "feature_type": "station",
        "ref": "NWT128009",
        "name": "光華",
        "name_en": "GuangHua",
        "line": "843",
        "color": "#0891b2",
        "direction": 1
      },
      "geometry": {
        "type": "Point",
        "coordinates": [
          121.413044,
          25.005105
        ]
      }
    },
    {
      "type": "Feature",
      "properties": {
        "feature_type": "station",
        "ref": "NWT128010",
        "name": "中華電信",
        "name_en": "Chunghwa Telecom Co.,Ltd",
        "line": "843",
        "color": "#0891b2",
        "direction": 1
      },
      "geometry": {
        "type": "Point",
        "coordinates": [
          121.412507,
          25.007119
        ]
      }
    },
    {
      "type": "Feature",
      "properties": {
        "feature_type": "station",
        "ref": "NWT128011",
        "name": "世紀",
        "name_en": "Shiji",
        "line": "843",
        "color": "#0891b2",
        "direction": 1
      },
      "geometry": {
        "type": "Point",
        "coordinates": [
          121.41262,
          25.009213
        ]
      }
    },
    {
      "type": "Feature",
      "properties": {
        "feature_type": "station",
        "ref": "NWT128012",
        "name": "保安中正路口",
        "name_en": "BaoAn & ZhongZheng Intersection",
        "line": "843",
        "color": "#0891b2",
        "direction": 1
      },
      "geometry": {
        "type": "Point",
        "coordinates": [
          121.412649,
          25.011514
        ]
      }
    },
    {
      "type": "Feature",
      "properties": {
        "feature_type": "station",
        "ref": "NWT128013",
        "name": "三多里",
        "name_en": "SanDuo Village",
        "line": "843",
        "color": "#0891b2",
        "direction": 1
      },
      "geometry": {
        "type": "Point",
        "coordinates": [
          121.412268,
          25.013393
        ]
      }
    },
    {
      "type": "Feature",
      "properties": {
        "feature_type": "station",
        "ref": "NWT128014",
        "name": "公路新村",
        "name_en": "Gonglu New Village",
        "line": "843",
        "color": "#0891b2",
        "direction": 1
      },
      "geometry": {
        "type": "Point",
        "coordinates": [
          121.4110483,
          25.0149032
        ]
      }
    },
    {
      "type": "Feature",
      "properties": {
        "feature_type": "station",
        "ref": "NWT128015",
        "name": "高印公司",
        "name_en": "GaoYin Company",
        "line": "843",
        "color": "#0891b2",
        "direction": 1
      },
      "geometry": {
        "type": "Point",
        "coordinates": [
          121.413766,
          25.015567
        ]
      }
    },
    {
      "type": "Feature",
      "properties": {
        "feature_type": "station",
        "ref": "NWT128016",
        "name": "俊興街口",
        "name_en": "JunXing St. Entrance",
        "line": "843",
        "color": "#0891b2",
        "direction": 1
      },
      "geometry": {
        "type": "Point",
        "coordinates": [
          121.418245,
          25.015493
        ]
      }
    },
    {
      "type": "Feature",
      "properties": {
        "feature_type": "station",
        "ref": "NWT128017",
        "name": "三俊街",
        "name_en": "SanJun St.",
        "line": "843",
        "color": "#0891b2",
        "direction": 1
      },
      "geometry": {
        "type": "Point",
        "coordinates": [
          121.419951,
          25.015489
        ]
      }
    },
    {
      "type": "Feature",
      "properties": {
        "feature_type": "station",
        "ref": "NWT128018",
        "name": "三俊街口",
        "name_en": "SanJun St. Entrance",
        "line": "843",
        "color": "#0891b2",
        "direction": 1
      },
      "geometry": {
        "type": "Point",
        "coordinates": [
          121.422906,
          25.014012
        ]
      }
    },
    {
      "type": "Feature",
      "properties": {
        "feature_type": "station",
        "ref": "NWT128019",
        "name": "圳民里",
        "name_en": "ZunMin Village",
        "line": "843",
        "color": "#0891b2",
        "direction": 1
      },
      "geometry": {
        "type": "Point",
        "coordinates": [
          121.4243857,
          25.011054
        ]
      }
    },
    {
      "type": "Feature",
      "properties": {
        "feature_type": "station",
        "ref": "NWT128020",
        "name": "俊保路口",
        "name_en": "JunBao Rd. Entrance",
        "line": "843",
        "color": "#0891b2",
        "direction": 1
      },
      "geometry": {
        "type": "Point",
        "coordinates": [
          121.425092,
          25.009396
        ]
      }
    },
    {
      "type": "Feature",
      "properties": {
        "feature_type": "station",
        "ref": "NWT128021",
        "name": "新日興",
        "name_en": "XinRiXing Company",
        "line": "843",
        "color": "#0891b2",
        "direction": 1
      },
      "geometry": {
        "type": "Point",
        "coordinates": [
          121.4261876,
          25.007382
        ]
      }
    },
    {
      "type": "Feature",
      "properties": {
        "feature_type": "station",
        "ref": "NWT128022",
        "name": "圳安里",
        "name_en": "ZunAn Village",
        "line": "843",
        "color": "#0891b2",
        "direction": 1
      },
      "geometry": {
        "type": "Point",
        "coordinates": [
          121.42762,
          25.00495
        ]
      }
    },
    {
      "type": "Feature",
      "properties": {
        "feature_type": "station",
        "ref": "NWT128023",
        "name": "大安變電所(大安路)",
        "name_en": "DaAn Transformer Station (Daan Rd.)",
        "line": "843",
        "color": "#0891b2",
        "direction": 1
      },
      "geometry": {
        "type": "Point",
        "coordinates": [
          121.4314506,
          25.005106
        ]
      }
    },
    {
      "type": "Feature",
      "properties": {
        "feature_type": "station",
        "ref": "NWT128024",
        "name": "許厝",
        "name_en": "XuCuo",
        "line": "843",
        "color": "#0891b2",
        "direction": 1
      },
      "geometry": {
        "type": "Point",
        "coordinates": [
          121.43183,
          25.00196
        ]
      }
    },
    {
      "type": "Feature",
      "properties": {
        "feature_type": "station",
        "ref": "NWT128025",
        "name": "圳福里",
        "name_en": "ZunFu Village",
        "line": "843",
        "color": "#0891b2",
        "direction": 1
      },
      "geometry": {
        "type": "Point",
        "coordinates": [
          121.43087,
          25.000126
        ]
      }
    },
    {
      "type": "Feature",
      "properties": {
        "feature_type": "station",
        "ref": "NWT128026",
        "name": "十三公",
        "name_en": "Shisangong",
        "line": "843",
        "color": "#0891b2",
        "direction": 1
      },
      "geometry": {
        "type": "Point",
        "coordinates": [
          121.429919,
          24.998348
        ]
      }
    },
    {
      "type": "Feature",
      "properties": {
        "feature_type": "station",
        "ref": "NWT191899",
        "name": "樹林藝文綜合行政大樓",
        "name_en": "Shulin Arts Administration Building",
        "line": "843",
        "color": "#0891b2",
        "direction": 1
      },
      "geometry": {
        "type": "Point",
        "coordinates": [
          121.427318,
          24.995035
        ]
      }
    }
  ]
}
