{
  "type": "FeatureCollection",
  "name": "788海科館",
  "properties": {
    "id": "new_taipei_788_374d82ac11",
    "name": "788海科館",
    "name_en": "788海科館",
    "ref": "788海科館",
    "color": "#0891b2",
    "city_id": "NewTaipei",
    "source": "TDX Bus Shape / StopOfRoute",
    "official_map_url": "https://ebus.gov.taipei/File/Get/bc74e963-1346-4054-856a-ebe91b4d47bd?v=639234358900059797",
    "operator_id": "16190",
    "operator": "基隆客運"
  },
  "features": [
    {
      "type": "Feature",
      "properties": {
        "feature_type": "route",
        "ref": "788海科館",
        "name": "788海科館",
        "name_en": "788海科館",
        "color": "#0891b2",
        "direction": 0
      },
      "geometry": {
        "type": "LineString",
        "coordinates": [
          [
            121.738611590935,
            25.132460990649
          ],
          [
            121.740263905587,
            25.1348787545802
          ],
          [
            121.740395293049,
            25.1348764083755
          ],
          [
            121.740491487441,
            25.1347872525973
          ],
          [
            121.740726694461,
            25.1340470250182
          ],
          [
            121.739850973561,
            25.1327179000623
          ],
          [
            121.739839242538,
            25.1314298336885
          ],
          [
            121.742121881108,
            25.1301523732728
          ],
          [
            121.74250571729701,
            25.1302013188271
          ],
          [
            121.742910806161,
            25.1304228618621
          ],
          [
            121.743426666542,
            25.1312343276301
          ],
          [
            121.744287721884,
            25.1307809372328
          ],
          [
            121.744886390231,
            25.1317630955202
          ],
          [
            121.746990374734,
            25.1306041480626
          ],
          [
            121.7474437371,
            25.1303886413039
          ],
          [
            121.748870870747,
            25.1298458835413
          ],
          [
            121.750910814143,
            25.1296328633496
          ],
          [
            121.75214026324,
            25.1294954724131
          ],
          [
            121.754569827253,
            25.1292823732761
          ],
          [
            121.755482937372,
            25.129135509411
          ],
          [
            121.757290494785,
            25.1289235822528
          ],
          [
            121.757819235575,
            25.1288630443304
          ],
          [
            121.757871071527,
            25.128746000899
          ],
          [
            121.757871071527,
            25.1284554658614
          ],
          [
            121.758793759723,
            25.128471429325
          ],
          [
            121.760131497973,
            25.1285927516484
          ],
          [
            121.760166617593,
            25.1282479408346
          ],
          [
            121.760160232208,
            25.1277802113509
          ],
          [
            121.761427936537,
            25.1277006524069
          ],
          [
            121.762765469468,
            25.1276397328712
          ],
          [
            121.763831828837,
            25.1279302679088
          ],
          [
            121.764524643157,
            25.1281856833265
          ],
          [
            121.764969338994,
            25.1279762183156
          ],
          [
            121.765916657184,
            25.1274162443808
          ],
          [
            121.766468993024,
            25.1274034736099
          ],
          [
            121.767036456266,
            25.1278789810817
          ],
          [
            121.767485002617,
            25.128216282523
          ],
          [
            121.768023834379,
            25.1286310639611
          ],
          [
            121.768110037083,
            25.1287428082063
          ],
          [
            121.768119615161,
            25.1289247916914
          ],
          [
            121.767295900439,
            25.1297485064134
          ],
          [
            121.767289515053,
            25.1299049483567
          ],
          [
            121.768555056489,
            25.1306959265333
          ],
          [
            121.768836493426,
            25.1310179367586
          ],
          [
            121.769094745627,
            25.1314159413972
          ],
          [
            121.769375939746,
            25.1316992416658
          ],
          [
            121.77048859316,
            25.1318620689946
          ],
          [
            121.770675365684,
            25.1319578497762
          ],
          [
            121.770724852421,
            25.1320871538314
          ],
          [
            121.770653016835,
            25.132727288722
          ],
          [
            121.770775639003,
            25.1328740036977
          ],
          [
            121.771015214611,
            25.1328920362703
          ],
          [
            121.771133714374,
            25.1329435579063
          ],
          [
            121.771227044155,
            25.1330836378053
          ],
          [
            121.771224739987,
            25.1333384738954
          ],
          [
            121.771162695294,
            25.1335824261935
          ],
          [
            121.771149489222,
            25.1339475543176
          ],
          [
            121.771046771613,
            25.1341053707995
          ],
          [
            121.770879326296,
            25.1342315988078
          ],
          [
            121.770691272324,
            25.1344441255566
          ],
          [
            121.770647033692,
            25.1348196046983
          ],
          [
            121.770725233161,
            25.1352527209467
          ],
          [
            121.7709290224,
            25.1357940293054
          ],
          [
            121.770881989925,
            25.1363872352255
          ],
          [
            121.771340444938,
            25.1372456145173
          ],
          [
            121.771649574755,
            25.1373872990165
          ],
          [
            121.772016022391,
            25.1373203208896
          ],
          [
            121.772980121006,
            25.1367690393838
          ],
          [
            121.773632513722,
            25.1365771212894
          ],
          [
            121.774287482521,
            25.1362834479639
          ],
          [
            121.774973364301,
            25.1359215084706
          ],
          [
            121.775293442465,
            25.1356471557586
          ],
          [
            121.775888517361,
            25.1349696462444
          ],
          [
            121.776162226053,
            25.1347777281501
          ],
          [
            121.776974335841,
            25.1332887528679
          ],
          [
            121.77738715295,
            25.1325339608997
          ],
          [
            121.777716891421,
            25.1321475486292
          ],
          [
            121.777765347118,
            25.1319206027885
          ],
          [
            121.777510804877,
            25.1315949790825
          ],
          [
            121.777570054758,
            25.1310218008813
          ],
          [
            121.777503076631,
            25.1307654807419
          ],
          [
            121.777083175298,
            25.1303829325942
          ],
          [
            121.776976911923,
            25.1298896129289
          ],
          [
            121.777200064554,
            25.1295524736521
          ],
          [
            121.777484400038,
            25.1291129242653
          ],
          [
            121.777709163176,
            25.129012457075
          ],
          [
            121.777912673638,
            25.129012457075
          ],
          [
            121.778293933745,
            25.129195358883
          ],
          [
            121.778464599164,
            25.1291799023922
          ],
          [
            121.779341110998,
            25.1287677293037
          ],
          [
            121.780248654808,
            25.1285161270231
          ],
          [
            121.780387536941,
            25.1283852266216
          ],
          [
            121.78048012503,
            25.1284873927886
          ],
          [
            121.780735540448,
            25.1289710857358
          ],
          [
            121.780810568726,
            25.12915785826
          ],
          [
            121.781022882792,
            25.1304365316947
          ],
          [
            121.781080351261,
            25.1305562576717
          ],
          [
            121.782141921591,
            25.1317591046543
          ],
          [
            121.782172252172,
            25.1318389219723
          ],
          [
            121.782793230906,
            25.1350587525814
          ],
          [
            121.784865288482,
            25.1353149661722
          ],
          [
            121.786270073279,
            25.1355951249585
          ],
          [
            121.78741465362,
            25.1357531632481
          ],
          [
            121.788668372053,
            25.1373805332753
          ],
          [
            121.788963742563,
            25.137708021201
          ],
          [
            121.789087624605,
            25.1378004774554
          ],
          [
            121.78898624403,
            25.1388435959849
          ],
          [
            121.789043601099,
            25.1389445404664
          ],
          [
            121.789386141375,
            25.1390887289683
          ],
          [
            121.789536197933,
            25.139646652021302
          ],
          [
            121.78969104353,
            25.1400313714941
          ],
          [
            121.789972000489,
            25.1407122132168
          ],
          [
            121.789970404143,
            25.1408494990038
          ],
          [
            121.789778842579,
            25.1411488139464
          ],
          [
            121.7896383641,
            25.1413172284874
          ],
          [
            121.789587281016,
            25.1414752667771
          ],
          [
            121.789555354089,
            25.1417418566193
          ],
          [
            121.789494692927,
            25.1419382072217
          ],
          [
            121.789384545028,
            25.1421090162822
          ],
          [
            121.788896419993,
            25.1426313733467
          ],
          [
            121.78843631529,
            25.1430787966962
          ],
          [
            121.788294240464,
            25.1433102669185
          ],
          [
            121.788289451425,
            25.1434435618396
          ],
          [
            121.789549157152,
            25.1424067944096
          ],
          [
            121.79000319157,
            25.1421350177794
          ],
          [
            121.79190159906,
            25.1413205449031
          ],
          [
            121.792183026162,
            25.1411776958324
          ],
          [
            121.792323418678,
            25.1409676286345
          ],
          [
            121.792490066048,
            25.1404515865569
          ],
          [
            121.792606881504,
            25.140038599956
          ],
          [
            121.792767327345,
            25.1397985115841
          ],
          [
            121.792964951061,
            25.1396827178614
          ],
          [
            121.793205937363,
            25.139569904398
          ],
          [
            121.79357492899,
            25.1395666642218
          ],
          [
            121.7945100196,
            25.1397138035473
          ],
          [
            121.795191420321,
            25.1396387945123
          ],
          [
            121.795624662951,
            25.13956603653
          ],
          [
            121.796252027071,
            25.1395452840273
          ],
          [
            121.796569699997,
            25.1396825698143
          ],
          [
            121.796952823123,
            25.1400162062037
          ],
          [
            121.797099686988,
            25.1400704819799
          ],
          [
            121.797249743546,
            25.140075271019
          ],
          [
            121.797709491298,
            25.1399108473439
          ],
          [
            121.797998429989,
            25.1399108473439
          ],
          [
            121.799307434005,
            25.1399188290757
          ],
          [
            121.799513362685,
            25.1399523523493
          ],
          [
            121.799843806382,
            25.1400736746726
          ],
          [
            121.799768778103,
            25.1401087942926
          ],
          [
            121.799487821144,
            25.140013013511
          ],
          [
            121.799285085156,
            25.1399858756228
          ],
          [
            121.797985659218,
            25.1399715085056
          ],
          [
            121.79771747303,
            25.1399715085056
          ],
          [
            121.79723058739,
            25.1401375285271
          ],
          [
            121.797077756222,
            25.1401282500549
          ],
          [
            121.796930474274,
            25.1400672892872
          ],
          [
            121.796529791338,
            25.139720882127
          ],
          [
            121.796228081876,
            25.139605945189
          ],
          [
            121.795670956996,
            25.1396171196136
          ],
          [
            121.795817820861,
            25.1391238485883
          ],
          [
            121.796121126669,
            25.1387630743108
          ],
          [
            121.796162631675,
            25.1386321739092
          ],
          [
            121.796156246289,
            25.1380574892195
          ],
          [
            121.796248834378,
            25.1377430089865
          ],
          [
            121.79630949554,
            25.1373088027764
          ],
          [
            121.796306302847,
            25.1368011646338
          ],
          [
            121.796191365909,
            25.1363924999655
          ],
          [
            121.796079621664,
            25.1359582937555
          ],
          [
            121.796130704747,
            25.1355272802382
          ],
          [
            121.796715494718,
            25.1346817691029
          ],
          [
            121.796930919559,
            25.1344338212294
          ],
          [
            121.797348717021,
            25.13410972467
          ],
          [
            121.797575398204,
            25.133910181375
          ],
          [
            121.797727894867,
            25.1336725890566
          ],
          [
            121.798187725468,
            25.1325268766747
          ],
          [
            121.798854286635,
            25.1311602652783
          ],
          [
            121.799383993456,
            25.1301143760662
          ],
          [
            121.799556590936,
            25.1295952955829
          ],
          [
            121.79957591155,
            25.1292333560896
          ],
          [
            121.799516661669,
            25.1288920252507
          ],
          [
            121.799289874195,
            25.1280555810981
          ],
          [
            121.799260903321,
            25.1277878384832
          ],
          [
            121.799286664139,
            25.1273911218856
          ],
          [
            121.799438091174,
            25.1269393552441
          ],
          [
            121.79984085131,
            25.126300847989
          ],
          [
            121.799921428522,
            25.1260003734269
          ],
          [
            121.799909836154,
            25.1256442301176
          ],
          [
            121.799686683067,
            25.1252829346448
          ],
          [
            121.799085541861,
            25.1247790801933
          ],
          [
            121.798871928325,
            25.1244637461845
          ],
          [
            121.798748958012,
            25.1237451083165
          ],
          [
            121.798564155422,
            25.1235105903643
          ],
          [
            121.797979706863,
            25.1230095424536
          ],
          [
            121.797906288531,
            25.1228685019749
          ],
          [
            121.79785795151,
            25.1226280034726
          ],
          [
            121.79787551132,
            25.1218202522142
          ],
          [
            121.797861485616,
            25.1215064784563
          ],
          [
            121.797814850158,
            25.1209326836378
          ],
          [
            121.797643528187,
            25.1198686547154
          ],
          [
            121.798307513272,
            25.1197121577458
          ],
          [
            121.798566409493,
            25.1195807775739
          ],
          [
            121.798888741729,
            25.1192916123915
          ],
          [
            121.798986568386,
            25.1190577748375
          ],
          [
            121.798951448766,
            25.1187736251853
          ],
          [
            121.798880047453,
            25.1185104155848
          ],
          [
            121.79830364915,
            25.1178889358498
          ],
          [
            121.798186437427,
            25.1176944416737
          ],
          [
            121.798133982998,
            25.1175024338361
          ],
          [
            121.79811817126,
            25.1167000740977
          ],
          [
            121.798084360186,
            25.11646049849
          ],
          [
            121.798067615654,
            25.1159729750088
          ],
          [
            121.797959420219,
            25.1152684166357
          ],
          [
            121.798019182492,
            25.1142400015216
          ],
          [
            121.797923355073,
            25.1140151528386
          ],
          [
            121.797587820419,
            25.1136319606704
          ],
          [
            121.797566078593,
            25.1134551344637
          ],
          [
            121.797634511901,
            25.1131972468661
          ],
          [
            121.797843174527,
            25.1129170979701
          ],
          [
            121.798072767818,
            25.1127052152418
          ],
          [
            121.798437283393,
            25.1125416340473
          ],
          [
            121.79863242159,
            25.1124875363294
          ],
          [
            121.799703588604,
            25.1123265312167
          ],
          [
            121.801292065046,
            25.1120824474659
          ],
          [
            121.802513771841,
            25.1119072739033
          ],
          [
            121.804181904341,
            25.1112757865407
          ],
          [
            121.804385411777,
            25.1111638420851
          ],
          [
            121.805315260802,
            25.1104408393369
          ],
          [
            121.805522635387,
            25.1103184754513
          ],
          [
            121.806117066263,
            25.1101812990953
          ],
          [
            121.806928119787,
            25.1100797547486
          ],
          [
            121.806476277243,
            25.1094820117132
          ],
          [
            121.806086211752,
            25.1096524833824
          ],
          [
            121.805024035395,
            25.1099329273743
          ],
          [
            121.804719048167,
            25.1099522151975
          ],
          [
            121.804246004374,
            25.1098313606387
          ],
          [
            121.803804769557,
            25.109815013196
          ],
          [
            121.803257754822,
            25.1099485979155
          ],
          [
            121.803081503842,
            25.1096987699425
          ],
          [
            121.802976500535,
            25.1095231101946
          ],
          [
            121.803988900684,
            25.1085944327047
          ],
          [
            121.80935803069,
            25.1073693267863
          ],
          [
            121.810143433099,
            25.1076981741366
          ],
          [
            121.810558483153,
            25.1078226891527
          ],
          [
            121.811359849026,
            25.107956782247
          ],
          [
            121.812154829514,
            25.1078961210853
          ],
          [
            121.81296775407,
            25.1079726124593
          ],
          [
            121.813233959653,
            25.1079982872524
          ],
          [
            121.813558415288,
            25.1081503875591
          ],
          [
            121.815028252962,
            25.1087948640862
          ],
          [
            121.815226199911,
            25.1088459471698
          ],
          [
            121.815411376089,
            25.1088746814042
          ],
          [
            121.816282981202,
            25.1086926979192
          ],
          [
            121.816577890445,
            25.1085358268436
          ],
          [
            121.816865123566,
            25.1084688487168
          ],
          [
            121.817210962548,
            25.1083162158699
          ],
          [
            121.817650506505,
            25.108223476925
          ],
          [
            121.818118779516,
            25.1080717191849
          ],
          [
            121.819587418168,
            25.1073789048645
          ],
          [
            121.820289380302,
            25.1069457403508
          ],
          [
            121.820613000579,
            25.1068452731604
          ],
          [
            121.820887675301,
            25.1068414090377
          ],
          [
            121.822450068915,
            25.1073231363349
          ],
          [
            121.82314367894,
            25.1073488971529
          ],
          [
            121.823616694839,
            25.1074186834407
          ],
          [
            121.824069780348,
            25.1075260027769
          ],
          [
            121.825126617908,
            25.1079813252356
          ],
          [
            121.825319824043,
            25.108139110246
          ],
          [
            121.825875795236,
            25.1090432850766
          ],
          [
            121.826288108791,
            25.1092223526441
          ],
          [
            121.82715850243,
            25.1094786727835
          ],
          [
            121.827833757873,
            25.1094091185749
          ],
          [
            121.828036302304,
            25.1094786727835
          ],
          [
            121.828381819276,
            25.1097047239617
          ],
          [
            121.828947913253,
            25.1101439459092
          ],
          [
            121.829112912775,
            25.1105248538069
          ],
          [
            121.829302446511,
            25.1107699337873
          ],
          [
            121.829933908563,
            25.1112890142706
          ],
          [
            121.830016665191,
            25.1114738481399
          ],
          [
            121.830151909485,
            25.1118660565944
          ],
          [
            121.830243360389,
            25.1119729639893
          ],
          [
            121.830440430647,
            25.1120167573799
          ],
          [
            121.831081553006,
            25.1119278825577
          ],
          [
            121.831248998323,
            25.1118467359809
          ],
          [
            121.831537841495,
            25.1116612580911
          ],
          [
            121.831796737716,
            25.1116908830318
          ],
          [
            121.832035347293,
            25.1118673446353
          ],
          [
            121.832174455711,
            25.1118828011262
          ],
          [
            121.832281363106,
            25.1118364316537
          ],
          [
            121.832478755374,
            25.1116084484141
          ],
          [
            121.832646522701,
            25.1115169975101
          ],
          [
            121.832806239773,
            25.1115118453465
          ],
          [
            121.833253833986,
            25.1116689863365
          ],
          [
            121.833426431467,
            25.111675426541
          ],
          [
            121.833600638999,
            25.1115066931829
          ],
          [
            121.833711410517,
            25.1113257234363
          ],
          [
            121.833817351881,
            25.1112355605732
          ],
          [
            121.833988661321,
            25.1112033595506
          ],
          [
            121.834236287184,
            25.1112213921232
          ],
          [
            121.834747961432,
            25.1110449305197
          ],
          [
            121.835420962803,
            25.1109180584909
          ],
          [
            121.835856642638,
            25.1106997355581
          ],
          [
            121.83605886506,
            25.1106997355581
          ],
          [
            121.836186381109,
            25.1108439961391
          ],
          [
            121.836328387618,
            25.1110314060903
          ],
          [
            121.836661024181,
            25.1111808188348
          ],
          [
            121.837050334543,
            25.1111705145076
          ],
          [
            121.837185578838,
            25.1111099765853
          ],
          [
            121.83754526426,
            25.1105297141591
          ],
          [
            121.837571347088,
            25.1103886736804
          ],
          [
            121.837513385248,
            25.1101329975615
          ],
          [
            121.83750308092,
            25.1099191827718
          ],
          [
            121.837548162352,
            25.1097588216796
          ],
          [
            121.837608700274,
            25.1096313056304
          ],
          [
            121.837799330328,
            25.1095797839943
          ],
          [
            121.837893357314,
            25.1096184252213
          ],
          [
            121.838249178613,
            25.1098657290744
          ],
          [
            121.838638488975,
            25.1098206476429
          ],
          [
            121.838798528057,
            25.1098489845427
          ],
          [
            121.839391348882,
            25.110335219983
          ],
          [
            121.839826062686,
            25.1104157225394
          ],
          [
            121.84000252429,
            25.1103242716354
          ],
          [
            121.840013065428,
            25.1099155423354
          ],
          [
            121.840114905858,
            25.1097098761254
          ],
          [
            121.840296841636,
            25.109512161847
          ],
          [
            121.840428221808,
            25.1092616378916
          ],
          [
            121.840664255303,
            25.1089879292001
          ],
          [
            121.841699196167,
            25.1082421535181
          ],
          [
            121.841845066799,
            25.1081816155957
          ],
          [
            121.842018952321,
            25.1081996481684
          ],
          [
            121.842418567011,
            25.1084276314079
          ],
          [
            121.842565403674,
            25.1086259897067
          ],
          [
            121.842584724287,
            25.1087638100832
          ],
          [
            121.842533202651,
            25.1089924373432
          ],
          [
            121.84254608306,
            25.1091244615356
          ],
          [
            121.842609197064,
            25.1093073633436
          ],
          [
            121.843105736832,
            25.1096538463461
          ],
          [
            121.843551720994,
            25.109885049688
          ],
          [
            121.843641883857,
            25.1098695931971
          ],
          [
            121.843866324984,
            25.1096467621212
          ],
          [
            121.844027652107,
            25.109576563892
          ],
          [
            121.844245331019,
            25.1095752758511
          ],
          [
            121.8443612547,
            25.1096255094463
          ],
          [
            121.844476212351,
            25.1097027919004
          ],
          [
            121.844553494805,
            25.1098225797042
          ],
          [
            121.844767631605,
            25.1104427713983
          ],
          [
            121.844871962918,
            25.1106720426788
          ],
          [
            121.845053898695,
            25.1106810589651
          ],
          [
            121.845248392871,
            25.1106269612472
          ],
          [
            121.845473382008,
            25.110638603256
          ],
          [
            121.84567537843,
            25.1107229202944
          ],
          [
            121.845822215093,
            25.1109212785932
          ],
          [
            121.845940714856,
            25.11123105243
          ],
          [
            121.846055350496,
            25.1113031827205
          ],
          [
            121.84613263295,
            25.1112658295343
          ],
          [
            121.845998998707,
            25.110558051059
          ],
          [
            121.845858602248,
            25.1103526085352
          ],
          [
            121.845235834473,
            25.1100415466575
          ],
          [
            121.845174103329,
            25.1099143605395
          ],
          [
            121.845180448714,
            25.1098399682564
          ],
          [
            121.845262883332,
            25.1097729901295
          ],
          [
            121.845391687422,
            25.1097742781704
          ],
          [
            121.845596485925,
            25.1098373921746
          ],
          [
            121.846007692983,
            25.1101310655001
          ],
          [
            121.846248878642,
            25.1104311790302
          ],
          [
            121.846469133636,
            25.1105689994066
          ],
          [
            121.846838157354,
            25.1106475699016
          ],
          [
            121.847106069862,
            25.1108034228507
          ],
          [
            121.847179810203,
            25.1109206345727
          ],
          [
            121.847486685948,
            25.1116702743774
          ],
          [
            121.847719821351,
            25.1118493120627
          ],
          [
            121.847957142887,
            25.1119517113144
          ],
          [
            121.848526778976,
            25.1120470263411
          ],
          [
            121.848757660308,
            25.1120264176867
          ],
          [
            121.84905648579701,
            25.1118873092693
          ],
          [
            121.849410053024,
            25.1118344995924
          ],
          [
            121.849742689587,
            25.1112742018002
          ],
          [
            121.849787771019,
            25.1110887239104
          ],
          [
            121.849689773809,
            25.1107825116718
          ],
          [
            121.849701472278,
            25.1106546541266
          ],
          [
            121.849859901309,
            25.1102714619584
          ],
          [
            121.849867629554,
            25.1100634433528
          ],
          [
            121.849585548597,
            25.1096615745915
          ],
          [
            121.849557211697,
            25.1095005694789
          ],
          [
            121.849610021374,
            25.1090716518587
          ],
          [
            121.849468336875,
            25.1086858836087
          ],
          [
            121.849458032548,
            25.1081758194117
          ],
          [
            121.849527586756,
            25.107962004622
          ],
          [
            121.849819972041,
            25.1077745946709
          ],
          [
            121.849970672827,
            25.1077385295256
          ],
          [
            121.850115255418,
            25.1077282251984
          ],
          [
            121.85024663559,
            25.1077655783846
          ],
          [
            121.850566484804,
            25.1079679651829
          ],
          [
            121.850728684897,
            25.1079806812151
          ],
          [
            121.850985327047,
            25.1079497682335
          ],
          [
            121.85125608414,
            25.1078861384981
          ],
          [
            121.851436785383,
            25.1074854294885
          ],
          [
            121.851591672301,
            25.1072510060444
          ],
          [
            121.85174060203,
            25.1068491372831
          ],
          [
            121.851871982202,
            25.1067770069927
          ],
          [
            121.852102541524,
            25.1067873113199
          ],
          [
            121.852204618765,
            25.1068530014058
          ],
          [
            121.852337286978,
            25.1070191586821
          ],
          [
            121.852427594206,
            25.107362668223
          ],
          [
            121.852492173896,
            25.1074654648545
          ],
          [
            121.852703412604,
            25.1076354862535
          ],
          [
            121.852866993799,
            25.1076251819263
          ],
          [
            121.853012864431,
            25.1075182745315
          ],
          [
            121.853257559434,
            25.1072489448366
          ],
          [
            121.853441138031,
            25.1069006589192
          ],
          [
            121.853580246448,
            25.1068233764651
          ],
          [
            121.853889698275,
            25.106824664506
          ],
          [
            121.854009486078,
            25.1067847352381
          ],
          [
            121.854371747582,
            25.1065451596304
          ],
          [
            121.854594578658,
            25.1063158883499
          ],
          [
            121.855341320371,
            25.1065425835486
          ],
          [
            121.856225560449,
            25.1068691019171
          ],
          [
            121.856363380826,
            25.1069528245757
          ],
          [
            121.856470288221,
            25.1070790525841
          ],
          [
            121.856480592548,
            25.1071659953449
          ],
          [
            121.856422630707,
            25.1073270004576
          ],
          [
            121.85641232638,
            25.1076213178036
          ],
          [
            121.856324739599,
            25.1079671567856
          ],
          [
            121.856052962969,
            25.1082576100089
          ],
          [
            121.855980832678,
            25.10845918841
          ],
          [
            121.855876501365,
            25.108629209809
          ]
        ]
      }
    },
    {
      "type": "Feature",
      "properties": {
        "feature_type": "route",
        "ref": "788海科館",
        "name": "788海科館",
        "name_en": "788海科館",
        "color": "#0891b2",
        "direction": 1
      },
      "geometry": {
        "type": "LineString",
        "coordinates": [
          [
            121.804678163571,
            25.107210432756
          ],
          [
            121.804322664282,
            25.1061362066441
          ],
          [
            121.804630184047,
            25.1061162420102
          ],
          [
            121.805287406917,
            25.1059481526725
          ],
          [
            121.805528592576,
            25.105817416521
          ],
          [
            121.806456626046,
            25.1052461703812
          ],
          [
            121.806767160547,
            25.1051879194848
          ],
          [
            121.808149596495,
            25.1051336437085
          ],
          [
            121.808280496897,
            25.1051815340994
          ],
          [
            121.808618922325,
            25.1053427650818
          ],
          [
            121.808839218123,
            25.1055534828013
          ],
          [
            121.808979696603,
            25.1057769712918
          ],
          [
            121.809070688345,
            25.1060068451677
          ],
          [
            121.809109000658,
            25.1061952140382
          ]
        ]
      }
    },
    {
      "type": "Feature",
      "properties": {
        "feature_type": "route",
        "ref": "788海科館",
        "name": "788海科館",
        "name_en": "788海科館",
        "color": "#0891b2",
        "direction": 1
      },
      "geometry": {
        "type": "LineString",
        "coordinates": [
          [
            121.809693794841,
            25.1087122884471
          ],
          [
            121.808631161098,
            25.1091128691675
          ],
          [
            121.807669638565,
            25.1095572432785
          ]
        ]
      }
    },
    {
      "type": "Feature",
      "properties": {
        "feature_type": "route",
        "ref": "788海科館",
        "name": "788海科館",
        "name_en": "788海科館",
        "color": "#0891b2",
        "direction": 1
      },
      "geometry": {
        "type": "LineString",
        "coordinates": [
          [
            121.761607211626,
            25.1285110938798
          ],
          [
            121.761317908558,
            25.1287030077962
          ]
        ]
      }
    },
    {
      "type": "Feature",
      "properties": {
        "feature_type": "route",
        "ref": "788海科館",
        "name": "788海科館",
        "name_en": "788海科館",
        "color": "#0891b2",
        "direction": 1
      },
      "geometry": {
        "type": "LineString",
        "coordinates": [
          [
            121.755429275682,
            25.1284669717532
          ],
          [
            121.755124009989,
            25.1284489391806
          ],
          [
            121.753935792257,
            25.1283201350905
          ],
          [
            121.751816320954,
            25.1285184933893
          ],
          [
            121.749199665862,
            25.1287632211606
          ],
          [
            121.748343118663,
            25.1288456557783
          ],
          [
            121.747827902302,
            25.1289152099869
          ],
          [
            121.746340215061,
            25.1297279637958
          ]
        ]
      }
    },
    {
      "type": "Feature",
      "properties": {
        "feature_type": "station",
        "ref": "NWT221347",
        "name": "基隆轉運站",
        "name_en": "Keelung Transit Station",
        "line": "788海科館",
        "color": "#0891b2",
        "direction": 0
      },
      "geometry": {
        "type": "Point",
        "coordinates": [
          121.738733,
          25.132436
        ]
      }
    },
    {
      "type": "Feature",
      "properties": {
        "feature_type": "station",
        "ref": "NWT194663",
        "name": "城隍廟",
        "name_en": "Chenghung Temple",
        "line": "788海科館",
        "color": "#0891b2",
        "direction": 0
      },
      "geometry": {
        "type": "Point",
        "coordinates": [
          121.739953,
          25.13124
        ]
      }
    },
    {
      "type": "Feature",
      "properties": {
        "feature_type": "station",
        "ref": "NWT177695",
        "name": "忠一路孝一路口",
        "name_en": "Zhong 1st & Xiao 1st Intersection",
        "line": "788海科館",
        "color": "#0891b2",
        "direction": 0
      },
      "geometry": {
        "type": "Point",
        "coordinates": [
          121.741476,
          25.130472
        ]
      }
    },
    {
      "type": "Feature",
      "properties": {
        "feature_type": "station",
        "ref": "NWT177696",
        "name": "市政府",
        "name_en": "Keelung City Hall",
        "line": "788海科館",
        "color": "#0891b2",
        "direction": 0
      },
      "geometry": {
        "type": "Point",
        "coordinates": [
          121.744605,
          25.131158
        ]
      }
    },
    {
      "type": "Feature",
      "properties": {
        "feature_type": "station",
        "ref": "NWT177697",
        "name": "衛生福利部基隆醫院",
        "name_en": "Keelung Hospital of the Ministry of Health and Welfare",
        "line": "788海科館",
        "color": "#0891b2",
        "direction": 0
      },
      "geometry": {
        "type": "Point",
        "coordinates": [
          121.7479813,
          25.130097
        ]
      }
    },
    {
      "type": "Feature",
      "properties": {
        "feature_type": "station",
        "ref": "NWT186142",
        "name": "信義區公所",
        "name_en": "Xinyi District Office",
        "line": "788海科館",
        "color": "#0891b2",
        "direction": 0
      },
      "geometry": {
        "type": "Point",
        "coordinates": [
          121.750955,
          25.12955
        ]
      }
    },
    {
      "type": "Feature",
      "properties": {
        "feature_type": "station",
        "ref": "NWT177698",
        "name": "崇右影藝科技大學",
        "name_en": "Chungyu University of Film and Arts",
        "line": "788海科館",
        "color": "#0891b2",
        "direction": 0
      },
      "geometry": {
        "type": "Point",
        "coordinates": [
          121.7534556,
          25.129289
        ]
      }
    },
    {
      "type": "Feature",
      "properties": {
        "feature_type": "station",
        "ref": "NWT204055",
        "name": "市立體育館",
        "name_en": "Municipal Gymnasium",
        "line": "788海科館",
        "color": "#0891b2",
        "direction": 0
      },
      "geometry": {
        "type": "Point",
        "coordinates": [
          121.755723,
          25.129069
        ]
      }
    },
    {
      "type": "Feature",
      "properties": {
        "feature_type": "station",
        "ref": "NWT177699",
        "name": "基隆女中",
        "name_en": "National Keelung Girls’ Senior High School",
        "line": "788海科館",
        "color": "#0891b2",
        "direction": 0
      },
      "geometry": {
        "type": "Point",
        "coordinates": [
          121.7595979,
          25.128485
        ]
      }
    },
    {
      "type": "Feature",
      "properties": {
        "feature_type": "station",
        "ref": "NWT223841",
        "name": "東橋",
        "name_en": "Dong Bridge",
        "line": "788海科館",
        "color": "#0891b2",
        "direction": 0
      },
      "geometry": {
        "type": "Point",
        "coordinates": [
          121.76219,
          25.127618
        ]
      }
    },
    {
      "type": "Feature",
      "properties": {
        "feature_type": "station",
        "ref": "NWT177700",
        "name": "地方法院",
        "name_en": "District Court",
        "line": "788海科館",
        "color": "#0891b2",
        "direction": 0
      },
      "geometry": {
        "type": "Point",
        "coordinates": [
          121.7642542,
          25.128016
        ]
      }
    },
    {
      "type": "Feature",
      "properties": {
        "feature_type": "station",
        "ref": "NWT177701",
        "name": "信中後站",
        "name_en": "Xinzhong Postern ",
        "line": "788海科館",
        "color": "#0891b2",
        "direction": 0
      },
      "geometry": {
        "type": "Point",
        "coordinates": [
          121.767466,
          25.129665
        ]
      }
    },
    {
      "type": "Feature",
      "properties": {
        "feature_type": "station",
        "ref": "NWT177702",
        "name": "環保局(信義大街)",
        "name_en": "Department of Environmental Protection(Xinyi St.)",
        "line": "788海科館",
        "color": "#0891b2",
        "direction": 0
      },
      "geometry": {
        "type": "Point",
        "coordinates": [
          121.7687856,
          25.130942
        ]
      }
    },
    {
      "type": "Feature",
      "properties": {
        "feature_type": "station",
        "ref": "NWT177703",
        "name": "翠峰山莊",
        "name_en": "Cuifong Village  ",
        "line": "788海科館",
        "color": "#0891b2",
        "direction": 0
      },
      "geometry": {
        "type": "Point",
        "coordinates": [
          121.77025,
          25.131808
        ]
      }
    },
    {
      "type": "Feature",
      "properties": {
        "feature_type": "station",
        "ref": "NWT177704",
        "name": "金鳳宮",
        "name_en": "Jinfeng Temple",
        "line": "788海科館",
        "color": "#0891b2",
        "direction": 0
      },
      "geometry": {
        "type": "Point",
        "coordinates": [
          121.770945,
          25.135593
        ]
      }
    },
    {
      "type": "Feature",
      "properties": {
        "feature_type": "station",
        "ref": "NWT177705",
        "name": "大香港社區",
        "name_en": "Daxianggang Community",
        "line": "788海科館",
        "color": "#0891b2",
        "direction": 0
      },
      "geometry": {
        "type": "Point",
        "coordinates": [
          121.771119,
          25.136762
        ]
      }
    },
    {
      "type": "Feature",
      "properties": {
        "feature_type": "station",
        "ref": "NWT177706",
        "name": "美的世界社區",
        "name_en": "Beautiful World Community",
        "line": "788海科館",
        "color": "#0891b2",
        "direction": 0
      },
      "geometry": {
        "type": "Point",
        "coordinates": [
          121.7736333,
          25.136534
        ]
      }
    },
    {
      "type": "Feature",
      "properties": {
        "feature_type": "station",
        "ref": "NWT177707",
        "name": "深澳坑路6巷口",
        "name_en": "Lane 6 Shenaokeng Rd.",
        "line": "788海科館",
        "color": "#0891b2",
        "direction": 0
      },
      "geometry": {
        "type": "Point",
        "coordinates": [
          121.77698,
          25.133083
        ]
      }
    },
    {
      "type": "Feature",
      "properties": {
        "feature_type": "station",
        "ref": "NWT177708",
        "name": "獅子園",
        "name_en": "Shiziyuan",
        "line": "788海科館",
        "color": "#0891b2",
        "direction": 0
      },
      "geometry": {
        "type": "Point",
        "coordinates": [
          121.777149,
          25.130536
        ]
      }
    },
    {
      "type": "Feature",
      "properties": {
        "feature_type": "station",
        "ref": "NWT177709",
        "name": "圓窗口",
        "name_en": "Yuanchuangkou",
        "line": "788海科館",
        "color": "#0891b2",
        "direction": 0
      },
      "geometry": {
        "type": "Point",
        "coordinates": [
          121.778936,
          25.12888
        ]
      }
    },
    {
      "type": "Feature",
      "properties": {
        "feature_type": "station",
        "ref": "NWT177710",
        "name": "麗景江山社區",
        "name_en": "Lijing Jiangshan Community",
        "line": "788海科館",
        "color": "#0891b2",
        "direction": 0
      },
      "geometry": {
        "type": "Point",
        "coordinates": [
          121.78203,
          25.131574
        ]
      }
    },
    {
      "type": "Feature",
      "properties": {
        "feature_type": "station",
        "ref": "NWT177711",
        "name": "第一特獎社區",
        "name_en": "Diyitejiang Community",
        "line": "788海科館",
        "color": "#0891b2",
        "direction": 0
      },
      "geometry": {
        "type": "Point",
        "coordinates": [
          121.7825034,
          25.133075
        ]
      }
    },
    {
      "type": "Feature",
      "properties": {
        "feature_type": "station",
        "ref": "NWT177712",
        "name": "又一村",
        "name_en": "Youyi Village",
        "line": "788海科館",
        "color": "#0891b2",
        "direction": 0
      },
      "geometry": {
        "type": "Point",
        "coordinates": [
          121.7826884,
          25.134359
        ]
      }
    },
    {
      "type": "Feature",
      "properties": {
        "feature_type": "station",
        "ref": "NWT177713",
        "name": "海中天社區",
        "name_en": "Haizhongtian Community",
        "line": "788海科館",
        "color": "#0891b2",
        "direction": 0
      },
      "geometry": {
        "type": "Point",
        "coordinates": [
          121.784515,
          25.135192
        ]
      }
    },
    {
      "type": "Feature",
      "properties": {
        "feature_type": "station",
        "ref": "NWT177714",
        "name": "巴賽隆納社區",
        "name_en": "Basailongna Community",
        "line": "788海科館",
        "color": "#0891b2",
        "direction": 0
      },
      "geometry": {
        "type": "Point",
        "coordinates": [
          121.786079,
          25.135437
        ]
      }
    },
    {
      "type": "Feature",
      "properties": {
        "feature_type": "station",
        "ref": "NWT177715",
        "name": "碧海擎天社區",
        "name_en": "Bihaiqingtian Community",
        "line": "788海科館",
        "color": "#0891b2",
        "direction": 0
      },
      "geometry": {
        "type": "Point",
        "coordinates": [
          121.7877605,
          25.136064
        ]
      }
    },
    {
      "type": "Feature",
      "properties": {
        "feature_type": "station",
        "ref": "NWT177716",
        "name": "普羅旺世社區",
        "name_en": "Provence Community",
        "line": "788海科館",
        "color": "#0891b2",
        "direction": 0
      },
      "geometry": {
        "type": "Point",
        "coordinates": [
          121.788933,
          25.13754
        ]
      }
    },
    {
      "type": "Feature",
      "properties": {
        "feature_type": "station",
        "ref": "NWT177717",
        "name": "八斗高中",
        "name_en": "Keelung Municipal Bado Senior High School",
        "line": "788海科館",
        "color": "#0891b2",
        "direction": 0
      },
      "geometry": {
        "type": "Point",
        "coordinates": [
          121.7895898,
          25.139497
        ]
      }
    },
    {
      "type": "Feature",
      "properties": {
        "feature_type": "station",
        "ref": "NWT177718",
        "name": "福泉寺",
        "name_en": "Fuquan Temple",
        "line": "788海科館",
        "color": "#0891b2",
        "direction": 0
      },
      "geometry": {
        "type": "Point",
        "coordinates": [
          121.78935,
          25.142275
        ]
      }
    },
    {
      "type": "Feature",
      "properties": {
        "feature_type": "station",
        "ref": "NWT177719",
        "name": "義胞新村",
        "name_en": "Yibao New Village",
        "line": "788海科館",
        "color": "#0891b2",
        "direction": 0
      },
      "geometry": {
        "type": "Point",
        "coordinates": [
          121.7896759,
          25.142194
        ]
      }
    },
    {
      "type": "Feature",
      "properties": {
        "feature_type": "station",
        "ref": "NWT177720",
        "name": "嶺林巷",
        "name_en": "Linglinxiang",
        "line": "788海科館",
        "color": "#0891b2",
        "direction": 0
      },
      "geometry": {
        "type": "Point",
        "coordinates": [
          121.7924289,
          25.14029
        ]
      }
    },
    {
      "type": "Feature",
      "properties": {
        "feature_type": "station",
        "ref": "NWT177721",
        "name": "八斗子",
        "name_en": "Badouzi",
        "line": "788海科館",
        "color": "#0891b2",
        "direction": 0
      },
      "geometry": {
        "type": "Point",
        "coordinates": [
          121.7965684,
          25.139651
        ]
      }
    },
    {
      "type": "Feature",
      "properties": {
        "feature_type": "station",
        "ref": "NWT177722",
        "name": "海科館(碧水巷)",
        "name_en": "National Museum of Marine Science & Technology(Bishueixiang)",
        "line": "788海科館",
        "color": "#0891b2",
        "direction": 0
      },
      "geometry": {
        "type": "Point",
        "coordinates": [
          121.7996939,
          25.139934
        ]
      }
    },
    {
      "type": "Feature",
      "properties": {
        "feature_type": "station",
        "ref": "NWT177723",
        "name": "八斗子",
        "name_en": "Badouzi",
        "line": "788海科館",
        "color": "#0891b2",
        "direction": 0
      },
      "geometry": {
        "type": "Point",
        "coordinates": [
          121.7964377,
          25.139705
        ]
      }
    },
    {
      "type": "Feature",
      "properties": {
        "feature_type": "station",
        "ref": "NWT177724",
        "name": "調和市場",
        "name_en": "Diaohe Market",
        "line": "788海科館",
        "color": "#0891b2",
        "direction": 0
      },
      "geometry": {
        "type": "Point",
        "coordinates": [
          121.795963,
          25.138875
        ]
      }
    },
    {
      "type": "Feature",
      "properties": {
        "feature_type": "station",
        "ref": "NWT177725",
        "name": "調和街",
        "name_en": "Diaohe St.",
        "line": "788海科館",
        "color": "#0891b2",
        "direction": 0
      },
      "geometry": {
        "type": "Point",
        "coordinates": [
          121.7962795,
          25.137061
        ]
      }
    },
    {
      "type": "Feature",
      "properties": {
        "feature_type": "station",
        "ref": "NWT177726",
        "name": "調和街觀海街口",
        "name_en": "Diaohe St. & Guanhai St. Intersection",
        "line": "788海科館",
        "color": "#0891b2",
        "direction": 0
      },
      "geometry": {
        "type": "Point",
        "coordinates": [
          121.7961025,
          25.135594
        ]
      }
    },
    {
      "type": "Feature",
      "properties": {
        "feature_type": "station",
        "ref": "NWT177727",
        "name": "調和街(福德宮)",
        "name_en": "Diaohe St.(Fude Temple)",
        "line": "788海科館",
        "color": "#0891b2",
        "direction": 0
      },
      "geometry": {
        "type": "Point",
        "coordinates": [
          121.7985969,
          25.131627
        ]
      }
    },
    {
      "type": "Feature",
      "properties": {
        "feature_type": "station",
        "ref": "NWT177728",
        "name": "碧砂山水社區(維德醫院)",
        "name_en": "Bishashanshui Community",
        "line": "788海科館",
        "color": "#0891b2",
        "direction": 0
      },
      "geometry": {
        "type": "Point",
        "coordinates": [
          121.7994311,
          25.129672
        ]
      }
    },
    {
      "type": "Feature",
      "properties": {
        "feature_type": "station",
        "ref": "NWT199723",
        "name": "悠活台北村社區",
        "name_en": "Yoho Village",
        "line": "788海科館",
        "color": "#0891b2",
        "direction": 0
      },
      "geometry": {
        "type": "Point",
        "coordinates": [
          121.799217,
          25.128256
        ]
      }
    },
    {
      "type": "Feature",
      "properties": {
        "feature_type": "station",
        "ref": "NWT177729",
        "name": "崇慧花園社區",
        "name_en": "Chunghuihuayuan Community",
        "line": "788海科館",
        "color": "#0891b2",
        "direction": 0
      },
      "geometry": {
        "type": "Point",
        "coordinates": [
          121.79923,
          25.125049
        ]
      }
    },
    {
      "type": "Feature",
      "properties": {
        "feature_type": "station",
        "ref": "NWT177730",
        "name": "新北市界(瑞芳區)",
        "name_en": "NewTapiei City Line (Ruifang Dist.)",
        "line": "788海科館",
        "color": "#0891b2",
        "direction": 0
      },
      "geometry": {
        "type": "Point",
        "coordinates": [
          121.798761,
          25.119289
        ]
      }
    },
    {
      "type": "Feature",
      "properties": {
        "feature_type": "station",
        "ref": "NWT177731",
        "name": "龍潭橋",
        "name_en": "Longtan Bridge",
        "line": "788海科館",
        "color": "#0891b2",
        "direction": 0
      },
      "geometry": {
        "type": "Point",
        "coordinates": [
          121.7980085,
          25.11691
        ]
      }
    },
    {
      "type": "Feature",
      "properties": {
        "feature_type": "station",
        "ref": "NWT177732",
        "name": "相思嶺",
        "name_en": "Xiangsiling",
        "line": "788海科館",
        "color": "#0891b2",
        "direction": 0
      },
      "geometry": {
        "type": "Point",
        "coordinates": [
          121.7990451,
          25.112415
        ]
      }
    },
    {
      "type": "Feature",
      "properties": {
        "feature_type": "station",
        "ref": "NWT177733",
        "name": "義方國小",
        "name_en": "Yifang Elementary School",
        "line": "788海科館",
        "color": "#0891b2",
        "direction": 0
      },
      "geometry": {
        "type": "Point",
        "coordinates": [
          121.8025186,
          25.11181
        ]
      }
    },
    {
      "type": "Feature",
      "properties": {
        "feature_type": "station",
        "ref": "NWT177734",
        "name": "瑞芳高工",
        "name_en": "Ruifang Vocational High School",
        "line": "788海科館",
        "color": "#0891b2",
        "direction": 0
      },
      "geometry": {
        "type": "Point",
        "coordinates": [
          121.8046992,
          25.110846
        ]
      }
    },
    {
      "type": "Feature",
      "properties": {
        "feature_type": "station",
        "ref": "NWT177735",
        "name": "祖師廟",
        "name_en": "Zushi Temple",
        "line": "788海科館",
        "color": "#0891b2",
        "direction": 0
      },
      "geometry": {
        "type": "Point",
        "coordinates": [
          121.803841,
          25.108654
        ]
      }
    },
    {
      "type": "Feature",
      "properties": {
        "feature_type": "station",
        "ref": "NWT177736",
        "name": "區民廣場",
        "name_en": "Resident Square",
        "line": "788海科館",
        "color": "#0891b2",
        "direction": 0
      },
      "geometry": {
        "type": "Point",
        "coordinates": [
          121.808298,
          25.107574
        ]
      }
    },
    {
      "type": "Feature",
      "properties": {
        "feature_type": "station",
        "ref": "NWT177738",
        "name": "埔頭",
        "name_en": "Putou",
        "line": "788海科館",
        "color": "#0891b2",
        "direction": 0
      },
      "geometry": {
        "type": "Point",
        "coordinates": [
          121.80978,
          25.10741
        ]
      }
    },
    {
      "type": "Feature",
      "properties": {
        "feature_type": "station",
        "ref": "NWT177739",
        "name": "柑坪里",
        "name_en": "GanPing Village",
        "line": "788海科館",
        "color": "#0891b2",
        "direction": 0
      },
      "geometry": {
        "type": "Point",
        "coordinates": [
          121.8192653,
          25.107474
        ]
      }
    },
    {
      "type": "Feature",
      "properties": {
        "feature_type": "station",
        "ref": "NWT177740",
        "name": "瑞柑國小",
        "name_en": "Rueigan Elementary School",
        "line": "788海科館",
        "color": "#0891b2",
        "direction": 0
      },
      "geometry": {
        "type": "Point",
        "coordinates": [
          121.8231598,
          25.107317
        ]
      }
    },
    {
      "type": "Feature",
      "properties": {
        "feature_type": "station",
        "ref": "NWT177741",
        "name": "流籠腳",
        "name_en": "Liulangjiao",
        "line": "788海科館",
        "color": "#0891b2",
        "direction": 0
      },
      "geometry": {
        "type": "Point",
        "coordinates": [
          121.8264296,
          25.109243
        ]
      }
    },
    {
      "type": "Feature",
      "properties": {
        "feature_type": "station",
        "ref": "NWT222544",
        "name": "九號停車場一",
        "name_en": "No.9 Parking Lot 1",
        "line": "788海科館",
        "color": "#0891b2",
        "direction": 0
      },
      "geometry": {
        "type": "Point",
        "coordinates": [
          121.829554,
          25.11092
        ]
      }
    },
    {
      "type": "Feature",
      "properties": {
        "feature_type": "station",
        "ref": "NWT177742",
        "name": "九號停車場二",
        "name_en": "No.9 Parking Lot 2",
        "line": "788海科館",
        "color": "#0891b2",
        "direction": 0
      },
      "geometry": {
        "type": "Point",
        "coordinates": [
          121.8331352,
          25.111614
        ]
      }
    },
    {
      "type": "Feature",
      "properties": {
        "feature_type": "station",
        "ref": "NWT177743",
        "name": "七番坑",
        "name_en": "Qifankeng",
        "line": "788海科館",
        "color": "#0891b2",
        "direction": 0
      },
      "geometry": {
        "type": "Point",
        "coordinates": [
          121.8389447,
          25.109952
        ]
      }
    },
    {
      "type": "Feature",
      "properties": {
        "feature_type": "station",
        "ref": "NWT177744",
        "name": "大竿林",
        "name_en": "DaGanLin",
        "line": "788海科館",
        "color": "#0891b2",
        "direction": 0
      },
      "geometry": {
        "type": "Point",
        "coordinates": [
          121.8410329,
          25.108666
        ]
      }
    },
    {
      "type": "Feature",
      "properties": {
        "feature_type": "station",
        "ref": "NWT177745",
        "name": "九份派出所",
        "name_en": "Jiufen Police Station",
        "line": "788海科館",
        "color": "#0891b2",
        "direction": 0
      },
      "geometry": {
        "type": "Point",
        "coordinates": [
          121.84294,
          25.109513
        ]
      }
    },
    {
      "type": "Feature",
      "properties": {
        "feature_type": "station",
        "ref": "NWT177746",
        "name": "代天府",
        "name_en": "Daitian Temple",
        "line": "788海科館",
        "color": "#0891b2",
        "direction": 0
      },
      "geometry": {
        "type": "Point",
        "coordinates": [
          121.8452439,
          25.110598
        ]
      }
    },
    {
      "type": "Feature",
      "properties": {
        "feature_type": "station",
        "ref": "NWT177747",
        "name": "九份老街",
        "name_en": "Jiufen Old St.",
        "line": "788海科館",
        "color": "#0891b2",
        "direction": 0
      },
      "geometry": {
        "type": "Point",
        "coordinates": [
          121.845765,
          25.110364
        ]
      }
    },
    {
      "type": "Feature",
      "properties": {
        "feature_type": "station",
        "ref": "NWT177748",
        "name": "隔頂",
        "name_en": "Geding",
        "line": "788海科館",
        "color": "#0891b2",
        "direction": 0
      },
      "geometry": {
        "type": "Point",
        "coordinates": [
          121.8480709,
          25.111958
        ]
      }
    },
    {
      "type": "Feature",
      "properties": {
        "feature_type": "station",
        "ref": "NWT177749",
        "name": "南新山",
        "name_en": "Nanxinshan",
        "line": "788海科館",
        "color": "#0891b2",
        "direction": 0
      },
      "geometry": {
        "type": "Point",
        "coordinates": [
          121.8497563,
          25.109993
        ]
      }
    },
    {
      "type": "Feature",
      "properties": {
        "feature_type": "station",
        "ref": "NWT177750",
        "name": "金瓜橋頭",
        "name_en": "Jingua Bridge",
        "line": "788海科館",
        "color": "#0891b2",
        "direction": 0
      },
      "geometry": {
        "type": "Point",
        "coordinates": [
          121.8501471,
          25.107685
        ]
      }
    },
    {
      "type": "Feature",
      "properties": {
        "feature_type": "station",
        "ref": "NWT177751",
        "name": "六號橋",
        "name_en": "NO.6 Bridge",
        "line": "788海科館",
        "color": "#0891b2",
        "direction": 0
      },
      "geometry": {
        "type": "Point",
        "coordinates": [
          121.8509863,
          25.107894
        ]
      }
    },
    {
      "type": "Feature",
      "properties": {
        "feature_type": "station",
        "ref": "NWT199884",
        "name": "保民堂",
        "name_en": "Baomin Temple",
        "line": "788海科館",
        "color": "#0891b2",
        "direction": 0
      },
      "geometry": {
        "type": "Point",
        "coordinates": [
          121.8519635,
          25.10672
        ]
      }
    },
    {
      "type": "Feature",
      "properties": {
        "feature_type": "station",
        "ref": "NWT177752",
        "name": "新山",
        "name_en": "Xinshan",
        "line": "788海科館",
        "color": "#0891b2",
        "direction": 0
      },
      "geometry": {
        "type": "Point",
        "coordinates": [
          121.8531761,
          25.107299
        ]
      }
    },
    {
      "type": "Feature",
      "properties": {
        "feature_type": "station",
        "ref": "NWT177753",
        "name": "瓜山站",
        "name_en": "Guashan Station",
        "line": "788海科館",
        "color": "#0891b2",
        "direction": 0
      },
      "geometry": {
        "type": "Point",
        "coordinates": [
          121.855507,
          25.106541
        ]
      }
    },
    {
      "type": "Feature",
      "properties": {
        "feature_type": "station",
        "ref": "NWT177754",
        "name": "金瓜石(黃金博物館)",
        "name_en": "Jinguashih(Gold Ecological Park)",
        "line": "788海科館",
        "color": "#0891b2",
        "direction": 0
      },
      "geometry": {
        "type": "Point",
        "coordinates": [
          121.856086,
          25.108453
        ]
      }
    },
    {
      "type": "Feature",
      "properties": {
        "feature_type": "station",
        "ref": "NWT209073",
        "name": "金瓜石(黃金博物館)",
        "name_en": "Jinguashih(Gold Ecological Park)",
        "line": "788海科館",
        "color": "#0891b2",
        "direction": 1
      },
      "geometry": {
        "type": "Point",
        "coordinates": [
          121.85587,
          25.108369
        ]
      }
    },
    {
      "type": "Feature",
      "properties": {
        "feature_type": "station",
        "ref": "NWT209074",
        "name": "瓜山站",
        "name_en": "Guashan Station",
        "line": "788海科館",
        "color": "#0891b2",
        "direction": 1
      },
      "geometry": {
        "type": "Point",
        "coordinates": [
          121.8553,
          25.106668
        ]
      }
    },
    {
      "type": "Feature",
      "properties": {
        "feature_type": "station",
        "ref": "NWT209075",
        "name": "新山",
        "name_en": "Xinshan",
        "line": "788海科館",
        "color": "#0891b2",
        "direction": 1
      },
      "geometry": {
        "type": "Point",
        "coordinates": [
          121.853329,
          25.107282
        ]
      }
    },
    {
      "type": "Feature",
      "properties": {
        "feature_type": "station",
        "ref": "NWT209076",
        "name": "保民堂",
        "name_en": "Baomin Temple",
        "line": "788海科館",
        "color": "#0891b2",
        "direction": 1
      },
      "geometry": {
        "type": "Point",
        "coordinates": [
          121.851965,
          25.106865
        ]
      }
    },
    {
      "type": "Feature",
      "properties": {
        "feature_type": "station",
        "ref": "NWT209077",
        "name": "六號橋",
        "name_en": "NO.6 Bridge",
        "line": "788海科館",
        "color": "#0891b2",
        "direction": 1
      },
      "geometry": {
        "type": "Point",
        "coordinates": [
          121.851482,
          25.107606
        ]
      }
    },
    {
      "type": "Feature",
      "properties": {
        "feature_type": "station",
        "ref": "NWT209078",
        "name": "金瓜橋頭",
        "name_en": "Jingua Bridge Front",
        "line": "788海科館",
        "color": "#0891b2",
        "direction": 1
      },
      "geometry": {
        "type": "Point",
        "coordinates": [
          121.85022,
          25.107899
        ]
      }
    },
    {
      "type": "Feature",
      "properties": {
        "feature_type": "station",
        "ref": "NWT209079",
        "name": "南新山",
        "name_en": "Nanxinshan",
        "line": "788海科館",
        "color": "#0891b2",
        "direction": 1
      },
      "geometry": {
        "type": "Point",
        "coordinates": [
          121.84983,
          25.109899
        ]
      }
    },
    {
      "type": "Feature",
      "properties": {
        "feature_type": "station",
        "ref": "NWT209080",
        "name": "隔頂",
        "name_en": "Geding",
        "line": "788海科館",
        "color": "#0891b2",
        "direction": 1
      },
      "geometry": {
        "type": "Point",
        "coordinates": [
          121.8480656,
          25.11206
        ]
      }
    },
    {
      "type": "Feature",
      "properties": {
        "feature_type": "station",
        "ref": "NWT209081",
        "name": "九份老街",
        "name_en": "Jiufen Old St.",
        "line": "788海科館",
        "color": "#0891b2",
        "direction": 1
      },
      "geometry": {
        "type": "Point",
        "coordinates": [
          121.846055,
          25.110328
        ]
      }
    },
    {
      "type": "Feature",
      "properties": {
        "feature_type": "station",
        "ref": "NWT209082",
        "name": "代天府",
        "name_en": "Daitian Temple",
        "line": "788海科館",
        "color": "#0891b2",
        "direction": 1
      },
      "geometry": {
        "type": "Point",
        "coordinates": [
          121.8452425,
          25.110708
        ]
      }
    },
    {
      "type": "Feature",
      "properties": {
        "feature_type": "station",
        "ref": "NWT209083",
        "name": "九份派出所",
        "name_en": "Jiufen Police Station",
        "line": "788海科館",
        "color": "#0891b2",
        "direction": 1
      },
      "geometry": {
        "type": "Point",
        "coordinates": [
          121.8425581,
          25.109443
        ]
      }
    },
    {
      "type": "Feature",
      "properties": {
        "feature_type": "station",
        "ref": "NWT209084",
        "name": "大竿林",
        "name_en": "DaGanLin",
        "line": "788海科館",
        "color": "#0891b2",
        "direction": 1
      },
      "geometry": {
        "type": "Point",
        "coordinates": [
          121.840997,
          25.10886
        ]
      }
    },
    {
      "type": "Feature",
      "properties": {
        "feature_type": "station",
        "ref": "NWT209085",
        "name": "七番坑",
        "name_en": "Qifankeng",
        "line": "788海科館",
        "color": "#0891b2",
        "direction": 1
      },
      "geometry": {
        "type": "Point",
        "coordinates": [
          121.83886,
          25.110036
        ]
      }
    },
    {
      "type": "Feature",
      "properties": {
        "feature_type": "station",
        "ref": "NWT209086",
        "name": "九號停車場二",
        "name_en": "No.9 Parking Lot 2",
        "line": "788海科館",
        "color": "#0891b2",
        "direction": 1
      },
      "geometry": {
        "type": "Point",
        "coordinates": [
          121.833091,
          25.111716
        ]
      }
    },
    {
      "type": "Feature",
      "properties": {
        "feature_type": "station",
        "ref": "NWT209087",
        "name": "九號停車場一",
        "name_en": "No.9 Parking Lot 1",
        "line": "788海科館",
        "color": "#0891b2",
        "direction": 1
      },
      "geometry": {
        "type": "Point",
        "coordinates": [
          121.82941,
          25.11104
        ]
      }
    },
    {
      "type": "Feature",
      "properties": {
        "feature_type": "station",
        "ref": "NWT209088",
        "name": "流籠腳",
        "name_en": "Liulangjiao",
        "line": "788海科館",
        "color": "#0891b2",
        "direction": 1
      },
      "geometry": {
        "type": "Point",
        "coordinates": [
          121.8263792,
          25.109359
        ]
      }
    },
    {
      "type": "Feature",
      "properties": {
        "feature_type": "station",
        "ref": "NWT209089",
        "name": "瑞柑國小",
        "name_en": "Rueigan Elementary School",
        "line": "788海科館",
        "color": "#0891b2",
        "direction": 1
      },
      "geometry": {
        "type": "Point",
        "coordinates": [
          121.8229426,
          25.107452
        ]
      }
    },
    {
      "type": "Feature",
      "properties": {
        "feature_type": "station",
        "ref": "NWT209090",
        "name": "柑坪里",
        "name_en": "GanPing Village",
        "line": "788海科館",
        "color": "#0891b2",
        "direction": 1
      },
      "geometry": {
        "type": "Point",
        "coordinates": [
          121.8191379,
          25.107673
        ]
      }
    },
    {
      "type": "Feature",
      "properties": {
        "feature_type": "station",
        "ref": "NWT209091",
        "name": "埔頭",
        "name_en": "Putou",
        "line": "788海科館",
        "color": "#0891b2",
        "direction": 1
      },
      "geometry": {
        "type": "Point",
        "coordinates": [
          121.809858,
          25.107608
        ]
      }
    },
    {
      "type": "Feature",
      "properties": {
        "feature_type": "station",
        "ref": "NWT209092",
        "name": "區民廣場",
        "name_en": "Resident Square",
        "line": "788海科館",
        "color": "#0891b2",
        "direction": 1
      },
      "geometry": {
        "type": "Point",
        "coordinates": [
          121.807937,
          25.107778
        ]
      }
    },
    {
      "type": "Feature",
      "properties": {
        "feature_type": "station",
        "ref": "NWT209093",
        "name": "瑞芳火車站",
        "name_en": "Ruifang Rail Sta.",
        "line": "788海科館",
        "color": "#0891b2",
        "direction": 1
      },
      "geometry": {
        "type": "Point",
        "coordinates": [
          121.8058805,
          25.108227
        ]
      }
    },
    {
      "type": "Feature",
      "properties": {
        "feature_type": "station",
        "ref": "NWT209094",
        "name": "東和里",
        "name_en": "Donghe Village",
        "line": "788海科館",
        "color": "#0891b2",
        "direction": 1
      },
      "geometry": {
        "type": "Point",
        "coordinates": [
          121.804811,
          25.105984
        ]
      }
    },
    {
      "type": "Feature",
      "properties": {
        "feature_type": "station",
        "ref": "NWT209095",
        "name": "舊站",
        "name_en": "Jiuzhan",
        "line": "788海科館",
        "color": "#0891b2",
        "direction": 1
      },
      "geometry": {
        "type": "Point",
        "coordinates": [
          121.80905,
          25.105885
        ]
      }
    },
    {
      "type": "Feature",
      "properties": {
        "feature_type": "station",
        "ref": "NWT209096",
        "name": "瑞芳火車站(逢甲路)",
        "name_en": "Ruifang Rail Sta.(Fengjia Rd.)",
        "line": "788海科館",
        "color": "#0891b2",
        "direction": 1
      },
      "geometry": {
        "type": "Point",
        "coordinates": [
          121.806967,
          25.110138
        ]
      }
    },
    {
      "type": "Feature",
      "properties": {
        "feature_type": "station",
        "ref": "NWT209097",
        "name": "瑞芳高工",
        "name_en": "Ruifang Vocational High School",
        "line": "788海科館",
        "color": "#0891b2",
        "direction": 1
      },
      "geometry": {
        "type": "Point",
        "coordinates": [
          121.8046925,
          25.111007
        ]
      }
    },
    {
      "type": "Feature",
      "properties": {
        "feature_type": "station",
        "ref": "NWT209098",
        "name": "義方國小",
        "name_en": "Yifang Elementary School",
        "line": "788海科館",
        "color": "#0891b2",
        "direction": 1
      },
      "geometry": {
        "type": "Point",
        "coordinates": [
          121.802711,
          25.111928
        ]
      }
    },
    {
      "type": "Feature",
      "properties": {
        "feature_type": "station",
        "ref": "NWT209099",
        "name": "福德宮",
        "name_en": "Fude Temple",
        "line": "788海科館",
        "color": "#0891b2",
        "direction": 1
      },
      "geometry": {
        "type": "Point",
        "coordinates": [
          121.800731,
          25.112286
        ]
      }
    },
    {
      "type": "Feature",
      "properties": {
        "feature_type": "station",
        "ref": "NWT209100",
        "name": "相思嶺",
        "name_en": "Xiangsiling",
        "line": "788海科館",
        "color": "#0891b2",
        "direction": 1
      },
      "geometry": {
        "type": "Point",
        "coordinates": [
          121.7988333,
          25.112595
        ]
      }
    },
    {
      "type": "Feature",
      "properties": {
        "feature_type": "station",
        "ref": "NWT209101",
        "name": "龍潭橋",
        "name_en": "Longtan Bridge",
        "line": "788海科館",
        "color": "#0891b2",
        "direction": 1
      },
      "geometry": {
        "type": "Point",
        "coordinates": [
          121.79819,
          25.116881
        ]
      }
    },
    {
      "type": "Feature",
      "properties": {
        "feature_type": "station",
        "ref": "NWT209102",
        "name": "新北市界(瑞芳區)",
        "name_en": "NewTapiei City Line (Ruifang Dist.)",
        "line": "788海科館",
        "color": "#0891b2",
        "direction": 1
      },
      "geometry": {
        "type": "Point",
        "coordinates": [
          121.7987152,
          25.119575
        ]
      }
    },
    {
      "type": "Feature",
      "properties": {
        "feature_type": "station",
        "ref": "NWT209103",
        "name": "調和街口",
        "name_en": "Diaohe St. Entrance",
        "line": "788海科館",
        "color": "#0891b2",
        "direction": 1
      },
      "geometry": {
        "type": "Point",
        "coordinates": [
          121.7977845,
          25.120184
        ]
      }
    },
    {
      "type": "Feature",
      "properties": {
        "feature_type": "station",
        "ref": "NWT209104",
        "name": "崇慧花園社區",
        "name_en": "Chunghuihuayuan Community",
        "line": "788海科館",
        "color": "#0891b2",
        "direction": 1
      },
      "geometry": {
        "type": "Point",
        "coordinates": [
          121.798976,
          25.124472
        ]
      }
    },
    {
      "type": "Feature",
      "properties": {
        "feature_type": "station",
        "ref": "NWT209105",
        "name": "悠活台北村社區",
        "name_en": "Yoho Village",
        "line": "788海科館",
        "color": "#0891b2",
        "direction": 1
      },
      "geometry": {
        "type": "Point",
        "coordinates": [
          121.799379,
          25.127856
        ]
      }
    },
    {
      "type": "Feature",
      "properties": {
        "feature_type": "station",
        "ref": "NWT209106",
        "name": "碧砂山水社區(維德醫院)",
        "name_en": "Bishashanshui Community ",
        "line": "788海科館",
        "color": "#0891b2",
        "direction": 1
      },
      "geometry": {
        "type": "Point",
        "coordinates": [
          121.79965,
          25.129613
        ]
      }
    },
    {
      "type": "Feature",
      "properties": {
        "feature_type": "station",
        "ref": "NWT209107",
        "name": "調和街(福德宮)",
        "name_en": "Diaohe St.(Fude Temple)",
        "line": "788海科館",
        "color": "#0891b2",
        "direction": 1
      },
      "geometry": {
        "type": "Point",
        "coordinates": [
          121.7986737,
          25.131745
        ]
      }
    },
    {
      "type": "Feature",
      "properties": {
        "feature_type": "station",
        "ref": "NWT209108",
        "name": "調和街觀海街口",
        "name_en": "Diaohe St. & Guanhai St. Intersection",
        "line": "788海科館",
        "color": "#0891b2",
        "direction": 1
      },
      "geometry": {
        "type": "Point",
        "coordinates": [
          121.796288,
          25.13565
        ]
      }
    },
    {
      "type": "Feature",
      "properties": {
        "feature_type": "station",
        "ref": "NWT209109",
        "name": "調和街",
        "name_en": "Diaohe St.",
        "line": "788海科館",
        "color": "#0891b2",
        "direction": 1
      },
      "geometry": {
        "type": "Point",
        "coordinates": [
          121.7964045,
          25.13717
        ]
      }
    },
    {
      "type": "Feature",
      "properties": {
        "feature_type": "station",
        "ref": "NWT209110",
        "name": "調和市場",
        "name_en": "Diaohe Market",
        "line": "788海科館",
        "color": "#0891b2",
        "direction": 1
      },
      "geometry": {
        "type": "Point",
        "coordinates": [
          121.796428,
          25.138959
        ]
      }
    },
    {
      "type": "Feature",
      "properties": {
        "feature_type": "station",
        "ref": "NWT209111",
        "name": "八斗子",
        "name_en": "Badouzi",
        "line": "788海科館",
        "color": "#0891b2",
        "direction": 1
      },
      "geometry": {
        "type": "Point",
        "coordinates": [
          121.7965684,
          25.139651
        ]
      }
    },
    {
      "type": "Feature",
      "properties": {
        "feature_type": "station",
        "ref": "NWT209112",
        "name": "海科館(碧水巷)",
        "name_en": "National Museum of Marine Science & Technology(Bishueixiang)",
        "line": "788海科館",
        "color": "#0891b2",
        "direction": 1
      },
      "geometry": {
        "type": "Point",
        "coordinates": [
          121.7996939,
          25.139934
        ]
      }
    },
    {
      "type": "Feature",
      "properties": {
        "feature_type": "station",
        "ref": "NWT209113",
        "name": "八斗子",
        "name_en": "Badouzi",
        "line": "788海科館",
        "color": "#0891b2",
        "direction": 1
      },
      "geometry": {
        "type": "Point",
        "coordinates": [
          121.7964377,
          25.139705
        ]
      }
    },
    {
      "type": "Feature",
      "properties": {
        "feature_type": "station",
        "ref": "NWT209114",
        "name": "嶺林巷",
        "name_en": "Linglinxiang",
        "line": "788海科館",
        "color": "#0891b2",
        "direction": 1
      },
      "geometry": {
        "type": "Point",
        "coordinates": [
          121.792394,
          25.140914
        ]
      }
    },
    {
      "type": "Feature",
      "properties": {
        "feature_type": "station",
        "ref": "NWT209115",
        "name": "義胞新村",
        "name_en": "Yibao New Village ",
        "line": "788海科館",
        "color": "#0891b2",
        "direction": 1
      },
      "geometry": {
        "type": "Point",
        "coordinates": [
          121.79064,
          25.141972
        ]
      }
    },
    {
      "type": "Feature",
      "properties": {
        "feature_type": "station",
        "ref": "NWT209116",
        "name": "福泉寺",
        "name_en": "Fuquan Temple",
        "line": "788海科館",
        "color": "#0891b2",
        "direction": 1
      },
      "geometry": {
        "type": "Point",
        "coordinates": [
          121.7892357,
          25.14209
        ]
      }
    },
    {
      "type": "Feature",
      "properties": {
        "feature_type": "station",
        "ref": "NWT209117",
        "name": "八斗高中",
        "name_en": "Keelung Municipal Bado Senior High School",
        "line": "788海科館",
        "color": "#0891b2",
        "direction": 1
      },
      "geometry": {
        "type": "Point",
        "coordinates": [
          121.7894476,
          25.139473
        ]
      }
    },
    {
      "type": "Feature",
      "properties": {
        "feature_type": "station",
        "ref": "NWT209118",
        "name": "普羅旺世社區",
        "name_en": "Provence Community",
        "line": "788海科館",
        "color": "#0891b2",
        "direction": 1
      },
      "geometry": {
        "type": "Point",
        "coordinates": [
          121.7887154,
          25.137484
        ]
      }
    },
    {
      "type": "Feature",
      "properties": {
        "feature_type": "station",
        "ref": "NWT209119",
        "name": "碧海擎天社區",
        "name_en": "Bihaiqingtian Community",
        "line": "788海科館",
        "color": "#0891b2",
        "direction": 1
      },
      "geometry": {
        "type": "Point",
        "coordinates": [
          121.7877095,
          25.136185
        ]
      }
    },
    {
      "type": "Feature",
      "properties": {
        "feature_type": "station",
        "ref": "NWT209120",
        "name": "巴賽隆納社區",
        "name_en": "Barcelona community",
        "line": "788海科館",
        "color": "#0891b2",
        "direction": 1
      },
      "geometry": {
        "type": "Point",
        "coordinates": [
          121.78552,
          25.135574
        ]
      }
    },
    {
      "type": "Feature",
      "properties": {
        "feature_type": "station",
        "ref": "NWT209121",
        "name": "海中天社區",
        "name_en": "Haizhongtian Community",
        "line": "788海科館",
        "color": "#0891b2",
        "direction": 1
      },
      "geometry": {
        "type": "Point",
        "coordinates": [
          121.7843729,
          25.135299
        ]
      }
    },
    {
      "type": "Feature",
      "properties": {
        "feature_type": "station",
        "ref": "NWT209122",
        "name": "第一特獎社區",
        "name_en": "Diyitejiang Community",
        "line": "788海科館",
        "color": "#0891b2",
        "direction": 1
      },
      "geometry": {
        "type": "Point",
        "coordinates": [
          121.7823478,
          25.133092
        ]
      }
    },
    {
      "type": "Feature",
      "properties": {
        "feature_type": "station",
        "ref": "NWT209123",
        "name": "麗景江山社區",
        "name_en": "Lijing Jiangshan Community",
        "line": "788海科館",
        "color": "#0891b2",
        "direction": 1
      },
      "geometry": {
        "type": "Point",
        "coordinates": [
          121.7820152,
          25.131863
        ]
      }
    },
    {
      "type": "Feature",
      "properties": {
        "feature_type": "station",
        "ref": "NWT209124",
        "name": "圓窗口",
        "name_en": "Yuanchuangkou",
        "line": "788海科館",
        "color": "#0891b2",
        "direction": 1
      },
      "geometry": {
        "type": "Point",
        "coordinates": [
          121.77902,
          25.129015
        ]
      }
    },
    {
      "type": "Feature",
      "properties": {
        "feature_type": "station",
        "ref": "NWT209125",
        "name": "獅子園",
        "name_en": "Shiziyuan   ",
        "line": "788海科館",
        "color": "#0891b2",
        "direction": 1
      },
      "geometry": {
        "type": "Point",
        "coordinates": [
          121.77734,
          25.130526
        ]
      }
    },
    {
      "type": "Feature",
      "properties": {
        "feature_type": "station",
        "ref": "NWT209126",
        "name": "深澳坑路6巷口",
        "name_en": "Lane 6 Shenaokeng Rd.",
        "line": "788海科館",
        "color": "#0891b2",
        "direction": 1
      },
      "geometry": {
        "type": "Point",
        "coordinates": [
          121.777122,
          25.13336
        ]
      }
    },
    {
      "type": "Feature",
      "properties": {
        "feature_type": "station",
        "ref": "NWT209127",
        "name": "美的世界社區",
        "name_en": "Beautiful World Community",
        "line": "788海科館",
        "color": "#0891b2",
        "direction": 1
      },
      "geometry": {
        "type": "Point",
        "coordinates": [
          121.773702,
          25.136623
        ]
      }
    },
    {
      "type": "Feature",
      "properties": {
        "feature_type": "station",
        "ref": "NWT209128",
        "name": "大香港社區",
        "name_en": "Daxianggang Community",
        "line": "788海科館",
        "color": "#0891b2",
        "direction": 1
      },
      "geometry": {
        "type": "Point",
        "coordinates": [
          121.771055,
          25.136956
        ]
      }
    },
    {
      "type": "Feature",
      "properties": {
        "feature_type": "station",
        "ref": "NWT209129",
        "name": "金鳳宮",
        "name_en": "Jinfeng Temple",
        "line": "788海科館",
        "color": "#0891b2",
        "direction": 1
      },
      "geometry": {
        "type": "Point",
        "coordinates": [
          121.770743,
          25.135585
        ]
      }
    },
    {
      "type": "Feature",
      "properties": {
        "feature_type": "station",
        "ref": "NWT209130",
        "name": "翠峰山莊",
        "name_en": "Cuifong Village",
        "line": "788海科館",
        "color": "#0891b2",
        "direction": 1
      },
      "geometry": {
        "type": "Point",
        "coordinates": [
          121.7701229,
          25.131931
        ]
      }
    },
    {
      "type": "Feature",
      "properties": {
        "feature_type": "station",
        "ref": "NWT209131",
        "name": "環保局(信義大街)",
        "name_en": "Department of Environmental Protection(Xinyi St.)",
        "line": "788海科館",
        "color": "#0891b2",
        "direction": 1
      },
      "geometry": {
        "type": "Point",
        "coordinates": [
          121.7687658,
          25.131097
        ]
      }
    },
    {
      "type": "Feature",
      "properties": {
        "feature_type": "station",
        "ref": "NWT209132",
        "name": "信中後站",
        "name_en": "Xinzhong Postern ",
        "line": "788海科館",
        "color": "#0891b2",
        "direction": 1
      },
      "geometry": {
        "type": "Point",
        "coordinates": [
          121.767331,
          25.129605
        ]
      }
    },
    {
      "type": "Feature",
      "properties": {
        "feature_type": "station",
        "ref": "NWT209133",
        "name": "地方法院",
        "name_en": "District Court",
        "line": "788海科館",
        "color": "#0891b2",
        "direction": 1
      },
      "geometry": {
        "type": "Point",
        "coordinates": [
          121.7641469,
          25.128298
        ]
      }
    },
    {
      "type": "Feature",
      "properties": {
        "feature_type": "station",
        "ref": "NWT220225",
        "name": "市立醫院",
        "name_en": "Municipal Hospital",
        "line": "788海科館",
        "color": "#0891b2",
        "direction": 1
      },
      "geometry": {
        "type": "Point",
        "coordinates": [
          121.761016,
          25.128782
        ]
      }
    },
    {
      "type": "Feature",
      "properties": {
        "feature_type": "station",
        "ref": "NWT209134",
        "name": "基隆女中",
        "name_en": "National Keelung Girls’ Senior High School",
        "line": "788海科館",
        "color": "#0891b2",
        "direction": 1
      },
      "geometry": {
        "type": "Point",
        "coordinates": [
          121.7590105,
          25.128565
        ]
      }
    },
    {
      "type": "Feature",
      "properties": {
        "feature_type": "station",
        "ref": "NWT209135",
        "name": "義九路口",
        "name_en": "Yi 9th Rd. Entrance",
        "line": "788海科館",
        "color": "#0891b2",
        "direction": 1
      },
      "geometry": {
        "type": "Point",
        "coordinates": [
          121.755661,
          25.128498
        ]
      }
    },
    {
      "type": "Feature",
      "properties": {
        "feature_type": "station",
        "ref": "NWT209136",
        "name": "義七路口",
        "name_en": "Yi 7th Rd. Entrance",
        "line": "788海科館",
        "color": "#0891b2",
        "direction": 1
      },
      "geometry": {
        "type": "Point",
        "coordinates": [
          121.752493,
          25.128476
        ]
      }
    },
    {
      "type": "Feature",
      "properties": {
        "feature_type": "station",
        "ref": "NWT209137",
        "name": "衛生福利部基隆醫院",
        "name_en": "Keelung Hospital of the Ministry of Health and Welfare",
        "line": "788海科館",
        "color": "#0891b2",
        "direction": 1
      },
      "geometry": {
        "type": "Point",
        "coordinates": [
          121.747663,
          25.129048
        ]
      }
    },
    {
      "type": "Feature",
      "properties": {
        "feature_type": "station",
        "ref": "NWT209138",
        "name": "義二路口",
        "name_en": "Yier Rd. Entrance",
        "line": "788海科館",
        "color": "#0891b2",
        "direction": 1
      },
      "geometry": {
        "type": "Point",
        "coordinates": [
          121.7459803,
          25.130007
        ]
      }
    },
    {
      "type": "Feature",
      "properties": {
        "feature_type": "station",
        "ref": "NWT209139",
        "name": "基隆轉運站",
        "name_en": "Keelung Transit Station",
        "line": "788海科館",
        "color": "#0891b2",
        "direction": 1
      },
      "geometry": {
        "type": "Point",
        "coordinates": [
          121.738733,
          25.132436
        ]
      }
    }
  ]
}
