{
  "type": "FeatureCollection",
  "name": "103",
  "properties": {
    "id": "taoyuan_103",
    "name": "103",
    "name_en": "103",
    "ref": "103",
    "color": "#b45309",
    "city_id": "Taoyuan",
    "source": "TDX Bus Shape / StopOfRoute",
    "official_map_url": "http://ebus.tycg.gov.tw/cms/api/route/3060/map/2443/image",
    "operator_id": "1",
    "operator": "桃園客運",
    "operator_en": "Taoyuan Bus Co., Ltd.",
    "loop": true
  },
  "features": [
    {
      "type": "Feature",
      "properties": {
        "feature_type": "route",
        "ref": "103",
        "name": "103",
        "name_en": "103",
        "color": "#b45309",
        "direction": 0,
        "loop": true
      },
      "geometry": {
        "type": "LineString",
        "coordinates": [
          [
            121.31408,
            24.98765
          ],
          [
            121.31483,
            24.98222
          ],
          [
            121.31462,
            24.98018
          ],
          [
            121.31460063416193,
            24.977653343866248
          ],
          [
            121.31459762555994,
            24.977629822155446
          ],
          [
            121.31458910365427,
            24.9776074604769
          ],
          [
            121.31457547376223,
            24.977587317177054
          ],
          [
            121.31455738421012,
            24.977570350402225
          ],
          [
            121.31453569545467,
            24.97755736720252
          ],
          [
            121.31451163565148,
            24.977549031593576
          ],
          [
            121.31286,
            24.97716
          ],
          [
            121.31050476042743,
            24.97766935624661
          ],
          [
            121.31047770396309,
            24.977672320304766
          ],
          [
            121.31045080221908,
            24.97766962220469
          ],
          [
            121.3104252653977,
            24.9776614414317
          ],
          [
            121.31040241611095,
            24.977648201687273
          ],
          [
            121.31038343777716,
            24.977630588688918
          ],
          [
            121.31036917924206,
            24.97760925057104
          ],
          [
            121.30929,
            24.97549
          ],
          [
            121.30838,
            24.9741
          ],
          [
            121.30808,
            24.97363
          ],
          [
            121.30798,
            24.97331
          ],
          [
            121.30841,
            24.97191
          ],
          [
            121.30876,
            24.97076
          ],
          [
            121.30882,
            24.97061
          ],
          [
            121.30884,
            24.97042
          ],
          [
            121.30892,
            24.96911
          ],
          [
            121.30904,
            24.96765
          ],
          [
            121.30909,
            24.96709
          ],
          [
            121.30915,
            24.96654
          ],
          [
            121.30921886294627,
            24.965526880558226
          ],
          [
            121.30921778313233,
            24.965504170420225
          ],
          [
            121.30921152880244,
            24.965482119440267
          ],
          [
            121.30920037213323,
            24.96546174535983
          ],
          [
            121.30918480431765,
            24.96544394518542
          ],
          [
            121.30916551075755,
            24.965429502602593
          ],
          [
            121.30914360495443,
            24.965419147698412
          ],
          [
            121.30833,
            24.96513
          ],
          [
            121.30683315007019,
            24.964567132726565
          ],
          [
            121.30681304233309,
            24.964557358623743
          ],
          [
            121.30679513495865,
            24.964544073871465
          ],
          [
            121.30678037509988,
            24.964527881698025
          ],
          [
            121.30676931855312,
            24.964509391834923
          ],
          [
            121.30676238166305,
            24.96448930053534
          ],
          [
            121.30675982540558,
            24.964468353844275
          ],
          [
            121.3067429375023,
            24.9633510286013
          ],
          [
            121.30673730848811,
            24.96331947699158
          ],
          [
            121.30672186424346,
            24.963290798844422
          ],
          [
            121.30669794298149,
            24.963267468870928
          ],
          [
            121.30666761767422,
            24.96325150880317
          ],
          [
            121.30663351625634,
            24.963244301710912
          ],
          [
            121.30659842263469,
            24.96324650655766
          ],
          [
            121.30633,
            24.9633
          ],
          [
            121.30471,
            24.96351
          ],
          [
            121.3032,
            24.96374
          ],
          [
            121.30238,
            24.96387
          ],
          [
            121.30186,
            24.96395
          ],
          [
            121.30126,
            24.96402
          ],
          [
            121.30049617593087,
            24.964142940501326
          ],
          [
            121.300465285455,
            24.96414422448871
          ],
          [
            121.30043521201085,
            24.96413823751526
          ],
          [
            121.3004078293993,
            24.96412540361563
          ],
          [
            121.30038497248754,
            24.964106582769904
          ],
          [
            121.3003681728824,
            24.96408303613434
          ],
          [
            121.30035852769585,
            24.964056204338796
          ],
          [
            121.30018,
            24.9632
          ],
          [
            121.30009,
            24.96274
          ],
          [
            121.30001,
            24.96238
          ],
          [
            121.29991,
            24.96184
          ],
          [
            121.29981,
            24.96123
          ],
          [
            121.29969,
            24.96062
          ],
          [
            121.29946,
            24.95908
          ],
          [
            121.29923946065949,
            24.957734504546817
          ],
          [
            121.29923930268556,
            24.95770361498318
          ],
          [
            121.29924873024741,
            24.957673833889636
          ],
          [
            121.29926699254904,
            24.957647699854775
          ],
          [
            121.29929260037795,
            24.957627343997217
          ],
          [
            121.29932346552539,
            24.957614426249968
          ],
          [
            121.29935707106992,
            24.95761
          ],
          [
            121.29977,
            24.95761
          ],
          [
            121.30221,
            24.95766
          ],
          [
            121.30288,
            24.95768
          ],
          [
            121.30356,
            24.95769
          ],
          [
            121.30457,
            24.95755
          ],
          [
            121.30536,
            24.95744
          ],
          [
            121.30602,
            24.95749
          ],
          [
            121.30659,
            24.95755
          ],
          [
            121.307,
            24.95758
          ],
          [
            121.30723,
            24.95764
          ],
          [
            121.30767,
            24.95782
          ],
          [
            121.30846,
            24.95815
          ],
          [
            121.3087,
            24.95818
          ],
          [
            121.30886,
            24.95815
          ],
          [
            121.30905,
            24.95811
          ],
          [
            121.3093,
            24.95805
          ],
          [
            121.30982,
            24.95795
          ],
          [
            121.31033,
            24.95783
          ],
          [
            121.31053,
            24.95777
          ],
          [
            121.31081,
            24.95762
          ],
          [
            121.31184,
            24.95709
          ],
          [
            121.31204,
            24.95711
          ],
          [
            121.31243,
            24.95718
          ],
          [
            121.31345,
            24.95706
          ],
          [
            121.31408,
            24.95706
          ],
          [
            121.31479,
            24.95676
          ],
          [
            121.31496,
            24.95669
          ],
          [
            121.3152,
            24.95661
          ],
          [
            121.31586,
            24.95652
          ],
          [
            121.31617,
            24.95651
          ],
          [
            121.31644,
            24.95654
          ],
          [
            121.31676,
            24.95663
          ],
          [
            121.31693,
            24.95674
          ],
          [
            121.31708,
            24.95685
          ],
          [
            121.31809,
            24.95791
          ],
          [
            121.31876,
            24.95859
          ],
          [
            121.3199754631167,
            24.959920971067923
          ],
          [
            121.31999458695374,
            24.959950631911312
          ],
          [
            121.32000260140371,
            24.95998464235264
          ],
          [
            121.31999842095381,
            24.960019221014214
          ],
          [
            121.31998247491802,
            24.960050816818065
          ],
          [
            121.3199564008848,
            24.960076185012717
          ],
          [
            121.31992312195383,
            24.960092642250245
          ],
          [
            121.31889,
            24.96042
          ],
          [
            121.3188,
            24.96022
          ],
          [
            121.31903,
            24.9601
          ],
          [
            121.31916357344497,
            24.96033346928476
          ],
          [
            121.31918693107977,
            24.960362017089402
          ],
          [
            121.3192188452097,
            24.960381990222515
          ],
          [
            121.31925609357708,
            24.96039155053838
          ],
          [
            121.31929473187253,
            24.960389685674663
          ],
          [
            121.31933066860417,
            24.96037659310579
          ],
          [
            121.31936036352637,
            24.960353371559936
          ],
          [
            121.31979522690318,
            24.959883632463097
          ],
          [
            121.31981006347017,
            24.95986314975144
          ],
          [
            121.31981957709738,
            24.959839781579138
          ],
          [
            121.3198230008877,
            24.959815048082515
          ],
          [
            121.31982015427477,
            24.959790253674633
          ],
          [
            121.31981118738538,
            24.959766705980947
          ],
          [
            121.31979682937977,
            24.95974593725948
          ],
          [
            121.31895,
            24.95879
          ],
          [
            121.31824,
            24.95805
          ],
          [
            121.31761,
            24.95737
          ],
          [
            121.31685,
            24.95665
          ],
          [
            121.31666,
            24.95661
          ],
          [
            121.31635,
            24.95654
          ],
          [
            121.31613,
            24.95652
          ],
          [
            121.31568,
            24.95655
          ],
          [
            121.3153,
            24.9566
          ],
          [
            121.31512,
            24.95665
          ],
          [
            121.31484,
            24.95674
          ],
          [
            121.31413,
            24.95706
          ],
          [
            121.31374,
            24.95708
          ],
          [
            121.31339,
            24.95708
          ],
          [
            121.31267,
            24.95717
          ],
          [
            121.31238,
            24.95719
          ],
          [
            121.31188,
            24.95709
          ],
          [
            121.31033,
            24.95786
          ],
          [
            121.30871,
            24.9582
          ],
          [
            121.30853,
            24.95818
          ],
          [
            121.3084,
            24.95813
          ],
          [
            121.30765,
            24.95783
          ],
          [
            121.30733,
            24.95769
          ],
          [
            121.30712,
            24.95762
          ],
          [
            121.30682,
            24.95759
          ],
          [
            121.30656,
            24.95757
          ],
          [
            121.3063,
            24.95753
          ],
          [
            121.30605,
            24.9575
          ],
          [
            121.30571,
            24.9575
          ],
          [
            121.30552,
            24.95746
          ],
          [
            121.30538,
            24.95746
          ],
          [
            121.3046,
            24.95758
          ],
          [
            121.30364,
            24.9577
          ],
          [
            121.30026,
            24.95763
          ],
          [
            121.29935768138081,
            24.957612934712074
          ],
          [
            121.29932379134434,
            24.957616766856706
          ],
          [
            121.29929250681741,
            24.95762922726309
          ],
          [
            121.299266388399,
            24.957649288807197
          ],
          [
            121.29924758836455,
            24.957675298327402
          ],
          [
            121.29923765592157,
            24.95770511252203
          ],
          [
            121.29923739435188,
            24.95773617272402
          ],
          [
            121.29941,
            24.95888
          ],
          [
            121.29963,
            24.96029
          ],
          [
            121.2999,
            24.96184
          ],
          [
            121.30006,
            24.96262
          ],
          [
            121.30038,
            24.96418
          ],
          [
            121.30127,
            24.96403
          ],
          [
            121.3018,
            24.96396
          ],
          [
            121.30228,
            24.96388
          ],
          [
            121.30292,
            24.96379
          ],
          [
            121.30407,
            24.96363
          ],
          [
            121.30469,
            24.96352
          ],
          [
            121.30663303054628,
            24.963249389245632
          ],
          [
            121.30666716704302,
            24.96324912556191
          ],
          [
            121.30669986465092,
            24.96325768082766
          ],
          [
            121.30672857143912,
            24.963274337678282
          ],
          [
            121.30675093836267,
            24.963297733101978
          ],
          [
            121.30676513516077,
            24.963325952676925
          ],
          [
            121.30677,
            24.963356687226295
          ],
          [
            121.30677,
            24.964453079483185
          ],
          [
            121.30677217823894,
            24.96447376317389
          ],
          [
            121.30677863315006,
            24.964493689060838
          ],
          [
            121.30678912823994,
            24.964512127104484
          ],
          [
            121.30680327899219,
            24.964528401776516
          ],
          [
            121.30682056695515,
            24.964541916809672
          ],
          [
            121.30684007378461,
            24.964552060260246
          ],
          [
            121.30806,
            24.96505
          ],
          [
            121.30916934892484,
            24.965412941223192
          ],
          [
            121.30919232379283,
            24.965423182984743
          ],
          [
            121.30921255904798,
            24.965437842661746
          ],
          [
            121.30922884905216,
            24.965456146041575
          ],
          [
            121.30924042498779,
            24.965477229284033
          ],
          [
            121.30924674052083,
            24.965500097351462
          ],
          [
            121.30924750272918,
            24.965523610914065
          ],
          [
            121.30915,
            24.96664
          ],
          [
            121.30903,
            24.96778
          ],
          [
            121.30895,
            24.96923
          ],
          [
            121.30887,
            24.97027
          ],
          [
            121.30885,
            24.97051
          ],
          [
            121.30879,
            24.97075
          ],
          [
            121.3086,
            24.97133
          ],
          [
            121.30797,
            24.97332
          ],
          [
            121.30812,
            24.97365
          ],
          [
            121.30884,
            24.97486
          ],
          [
            121.30906,
            24.97523
          ],
          [
            121.31038782509236,
            24.977652497003845
          ],
          [
            121.31040241965106,
            24.977673089165073
          ],
          [
            121.31042144137632,
            24.977689978587687
          ],
          [
            121.31044409215517,
            24.977702597090286
          ],
          [
            121.3104692441935,
            24.977710316391033
          ],
          [
            121.31049564515821,
            24.977712752141933
          ],
          [
            121.31052216500527,
            24.977709742682347
          ],
          [
            121.31295,
            24.97718
          ],
          [
            121.31462,
            24.97743
          ],
          [
            121.31452,
            24.97912
          ],
          [
            121.31458,
            24.9807
          ],
          [
            121.31483,
            24.98178
          ],
          [
            121.31423,
            24.98702
          ],
          [
            121.31408,
            24.98765
          ]
        ]
      }
    },
    {
      "type": "Feature",
      "properties": {
        "feature_type": "station",
        "ref": "TAO6547",
        "name": "桃園總站",
        "name_en": "Taoyuan Main Station",
        "line": "103",
        "color": "#b45309",
        "direction": 0,
        "station_id": "3204"
      },
      "geometry": {
        "type": "Point",
        "coordinates": [
          121.314085,
          24.986559
        ]
      }
    },
    {
      "type": "Feature",
      "properties": {
        "feature_type": "station",
        "ref": "TAO63100",
        "name": "建國國小",
        "name_en": "Jianguo Elementary School",
        "line": "103",
        "color": "#b45309",
        "direction": 0,
        "station_id": "3312"
      },
      "geometry": {
        "type": "Point",
        "coordinates": [
          121.314735,
          24.982781
        ]
      }
    },
    {
      "type": "Feature",
      "properties": {
        "feature_type": "station",
        "ref": "TAO13094",
        "name": "桃園婦女館",
        "name_en": "Center for Women",
        "line": "103",
        "color": "#b45309",
        "direction": 0,
        "station_id": "874"
      },
      "geometry": {
        "type": "Point",
        "coordinates": [
          121.314574,
          24.980817
        ]
      }
    },
    {
      "type": "Feature",
      "properties": {
        "feature_type": "station",
        "ref": "TAO63099",
        "name": "延平路口",
        "name_en": "Yanping Road Intersection",
        "line": "103",
        "color": "#b45309",
        "direction": 0,
        "station_id": "875"
      },
      "geometry": {
        "type": "Point",
        "coordinates": [
          121.314452,
          24.979468
        ]
      }
    },
    {
      "type": "Feature",
      "properties": {
        "feature_type": "station",
        "ref": "TAO9758",
        "name": "福豐國中(樹仁二街)",
        "name_en": " Fu-Fong Junior High School (Shuren 2nd St.)",
        "line": "103",
        "color": "#b45309",
        "direction": 0,
        "station_id": "6998"
      },
      "geometry": {
        "type": "Point",
        "coordinates": [
          121.314042,
          24.977434
        ]
      }
    },
    {
      "type": "Feature",
      "properties": {
        "feature_type": "station",
        "ref": "TAO9756",
        "name": "建新公園",
        "name_en": "Jianxin Park",
        "line": "103",
        "color": "#b45309",
        "direction": 0,
        "station_id": "6996"
      },
      "geometry": {
        "type": "Point",
        "coordinates": [
          121.309655,
          24.976369
        ]
      }
    },
    {
      "type": "Feature",
      "properties": {
        "feature_type": "station",
        "ref": "TAO2437",
        "name": "白蘭社區",
        "name_en": "Bailan Community",
        "line": "103",
        "color": "#b45309",
        "direction": 0,
        "station_id": "1931"
      },
      "geometry": {
        "type": "Point",
        "coordinates": [
          121.30869627,
          24.9706141791
        ]
      }
    },
    {
      "type": "Feature",
      "properties": {
        "feature_type": "station",
        "ref": "TAO674",
        "name": "新加坡社區",
        "name_en": "ShinJiaPo",
        "line": "103",
        "color": "#b45309",
        "direction": 0,
        "station_id": "1944"
      },
      "geometry": {
        "type": "Point",
        "coordinates": [
          121.308943033,
          24.9676671804
        ]
      }
    },
    {
      "type": "Feature",
      "properties": {
        "feature_type": "station",
        "ref": "TAO2432",
        "name": "國產社區",
        "name_en": "Goldsun Community",
        "line": "103",
        "color": "#b45309",
        "direction": 0,
        "station_id": "1928"
      },
      "geometry": {
        "type": "Point",
        "coordinates": [
          121.308458,
          24.965276
        ]
      }
    },
    {
      "type": "Feature",
      "properties": {
        "feature_type": "station",
        "ref": "TAO677",
        "name": "大成龍門社區",
        "name_en": "Dacheng Lungmen Community",
        "line": "103",
        "color": "#b45309",
        "direction": 0,
        "station_id": "1272"
      },
      "geometry": {
        "type": "Point",
        "coordinates": [
          121.3058743763612,
          24.963390542911533
        ]
      }
    },
    {
      "type": "Feature",
      "properties": {
        "feature_type": "station",
        "ref": "TAO678",
        "name": "大義里",
        "name_en": "Dayi Village",
        "line": "103",
        "color": "#b45309",
        "direction": 0,
        "station_id": "1260"
      },
      "geometry": {
        "type": "Point",
        "coordinates": [
          121.30308888320414,
          24.963857346079383
        ]
      }
    },
    {
      "type": "Feature",
      "properties": {
        "feature_type": "station",
        "ref": "TAO9409",
        "name": "陸光四村",
        "name_en": "The 4th village of Lu guang",
        "line": "103",
        "color": "#b45309",
        "direction": 0,
        "station_id": "1258"
      },
      "geometry": {
        "type": "Point",
        "coordinates": [
          121.299929,
          24.962435
        ]
      }
    },
    {
      "type": "Feature",
      "properties": {
        "feature_type": "station",
        "ref": "TAO2136",
        "name": "大湳站(G04)",
        "name_en": "Danan Station(G04)",
        "line": "103",
        "color": "#b45309",
        "direction": 0,
        "station_id": "1723"
      },
      "geometry": {
        "type": "Point",
        "coordinates": [
          121.299299,
          24.958995
        ]
      }
    },
    {
      "type": "Feature",
      "properties": {
        "feature_type": "station",
        "ref": "TAO2441",
        "name": "和平路口",
        "name_en": "Heping Rd. Intersection",
        "line": "103",
        "color": "#b45309",
        "direction": 0,
        "station_id": "4481"
      },
      "geometry": {
        "type": "Point",
        "coordinates": [
          121.300014,
          24.957593
        ]
      }
    },
    {
      "type": "Feature",
      "properties": {
        "feature_type": "station",
        "ref": "TAO667",
        "name": "香榭儷舍",
        "name_en": "Xiangxielishe",
        "line": "103",
        "color": "#b45309",
        "direction": 0,
        "station_id": "1936"
      },
      "geometry": {
        "type": "Point",
        "coordinates": [
          121.303613,
          24.957668
        ]
      }
    },
    {
      "type": "Feature",
      "properties": {
        "feature_type": "station",
        "ref": "TAO2425",
        "name": "大成國中(和平路)",
        "name_en": "Dacheng Junior High School(Heping Rd.)",
        "line": "103",
        "color": "#b45309",
        "direction": 0,
        "station_id": "6842"
      },
      "geometry": {
        "type": "Point",
        "coordinates": [
          121.305778,
          24.957361
        ]
      }
    },
    {
      "type": "Feature",
      "properties": {
        "feature_type": "station",
        "ref": "TAO669",
        "name": "惠爾得公司",
        "name_en": "Hueierde Company",
        "line": "103",
        "color": "#b45309",
        "direction": 0,
        "station_id": "1221"
      },
      "geometry": {
        "type": "Point",
        "coordinates": [
          121.307771,
          24.957851
        ]
      }
    },
    {
      "type": "Feature",
      "properties": {
        "feature_type": "station",
        "ref": "TAO2438",
        "name": "西坡路口",
        "name_en": "Shipo Road Intersection",
        "line": "103",
        "color": "#b45309",
        "direction": 0,
        "station_id": "1934"
      },
      "geometry": {
        "type": "Point",
        "coordinates": [
          121.310099,
          24.957887
        ]
      }
    },
    {
      "type": "Feature",
      "properties": {
        "feature_type": "station",
        "ref": "TAO2419",
        "name": "大安活動中心",
        "name_en": "DaAn Activity Center",
        "line": "103",
        "color": "#b45309",
        "direction": 0,
        "station_id": "4432"
      },
      "geometry": {
        "type": "Point",
        "coordinates": [
          121.312843,
          24.957043
        ]
      }
    },
    {
      "type": "Feature",
      "properties": {
        "feature_type": "station",
        "ref": "TAO2422",
        "name": "大安國小",
        "name_en": "Daan Elementary School",
        "line": "103",
        "color": "#b45309",
        "direction": 0,
        "station_id": "1922"
      },
      "geometry": {
        "type": "Point",
        "coordinates": [
          121.314957,
          24.956647
        ]
      }
    },
    {
      "type": "Feature",
      "properties": {
        "feature_type": "station",
        "ref": "TAO60008",
        "name": "八德轉運站",
        "name_en": "Bade Bus Station",
        "line": "103",
        "color": "#b45309",
        "direction": 0,
        "station_id": "6882"
      },
      "geometry": {
        "type": "Point",
        "coordinates": [
          121.318738,
          24.960143
        ]
      }
    },
    {
      "type": "Feature",
      "properties": {
        "feature_type": "station",
        "ref": "TAO2429",
        "name": "大草厝",
        "name_en": "DaTsauTsuo",
        "line": "103",
        "color": "#b45309",
        "direction": 0,
        "station_id": "1926"
      },
      "geometry": {
        "type": "Point",
        "coordinates": [
          121.31875732538504,
          24.958715082233198
        ]
      }
    },
    {
      "type": "Feature",
      "properties": {
        "feature_type": "station",
        "ref": "TAO2423",
        "name": "大安國小",
        "name_en": "Daan Elementary School",
        "line": "103",
        "color": "#b45309",
        "direction": 0,
        "station_id": "1923"
      },
      "geometry": {
        "type": "Point",
        "coordinates": [
          121.31505631456251,
          24.9567229152092
        ]
      }
    },
    {
      "type": "Feature",
      "properties": {
        "feature_type": "station",
        "ref": "TAO2420",
        "name": "大安活動中心",
        "name_en": "DaAn Activity Center",
        "line": "103",
        "color": "#b45309",
        "direction": 0,
        "station_id": "4431"
      },
      "geometry": {
        "type": "Point",
        "coordinates": [
          121.312881,
          24.957223
        ]
      }
    },
    {
      "type": "Feature",
      "properties": {
        "feature_type": "station",
        "ref": "TAO2439",
        "name": "西坡路口",
        "name_en": "Shipo Road Intersection",
        "line": "103",
        "color": "#b45309",
        "direction": 0,
        "station_id": "1935"
      },
      "geometry": {
        "type": "Point",
        "coordinates": [
          121.31062,
          24.95777
        ]
      }
    },
    {
      "type": "Feature",
      "properties": {
        "feature_type": "station",
        "ref": "TAO670",
        "name": "惠爾得公司",
        "name_en": "Hueierde Company",
        "line": "103",
        "color": "#b45309",
        "direction": 0,
        "station_id": "1220"
      },
      "geometry": {
        "type": "Point",
        "coordinates": [
          121.307698,
          24.957892
        ]
      }
    },
    {
      "type": "Feature",
      "properties": {
        "feature_type": "station",
        "ref": "TAO2426",
        "name": "大成國中(和平路)",
        "name_en": "Dacheng Junior High School(Heping Rd.)",
        "line": "103",
        "color": "#b45309",
        "direction": 0,
        "station_id": "6843"
      },
      "geometry": {
        "type": "Point",
        "coordinates": [
          121.305591,
          24.957522
        ]
      }
    },
    {
      "type": "Feature",
      "properties": {
        "feature_type": "station",
        "ref": "TAO668",
        "name": "香榭儷舍",
        "name_en": "Xiangxielishe",
        "line": "103",
        "color": "#b45309",
        "direction": 0,
        "station_id": "1937"
      },
      "geometry": {
        "type": "Point",
        "coordinates": [
          121.303689,
          24.957728
        ]
      }
    },
    {
      "type": "Feature",
      "properties": {
        "feature_type": "station",
        "ref": "TAO2442",
        "name": "和平路口",
        "name_en": "Heping Rd. Intersection",
        "line": "103",
        "color": "#b45309",
        "direction": 0,
        "station_id": "4482"
      },
      "geometry": {
        "type": "Point",
        "coordinates": [
          121.300084,
          24.95769
        ]
      }
    },
    {
      "type": "Feature",
      "properties": {
        "feature_type": "station",
        "ref": "TAO573",
        "name": "大湳站(G04)",
        "name_en": "Danan Station(G04)",
        "line": "103",
        "color": "#b45309",
        "direction": 0,
        "station_id": "1724"
      },
      "geometry": {
        "type": "Point",
        "coordinates": [
          121.299604,
          24.959175
        ]
      }
    },
    {
      "type": "Feature",
      "properties": {
        "feature_type": "station",
        "ref": "TAO9408",
        "name": "陸光四村",
        "name_en": "Luguang 4th Village",
        "line": "103",
        "color": "#b45309",
        "direction": 0,
        "station_id": "1257"
      },
      "geometry": {
        "type": "Point",
        "coordinates": [
          121.300131,
          24.962123
        ]
      }
    },
    {
      "type": "Feature",
      "properties": {
        "feature_type": "station",
        "ref": "TAO679",
        "name": "大義里",
        "name_en": "Dayi Village",
        "line": "103",
        "color": "#b45309",
        "direction": 0,
        "station_id": "1259"
      },
      "geometry": {
        "type": "Point",
        "coordinates": [
          121.303266,
          24.963691
        ]
      }
    },
    {
      "type": "Feature",
      "properties": {
        "feature_type": "station",
        "ref": "TAO680",
        "name": "大成龍門社區",
        "name_en": "Dacheng Lungmen Community",
        "line": "103",
        "color": "#b45309",
        "direction": 0,
        "station_id": "1271"
      },
      "geometry": {
        "type": "Point",
        "coordinates": [
          121.305841,
          24.963335
        ]
      }
    },
    {
      "type": "Feature",
      "properties": {
        "feature_type": "station",
        "ref": "TAO2433",
        "name": "國產社區",
        "name_en": "Goldsun Community",
        "line": "103",
        "color": "#b45309",
        "direction": 0,
        "station_id": "1929"
      },
      "geometry": {
        "type": "Point",
        "coordinates": [
          121.308721,
          24.965191
        ]
      }
    },
    {
      "type": "Feature",
      "properties": {
        "feature_type": "station",
        "ref": "TAO675",
        "name": "新加坡社區",
        "name_en": "ShinJiaPo",
        "line": "103",
        "color": "#b45309",
        "direction": 0,
        "station_id": "1945"
      },
      "geometry": {
        "type": "Point",
        "coordinates": [
          121.309136152,
          24.9674240255
        ]
      }
    },
    {
      "type": "Feature",
      "properties": {
        "feature_type": "station",
        "ref": "TAO2434",
        "name": "白蘭社區",
        "name_en": "Bailan Community",
        "line": "103",
        "color": "#b45309",
        "direction": 0,
        "station_id": "1930"
      },
      "geometry": {
        "type": "Point",
        "coordinates": [
          121.308932304,
          24.9702834963
        ]
      }
    },
    {
      "type": "Feature",
      "properties": {
        "feature_type": "station",
        "ref": "TAO9755",
        "name": "建新公園",
        "name_en": "Jianxin Park",
        "line": "103",
        "color": "#b45309",
        "direction": 0,
        "station_id": "6995"
      },
      "geometry": {
        "type": "Point",
        "coordinates": [
          121.309729,
          24.976271
        ]
      }
    },
    {
      "type": "Feature",
      "properties": {
        "feature_type": "station",
        "ref": "TAO9757",
        "name": "福豐國中(樹仁二街)",
        "name_en": " Fu-Fong Junior High School (Shuren 2nd St.)",
        "line": "103",
        "color": "#b45309",
        "direction": 0,
        "station_id": "6997"
      },
      "geometry": {
        "type": "Point",
        "coordinates": [
          121.313174,
          24.977187
        ]
      }
    },
    {
      "type": "Feature",
      "properties": {
        "feature_type": "station",
        "ref": "TAO63083",
        "name": "延平路口",
        "name_en": "Yanping Road Intersection",
        "line": "103",
        "color": "#b45309",
        "direction": 0,
        "station_id": "876"
      },
      "geometry": {
        "type": "Point",
        "coordinates": [
          121.314644,
          24.979234
        ]
      }
    },
    {
      "type": "Feature",
      "properties": {
        "feature_type": "station",
        "ref": "TAO13138",
        "name": "桃園婦女館",
        "name_en": "Center for Women",
        "line": "103",
        "color": "#b45309",
        "direction": 0,
        "station_id": "873"
      },
      "geometry": {
        "type": "Point",
        "coordinates": [
          121.314775,
          24.981203
        ]
      }
    },
    {
      "type": "Feature",
      "properties": {
        "feature_type": "station",
        "ref": "TAO63082",
        "name": "建國國小",
        "name_en": "Jianguo Elementary School",
        "line": "103",
        "color": "#b45309",
        "direction": 0,
        "station_id": "3313"
      },
      "geometry": {
        "type": "Point",
        "coordinates": [
          121.314841,
          24.982816
        ]
      }
    }
  ]
}
