{
  "type": "FeatureCollection",
  "name": "T123",
  "properties": {
    "id": "taoyuan_t123",
    "name": "T123",
    "name_en": "T123",
    "ref": "T123",
    "color": "#7c2d12",
    "city_id": "Taoyuan",
    "source": "TDX Bus Shape / StopOfRoute",
    "operator_id": "29",
    "operator": "九億租車"
  },
  "features": [
    {
      "type": "Feature",
      "properties": {
        "feature_type": "route",
        "ref": "T123",
        "name": "T123",
        "name_en": "T123",
        "color": "#7c2d12",
        "direction": 0
      },
      "geometry": {
        "type": "LineString",
        "coordinates": [
          [
            121.28122,
            24.92595
          ],
          [
            121.28123,
            24.92721
          ],
          [
            121.28121,
            24.92884
          ],
          [
            121.28121,
            24.92896
          ],
          [
            121.28121,
            24.92912
          ],
          [
            121.28121,
            24.9293
          ],
          [
            121.28121000000002,
            24.930119681996956
          ],
          [
            121.28120737628824,
            24.930137881641773
          ],
          [
            121.28119968395471,
            24.930154841009976
          ],
          [
            121.28118744721961,
            24.93016940434783
          ],
          [
            121.28117149999679,
            24.930180579187216
          ],
          [
            121.28115292906392,
            24.93018760398074
          ],
          [
            121.28113300000001,
            24.93019
          ],
          [
            121.28106700000002,
            24.93019
          ],
          [
            121.2810470709449,
            24.93018760397215
          ],
          [
            121.28102850002196,
            24.930180579173935
          ],
          [
            121.28101255280892,
            24.930169404333746
          ],
          [
            121.28100031608196,
            24.930154840998483
          ],
          [
            121.28099262375382,
            24.93013788163536
          ],
          [
            121.28099000000003,
            24.93011968199696
          ],
          [
            121.28099000000002,
            24.929054536714638
          ],
          [
            121.2809949547038,
            24.92902352174308
          ],
          [
            121.28100940578345,
            24.928995092227193
          ],
          [
            121.28103214857475,
            24.92897161809511
          ],
          [
            121.28106128720367,
            24.92895505618653
          ],
          [
            121.28109439262936,
            24.928946787127604
          ],
          [
            121.28112884113638,
            24.928947521352722
          ],
          [
            121.28134,
            24.92898
          ],
          [
            121.28156,
            24.92898
          ],
          [
            121.28224,
            24.92899
          ],
          [
            121.28251,
            24.92899
          ],
          [
            121.28276,
            24.92908
          ],
          [
            121.28438151261413,
            24.929142935485167
          ],
          [
            121.28440008407952,
            24.92914572062435
          ],
          [
            121.28441741902712,
            24.929152467417126
          ],
          [
            121.28443249811603,
            24.929162787372004
          ],
          [
            121.28444445511575,
            24.929176087650767
          ],
          [
            121.28445260314662,
            24.929191604208057
          ],
          [
            121.28445647820253,
            24.929208488960576
          ],
          [
            121.28447,
            24.92935
          ],
          [
            121.28461480368357,
            24.930059421802284
          ],
          [
            121.28461600964137,
            24.930089009220577
          ],
          [
            121.28460780756312,
            24.930117785568587
          ],
          [
            121.28459086841124,
            24.930143180191532
          ],
          [
            121.2845666309237,
            24.930163036180407
          ],
          [
            121.28453715372748,
            24.930175667053742
          ],
          [
            121.28450494048684,
            24.93018
          ],
          [
            121.28432,
            24.93018
          ],
          [
            121.28416,
            24.93018
          ],
          [
            121.28401,
            24.93018
          ],
          [
            121.28387,
            24.93021
          ],
          [
            121.28377,
            24.93025
          ],
          [
            121.28367,
            24.93029
          ],
          [
            121.28342,
            24.9304
          ],
          [
            121.28331,
            24.93043
          ],
          [
            121.28247,
            24.93074
          ],
          [
            121.28233,
            24.93079
          ],
          [
            121.28204,
            24.93092
          ],
          [
            121.28195,
            24.93094
          ],
          [
            121.28183,
            24.93096
          ],
          [
            121.28182,
            24.93096
          ],
          [
            121.28171,
            24.93096
          ],
          [
            121.28144,
            24.93097
          ],
          [
            121.28121,
            24.93098
          ],
          [
            121.28099,
            24.93099
          ],
          [
            121.28075,
            24.931
          ],
          [
            121.28053,
            24.93101
          ],
          [
            121.2801,
            24.93103
          ],
          [
            121.27984,
            24.93103
          ],
          [
            121.2797,
            24.93103
          ],
          [
            121.27931,
            24.93105
          ],
          [
            121.2785,
            24.93107
          ],
          [
            121.27829,
            24.93108
          ],
          [
            121.27813,
            24.93111
          ],
          [
            121.27805,
            24.93114
          ],
          [
            121.27732,
            24.93139
          ],
          [
            121.27725,
            24.93141
          ],
          [
            121.27671,
            24.93159
          ],
          [
            121.2759,
            24.93188
          ],
          [
            121.27538,
            24.93205
          ],
          [
            121.27533,
            24.93207
          ],
          [
            121.27526,
            24.93209
          ],
          [
            121.27508,
            24.93213
          ],
          [
            121.27469,
            24.9322
          ],
          [
            121.27429,
            24.93225
          ],
          [
            121.27358,
            24.93235
          ],
          [
            121.27313,
            24.93243
          ],
          [
            121.27229,
            24.93254
          ],
          [
            121.27102834440164,
            24.93272805810829
          ],
          [
            121.27100943924138,
            24.932732901233035
          ],
          [
            121.27099207467296,
            24.932741463511714
          ],
          [
            121.270977202775,
            24.932753309334466
          ],
          [
            121.27096555454234,
            24.93276785644639
          ],
          [
            121.27095770251782,
            24.93278438981677
          ],
          [
            121.270954029131,
            24.93280213977098
          ],
          [
            121.27094,
            24.93297
          ],
          [
            121.27091,
            24.93335
          ],
          [
            121.27091,
            24.93336
          ],
          [
            121.27088,
            24.93365
          ],
          [
            121.27087,
            24.93401
          ],
          [
            121.27088,
            24.93422
          ],
          [
            121.27089,
            24.93459
          ],
          [
            121.2709,
            24.93472
          ],
          [
            121.27092,
            24.93483
          ],
          [
            121.27095,
            24.93495
          ],
          [
            121.27101,
            24.93509
          ],
          [
            121.27116,
            24.93538
          ],
          [
            121.2714,
            24.93591
          ],
          [
            121.27142,
            24.93601
          ],
          [
            121.27143,
            24.93611
          ],
          [
            121.27145,
            24.93636
          ],
          [
            121.27149,
            24.93659
          ],
          [
            121.27155,
            24.93693
          ],
          [
            121.2716,
            24.93717
          ],
          [
            121.27162,
            24.93732
          ],
          [
            121.27164,
            24.9374
          ],
          [
            121.27164,
            24.93758
          ],
          [
            121.27165,
            24.93776
          ],
          [
            121.27159621477503,
            24.938353656984333
          ],
          [
            121.27158440544001,
            24.938392706807196
          ],
          [
            121.27155779078927,
            24.938425041975712
          ],
          [
            121.27152006042935,
            24.938446235167504
          ],
          [
            121.27147645288764,
            24.938453343894974
          ],
          [
            121.27143302268634,
            24.93844538117406
          ],
          [
            121.27139549753142,
            24.9384231894984
          ],
          [
            121.27093,
            24.93802
          ],
          [
            121.27042,
            24.93758
          ],
          [
            121.27007,
            24.93728
          ],
          [
            121.26995,
            24.93721
          ],
          [
            121.26986,
            24.93716
          ],
          [
            121.26984,
            24.93715
          ],
          [
            121.26858,
            24.93633
          ],
          [
            121.26851,
            24.93629
          ],
          [
            121.26711,
            24.93539
          ],
          [
            121.26687,
            24.93523
          ],
          [
            121.26656,
            24.93502
          ],
          [
            121.26644,
            24.93492
          ],
          [
            121.26606,
            24.93453
          ],
          [
            121.26588,
            24.93435
          ],
          [
            121.26562,
            24.9341
          ],
          [
            121.26551,
            24.934
          ],
          [
            121.26527,
            24.93378
          ],
          [
            121.26466051697096,
            24.93326422305027
          ],
          [
            121.26464043417009,
            24.93325041635292
          ],
          [
            121.26461801565904,
            24.9332408978201
          ],
          [
            121.26459392596604,
            24.933235819789296
          ],
          [
            121.26456920703698,
            24.933235401899402
          ],
          [
            121.26454492803408,
            24.933239662225326
          ],
          [
            121.26452182962068,
            24.933248572350653
          ],
          [
            121.2636301236639,
            24.93369629865136
          ],
          [
            121.26360875290212,
            24.933704728550367
          ],
          [
            121.26358634417137,
            24.93370915644574
          ],
          [
            121.26356342140402,
            24.933709573662018
          ],
          [
            121.26354083726343,
            24.933705964679906
          ],
          [
            121.26351943181704,
            24.93369846374354
          ],
          [
            121.26349968123627,
            24.933687124103976
          ],
          [
            121.26286354007112,
            24.93323958136311
          ],
          [
            121.26284675301521,
            24.93322962661409
          ],
          [
            121.26282875836954,
            24.93322250289647
          ],
          [
            121.26280972599955,
            24.933218178018254
          ],
          [
            121.26279017396098,
            24.933216769701396
          ],
          [
            121.26277063445472,
            24.933218316279877
          ],
          [
            121.26275139407565,
            24.933222853723624
          ],
          [
            121.26235,
            24.93335
          ],
          [
            121.26222,
            24.9334
          ],
          [
            121.26206,
            24.93348
          ],
          [
            121.26142,
            24.93376
          ],
          [
            121.26055119568795,
            24.934127793886606
          ],
          [
            121.26051448788897,
            24.934136885121163
          ],
          [
            121.26047686481779,
            24.934134174720185
          ],
          [
            121.2604424194182,
            24.934120092025644
          ],
          [
            121.26041514648328,
            24.934096270273074
          ],
          [
            121.2603982089821,
            24.93406547218186
          ],
          [
            121.26039356928977,
            24.934031303425375
          ],
          [
            121.2604,
            24.93391
          ],
          [
            121.26044,
            24.93366
          ],
          [
            121.2605,
            24.93315
          ],
          [
            121.26057,
            24.93267
          ],
          [
            121.26068689646213,
            24.93177834901808
          ],
          [
            121.2606871447647,
            24.931754813994118
          ],
          [
            121.2606818020782,
            24.93173169796062
          ],
          [
            121.26067110979913,
            24.931710184842558
          ],
          [
            121.26065557433716,
            24.931691293548084
          ],
          [
            121.26063593148561,
            24.931675918810065
          ],
          [
            121.2606133802028,
            24.93166488754948
          ],
          [
            121.26019,
            24.93151
          ],
          [
            121.25942,
            24.93108
          ],
          [
            121.25919,
            24.93101
          ],
          [
            121.25911,
            24.93098
          ],
          [
            121.25833,
            24.93087
          ],
          [
            121.25816,
            24.9308
          ],
          [
            121.25744,
            24.9305
          ],
          [
            121.25716,
            24.93038
          ],
          [
            121.25689,
            24.93027
          ],
          [
            121.25658,
            24.93014
          ],
          [
            121.25627,
            24.92954
          ],
          [
            121.25583822173864,
            24.928708651548554
          ],
          [
            121.25583104049778,
            24.928698388767305
          ],
          [
            121.25582135214701,
            24.928690206324035
          ],
          [
            121.25580972032932,
            24.92868451458593
          ],
          [
            121.25579689417886,
            24.928681680122992
          ],
          [
            121.25578369974937,
            24.92868188548561
          ],
          [
            121.25577086602557,
            24.92868516409483
          ],
          [
            121.25568,
            24.92872
          ],
          [
            121.2557502513943,
            24.92869312204431
          ],
          [
            121.25575961324923,
            24.928688087449242
          ],
          [
            121.25576728168902,
            24.9286809263121
          ],
          [
            121.25577262273718,
            24.92867217795972
          ],
          [
            121.2557752617725,
            24.928662456001756
          ],
          [
            121.25577501369294,
            24.92865244233659
          ],
          [
            121.2557719400684,
            24.928642929695037
          ],
          [
            121.25532398322642,
            24.927730099287885
          ],
          [
            121.25531470781334,
            24.92770012994432
          ],
          [
            121.2553151801254,
            24.927668707876794
          ],
          [
            121.2553254878752,
            24.92763872589106
          ],
          [
            121.25534476730563,
            24.92761269638353
          ],
          [
            121.25537140286089,
            24.927592800545334
          ],
          [
            121.25540296797942,
            24.92758075106849
          ],
          [
            121.25648,
            24.92733
          ],
          [
            121.25658,
            24.92727
          ],
          [
            121.25727,
            24.92704
          ],
          [
            121.25819,
            24.92678
          ],
          [
            121.25895909611197,
            24.92657516053663
          ],
          [
            121.25899204622856,
            24.926561000541255
          ],
          [
            121.25901889607842,
            24.92653823357312
          ],
          [
            121.2590368783657,
            24.92650908049433
          ],
          [
            121.25904428472082,
            24.92647631093214
          ],
          [
            121.2590404115185,
            24.926443038090255
          ],
          [
            121.25902583092416,
            24.92641271479885
          ],
          [
            121.25856,
            24.92575
          ],
          [
            121.25848,
            24.92562
          ],
          [
            121.25826,
            24.9253
          ],
          [
            121.25811,
            24.92509
          ],
          [
            121.25806,
            24.92502
          ],
          [
            121.25801,
            24.92495
          ],
          [
            121.25793,
            24.92483
          ],
          [
            121.25787,
            24.92473
          ],
          [
            121.25769,
            24.92446
          ],
          [
            121.2575,
            24.92417
          ],
          [
            121.25738,
            24.92396
          ],
          [
            121.25733,
            24.92388
          ],
          [
            121.25727,
            24.92372
          ],
          [
            121.2572,
            24.92355
          ],
          [
            121.25706,
            24.92321
          ],
          [
            121.25687,
            24.92277
          ],
          [
            121.2567,
            24.92247
          ],
          [
            121.25657,
            24.92227
          ],
          [
            121.25607,
            24.92166
          ],
          [
            121.25592,
            24.92146
          ],
          [
            121.25556,
            24.92095
          ],
          [
            121.25547,
            24.92081
          ],
          [
            121.25499,
            24.91993
          ],
          [
            121.25492,
            24.91981
          ],
          [
            121.25487,
            24.91974
          ],
          [
            121.25442409367743,
            24.919088648035032
          ],
          [
            121.25440897183518,
            24.919054509958652
          ],
          [
            121.25440726421752,
            24.91901737946157
          ],
          [
            121.25441936895945,
            24.918981898672953
          ],
          [
            121.25444386746409,
            24.918952225710036
          ],
          [
            121.25447788866633,
            24.91893183805073
          ],
          [
            121.25451739155169,
            24.918923128189572
          ],
          [
            121.25491,
            24.9189
          ],
          [
            121.25506,
            24.91884
          ],
          [
            121.25532,
            24.91866
          ],
          [
            121.25548,
            24.91856
          ],
          [
            121.25566,
            24.91853
          ],
          [
            121.25587,
            24.91856
          ],
          [
            121.256,
            24.91857
          ],
          [
            121.25608,
            24.91856
          ],
          [
            121.25621,
            24.91856
          ],
          [
            121.25627,
            24.91854
          ],
          [
            121.25638,
            24.91853
          ],
          [
            121.25651,
            24.91854
          ],
          [
            121.25705,
            24.91863
          ],
          [
            121.25717,
            24.91865
          ],
          [
            121.2575,
            24.9187
          ],
          [
            121.25776,
            24.91874
          ],
          [
            121.25801,
            24.91882
          ],
          [
            121.25804,
            24.91883
          ],
          [
            121.25895,
            24.91903
          ],
          [
            121.25913,
            24.91906
          ],
          [
            121.25933,
            24.9191
          ],
          [
            121.25949,
            24.91912
          ],
          [
            121.25991,
            24.91924
          ],
          [
            121.26023,
            24.91939
          ],
          [
            121.26036,
            24.91949
          ],
          [
            121.26046,
            24.91955
          ],
          [
            121.261648397684,
            24.920061130121955
          ],
          [
            121.261663361755,
            24.920065895035627
          ],
          [
            121.26167889364314,
            24.920067632496988
          ],
          [
            121.26169447776219,
            24.92006634286079
          ],
          [
            121.26170941474703,
            24.92006208400176
          ],
          [
            121.26172303427376,
            24.9200550470438
          ],
          [
            121.26173489862069,
            24.920045372853306
          ],
          [
            121.26201027175429,
            24.919768812937278
          ],
          [
            121.26202618798072,
            24.919755382892973
          ],
          [
            121.26204413936671,
            24.91974498830599
          ],
          [
            121.2620638308139,
            24.919737679927955
          ],
          [
            121.26208463265175,
            24.91973369145781
          ],
          [
            121.26210587970297,
            24.919733150434286
          ],
          [
            121.26212708102524,
            24.9197361165747
          ],
          [
            121.26326,
            24.91999
          ],
          [
            121.2636,
            24.92006
          ],
          [
            121.26366,
            24.92007
          ],
          [
            121.2637,
            24.92009
          ],
          [
            121.26392784036693,
            24.920261617686304
          ],
          [
            121.263946037226,
            24.920273012162315
          ],
          [
            121.26396583708987,
            24.92028101953772
          ],
          [
            121.26398689899528,
            24.92028561341959
          ],
          [
            121.26400852393617,
            24.920286641345403
          ],
          [
            121.26402999422035,
            24.920284069200182
          ],
          [
            121.26405087563205,
            24.920277873293944
          ],
          [
            121.26483540783622,
            24.919971349565504
          ],
          [
            121.26485459895856,
            24.91996550733858
          ],
          [
            121.2648742945091,
            24.919962740465397
          ],
          [
            121.26489421938994,
            24.919963017472043
          ],
          [
            121.26491381360225,
            24.9199663305731
          ],
          [
            121.26493252644076,
            24.91997258665219
          ],
          [
            121.26495015352143,
            24.91998181270557
          ],
          [
            121.26525,
            24.92017
          ],
          [
            121.26581303515617,
            24.920523837678285
          ],
          [
            121.26582852537199,
            24.92053170826682
          ],
          [
            121.26584511416276,
            24.92053659789576
          ],
          [
            121.26586242363621,
            24.920538477098336
          ],
          [
            121.26587980525103,
            24.920537275465676
          ],
          [
            121.26589660776303,
            24.920533038019855
          ],
          [
            121.26591244323545,
            24.920525784657137
          ],
          [
            121.26608,
            24.92043
          ],
          [
            121.26638,
            24.9204
          ],
          [
            121.26653,
            24.9204
          ],
          [
            121.26698,
            24.92038
          ],
          [
            121.26811,
            24.92036
          ],
          [
            121.26924,
            24.92032
          ],
          [
            121.26961,
            24.92031
          ],
          [
            121.26996,
            24.9203
          ],
          [
            121.27091,
            24.92027
          ],
          [
            121.27167,
            24.92027
          ],
          [
            121.27184,
            24.92026
          ],
          [
            121.27199,
            24.92026
          ],
          [
            121.27202,
            24.92026
          ],
          [
            121.2723,
            24.9203
          ],
          [
            121.27342,
            24.92053
          ],
          [
            121.2737,
            24.9206
          ],
          [
            121.27387,
            24.92067
          ],
          [
            121.27401,
            24.92074
          ],
          [
            121.27443,
            24.92101
          ],
          [
            121.27511,
            24.92146
          ],
          [
            121.27584,
            24.92191
          ],
          [
            121.27597,
            24.92199
          ],
          [
            121.27608,
            24.92208
          ],
          [
            121.2764,
            24.92235
          ],
          [
            121.27703,
            24.9229
          ],
          [
            121.27742,
            24.92327
          ],
          [
            121.27754,
            24.92334
          ],
          [
            121.27764,
            24.92336
          ],
          [
            121.27848,
            24.92338
          ],
          [
            121.27894,
            24.92338
          ],
          [
            121.27937,
            24.92337
          ],
          [
            121.27993,
            24.92338
          ],
          [
            121.28011,
            24.92338
          ],
          [
            121.28022,
            24.92339
          ],
          [
            121.28025,
            24.9234
          ],
          [
            121.28031,
            24.92342
          ],
          [
            121.28121753096652,
            24.92377549796954
          ],
          [
            121.28122281961986,
            24.92377820326959
          ],
          [
            121.28122744378246,
            24.923781887837972
          ],
          [
            121.28123113461731,
            24.923786365432733
          ],
          [
            121.28123373285656,
            24.923791442835455
          ],
          [
            121.28123512638024,
            24.92379690094464
          ],
          [
            121.2812352564656,
            24.923802488648715
          ],
          [
            121.28123,
            24.92386
          ],
          [
            121.28122,
            24.9247
          ],
          [
            121.28122,
            24.9248
          ],
          [
            121.28122,
            24.92502
          ],
          [
            121.28122,
            24.92514
          ],
          [
            121.28123,
            24.92721
          ],
          [
            121.2812073078931,
            24.92906089063961
          ],
          [
            121.28120499724463,
            24.929077186885852
          ],
          [
            121.28119859266529,
            24.92909253720259
          ],
          [
            121.28118844684923,
            24.929106101589515
          ],
          [
            121.28117511862382,
            24.92911713292574
          ],
          [
            121.28115934210224,
            24.929125023609778
          ],
          [
            121.28114206434998,
            24.929129328335158
          ],
          [
            121.28107913107418,
            24.92913775961625
          ],
          [
            121.28105668382399,
            24.92913786693327
          ],
          [
            121.28103520140158,
            24.929132176696115
          ],
          [
            121.28101636172548,
            24.92912116536556
          ],
          [
            121.2810017061916,
            24.929105733849863
          ],
          [
            121.28099243386404,
            24.929087144701242
          ],
          [
            121.28098930331294,
            24.929066920366218
          ],
          [
            121.281,
            24.92591
          ]
        ]
      }
    },
    {
      "type": "Feature",
      "properties": {
        "feature_type": "station",
        "ref": "TAO3615",
        "name": "深耕十期社區",
        "name_en": "Shengeng Community, Phase 10",
        "line": "T123",
        "color": "#7c2d12",
        "direction": 0,
        "station_id": "3812"
      },
      "geometry": {
        "type": "Point",
        "coordinates": [
          121.281298,
          24.925946
        ]
      }
    },
    {
      "type": "Feature",
      "properties": {
        "feature_type": "station",
        "ref": "TAO4400",
        "name": "建德興豐路口(G01)",
        "name_en": "Jiande Xingfeng Intersection (G01)",
        "line": "T123",
        "color": "#7c2d12",
        "direction": 0,
        "station_id": "3809"
      },
      "geometry": {
        "type": "Point",
        "coordinates": [
          121.28087499999998,
          24.929632
        ]
      }
    },
    {
      "type": "Feature",
      "properties": {
        "feature_type": "station",
        "ref": "TAO7028",
        "name": "興豐中正路口",
        "name_en": "Xingfeng and Zhongzheng Rd. Intersection",
        "line": "T123",
        "color": "#7c2d12",
        "direction": 0,
        "station_id": "6988"
      },
      "geometry": {
        "type": "Point",
        "coordinates": [
          121.28224,
          24.92897
        ]
      }
    },
    {
      "type": "Feature",
      "properties": {
        "feature_type": "station",
        "ref": "TAO887",
        "name": "八德區公所(三元宮)",
        "name_en": "Bade District Office (Sanyuan Temple)",
        "line": "T123",
        "color": "#7c2d12",
        "direction": 0,
        "station_id": "2062"
      },
      "geometry": {
        "type": "Point",
        "coordinates": [
          121.284649,
          24.929775
        ]
      }
    },
    {
      "type": "Feature",
      "properties": {
        "feature_type": "station",
        "ref": "TAO3020",
        "name": "建德公園",
        "name_en": "Jiande Park",
        "line": "T123",
        "color": "#7c2d12",
        "direction": 0,
        "station_id": "5000"
      },
      "geometry": {
        "type": "Point",
        "coordinates": [
          121.281824,
          24.930981
        ]
      }
    },
    {
      "type": "Feature",
      "properties": {
        "feature_type": "station",
        "ref": "TAO57356",
        "name": "長興二路口",
        "name_en": "Changxing 2nd Rd. Intersection",
        "line": "T123",
        "color": "#7c2d12",
        "direction": 0,
        "station_id": "4998"
      },
      "geometry": {
        "type": "Point",
        "coordinates": [
          121.280533,
          24.931068
        ]
      }
    },
    {
      "type": "Feature",
      "properties": {
        "feature_type": "station",
        "ref": "TAO4395",
        "name": "連城橋(姜太公廟)",
        "name_en": "Liancheng Bridge(Jiang Taigong Temple)",
        "line": "T123",
        "color": "#7c2d12",
        "direction": 0,
        "station_id": "3807"
      },
      "geometry": {
        "type": "Point",
        "coordinates": [
          121.27733420610701,
          24.931410496573708
        ]
      }
    },
    {
      "type": "Feature",
      "properties": {
        "feature_type": "station",
        "ref": "TAO64821",
        "name": "新明公司",
        "name_en": "Xinming Company",
        "line": "T123",
        "color": "#7c2d12",
        "direction": 0,
        "station_id": "2288"
      },
      "geometry": {
        "type": "Point",
        "coordinates": [
          121.274307,
          24.932344
        ]
      }
    },
    {
      "type": "Feature",
      "properties": {
        "feature_type": "station",
        "ref": "TAO15186",
        "name": "竹園街",
        "name_en": "Zhuyuan St.",
        "line": "T123",
        "color": "#7c2d12",
        "direction": 0,
        "station_id": "5688"
      },
      "geometry": {
        "type": "Point",
        "coordinates": [
          121.270958,
          24.933367
        ]
      }
    },
    {
      "type": "Feature",
      "properties": {
        "feature_type": "station",
        "ref": "TAO15187",
        "name": "竹園社區",
        "name_en": "Zhuyuan Community",
        "line": "T123",
        "color": "#7c2d12",
        "direction": 0,
        "station_id": "5690"
      },
      "geometry": {
        "type": "Point",
        "coordinates": [
          121.27165000000001,
          24.93787
        ]
      }
    },
    {
      "type": "Feature",
      "properties": {
        "feature_type": "station",
        "ref": "TAO64676",
        "name": "永樂橋",
        "name_en": "Yongle Bridge",
        "line": "T123",
        "color": "#7c2d12",
        "direction": 0,
        "station_id": "4772"
      },
      "geometry": {
        "type": "Point",
        "coordinates": [
          121.26854,
          24.93638
        ]
      }
    },
    {
      "type": "Feature",
      "properties": {
        "feature_type": "station",
        "ref": "TAO15188",
        "name": "玉元宮",
        "name_en": "Yuyuan Temple",
        "line": "T123",
        "color": "#7c2d12",
        "direction": 0,
        "station_id": "5692"
      },
      "geometry": {
        "type": "Point",
        "coordinates": [
          121.265486,
          24.934022
        ]
      }
    },
    {
      "type": "Feature",
      "properties": {
        "feature_type": "station",
        "ref": "TAO3032",
        "name": "霄裡",
        "name_en": "Xiaoli",
        "line": "T123",
        "color": "#7c2d12",
        "direction": 0,
        "station_id": "4571"
      },
      "geometry": {
        "type": "Point",
        "coordinates": [
          121.26407842211532,
          24.93351018822119
        ]
      }
    },
    {
      "type": "Feature",
      "properties": {
        "feature_type": "station",
        "ref": "TAO8298",
        "name": "桃園北區客家會館",
        "name_en": "North Taoyuan City Hakka Cultural Hall",
        "line": "T123",
        "color": "#7c2d12",
        "direction": 0,
        "station_id": "6644"
      },
      "geometry": {
        "type": "Point",
        "coordinates": [
          121.261009,
          24.934018
        ]
      }
    },
    {
      "type": "Feature",
      "properties": {
        "feature_type": "station",
        "ref": "TAO13846",
        "name": "忠貞市場",
        "name_en": "Zhongzhen Market",
        "line": "T123",
        "color": "#7c2d12",
        "direction": 0,
        "station_id": "2410"
      },
      "geometry": {
        "type": "Point",
        "coordinates": [
          121.255678,
          24.928731
        ]
      }
    },
    {
      "type": "Feature",
      "properties": {
        "feature_type": "station",
        "ref": "TAO15330",
        "name": "龍宮街",
        "name_en": "Longgong St.",
        "line": "T123",
        "color": "#7c2d12",
        "direction": 0,
        "station_id": "5704"
      },
      "geometry": {
        "type": "Point",
        "coordinates": [
          121.257997,
          24.924792
        ]
      }
    },
    {
      "type": "Feature",
      "properties": {
        "feature_type": "station",
        "ref": "TAO15329",
        "name": "新生路口",
        "name_en": "Xinsheng Rd. Intersection",
        "line": "T123",
        "color": "#7c2d12",
        "direction": 0,
        "station_id": "5244"
      },
      "geometry": {
        "type": "Point",
        "coordinates": [
          121.255014,
          24.91992
        ]
      }
    },
    {
      "type": "Feature",
      "properties": {
        "feature_type": "station",
        "ref": "TAO10192",
        "name": "八德天化宮",
        "name_en": "八德天化宮",
        "line": "T123",
        "color": "#7c2d12",
        "direction": 0,
        "station_id": "7803"
      },
      "geometry": {
        "type": "Point",
        "coordinates": [
          121.257054,
          24.918622
        ]
      }
    },
    {
      "type": "Feature",
      "properties": {
        "feature_type": "station",
        "ref": "TAO10193",
        "name": "龍南路429巷",
        "name_en": "龍南路429巷",
        "line": "T123",
        "color": "#7c2d12",
        "direction": 0,
        "station_id": "7836"
      },
      "geometry": {
        "type": "Point",
        "coordinates": [
          121.26377,
          24.920101
        ]
      }
    },
    {
      "type": "Feature",
      "properties": {
        "feature_type": "station",
        "ref": "TAO10194",
        "name": "八德三后宮",
        "name_en": "八德三后宮",
        "line": "T123",
        "color": "#7c2d12",
        "direction": 0,
        "station_id": "7802"
      },
      "geometry": {
        "type": "Point",
        "coordinates": [
          121.279929,
          24.92331
        ]
      }
    },
    {
      "type": "Feature",
      "properties": {
        "feature_type": "station",
        "ref": "TAO4401",
        "name": "深耕十期社區",
        "name_en": "Shengeng Community,Phase 10",
        "line": "T123",
        "color": "#7c2d12",
        "direction": 0,
        "station_id": "3811"
      },
      "geometry": {
        "type": "Point",
        "coordinates": [
          121.28092699999999,
          24.925914
        ]
      }
    }
  ]
}
