{
  "type": "FeatureCollection",
  "name": "170",
  "properties": {
    "id": "taoyuan_170",
    "name": "170",
    "name_en": "170",
    "ref": "170",
    "color": "#db2777",
    "city_id": "Taoyuan",
    "source": "TDX Bus Shape / StopOfRoute",
    "official_map_url": "http://ebus.tycg.gov.tw/cms/api/route/170/map/2388/image",
    "operator_id": "2",
    "operator": "中壢客運",
    "operator_en": "Chungli Bus Co., Ltd."
  },
  "features": [
    {
      "type": "Feature",
      "properties": {
        "feature_type": "route",
        "ref": "170",
        "name": "170",
        "name_en": "170",
        "color": "#db2777",
        "direction": 0
      },
      "geometry": {
        "type": "LineString",
        "coordinates": [
          [
            121.22421,
            24.95322
          ],
          [
            121.22407,
            24.95312
          ],
          [
            121.22205,
            24.95389
          ],
          [
            121.22257,
            24.95497
          ],
          [
            121.22081,
            24.95569
          ],
          [
            121.22147,
            24.95615
          ],
          [
            121.22204,
            24.95691
          ],
          [
            121.22281,
            24.95976
          ],
          [
            121.22295,
            24.96054
          ],
          [
            121.22303,
            24.96316
          ],
          [
            121.22369,
            24.96726
          ],
          [
            121.22402,
            24.9698
          ],
          [
            121.22331,
            24.97461
          ],
          [
            121.22321,
            24.97602
          ],
          [
            121.22242,
            24.97864
          ],
          [
            121.22281,
            24.98112
          ],
          [
            121.22258,
            24.98299
          ],
          [
            121.22237,
            24.9851
          ],
          [
            121.22225,
            24.98642
          ],
          [
            121.2217,
            24.992
          ],
          [
            121.22153,
            24.99258
          ],
          [
            121.21954,
            24.99634
          ],
          [
            121.21842,
            24.99922
          ],
          [
            121.21683,
            25.00085
          ],
          [
            121.21461,
            25.00286
          ],
          [
            121.21386,
            25.00413
          ],
          [
            121.21668,
            25.00697
          ],
          [
            121.21494,
            25.00841
          ],
          [
            121.21329,
            25.01126
          ],
          [
            121.21253,
            25.01187
          ],
          [
            121.21332,
            25.01265
          ],
          [
            121.21356,
            25.01246
          ],
          [
            121.21394,
            25.01279
          ]
        ]
      }
    },
    {
      "type": "Feature",
      "properties": {
        "feature_type": "route",
        "ref": "170",
        "name": "170",
        "name_en": "170",
        "color": "#db2777",
        "direction": 1
      },
      "geometry": {
        "type": "LineString",
        "coordinates": [
          [
            121.2155,
            25.01488
          ],
          [
            121.21578,
            25.01497
          ],
          [
            121.2161,
            25.01494
          ],
          [
            121.21701,
            25.01424
          ],
          [
            121.21706,
            25.01406
          ],
          [
            121.21464,
            25.0116
          ]
        ]
      }
    },
    {
      "type": "Feature",
      "properties": {
        "feature_type": "route",
        "ref": "170",
        "name": "170",
        "name_en": "170",
        "color": "#db2777",
        "direction": 1
      },
      "geometry": {
        "type": "LineString",
        "coordinates": [
          [
            121.22572,
            24.95643
          ],
          [
            121.22507,
            24.95499
          ],
          [
            121.22474,
            24.95427
          ]
        ]
      }
    },
    {
      "type": "Feature",
      "properties": {
        "feature_type": "station",
        "ref": "TAO1022",
        "name": "中壢客運中壢總站",
        "name_en": "Zhongli Bus Zhongli Main Station",
        "line": "170",
        "color": "#db2777",
        "direction": 0
      },
      "geometry": {
        "type": "Point",
        "coordinates": [
          121.224161,
          24.953365
        ]
      }
    },
    {
      "type": "Feature",
      "properties": {
        "feature_type": "station",
        "ref": "TAO4157",
        "name": "第一銀行",
        "name_en": "First Bank",
        "line": "170",
        "color": "#db2777",
        "direction": 0
      },
      "geometry": {
        "type": "Point",
        "coordinates": [
          121.222028,
          24.955308
        ]
      }
    },
    {
      "type": "Feature",
      "properties": {
        "feature_type": "station",
        "ref": "TAO1219",
        "name": "大同路",
        "name_en": "Datung Road",
        "line": "170",
        "color": "#db2777",
        "direction": 0
      },
      "geometry": {
        "type": "Point",
        "coordinates": [
          121.221755,
          24.956491
        ]
      }
    },
    {
      "type": "Feature",
      "properties": {
        "feature_type": "station",
        "ref": "TAO5546",
        "name": "永珍",
        "name_en": "YungJen",
        "line": "170",
        "color": "#db2777",
        "direction": 0
      },
      "geometry": {
        "type": "Point",
        "coordinates": [
          121.222281,
          24.957448
        ]
      }
    },
    {
      "type": "Feature",
      "properties": {
        "feature_type": "station",
        "ref": "TAO5550",
        "name": "新生路",
        "name_en": "Xinsheng Road",
        "line": "170",
        "color": "#db2777",
        "direction": 0
      },
      "geometry": {
        "type": "Point",
        "coordinates": [
          121.222878,
          24.959345
        ]
      }
    },
    {
      "type": "Feature",
      "properties": {
        "feature_type": "station",
        "ref": "TAO280",
        "name": "中美路口",
        "name_en": "Zhongmei Road Intersection",
        "line": "170",
        "color": "#db2777",
        "direction": 0
      },
      "geometry": {
        "type": "Point",
        "coordinates": [
          121.222971,
          24.960169
        ]
      }
    },
    {
      "type": "Feature",
      "properties": {
        "feature_type": "station",
        "ref": "TAO9781",
        "name": "SOGO百貨(九和二街)",
        "name_en": "SOGO Department Store (Jiuhe 2nd Street)",
        "line": "170",
        "color": "#db2777",
        "direction": 0
      },
      "geometry": {
        "type": "Point",
        "coordinates": [
          121.223097,
          24.963446
        ]
      }
    },
    {
      "type": "Feature",
      "properties": {
        "feature_type": "station",
        "ref": "TAO340",
        "name": "環北路口",
        "name_en": "Huanbei Road Intersection",
        "line": "170",
        "color": "#db2777",
        "direction": 0
      },
      "geometry": {
        "type": "Point",
        "coordinates": [
          121.223433,
          24.965466
        ]
      }
    },
    {
      "type": "Feature",
      "properties": {
        "feature_type": "station",
        "ref": "TAO346",
        "name": "變電所",
        "name_en": "Substation",
        "line": "170",
        "color": "#db2777",
        "direction": 0
      },
      "geometry": {
        "type": "Point",
        "coordinates": [
          121.223694,
          24.966947
        ]
      }
    },
    {
      "type": "Feature",
      "properties": {
        "feature_type": "station",
        "ref": "TAO295",
        "name": "公坡",
        "name_en": "GungPo",
        "line": "170",
        "color": "#db2777",
        "direction": 0
      },
      "geometry": {
        "type": "Point",
        "coordinates": [
          121.224031,
          24.97019
        ]
      }
    },
    {
      "type": "Feature",
      "properties": {
        "feature_type": "station",
        "ref": "TAO329",
        "name": "興南國中",
        "name_en": "Hsing Nan Junior High School",
        "line": "170",
        "color": "#db2777",
        "direction": 0
      },
      "geometry": {
        "type": "Point",
        "coordinates": [
          121.223431,
          24.974644
        ]
      }
    },
    {
      "type": "Feature",
      "properties": {
        "feature_type": "station",
        "ref": "TAO1545",
        "name": "興南",
        "name_en": "Xingnan",
        "line": "170",
        "color": "#db2777",
        "direction": 0
      },
      "geometry": {
        "type": "Point",
        "coordinates": [
          121.222983,
          24.976949
        ]
      }
    },
    {
      "type": "Feature",
      "properties": {
        "feature_type": "station",
        "ref": "TAO5004",
        "name": "六和紡織",
        "name_en": "LIO HO COTTON WEAVING MILL CO.  LTD.",
        "line": "170",
        "color": "#db2777",
        "direction": 0
      },
      "geometry": {
        "type": "Point",
        "coordinates": [
          121.222722,
          24.980193
        ]
      }
    },
    {
      "type": "Feature",
      "properties": {
        "feature_type": "station",
        "ref": "TAO62632",
        "name": "六和機械",
        "name_en": "Lioho Machine Works, Ltd.",
        "line": "170",
        "color": "#db2777",
        "direction": 0
      },
      "geometry": {
        "type": "Point",
        "coordinates": [
          121.222731,
          24.982911
        ]
      }
    },
    {
      "type": "Feature",
      "properties": {
        "feature_type": "station",
        "ref": "TAO1995",
        "name": "聖德基督學院",
        "name_en": "Sheng-te Christian College",
        "line": "170",
        "color": "#db2777",
        "direction": 0
      },
      "geometry": {
        "type": "Point",
        "coordinates": [
          121.222429,
          24.985534
        ]
      }
    },
    {
      "type": "Feature",
      "properties": {
        "feature_type": "station",
        "ref": "TAO304",
        "name": "水圳頭",
        "name_en": "Shuichoutou",
        "line": "170",
        "color": "#db2777",
        "direction": 0
      },
      "geometry": {
        "type": "Point",
        "coordinates": [
          121.222259,
          24.987506
        ]
      }
    },
    {
      "type": "Feature",
      "properties": {
        "feature_type": "station",
        "ref": "TAO307",
        "name": "水尾",
        "name_en": "Shuiwei",
        "line": "170",
        "color": "#db2777",
        "direction": 0
      },
      "geometry": {
        "type": "Point",
        "coordinates": [
          121.221739,
          24.99215
        ]
      }
    },
    {
      "type": "Feature",
      "properties": {
        "feature_type": "station",
        "ref": "TAO1997",
        "name": "新生路三段399巷口",
        "name_en": "Lane 399, Sec. 3, Xinsheng Rd. intersection",
        "line": "170",
        "color": "#db2777",
        "direction": 0
      },
      "geometry": {
        "type": "Point",
        "coordinates": [
          121.22037,
          24.994885
        ]
      }
    },
    {
      "type": "Feature",
      "properties": {
        "feature_type": "station",
        "ref": "TAO1659",
        "name": "福安宮",
        "name_en": "Fuan Temple",
        "line": "170",
        "color": "#db2777",
        "direction": 0
      },
      "geometry": {
        "type": "Point",
        "coordinates": [
          121.219018,
          24.997854
        ]
      }
    },
    {
      "type": "Feature",
      "properties": {
        "feature_type": "station",
        "ref": "TAO325",
        "name": "頂青埔",
        "name_en": "DingChingPu",
        "line": "170",
        "color": "#db2777",
        "direction": 0
      },
      "geometry": {
        "type": "Point",
        "coordinates": [
          121.217798,
          24.999987
        ]
      }
    },
    {
      "type": "Feature",
      "properties": {
        "feature_type": "station",
        "ref": "TAO320",
        "name": "青埔社區",
        "name_en": "ChingPu Community",
        "line": "170",
        "color": "#db2777",
        "direction": 0
      },
      "geometry": {
        "type": "Point",
        "coordinates": [
          121.215879,
          25.001815
        ]
      }
    },
    {
      "type": "Feature",
      "properties": {
        "feature_type": "station",
        "ref": "TAO1539",
        "name": "廣天寺",
        "name_en": "Guangtian Temple",
        "line": "170",
        "color": "#db2777",
        "direction": 0
      },
      "geometry": {
        "type": "Point",
        "coordinates": [
          121.214389,
          25.003376
        ]
      }
    },
    {
      "type": "Feature",
      "properties": {
        "feature_type": "station",
        "ref": "TAO9513",
        "name": "青埔",
        "name_en": "Qingpu",
        "line": "170",
        "color": "#db2777",
        "direction": 0
      },
      "geometry": {
        "type": "Point",
        "coordinates": [
          121.215028,
          25.005122
        ]
      }
    },
    {
      "type": "Feature",
      "properties": {
        "feature_type": "station",
        "ref": "TAO6380",
        "name": "青埔致遠一路口",
        "name_en": "Qingpu and Zhiyuan 1st Rd Intersection",
        "line": "170",
        "color": "#db2777",
        "direction": 0
      },
      "geometry": {
        "type": "Point",
        "coordinates": [
          121.215889,
          25.007737
        ]
      }
    },
    {
      "type": "Feature",
      "properties": {
        "feature_type": "station",
        "ref": "TAO4294",
        "name": "中厝",
        "name_en": "Zhongcuo",
        "line": "170",
        "color": "#db2777",
        "direction": 0
      },
      "geometry": {
        "type": "Point",
        "coordinates": [
          121.214098,
          25.010076
        ]
      }
    },
    {
      "type": "Feature",
      "properties": {
        "feature_type": "station",
        "ref": "TAO9677",
        "name": "高鐵桃園站",
        "name_en": "THSR Taoyuan Station",
        "line": "170",
        "color": "#db2777",
        "direction": 0
      },
      "geometry": {
        "type": "Point",
        "coordinates": [
          121.213987,
          25.012749
        ]
      }
    },
    {
      "type": "Feature",
      "properties": {
        "feature_type": "station",
        "ref": "TAO9677",
        "name": "高鐵桃園站",
        "name_en": "THSR Taoyuan Station",
        "line": "170",
        "color": "#db2777",
        "direction": 1
      },
      "geometry": {
        "type": "Point",
        "coordinates": [
          121.213987,
          25.012749
        ]
      }
    },
    {
      "type": "Feature",
      "properties": {
        "feature_type": "station",
        "ref": "TAO4295",
        "name": "中厝",
        "name_en": "Zhongcuo",
        "line": "170",
        "color": "#db2777",
        "direction": 1
      },
      "geometry": {
        "type": "Point",
        "coordinates": [
          121.213904,
          25.009691
        ]
      }
    },
    {
      "type": "Feature",
      "properties": {
        "feature_type": "station",
        "ref": "TAO6381",
        "name": "青埔致遠一路口",
        "name_en": "Qingpu and Zhiyuan 1st Rd Intersection",
        "line": "170",
        "color": "#db2777",
        "direction": 1
      },
      "geometry": {
        "type": "Point",
        "coordinates": [
          121.215699,
          25.007457
        ]
      }
    },
    {
      "type": "Feature",
      "properties": {
        "feature_type": "station",
        "ref": "TAO9514",
        "name": "青埔",
        "name_en": "Qingpu",
        "line": "170",
        "color": "#db2777",
        "direction": 1
      },
      "geometry": {
        "type": "Point",
        "coordinates": [
          121.215115,
          25.005806
        ]
      }
    },
    {
      "type": "Feature",
      "properties": {
        "feature_type": "station",
        "ref": "TAO1536",
        "name": "廣天寺",
        "name_en": "Guangtian Temple",
        "line": "170",
        "color": "#db2777",
        "direction": 1
      },
      "geometry": {
        "type": "Point",
        "coordinates": [
          121.21419,
          25.003262
        ]
      }
    },
    {
      "type": "Feature",
      "properties": {
        "feature_type": "station",
        "ref": "TAO314",
        "name": "青埔社區",
        "name_en": "ChingPu Community",
        "line": "170",
        "color": "#db2777",
        "direction": 1
      },
      "geometry": {
        "type": "Point",
        "coordinates": [
          121.215843,
          25.001545
        ]
      }
    },
    {
      "type": "Feature",
      "properties": {
        "feature_type": "station",
        "ref": "TAO321",
        "name": "頂青埔",
        "name_en": "DingChingPu",
        "line": "170",
        "color": "#db2777",
        "direction": 1
      },
      "geometry": {
        "type": "Point",
        "coordinates": [
          121.217929,
          24.999565
        ]
      }
    },
    {
      "type": "Feature",
      "properties": {
        "feature_type": "station",
        "ref": "TAO1532",
        "name": "福安宮",
        "name_en": "Fuan Temple",
        "line": "170",
        "color": "#db2777",
        "direction": 1
      },
      "geometry": {
        "type": "Point",
        "coordinates": [
          121.219016,
          24.99735
        ]
      }
    },
    {
      "type": "Feature",
      "properties": {
        "feature_type": "station",
        "ref": "TAO1998",
        "name": "新生路三段399巷口",
        "name_en": "Lane 399, Sec. 3, Xinsheng Rd. intersection",
        "line": "170",
        "color": "#db2777",
        "direction": 1
      },
      "geometry": {
        "type": "Point",
        "coordinates": [
          121.219888,
          24.995393
        ]
      }
    },
    {
      "type": "Feature",
      "properties": {
        "feature_type": "station",
        "ref": "TAO1930",
        "name": "水尾",
        "name_en": "Shuiwei",
        "line": "170",
        "color": "#db2777",
        "direction": 1
      },
      "geometry": {
        "type": "Point",
        "coordinates": [
          121.221519,
          24.992267
        ]
      }
    },
    {
      "type": "Feature",
      "properties": {
        "feature_type": "station",
        "ref": "TAO300",
        "name": "水圳頭",
        "name_en": "Shuichoutou",
        "line": "170",
        "color": "#db2777",
        "direction": 1
      },
      "geometry": {
        "type": "Point",
        "coordinates": [
          121.221929,
          24.988231
        ]
      }
    },
    {
      "type": "Feature",
      "properties": {
        "feature_type": "station",
        "ref": "TAO1996",
        "name": "聖德基督學院",
        "name_en": "Sheng-te Christian College",
        "line": "170",
        "color": "#db2777",
        "direction": 1
      },
      "geometry": {
        "type": "Point",
        "coordinates": [
          121.222246,
          24.985034
        ]
      }
    },
    {
      "type": "Feature",
      "properties": {
        "feature_type": "station",
        "ref": "TAO62582",
        "name": "六和機械",
        "name_en": "Lioho Machine Works, Ltd.",
        "line": "170",
        "color": "#db2777",
        "direction": 1
      },
      "geometry": {
        "type": "Point",
        "coordinates": [
          121.222541,
          24.982834
        ]
      }
    },
    {
      "type": "Feature",
      "properties": {
        "feature_type": "station",
        "ref": "TAO4998",
        "name": "六和紡織",
        "name_en": "LIO HO COTTON WEAVING MILL CO.  LTD.",
        "line": "170",
        "color": "#db2777",
        "direction": 1
      },
      "geometry": {
        "type": "Point",
        "coordinates": [
          121.222524,
          24.980117
        ]
      }
    },
    {
      "type": "Feature",
      "properties": {
        "feature_type": "station",
        "ref": "TAO1542",
        "name": "興南",
        "name_en": "Xingnan",
        "line": "170",
        "color": "#db2777",
        "direction": 1
      },
      "geometry": {
        "type": "Point",
        "coordinates": [
          121.222809,
          24.976943
        ]
      }
    },
    {
      "type": "Feature",
      "properties": {
        "feature_type": "station",
        "ref": "TAO1548",
        "name": "興南國中",
        "name_en": "Hsing Nan Junior High School",
        "line": "170",
        "color": "#db2777",
        "direction": 1
      },
      "geometry": {
        "type": "Point",
        "coordinates": [
          121.223299,
          24.97409
        ]
      }
    },
    {
      "type": "Feature",
      "properties": {
        "feature_type": "station",
        "ref": "TAO293",
        "name": "公坡",
        "name_en": "GungPo",
        "line": "170",
        "color": "#db2777",
        "direction": 1
      },
      "geometry": {
        "type": "Point",
        "coordinates": [
          121.223806,
          24.970347
        ]
      }
    },
    {
      "type": "Feature",
      "properties": {
        "feature_type": "station",
        "ref": "TAO344",
        "name": "變電所",
        "name_en": "Substation",
        "line": "170",
        "color": "#db2777",
        "direction": 1
      },
      "geometry": {
        "type": "Point",
        "coordinates": [
          121.223483,
          24.966948
        ]
      }
    },
    {
      "type": "Feature",
      "properties": {
        "feature_type": "station",
        "ref": "TAO338",
        "name": "環北路口",
        "name_en": "Huanbei Road Intersection",
        "line": "170",
        "color": "#db2777",
        "direction": 1
      },
      "geometry": {
        "type": "Point",
        "coordinates": [
          121.223263,
          24.965439
        ]
      }
    },
    {
      "type": "Feature",
      "properties": {
        "feature_type": "station",
        "ref": "TAO2564",
        "name": "SOGO百貨(新生路)",
        "name_en": "SOGO Department Stores(Xinsheng Road.)",
        "line": "170",
        "color": "#db2777",
        "direction": 1
      },
      "geometry": {
        "type": "Point",
        "coordinates": [
          121.222922,
          24.962011
        ]
      }
    },
    {
      "type": "Feature",
      "properties": {
        "feature_type": "station",
        "ref": "TAO6767",
        "name": "中美路口",
        "name_en": "Zhongmei Road Intersection",
        "line": "170",
        "color": "#db2777",
        "direction": 1
      },
      "geometry": {
        "type": "Point",
        "coordinates": [
          121.222848,
          24.960384
        ]
      }
    },
    {
      "type": "Feature",
      "properties": {
        "feature_type": "station",
        "ref": "TAO62572",
        "name": "新生路",
        "name_en": "Xinsheng Road",
        "line": "170",
        "color": "#db2777",
        "direction": 1
      },
      "geometry": {
        "type": "Point",
        "coordinates": [
          121.222481,
          24.958654
        ]
      }
    },
    {
      "type": "Feature",
      "properties": {
        "feature_type": "station",
        "ref": "TAO1021",
        "name": "中央東路",
        "name_en": "Zhongyang E. Rd.",
        "line": "170",
        "color": "#db2777",
        "direction": 1
      },
      "geometry": {
        "type": "Point",
        "coordinates": [
          121.225447,
          24.956424
        ]
      }
    },
    {
      "type": "Feature",
      "properties": {
        "feature_type": "station",
        "ref": "TAO4711",
        "name": "中壢客運中壢總站",
        "name_en": "Zhongli Bus Zhongli Main Station",
        "line": "170",
        "color": "#db2777",
        "direction": 1
      },
      "geometry": {
        "type": "Point",
        "coordinates": [
          121.224161,
          24.953365
        ]
      }
    }
  ]
}
