{
  "type": "FeatureCollection",
  "name": "JOY H11(週一、三、五行駛)",
  "properties": {
    "id": "kaohsiung_joy_h11_b9527ace37",
    "name": "JOY H11(週一、三、五行駛)",
    "name_en": "JOY H11(週一、三、五行駛)",
    "ref": "JOY H11(週一、三、五行駛)",
    "color": "#134e4a",
    "city_id": "Kaohsiung",
    "source": "TDX Bus Shape / StopOfRoute",
    "official_map_url": "http://ibus.tbkc.gov.tw/cms/api/route/411/map/1559/image",
    "operator_id": "10320",
    "operator": "高雄客運",
    "operator_en": "Kaohsiung Bus Co., Ltd."
  },
  "features": [
    {
      "type": "Feature",
      "properties": {
        "feature_type": "route",
        "ref": "JOY H11(週一、三、五行駛)",
        "name": "JOY H11(週一、三、五行駛)",
        "name_en": "JOY H11(週一、三、五行駛)",
        "color": "#134e4a",
        "direction": 0
      },
      "geometry": {
        "type": "LineString",
        "coordinates": [
          [
            120.76397,
            23.15891
          ],
          [
            120.76355,
            23.15877
          ],
          [
            120.76258,
            23.15753
          ],
          [
            120.76165,
            23.15629
          ],
          [
            120.76074,
            23.15561
          ],
          [
            120.76057,
            23.15534
          ],
          [
            120.76051,
            23.15508
          ],
          [
            120.76061,
            23.15482
          ],
          [
            120.76062,
            23.15456
          ],
          [
            120.7605,
            23.15402
          ],
          [
            120.76038,
            23.15387
          ],
          [
            120.75976,
            23.15351
          ],
          [
            120.75884,
            23.15278
          ],
          [
            120.75754,
            23.15194
          ],
          [
            120.75743,
            23.15166
          ],
          [
            120.7573,
            23.15134
          ],
          [
            120.75712,
            23.15109
          ],
          [
            120.75694,
            23.15093
          ],
          [
            120.7568,
            23.15072
          ],
          [
            120.75651,
            23.14934
          ],
          [
            120.75631,
            23.14906
          ],
          [
            120.75584,
            23.14869
          ],
          [
            120.75547,
            23.14839
          ],
          [
            120.75527,
            23.14795
          ],
          [
            120.75502,
            23.14712
          ],
          [
            120.75495,
            23.14699
          ],
          [
            120.75436,
            23.14649
          ],
          [
            120.75409,
            23.14641
          ],
          [
            120.75355,
            23.1464
          ],
          [
            120.75291,
            23.14612
          ],
          [
            120.75271,
            23.14583
          ],
          [
            120.75251,
            23.14572
          ],
          [
            120.75202,
            23.14563
          ],
          [
            120.7514,
            23.14566
          ],
          [
            120.75104,
            23.1456
          ],
          [
            120.75073,
            23.14549
          ],
          [
            120.75066,
            23.14536
          ],
          [
            120.75055,
            23.14466
          ],
          [
            120.75041,
            23.14451
          ],
          [
            120.75012,
            23.14436
          ],
          [
            120.74981,
            23.14421
          ],
          [
            120.74952,
            23.14407
          ],
          [
            120.74808,
            23.14368
          ],
          [
            120.74624,
            23.14321
          ],
          [
            120.7448,
            23.14267
          ],
          [
            120.74407,
            23.14255
          ],
          [
            120.74382,
            23.1425
          ],
          [
            120.7432,
            23.14218
          ],
          [
            120.74276,
            23.14205
          ],
          [
            120.74228,
            23.14213
          ],
          [
            120.74198,
            23.14209
          ],
          [
            120.74137,
            23.14201
          ],
          [
            120.74042,
            23.14139
          ],
          [
            120.74027,
            23.14117
          ],
          [
            120.74023,
            23.14092
          ],
          [
            120.74028,
            23.14076
          ],
          [
            120.74046,
            23.14048
          ],
          [
            120.74048,
            23.14031
          ],
          [
            120.74023,
            23.13974
          ],
          [
            120.73991,
            23.13924
          ],
          [
            120.7392,
            23.13859
          ],
          [
            120.7384,
            23.13801
          ],
          [
            120.73802,
            23.13774
          ],
          [
            120.73754,
            23.13754
          ],
          [
            120.73705,
            23.13747
          ],
          [
            120.73444,
            23.13727
          ],
          [
            120.73165,
            23.13706
          ],
          [
            120.73098,
            23.137
          ],
          [
            120.73071,
            23.13719
          ],
          [
            120.73052,
            23.13743
          ],
          [
            120.73027,
            23.13753
          ],
          [
            120.72767,
            23.13724
          ],
          [
            120.72742,
            23.13707
          ],
          [
            120.72731,
            23.13688
          ],
          [
            120.72732,
            23.13601
          ],
          [
            120.72728,
            23.13584
          ],
          [
            120.72704,
            23.13565
          ],
          [
            120.72462,
            23.1356
          ],
          [
            120.72429,
            23.13556
          ],
          [
            120.72412,
            23.13552
          ],
          [
            120.72396,
            23.13544
          ],
          [
            120.72375,
            23.13524
          ],
          [
            120.72339,
            23.13467
          ],
          [
            120.72258,
            23.13379
          ],
          [
            120.72093,
            23.13259
          ],
          [
            120.72055,
            23.13222
          ],
          [
            120.72003,
            23.13158
          ],
          [
            120.71951,
            23.13096
          ],
          [
            120.71889,
            23.13014
          ],
          [
            120.71868,
            23.12995
          ],
          [
            120.71842,
            23.12983
          ],
          [
            120.71752,
            23.12962
          ],
          [
            120.71678,
            23.12943
          ],
          [
            120.71606,
            23.12926
          ],
          [
            120.71528,
            23.12912
          ],
          [
            120.71504,
            23.12902
          ],
          [
            120.71472,
            23.12858
          ],
          [
            120.71458,
            23.12822
          ],
          [
            120.71478,
            23.12767
          ],
          [
            120.71458,
            23.12703
          ],
          [
            120.71432,
            23.12662
          ],
          [
            120.71332,
            23.12571
          ],
          [
            120.713,
            23.12563
          ],
          [
            120.71216,
            23.12583
          ],
          [
            120.71157,
            23.1258
          ],
          [
            120.7112,
            23.12597
          ],
          [
            120.71099,
            23.12604
          ],
          [
            120.70943,
            23.12533
          ],
          [
            120.70926,
            23.12504
          ],
          [
            120.70928,
            23.12473
          ],
          [
            120.70957,
            23.12431
          ],
          [
            120.71049,
            23.12345
          ],
          [
            120.71069,
            23.12321
          ],
          [
            120.71082,
            23.12289
          ],
          [
            120.7108,
            23.12278
          ],
          [
            120.71026,
            23.12207
          ],
          [
            120.70978,
            23.1209
          ],
          [
            120.70979,
            23.12046
          ],
          [
            120.7099,
            23.12
          ],
          [
            120.71056,
            23.11856
          ],
          [
            120.71046,
            23.11791
          ],
          [
            120.71062,
            23.11782
          ],
          [
            120.71158,
            23.11743
          ],
          [
            120.71165,
            23.11727
          ],
          [
            120.71169,
            23.11694
          ],
          [
            120.71182,
            23.11679
          ],
          [
            120.71221,
            23.11673
          ],
          [
            120.71301,
            23.11676
          ],
          [
            120.71358,
            23.1162
          ],
          [
            120.71369,
            23.11597
          ],
          [
            120.71366,
            23.11583
          ],
          [
            120.71317,
            23.11503
          ],
          [
            120.71309,
            23.11475
          ],
          [
            120.71316,
            23.11386
          ],
          [
            120.71308,
            23.11343
          ],
          [
            120.71166,
            23.10992
          ],
          [
            120.7115,
            23.10966
          ],
          [
            120.71119,
            23.10953
          ],
          [
            120.71069,
            23.10945
          ],
          [
            120.7101,
            23.10944
          ],
          [
            120.70991,
            23.10948
          ],
          [
            120.70982,
            23.10959
          ],
          [
            120.70961,
            23.1099
          ],
          [
            120.70863,
            23.1105
          ],
          [
            120.70801,
            23.11078
          ],
          [
            120.70737,
            23.11102
          ],
          [
            120.7065,
            23.11129
          ],
          [
            120.70343,
            23.11083
          ],
          [
            120.7006,
            23.1092
          ],
          [
            120.69823,
            23.10751
          ],
          [
            120.69505,
            23.10568
          ],
          [
            120.69483,
            23.10559
          ],
          [
            120.69449,
            23.10553
          ],
          [
            120.69344,
            23.10549
          ],
          [
            120.69308,
            23.10542
          ],
          [
            120.69281,
            23.10525
          ],
          [
            120.69074,
            23.10311
          ],
          [
            120.68973,
            23.1018
          ],
          [
            120.68951,
            23.10163
          ],
          [
            120.68916,
            23.10158
          ],
          [
            120.68894,
            23.10164
          ],
          [
            120.68805,
            23.10211
          ],
          [
            120.6877,
            23.10203
          ],
          [
            120.68733,
            23.10176
          ],
          [
            120.68688,
            23.10123
          ],
          [
            120.68633,
            23.10041
          ],
          [
            120.68599,
            23.10014
          ],
          [
            120.68573,
            23.10008
          ],
          [
            120.68524,
            23.10011
          ],
          [
            120.68476,
            23.10035
          ],
          [
            120.68456,
            23.10052
          ],
          [
            120.68411,
            23.10114
          ],
          [
            120.68395,
            23.10125
          ],
          [
            120.68376,
            23.10128
          ],
          [
            120.68343,
            23.10118
          ],
          [
            120.68304,
            23.10064
          ],
          [
            120.68246,
            23.09712
          ],
          [
            120.68262,
            23.09585
          ],
          [
            120.68251,
            23.09562
          ],
          [
            120.68232,
            23.09548
          ],
          [
            120.68174,
            23.09533
          ],
          [
            120.6815,
            23.09517
          ],
          [
            120.68129,
            23.09491
          ],
          [
            120.68111,
            23.09459
          ],
          [
            120.68109,
            23.09423
          ],
          [
            120.6811,
            23.09401
          ],
          [
            120.68133,
            23.09368
          ],
          [
            120.68163,
            23.09344
          ],
          [
            120.68243,
            23.09316
          ],
          [
            120.6829,
            23.09261
          ],
          [
            120.68321,
            23.09131
          ],
          [
            120.68321,
            23.0909
          ],
          [
            120.68318,
            23.09072
          ],
          [
            120.6831,
            23.09056
          ],
          [
            120.68296,
            23.09021
          ],
          [
            120.68278,
            23.08988
          ],
          [
            120.68172,
            23.08856
          ],
          [
            120.68032,
            23.08698
          ],
          [
            120.67936,
            23.08602
          ],
          [
            120.67932,
            23.08592
          ],
          [
            120.67945,
            23.08448
          ],
          [
            120.67944,
            23.08421
          ],
          [
            120.67934,
            23.08396
          ],
          [
            120.6779,
            23.08144
          ],
          [
            120.67617,
            23.07877
          ],
          [
            120.67521,
            23.07709
          ],
          [
            120.67474,
            23.0763
          ],
          [
            120.67433,
            23.07551
          ],
          [
            120.67418,
            23.07495
          ],
          [
            120.67397,
            23.07445
          ],
          [
            120.67334,
            23.07361
          ],
          [
            120.67272,
            23.07273
          ],
          [
            120.67301,
            23.07237
          ],
          [
            120.67306,
            23.07219
          ],
          [
            120.67297,
            23.07194
          ],
          [
            120.67251,
            23.07069
          ],
          [
            120.67342,
            23.06765
          ],
          [
            120.67342,
            23.06731
          ],
          [
            120.67332,
            23.06705
          ],
          [
            120.67268,
            23.06621
          ],
          [
            120.67224,
            23.06582
          ],
          [
            120.67202,
            23.06552
          ],
          [
            120.67192,
            23.06524
          ],
          [
            120.67205,
            23.06502
          ],
          [
            120.67268,
            23.06449
          ],
          [
            120.67277,
            23.0643
          ],
          [
            120.67281,
            23.06412
          ],
          [
            120.67268,
            23.06393
          ],
          [
            120.6724,
            23.06385
          ],
          [
            120.67215,
            23.06391
          ],
          [
            120.67172,
            23.06427
          ],
          [
            120.67154,
            23.06422
          ],
          [
            120.67139,
            23.06408
          ],
          [
            120.67135,
            23.06393
          ],
          [
            120.67141,
            23.06361
          ],
          [
            120.67129,
            23.0631
          ],
          [
            120.67091,
            23.06241
          ],
          [
            120.67093,
            23.06178
          ],
          [
            120.67088,
            23.06123
          ],
          [
            120.67055,
            23.06079
          ],
          [
            120.66865,
            23.05903
          ],
          [
            120.66771,
            23.05764
          ],
          [
            120.66755,
            23.05712
          ],
          [
            120.66704,
            23.05439
          ],
          [
            120.66715,
            23.05409
          ],
          [
            120.66756,
            23.05347
          ],
          [
            120.66762,
            23.05324
          ],
          [
            120.6674,
            23.05146
          ],
          [
            120.66754,
            23.05116
          ],
          [
            120.66842,
            23.0504
          ],
          [
            120.66909,
            23.04961
          ],
          [
            120.66916,
            23.04948
          ],
          [
            120.66913,
            23.04934
          ],
          [
            120.66793,
            23.04646
          ],
          [
            120.66775,
            23.04553
          ],
          [
            120.66736,
            23.04473
          ],
          [
            120.66731,
            23.0443
          ],
          [
            120.66773,
            23.04342
          ],
          [
            120.6657,
            23.03773
          ],
          [
            120.66545,
            23.03613
          ],
          [
            120.66524,
            23.03547
          ],
          [
            120.665,
            23.0349
          ],
          [
            120.66433,
            23.03395
          ],
          [
            120.66407,
            23.0328
          ],
          [
            120.66367,
            23.03176
          ],
          [
            120.66323,
            23.02944
          ],
          [
            120.66358,
            23.02738
          ],
          [
            120.66418,
            23.02624
          ],
          [
            120.6641,
            23.02593
          ],
          [
            120.66357000000001,
            23.02539
          ],
          [
            120.66344,
            23.02516
          ],
          [
            120.66339,
            23.02496
          ],
          [
            120.66342,
            23.02427
          ],
          [
            120.66408,
            23.02317
          ],
          [
            120.66412,
            23.02073
          ],
          [
            120.66519,
            23.01765
          ],
          [
            120.66546,
            23.01652
          ],
          [
            120.66545,
            23.01587
          ],
          [
            120.66532,
            23.01503
          ],
          [
            120.66543,
            23.01389
          ],
          [
            120.66531,
            23.01289
          ],
          [
            120.66535,
            23.0126
          ],
          [
            120.66567,
            23.01177
          ],
          [
            120.66507,
            23.01076
          ],
          [
            120.66522,
            23.00923
          ],
          [
            120.66505,
            23.00869
          ],
          [
            120.66448,
            23.00784
          ],
          [
            120.6641,
            23.00752
          ],
          [
            120.6636,
            23.00726
          ],
          [
            120.66333,
            23.00721
          ],
          [
            120.66294,
            23.00759
          ],
          [
            120.66259,
            23.00778
          ],
          [
            120.66224,
            23.00787
          ],
          [
            120.66201,
            23.00785
          ],
          [
            120.65925,
            23.0073
          ],
          [
            120.65638,
            23.00597
          ],
          [
            120.65575,
            23.00603
          ],
          [
            120.65367,
            23.00663
          ],
          [
            120.65144,
            23.00695
          ],
          [
            120.65085,
            23.00691
          ],
          [
            120.64927,
            23.00656
          ],
          [
            120.64888,
            23.00638
          ],
          [
            120.64835,
            23.006
          ],
          [
            120.64732,
            23.00476
          ],
          [
            120.64719,
            23.00427
          ],
          [
            120.64632,
            23.00254
          ],
          [
            120.64443,
            22.99968
          ],
          [
            120.64337,
            22.99792
          ],
          [
            120.64322,
            22.99752
          ],
          [
            120.64302,
            22.99581
          ],
          [
            120.64303,
            22.99528
          ],
          [
            120.6425,
            22.9955
          ],
          [
            120.64248,
            22.99659
          ],
          [
            120.64237,
            22.9967
          ],
          [
            120.6421,
            22.99679
          ],
          [
            120.64138,
            22.99657
          ],
          [
            120.64091,
            22.99629
          ],
          [
            120.63805,
            22.99528
          ],
          [
            120.63738,
            22.99606
          ],
          [
            120.63703,
            22.99627
          ],
          [
            120.63622,
            22.99714
          ],
          [
            120.6357,
            22.9986
          ],
          [
            120.63401,
            22.9987
          ],
          [
            120.63399,
            22.99776
          ],
          [
            120.63498,
            22.99565
          ],
          [
            120.63555,
            22.99356
          ],
          [
            120.63685,
            22.98955
          ],
          [
            120.63707,
            22.98798
          ],
          [
            120.63733,
            22.9839
          ],
          [
            120.63749,
            22.98248
          ],
          [
            120.6387,
            22.97863
          ],
          [
            120.64032,
            22.9739
          ],
          [
            120.64097,
            22.97076
          ],
          [
            120.64221,
            22.96556
          ],
          [
            120.64276,
            22.96268
          ],
          [
            120.64315,
            22.95797
          ],
          [
            120.64301,
            22.95719
          ],
          [
            120.64259,
            22.95568
          ],
          [
            120.64244,
            22.95361
          ],
          [
            120.64185,
            22.95156
          ],
          [
            120.64182,
            22.95107
          ],
          [
            120.64192,
            22.95055
          ],
          [
            120.64268,
            22.94824
          ],
          [
            120.64282,
            22.94758
          ],
          [
            120.64293,
            22.94485
          ],
          [
            120.6429,
            22.94357
          ],
          [
            120.64304,
            22.94243
          ],
          [
            120.64464,
            22.93572
          ],
          [
            120.64459,
            22.93533
          ],
          [
            120.64429,
            22.93432
          ],
          [
            120.64439,
            22.93289
          ],
          [
            120.6439,
            22.93051
          ],
          [
            120.64267,
            22.92717
          ],
          [
            120.64215,
            22.9259
          ],
          [
            120.6399,
            22.92167
          ],
          [
            120.63991,
            22.91941
          ],
          [
            120.63941,
            22.91785
          ],
          [
            120.63917,
            22.91736
          ],
          [
            120.6318,
            22.90491
          ],
          [
            120.63108,
            22.90419
          ],
          [
            120.62985,
            22.9035
          ],
          [
            120.62932,
            22.9029
          ],
          [
            120.62808,
            22.90195
          ],
          [
            120.62788,
            22.90166
          ],
          [
            120.6269,
            22.89816
          ],
          [
            120.62669,
            22.89767
          ],
          [
            120.62597,
            22.89663
          ],
          [
            120.62573,
            22.89597
          ],
          [
            120.62519,
            22.89342
          ],
          [
            120.6245,
            22.89102
          ],
          [
            120.62441,
            22.88993
          ],
          [
            120.62427,
            22.88947
          ],
          [
            120.62392,
            22.88901
          ],
          [
            120.62261,
            22.88774
          ],
          [
            120.62215,
            22.88746
          ],
          [
            120.62121,
            22.8871
          ],
          [
            120.62096,
            22.88691
          ],
          [
            120.6206,
            22.88645
          ],
          [
            120.62038,
            22.88614
          ],
          [
            120.62023,
            22.88574
          ],
          [
            120.6204,
            22.88443
          ],
          [
            120.6203,
            22.88407
          ],
          [
            120.62006,
            22.88373
          ],
          [
            120.61912,
            22.88295
          ],
          [
            120.61608,
            22.8819
          ],
          [
            120.61498,
            22.88103
          ],
          [
            120.61438,
            22.88069
          ],
          [
            120.61256,
            22.87977
          ],
          [
            120.61165,
            22.87945
          ],
          [
            120.61086,
            22.87932
          ],
          [
            120.60381,
            22.87869
          ],
          [
            120.60355,
            22.87856
          ],
          [
            120.60334,
            22.8783
          ],
          [
            120.60325,
            22.87804
          ],
          [
            120.60315,
            22.87695
          ],
          [
            120.60296,
            22.87673
          ],
          [
            120.60281,
            22.87667
          ],
          [
            120.60229,
            22.8766
          ],
          [
            120.60158,
            22.87664
          ],
          [
            120.60115,
            22.87685
          ],
          [
            120.60026,
            22.8776
          ],
          [
            120.59979,
            22.8777
          ],
          [
            120.59918,
            22.87757
          ],
          [
            120.59803,
            22.87705
          ],
          [
            120.59688,
            22.87635
          ],
          [
            120.59612,
            22.87572
          ],
          [
            120.59509,
            22.87454
          ],
          [
            120.59379,
            22.87415
          ],
          [
            120.59352,
            22.87391
          ],
          [
            120.59308,
            22.87309
          ],
          [
            120.59289,
            22.87287
          ],
          [
            120.59263,
            22.87278
          ],
          [
            120.59235,
            22.8728
          ],
          [
            120.59218,
            22.87291
          ],
          [
            120.59175,
            22.87352
          ],
          [
            120.59126,
            22.87371
          ],
          [
            120.58952,
            22.87313
          ],
          [
            120.58834,
            22.87305
          ],
          [
            120.58779,
            22.87293
          ],
          [
            120.58734,
            22.87263
          ],
          [
            120.58621,
            22.87139
          ],
          [
            120.58401,
            22.86981
          ],
          [
            120.58329,
            22.86944
          ],
          [
            120.57982,
            22.86929
          ],
          [
            120.57646,
            22.86927
          ],
          [
            120.57612,
            22.86943
          ],
          [
            120.576,
            22.86956
          ],
          [
            120.57582,
            22.87003
          ],
          [
            120.57579,
            22.8721
          ],
          [
            120.5759,
            22.87316
          ],
          [
            120.57568,
            22.87367
          ],
          [
            120.57407,
            22.87507
          ],
          [
            120.56929,
            22.87894
          ],
          [
            120.56856,
            22.8794
          ],
          [
            120.56704,
            22.88004
          ],
          [
            120.5666,
            22.8801
          ],
          [
            120.56376,
            22.87988
          ],
          [
            120.56218,
            22.88023
          ],
          [
            120.56046,
            22.8809
          ],
          [
            120.55766,
            22.88235
          ],
          [
            120.55541,
            22.88456
          ],
          [
            120.55311,
            22.88613
          ],
          [
            120.55162,
            22.88724
          ],
          [
            120.55145,
            22.88752
          ],
          [
            120.5507,
            22.88941
          ],
          [
            120.54957,
            22.89281
          ],
          [
            120.54381,
            22.89576
          ],
          [
            120.54353,
            22.89519
          ],
          [
            120.54248,
            22.89425
          ],
          [
            120.54218,
            22.89885
          ],
          [
            120.542,
            22.89964
          ],
          [
            120.54131,
            22.90161
          ],
          [
            120.54116,
            22.90232
          ],
          [
            120.54167,
            22.90244
          ],
          [
            120.54183,
            22.90171
          ],
          [
            120.54128,
            22.90163
          ],
          [
            120.54111,
            22.90231
          ],
          [
            120.53903,
            22.9019
          ],
          [
            120.5375,
            22.90181
          ],
          [
            120.53669,
            22.90189
          ],
          [
            120.53385,
            22.90241
          ],
          [
            120.52952,
            22.90178
          ],
          [
            120.52745,
            22.901
          ],
          [
            120.52617,
            22.90006
          ],
          [
            120.52541,
            22.8996
          ],
          [
            120.49656,
            22.88497
          ],
          [
            120.49648,
            22.88475
          ],
          [
            120.49639,
            22.88321
          ],
          [
            120.49502,
            22.88277
          ],
          [
            120.49307,
            22.88193
          ],
          [
            120.49098,
            22.88185
          ],
          [
            120.4897,
            22.8818
          ],
          [
            120.48845,
            22.88179
          ],
          [
            120.48704,
            22.88191
          ],
          [
            120.48517,
            22.88222
          ],
          [
            120.48471,
            22.88235
          ],
          [
            120.48475,
            22.88347
          ],
          [
            120.48429,
            22.88347
          ],
          [
            120.48435,
            22.88413
          ],
          [
            120.48479,
            22.8841
          ],
          [
            120.48472,
            22.88226
          ],
          [
            120.48329,
            22.87958
          ],
          [
            120.48262,
            22.8786
          ],
          [
            120.48016,
            22.87537
          ],
          [
            120.47979,
            22.87509
          ],
          [
            120.47444,
            22.87264
          ],
          [
            120.4741,
            22.8724
          ],
          [
            120.4734,
            22.87091
          ],
          [
            120.47106,
            22.86536
          ],
          [
            120.47012,
            22.86388
          ],
          [
            120.4697,
            22.86335
          ],
          [
            120.46925,
            22.86295
          ],
          [
            120.46897,
            22.86242
          ],
          [
            120.46847,
            22.86059
          ],
          [
            120.4689,
            22.85857
          ],
          [
            120.46787,
            22.85317
          ],
          [
            120.46774,
            22.85272
          ],
          [
            120.46545,
            22.84723
          ],
          [
            120.46421,
            22.84315
          ],
          [
            120.46309,
            22.83958
          ],
          [
            120.46258,
            22.83765
          ],
          [
            120.46227,
            22.83474
          ],
          [
            120.46263,
            22.83098
          ],
          [
            120.46228,
            22.82889
          ],
          [
            120.46235,
            22.8236
          ],
          [
            120.46187,
            22.81809
          ],
          [
            120.46147,
            22.81521
          ],
          [
            120.46166,
            22.8138
          ],
          [
            120.46177,
            22.81323
          ],
          [
            120.46177,
            22.81278
          ],
          [
            120.46132,
            22.80729
          ],
          [
            120.45862,
            22.79872
          ],
          [
            120.45802,
            22.79842
          ],
          [
            120.45635,
            22.79782
          ],
          [
            120.45577,
            22.79771
          ],
          [
            120.45352,
            22.79763
          ],
          [
            120.44972,
            22.7967
          ],
          [
            120.44849,
            22.79659
          ],
          [
            120.44439,
            22.79692
          ],
          [
            120.44197,
            22.79683
          ],
          [
            120.43937,
            22.79641
          ],
          [
            120.43796,
            22.79598
          ],
          [
            120.43662,
            22.79543
          ],
          [
            120.43476,
            22.79442
          ],
          [
            120.43314,
            22.79342
          ],
          [
            120.43147,
            22.79205
          ],
          [
            120.42966,
            22.79029
          ],
          [
            120.42875,
            22.78909
          ],
          [
            120.42693,
            22.7863
          ],
          [
            120.42539,
            22.78342
          ],
          [
            120.4238,
            22.78088
          ],
          [
            120.42198,
            22.77877
          ],
          [
            120.42077,
            22.77763
          ],
          [
            120.419,
            22.77624
          ],
          [
            120.41713,
            22.77501
          ],
          [
            120.41503,
            22.77397
          ],
          [
            120.40209,
            22.76918
          ],
          [
            120.40096,
            22.76868
          ],
          [
            120.39903,
            22.76766
          ],
          [
            120.39824,
            22.76714
          ],
          [
            120.39336,
            22.76338
          ],
          [
            120.3909,
            22.76193
          ],
          [
            120.38865,
            22.76101
          ],
          [
            120.38609,
            22.76029
          ],
          [
            120.37838,
            22.75895
          ],
          [
            120.37568,
            22.75829
          ],
          [
            120.37322,
            22.75752
          ],
          [
            120.37129,
            22.75681
          ],
          [
            120.37045,
            22.75682
          ],
          [
            120.36976,
            22.75719
          ],
          [
            120.36919,
            22.75782
          ],
          [
            120.36866,
            22.75884
          ],
          [
            120.36833,
            22.7597
          ],
          [
            120.36661,
            22.76553
          ],
          [
            120.36387,
            22.7648
          ],
          [
            120.36389,
            22.76475
          ],
          [
            120.36658,
            22.76546
          ],
          [
            120.36812,
            22.75999
          ],
          [
            120.36882,
            22.75822
          ],
          [
            120.36971,
            22.75699
          ],
          [
            120.36985,
            22.75668
          ],
          [
            120.36984,
            22.75613
          ],
          [
            120.36973,
            22.7559
          ],
          [
            120.36945,
            22.75562
          ],
          [
            120.36604,
            22.75235
          ],
          [
            120.36453,
            22.75055
          ],
          [
            120.36379,
            22.74935
          ],
          [
            120.36333,
            22.74837
          ],
          [
            120.363,
            22.74751
          ],
          [
            120.36261,
            22.74614
          ],
          [
            120.36222,
            22.74389
          ],
          [
            120.36066,
            22.73248
          ],
          [
            120.36062,
            22.73048
          ],
          [
            120.35989,
            22.72442
          ],
          [
            120.35959,
            22.7213
          ],
          [
            120.35961,
            22.71698
          ],
          [
            120.36016,
            22.71106
          ],
          [
            120.36029,
            22.70761
          ],
          [
            120.36018,
            22.70565
          ],
          [
            120.35952,
            22.70189
          ],
          [
            120.35847,
            22.6976
          ],
          [
            120.35763,
            22.6932
          ],
          [
            120.35733,
            22.69183
          ],
          [
            120.35686,
            22.69019
          ],
          [
            120.35632,
            22.689
          ],
          [
            120.35555,
            22.68803
          ],
          [
            120.3548,
            22.68714
          ],
          [
            120.35404,
            22.68657
          ],
          [
            120.35293,
            22.68592
          ],
          [
            120.35522,
            22.68166
          ],
          [
            120.35837,
            22.67613
          ],
          [
            120.36226,
            22.66892
          ],
          [
            120.36263,
            22.66764
          ],
          [
            120.3641,
            22.65911
          ],
          [
            120.36293,
            22.65898
          ],
          [
            120.36191,
            22.65884
          ],
          [
            120.36081,
            22.65858
          ],
          [
            120.36039,
            22.65845
          ],
          [
            120.35836,
            22.65755
          ],
          [
            120.35807,
            22.6574
          ],
          [
            120.35786,
            22.65725
          ],
          [
            120.3574,
            22.65642
          ],
          [
            120.35718,
            22.65584
          ],
          [
            120.35676,
            22.65526
          ],
          [
            120.35666,
            22.65495
          ],
          [
            120.35686,
            22.65318
          ],
          [
            120.35683,
            22.65293
          ],
          [
            120.35602,
            22.65115
          ],
          [
            120.35702,
            22.65083
          ]
        ]
      }
    },
    {
      "type": "Feature",
      "properties": {
        "feature_type": "route",
        "ref": "JOY H11(週一、三、五行駛)",
        "name": "JOY H11(週一、三、五行駛)",
        "name_en": "JOY H11(週一、三、五行駛)",
        "color": "#134e4a",
        "direction": 1
      },
      "geometry": {
        "type": "LineString",
        "coordinates": [
          [
            120.35879,
            22.65031
          ],
          [
            120.3592,
            22.65029
          ],
          [
            120.35945,
            22.65041
          ],
          [
            120.3596,
            22.65062
          ],
          [
            120.35965,
            22.6508
          ],
          [
            120.35976,
            22.65131
          ],
          [
            120.35984,
            22.65184
          ],
          [
            120.35982,
            22.65229
          ],
          [
            120.35961,
            22.65313
          ],
          [
            120.3596,
            22.65341
          ],
          [
            120.35969,
            22.65368
          ],
          [
            120.35983,
            22.65391
          ],
          [
            120.36014,
            22.65421
          ],
          [
            120.36023,
            22.65441
          ],
          [
            120.36026,
            22.65455
          ],
          [
            120.36022,
            22.65472
          ],
          [
            120.35957,
            22.6565
          ]
        ]
      }
    },
    {
      "type": "Feature",
      "properties": {
        "feature_type": "route",
        "ref": "JOY H11(週一、三、五行駛)",
        "name": "JOY H11(週一、三、五行駛)",
        "name_en": "JOY H11(週一、三、五行駛)",
        "color": "#134e4a",
        "direction": 1
      },
      "geometry": {
        "type": "LineString",
        "coordinates": [
          [
            120.36922,
            22.75465
          ],
          [
            120.37031,
            22.75519
          ],
          [
            120.37122,
            22.75565
          ]
        ]
      }
    },
    {
      "type": "Feature",
      "properties": {
        "feature_type": "route",
        "ref": "JOY H11(週一、三、五行駛)",
        "name": "JOY H11(週一、三、五行駛)",
        "name_en": "JOY H11(週一、三、五行駛)",
        "color": "#134e4a",
        "direction": 1
      },
      "geometry": {
        "type": "LineString",
        "coordinates": [
          [
            120.45136,
            22.79663
          ],
          [
            120.45464,
            22.79716
          ]
        ]
      }
    },
    {
      "type": "Feature",
      "properties": {
        "feature_type": "station",
        "ref": "KHH100411144411",
        "name": "桃源區公所(衛生所)",
        "name_en": "Tauyuan District Office",
        "line": "JOY H11(週一、三、五行駛)",
        "color": "#134e4a",
        "direction": 0
      },
      "geometry": {
        "type": "Point",
        "coordinates": [
          120.764016,
          23.158987
        ]
      }
    },
    {
      "type": "Feature",
      "properties": {
        "feature_type": "station",
        "ref": "KHH100411144471",
        "name": "寶來國中",
        "name_en": "Baolai Junior  High School",
        "line": "JOY H11(週一、三、五行駛)",
        "color": "#134e4a",
        "direction": 0
      },
      "geometry": {
        "type": "Point",
        "coordinates": [
          120.702966,
          23.11072
        ]
      }
    },
    {
      "type": "Feature",
      "properties": {
        "feature_type": "station",
        "ref": "KHH100411144601",
        "name": "荖濃國小",
        "name_en": "Laonong Elementary School",
        "line": "JOY H11(週一、三、五行駛)",
        "color": "#134e4a",
        "direction": 0
      },
      "geometry": {
        "type": "Point",
        "coordinates": [
          120.672957,
          23.073125
        ]
      }
    },
    {
      "type": "Feature",
      "properties": {
        "feature_type": "station",
        "ref": "KHH100411144651",
        "name": "頂新發",
        "name_en": "Dingsinfa",
        "line": "JOY H11(週一、三、五行駛)",
        "color": "#134e4a",
        "direction": 0
      },
      "geometry": {
        "type": "Point",
        "coordinates": [
          120.667595,
          23.043148
        ]
      }
    },
    {
      "type": "Feature",
      "properties": {
        "feature_type": "station",
        "ref": "KHH100411144681",
        "name": "新發國小",
        "name_en": "Xinfa Elementary School",
        "line": "JOY H11(週一、三、五行駛)",
        "color": "#134e4a",
        "direction": 0
      },
      "geometry": {
        "type": "Point",
        "coordinates": [
          120.663646,
          23.031687
        ]
      }
    },
    {
      "type": "Feature",
      "properties": {
        "feature_type": "station",
        "ref": "KHH100411144731",
        "name": "育幼院",
        "name_en": "Children's home",
        "line": "JOY H11(週一、三、五行駛)",
        "color": "#134e4a",
        "direction": 0
      },
      "geometry": {
        "type": "Point",
        "coordinates": [
          120.65585,
          23.006053
        ]
      }
    },
    {
      "type": "Feature",
      "properties": {
        "feature_type": "station",
        "ref": "KHH10041179841",
        "name": "六龜大橋(福龜園區)",
        "name_en": "Liouguei Bridge(Fuguei Park)",
        "line": "JOY H11(週一、三、五行駛)",
        "color": "#134e4a",
        "direction": 0
      },
      "geometry": {
        "type": "Point",
        "coordinates": [
          120.638005,
          22.995444
        ]
      }
    },
    {
      "type": "Feature",
      "properties": {
        "feature_type": "station",
        "ref": "KHH10041179851",
        "name": "六龜區公所(衛生所)",
        "name_en": "Liouguei District office(Public Health Center)",
        "line": "JOY H11(週一、三、五行駛)",
        "color": "#134e4a",
        "direction": 0
      },
      "geometry": {
        "type": "Point",
        "coordinates": [
          120.634068,
          22.997491
        ]
      }
    },
    {
      "type": "Feature",
      "properties": {
        "feature_type": "station",
        "ref": "KHH100411144921",
        "name": "復興",
        "name_en": "Fusing",
        "line": "JOY H11(週一、三、五行駛)",
        "color": "#134e4a",
        "direction": 0
      },
      "geometry": {
        "type": "Point",
        "coordinates": [
          120.642517,
          22.963646
        ]
      }
    },
    {
      "type": "Feature",
      "properties": {
        "feature_type": "station",
        "ref": "KHH100411145111",
        "name": "龍肚",
        "name_en": "Longdu",
        "line": "JOY H11(週一、三、五行駛)",
        "color": "#134e4a",
        "direction": 0
      },
      "geometry": {
        "type": "Point",
        "coordinates": [
          120.570663,
          22.877933
        ]
      }
    },
    {
      "type": "Feature",
      "properties": {
        "feature_type": "station",
        "ref": "KHH100411145181",
        "name": "美濃區公所(衛生所)",
        "name_en": "Meinong District Office(Public Health Center)",
        "line": "JOY H11(週一、三、五行駛)",
        "color": "#134e4a",
        "direction": 0
      },
      "geometry": {
        "type": "Point",
        "coordinates": [
          120.542557,
          22.895232
        ]
      }
    },
    {
      "type": "Feature",
      "properties": {
        "feature_type": "station",
        "ref": "KHH10041175021",
        "name": "合和里",
        "name_en": "Hehe Village",
        "line": "JOY H11(週一、三、五行駛)",
        "color": "#134e4a",
        "direction": 0
      },
      "geometry": {
        "type": "Point",
        "coordinates": [
          120.542459,
          22.896729
        ]
      }
    },
    {
      "type": "Feature",
      "properties": {
        "feature_type": "station",
        "ref": "KHH100411145201",
        "name": "美濃站",
        "name_en": "Meinong Station",
        "line": "JOY H11(週一、三、五行駛)",
        "color": "#134e4a",
        "direction": 0
      },
      "geometry": {
        "type": "Point",
        "coordinates": [
          120.541602,
          22.901687
        ]
      }
    },
    {
      "type": "Feature",
      "properties": {
        "feature_type": "station",
        "ref": "KHH10041174121",
        "name": "旗尾(旗美高中)",
        "name_en": "CiWei(Chimei Senior High School)",
        "line": "JOY H11(週一、三、五行駛)",
        "color": "#134e4a",
        "direction": 0
      },
      "geometry": {
        "type": "Point",
        "coordinates": [
          120.49432,
          22.882486
        ]
      }
    },
    {
      "type": "Feature",
      "properties": {
        "feature_type": "station",
        "ref": "KHH100411400061",
        "name": "旗尾國小(旗山糖廠)",
        "name_en": "CiWei Elementary School",
        "line": "JOY H11(週一、三、五行駛)",
        "color": "#134e4a",
        "direction": 0
      },
      "geometry": {
        "type": "Point",
        "coordinates": [
          120.491886,
          22.881926
        ]
      }
    },
    {
      "type": "Feature",
      "properties": {
        "feature_type": "station",
        "ref": "KHH100411145301",
        "name": "旗山轉運站",
        "name_en": "Cishan Bus Transfer Station",
        "line": "JOY H11(週一、三、五行駛)",
        "color": "#134e4a",
        "direction": 0
      },
      "geometry": {
        "type": "Point",
        "coordinates": [
          120.48455,
          22.883529
        ]
      }
    },
    {
      "type": "Feature",
      "properties": {
        "feature_type": "station",
        "ref": "KHH100411184651",
        "name": "部立旗山醫院(中華路)",
        "name_en": "Cishan Hospital(Jhonghua Rd.)",
        "line": "JOY H11(週一、三、五行駛)",
        "color": "#134e4a",
        "direction": 0
      },
      "geometry": {
        "type": "Point",
        "coordinates": [
          120.483709,
          22.88047
        ]
      }
    },
    {
      "type": "Feature",
      "properties": {
        "feature_type": "station",
        "ref": "KHH100411145431",
        "name": "溪洲",
        "name_en": "Sijhou",
        "line": "JOY H11(週一、三、五行駛)",
        "color": "#134e4a",
        "direction": 0
      },
      "geometry": {
        "type": "Point",
        "coordinates": [
          120.464431,
          22.843966
        ]
      }
    },
    {
      "type": "Feature",
      "properties": {
        "feature_type": "station",
        "ref": "KHH100411145491",
        "name": "尚和",
        "name_en": "Shanghe",
        "line": "JOY H11(週一、三、五行駛)",
        "color": "#134e4a",
        "direction": 0
      },
      "geometry": {
        "type": "Point",
        "coordinates": [
          120.461504,
          22.814731
        ]
      }
    },
    {
      "type": "Feature",
      "properties": {
        "feature_type": "station",
        "ref": "KHH100411145521",
        "name": "義大醫院",
        "name_en": "E-Da Hospital",
        "line": "JOY H11(週一、三、五行駛)",
        "color": "#134e4a",
        "direction": 0
      },
      "geometry": {
        "type": "Point",
        "coordinates": [
          120.364012,
          22.764904
        ]
      }
    },
    {
      "type": "Feature",
      "properties": {
        "feature_type": "station",
        "ref": "KHH100411145631",
        "name": "長庚醫院",
        "name_en": "Chang Gung Memorial Hospital",
        "line": "JOY H11(週一、三、五行駛)",
        "color": "#134e4a",
        "direction": 0
      },
      "geometry": {
        "type": "Point",
        "coordinates": [
          120.356891,
          22.650753
        ]
      }
    },
    {
      "type": "Feature",
      "properties": {
        "feature_type": "station",
        "ref": "KHH100411145642",
        "name": "長庚醫院",
        "name_en": "Chang Gung Memorial Hospital",
        "line": "JOY H11(週一、三、五行駛)",
        "color": "#134e4a",
        "direction": 1
      },
      "geometry": {
        "type": "Point",
        "coordinates": [
          120.356891,
          22.650753
        ]
      }
    },
    {
      "type": "Feature",
      "properties": {
        "feature_type": "station",
        "ref": "KHH100411145742",
        "name": "義大醫院",
        "name_en": "E-Da Hospital",
        "line": "JOY H11(週一、三、五行駛)",
        "color": "#134e4a",
        "direction": 1
      },
      "geometry": {
        "type": "Point",
        "coordinates": [
          120.364092,
          22.764739
        ]
      }
    },
    {
      "type": "Feature",
      "properties": {
        "feature_type": "station",
        "ref": "KHH100411145782",
        "name": "尚和",
        "name_en": "Shanghe",
        "line": "JOY H11(週一、三、五行駛)",
        "color": "#134e4a",
        "direction": 1
      },
      "geometry": {
        "type": "Point",
        "coordinates": [
          120.461723,
          22.81476
        ]
      }
    },
    {
      "type": "Feature",
      "properties": {
        "feature_type": "station",
        "ref": "KHH100411145842",
        "name": "溪洲",
        "name_en": "Sijhou",
        "line": "JOY H11(週一、三、五行駛)",
        "color": "#134e4a",
        "direction": 1
      },
      "geometry": {
        "type": "Point",
        "coordinates": [
          120.464647,
          22.843869
        ]
      }
    },
    {
      "type": "Feature",
      "properties": {
        "feature_type": "station",
        "ref": "KHH100411184892",
        "name": "部立旗山醫院(中華路)",
        "name_en": "Cishan Hospital(Jhonghua Rd.)",
        "line": "JOY H11(週一、三、五行駛)",
        "color": "#134e4a",
        "direction": 1
      },
      "geometry": {
        "type": "Point",
        "coordinates": [
          120.483945,
          22.880409
        ]
      }
    },
    {
      "type": "Feature",
      "properties": {
        "feature_type": "station",
        "ref": "KHH100411145972",
        "name": "旗山轉運站",
        "name_en": "Cishan Bus Transfer Station",
        "line": "JOY H11(週一、三、五行駛)",
        "color": "#134e4a",
        "direction": 1
      },
      "geometry": {
        "type": "Point",
        "coordinates": [
          120.48455,
          22.883529
        ]
      }
    },
    {
      "type": "Feature",
      "properties": {
        "feature_type": "station",
        "ref": "KHH100411400072",
        "name": "旗尾國小(旗山糖廠)",
        "name_en": "CiWei Elementary School",
        "line": "JOY H11(週一、三、五行駛)",
        "color": "#134e4a",
        "direction": 1
      },
      "geometry": {
        "type": "Point",
        "coordinates": [
          120.491891,
          22.881732
        ]
      }
    },
    {
      "type": "Feature",
      "properties": {
        "feature_type": "station",
        "ref": "KHH10041168202",
        "name": "旗尾(旗美高中)",
        "name_en": "CiWei(Chimei Senior High School)",
        "line": "JOY H11(週一、三、五行駛)",
        "color": "#134e4a",
        "direction": 1
      },
      "geometry": {
        "type": "Point",
        "coordinates": [
          120.494185,
          22.882297
        ]
      }
    },
    {
      "type": "Feature",
      "properties": {
        "feature_type": "station",
        "ref": "KHH100411146072",
        "name": "美濃站",
        "name_en": "Meinong Station",
        "line": "JOY H11(週一、三、五行駛)",
        "color": "#134e4a",
        "direction": 1
      },
      "geometry": {
        "type": "Point",
        "coordinates": [
          120.541602,
          22.901687
        ]
      }
    },
    {
      "type": "Feature",
      "properties": {
        "feature_type": "station",
        "ref": "KHH10041175012",
        "name": "合和里",
        "name_en": "Hehe Village",
        "line": "JOY H11(週一、三、五行駛)",
        "color": "#134e4a",
        "direction": 1
      },
      "geometry": {
        "type": "Point",
        "coordinates": [
          120.542275,
          22.896818
        ]
      }
    },
    {
      "type": "Feature",
      "properties": {
        "feature_type": "station",
        "ref": "KHH100411146092",
        "name": "美濃區公所(衛生所)",
        "name_en": "Meinong District Office(Public Health Center)",
        "line": "JOY H11(週一、三、五行駛)",
        "color": "#134e4a",
        "direction": 1
      },
      "geometry": {
        "type": "Point",
        "coordinates": [
          120.5424,
          22.894951
        ]
      }
    },
    {
      "type": "Feature",
      "properties": {
        "feature_type": "station",
        "ref": "KHH100411146162",
        "name": "龍肚",
        "name_en": "Longdu",
        "line": "JOY H11(週一、三、五行駛)",
        "color": "#134e4a",
        "direction": 1
      },
      "geometry": {
        "type": "Point",
        "coordinates": [
          120.569572,
          22.87866
        ]
      }
    },
    {
      "type": "Feature",
      "properties": {
        "feature_type": "station",
        "ref": "KHH100411146352",
        "name": "復興",
        "name_en": "Fusing",
        "line": "JOY H11(週一、三、五行駛)",
        "color": "#134e4a",
        "direction": 1
      },
      "geometry": {
        "type": "Point",
        "coordinates": [
          120.642692,
          22.96346
        ]
      }
    },
    {
      "type": "Feature",
      "properties": {
        "feature_type": "station",
        "ref": "KHH10041113002",
        "name": "六龜農會(光復路)",
        "name_en": "Liouguei Farmers' Association(Guangfu Rd.)",
        "line": "JOY H11(週一、三、五行駛)",
        "color": "#134e4a",
        "direction": 1
      },
      "geometry": {
        "type": "Point",
        "coordinates": [
          120.635141,
          22.995446
        ]
      }
    },
    {
      "type": "Feature",
      "properties": {
        "feature_type": "station",
        "ref": "KHH10041179862",
        "name": "六龜大橋(福龜園區)",
        "name_en": "Liouguei Bridge(Fuguei Park)",
        "line": "JOY H11(週一、三、五行駛)",
        "color": "#134e4a",
        "direction": 1
      },
      "geometry": {
        "type": "Point",
        "coordinates": [
          120.638005,
          22.995444
        ]
      }
    },
    {
      "type": "Feature",
      "properties": {
        "feature_type": "station",
        "ref": "KHH10041179872",
        "name": "六龜區公所(衛生所)",
        "name_en": "Liouguei District office(Public Health Center)",
        "line": "JOY H11(週一、三、五行駛)",
        "color": "#134e4a",
        "direction": 1
      },
      "geometry": {
        "type": "Point",
        "coordinates": [
          120.634068,
          22.997491
        ]
      }
    },
    {
      "type": "Feature",
      "properties": {
        "feature_type": "station",
        "ref": "KHH100411146542",
        "name": "育幼院",
        "name_en": "Children's home",
        "line": "JOY H11(週一、三、五行駛)",
        "color": "#134e4a",
        "direction": 1
      },
      "geometry": {
        "type": "Point",
        "coordinates": [
          120.655886,
          23.005923
        ]
      }
    },
    {
      "type": "Feature",
      "properties": {
        "feature_type": "station",
        "ref": "KHH100411146592",
        "name": "新發國小",
        "name_en": "Xinfa Elementary School",
        "line": "JOY H11(週一、三、五行駛)",
        "color": "#134e4a",
        "direction": 1
      },
      "geometry": {
        "type": "Point",
        "coordinates": [
          120.663741,
          23.031694
        ]
      }
    },
    {
      "type": "Feature",
      "properties": {
        "feature_type": "station",
        "ref": "KHH100411146622",
        "name": "頂新發",
        "name_en": "Dingsinfa",
        "line": "JOY H11(週一、三、五行駛)",
        "color": "#134e4a",
        "direction": 1
      },
      "geometry": {
        "type": "Point",
        "coordinates": [
          120.667756,
          23.043144
        ]
      }
    },
    {
      "type": "Feature",
      "properties": {
        "feature_type": "station",
        "ref": "KHH100411146672",
        "name": "荖濃國小",
        "name_en": "Laonong Elementary School",
        "line": "JOY H11(週一、三、五行駛)",
        "color": "#134e4a",
        "direction": 1
      },
      "geometry": {
        "type": "Point",
        "coordinates": [
          120.673035,
          23.073077
        ]
      }
    },
    {
      "type": "Feature",
      "properties": {
        "feature_type": "station",
        "ref": "KHH100411146802",
        "name": "寶來國中",
        "name_en": "Baolai Junior  High School",
        "line": "JOY H11(週一、三、五行駛)",
        "color": "#134e4a",
        "direction": 1
      },
      "geometry": {
        "type": "Point",
        "coordinates": [
          120.703064,
          23.110518
        ]
      }
    },
    {
      "type": "Feature",
      "properties": {
        "feature_type": "station",
        "ref": "KHH100411146862",
        "name": "桃源區公所(衛生所)",
        "name_en": "Tauyuan District Office",
        "line": "JOY H11(週一、三、五行駛)",
        "color": "#134e4a",
        "direction": 1
      },
      "geometry": {
        "type": "Point",
        "coordinates": [
          120.764006,
          23.158895
        ]
      }
    }
  ]
}
