{
  "type": "FeatureCollection",
  "name": "30",
  "properties": {
    "id": "kaohsiung_30",
    "name": "30",
    "name_en": "30",
    "ref": "30",
    "color": "#9f1239",
    "city_id": "Kaohsiung",
    "source": "TDX Bus Shape / StopOfRoute",
    "official_map_url": "http://ibus.tbkc.gov.tw/cms/api/route/30/map/1843/image",
    "operator_id": "10360",
    "operator": "港都客運",
    "operator_en": "Great-City-Life Bus Co., Ltd."
  },
  "features": [
    {
      "type": "Feature",
      "properties": {
        "feature_type": "route",
        "ref": "30",
        "name": "30",
        "name_en": "30",
        "color": "#9f1239",
        "direction": 0
      },
      "geometry": {
        "type": "LineString",
        "coordinates": [
          [
            120.34063,
            22.56543
          ],
          [
            120.34066,
            22.56529
          ],
          [
            120.34479,
            22.56571
          ],
          [
            120.34611,
            22.56551
          ],
          [
            120.35049,
            22.56535
          ],
          [
            120.35106,
            22.56525
          ],
          [
            120.35127,
            22.56511
          ],
          [
            120.3519,
            22.56599
          ],
          [
            120.35245,
            22.56639
          ],
          [
            120.35329,
            22.56682
          ],
          [
            120.35994,
            22.56685
          ],
          [
            120.36261,
            22.5679
          ],
          [
            120.3633,
            22.56633
          ],
          [
            120.36343,
            22.56602
          ],
          [
            120.36373,
            22.56575
          ],
          [
            120.36383,
            22.56553
          ],
          [
            120.37068,
            22.56568
          ],
          [
            120.3709,
            22.57068
          ],
          [
            120.37107,
            22.57281
          ],
          [
            120.37126,
            22.57387
          ],
          [
            120.37137,
            22.57523
          ],
          [
            120.37145,
            22.5773
          ],
          [
            120.37151,
            22.57937
          ],
          [
            120.37147,
            22.57959
          ],
          [
            120.37138,
            22.57977
          ],
          [
            120.37089,
            22.58062
          ],
          [
            120.37035,
            22.58141
          ],
          [
            120.37011,
            22.58262
          ],
          [
            120.3693,
            22.58375
          ],
          [
            120.36844,
            22.58476
          ],
          [
            120.36832,
            22.58493
          ],
          [
            120.36719,
            22.58487
          ],
          [
            120.36569,
            22.58486
          ],
          [
            120.36576,
            22.58127
          ],
          [
            120.35868,
            22.58147
          ],
          [
            120.3588,
            22.58837
          ],
          [
            120.36072,
            22.58836
          ],
          [
            120.36278,
            22.5883
          ],
          [
            120.36279,
            22.58966
          ],
          [
            120.36285,
            22.59028
          ],
          [
            120.36294,
            22.5922
          ],
          [
            120.3629,
            22.59432
          ],
          [
            120.36286,
            22.5945
          ],
          [
            120.35928,
            22.5947
          ],
          [
            120.36234,
            22.60576
          ],
          [
            120.36274,
            22.60745
          ],
          [
            120.36274,
            22.60752
          ],
          [
            120.3606,
            22.60745
          ],
          [
            120.36034,
            22.61461
          ],
          [
            120.35683,
            22.61449
          ],
          [
            120.35613,
            22.6146
          ],
          [
            120.35534,
            22.61493
          ],
          [
            120.35487,
            22.61524
          ],
          [
            120.35446,
            22.61557
          ],
          [
            120.35404,
            22.61592
          ],
          [
            120.35356,
            22.61628
          ],
          [
            120.35096,
            22.61793
          ],
          [
            120.34961,
            22.61879
          ],
          [
            120.34832,
            22.61959
          ],
          [
            120.34605,
            22.621
          ],
          [
            120.34538,
            22.62171
          ],
          [
            120.34487,
            22.62247
          ],
          [
            120.34464,
            22.62303
          ],
          [
            120.34447,
            22.6239
          ],
          [
            120.34437,
            22.6249
          ],
          [
            120.34454,
            22.63116
          ],
          [
            120.34448,
            22.63633
          ],
          [
            120.34718,
            22.64743
          ],
          [
            120.34898,
            22.65139
          ],
          [
            120.34926,
            22.65195
          ],
          [
            120.35114,
            22.65104
          ],
          [
            120.3527,
            22.65052
          ],
          [
            120.35357,
            22.65045
          ],
          [
            120.35438,
            22.65051
          ],
          [
            120.35515,
            22.65062
          ],
          [
            120.3558,
            22.65087
          ],
          [
            120.35614,
            22.65111
          ],
          [
            120.35879,
            22.65031
          ],
          [
            120.35918,
            22.6503
          ],
          [
            120.35939,
            22.65038
          ],
          [
            120.35958,
            22.65061
          ],
          [
            120.35965,
            22.65073
          ],
          [
            120.35985,
            22.65185
          ],
          [
            120.35976,
            22.65266
          ],
          [
            120.35961,
            22.65311
          ],
          [
            120.35962,
            22.65348
          ],
          [
            120.35974,
            22.6538
          ],
          [
            120.35998,
            22.65408
          ],
          [
            120.36016,
            22.65423
          ],
          [
            120.36022,
            22.65439
          ],
          [
            120.36026,
            22.65459
          ],
          [
            120.35996,
            22.65552
          ],
          [
            120.35962,
            22.65644
          ],
          [
            120.36115,
            22.65711
          ],
          [
            120.36078,
            22.65859
          ],
          [
            120.35907,
            22.65784
          ],
          [
            120.35948,
            22.65684
          ],
          [
            120.36017,
            22.65498
          ]
        ]
      }
    },
    {
      "type": "Feature",
      "properties": {
        "feature_type": "station",
        "ref": "KHH1000309601",
        "name": "小港站",
        "name_en": "Siaogang Station",
        "line": "30",
        "color": "#9f1239",
        "direction": 0
      },
      "geometry": {
        "type": "Point",
        "coordinates": [
          120.340708,
          22.56522
        ]
      }
    },
    {
      "type": "Feature",
      "properties": {
        "feature_type": "station",
        "ref": "KHH1000309731",
        "name": "小港分局",
        "name_en": "Police department siaogang precinct",
        "line": "30",
        "color": "#9f1239",
        "direction": 0
      },
      "geometry": {
        "type": "Point",
        "coordinates": [
          120.344274,
          22.565563
        ]
      }
    },
    {
      "type": "Feature",
      "properties": {
        "feature_type": "station",
        "ref": "KHH10003090401",
        "name": "二苓路",
        "name_en": "Erling Rd.",
        "line": "30",
        "color": "#9f1239",
        "direction": 0
      },
      "geometry": {
        "type": "Point",
        "coordinates": [
          120.347029,
          22.565475
        ]
      }
    },
    {
      "type": "Feature",
      "properties": {
        "feature_type": "station",
        "ref": "KHH1000309741",
        "name": "二苓(二苓路)",
        "name_en": "Erling(Erling Rd.)",
        "line": "30",
        "color": "#9f1239",
        "direction": 0
      },
      "geometry": {
        "type": "Point",
        "coordinates": [
          120.348262,
          22.56543
        ]
      }
    },
    {
      "type": "Feature",
      "properties": {
        "feature_type": "station",
        "ref": "KHH10003014281",
        "name": "二苓市場",
        "name_en": "Erling Market",
        "line": "30",
        "color": "#9f1239",
        "direction": 0
      },
      "geometry": {
        "type": "Point",
        "coordinates": [
          120.349632,
          22.565375
        ]
      }
    },
    {
      "type": "Feature",
      "properties": {
        "feature_type": "station",
        "ref": "KHH10003014311",
        "name": "二苓國小(捷運小港站)",
        "name_en": "Erling Elementary School(MRT Siaogang Station)",
        "line": "30",
        "color": "#9f1239",
        "direction": 0
      },
      "geometry": {
        "type": "Point",
        "coordinates": [
          120.351742,
          22.565667
        ]
      }
    },
    {
      "type": "Feature",
      "properties": {
        "feature_type": "station",
        "ref": "KHH10003014401",
        "name": "中山國中",
        "name_en": "Chun-Shan Junior High School",
        "line": "30",
        "color": "#9f1239",
        "direction": 0
      },
      "geometry": {
        "type": "Point",
        "coordinates": [
          120.355259,
          22.566814
        ]
      }
    },
    {
      "type": "Feature",
      "properties": {
        "feature_type": "station",
        "ref": "KHH10003014411",
        "name": "小港高中",
        "name_en": "Siaogang Senior High School",
        "line": "30",
        "color": "#9f1239",
        "direction": 0
      },
      "geometry": {
        "type": "Point",
        "coordinates": [
          120.357585,
          22.566778
        ]
      }
    },
    {
      "type": "Feature",
      "properties": {
        "feature_type": "station",
        "ref": "KHH10003014521",
        "name": "新豐街口",
        "name_en": "Sinfong St. Intersection",
        "line": "30",
        "color": "#9f1239",
        "direction": 0
      },
      "geometry": {
        "type": "Point",
        "coordinates": [
          120.3606,
          22.567066
        ]
      }
    },
    {
      "type": "Feature",
      "properties": {
        "feature_type": "station",
        "ref": "KHH10003016111",
        "name": "小港醫院",
        "name_en": "Kaohsiung Municipal Siaogang Hospital",
        "line": "30",
        "color": "#9f1239",
        "direction": 0
      },
      "geometry": {
        "type": "Point",
        "coordinates": [
          120.363009,
          22.566943
        ]
      }
    },
    {
      "type": "Feature",
      "properties": {
        "feature_type": "station",
        "ref": "KHH10003018521",
        "name": "合群新村",
        "name_en": "Hecyun New Village",
        "line": "30",
        "color": "#9f1239",
        "direction": 0
      },
      "geometry": {
        "type": "Point",
        "coordinates": [
          120.364927,
          22.56552
        ]
      }
    },
    {
      "type": "Feature",
      "properties": {
        "feature_type": "station",
        "ref": "KHH10003018551",
        "name": "山明路五巷",
        "name_en": "Shanming Rd. 5th lane",
        "line": "30",
        "color": "#9f1239",
        "direction": 0
      },
      "geometry": {
        "type": "Point",
        "coordinates": [
          120.367503,
          22.56553
        ]
      }
    },
    {
      "type": "Feature",
      "properties": {
        "feature_type": "station",
        "ref": "KHH10003018571",
        "name": "高雄餐旅大學(營口路)",
        "name_en": "National Kaohsiung University of Hospitality and Tourism(Yingkou Rd.)",
        "line": "30",
        "color": "#9f1239",
        "direction": 0
      },
      "geometry": {
        "type": "Point",
        "coordinates": [
          120.370784,
          22.566237
        ]
      }
    },
    {
      "type": "Feature",
      "properties": {
        "feature_type": "station",
        "ref": "KHH100030160801",
        "name": "營口路",
        "name_en": "Yingkou Rd.",
        "line": "30",
        "color": "#9f1239",
        "direction": 0
      },
      "geometry": {
        "type": "Point",
        "coordinates": [
          120.370891,
          22.569796
        ]
      }
    },
    {
      "type": "Feature",
      "properties": {
        "feature_type": "station",
        "ref": "KHH10003011971",
        "name": "高松(營口路)",
        "name_en": "Gaosong(Yingkou Rd.)",
        "line": "30",
        "color": "#9f1239",
        "direction": 0
      },
      "geometry": {
        "type": "Point",
        "coordinates": [
          120.370996,
          22.571816
        ]
      }
    },
    {
      "type": "Feature",
      "properties": {
        "feature_type": "station",
        "ref": "KHH10003018631",
        "name": "高松市場",
        "name_en": "Gaosong Market",
        "line": "30",
        "color": "#9f1239",
        "direction": 0
      },
      "geometry": {
        "type": "Point",
        "coordinates": [
          120.37121,
          22.573324
        ]
      }
    },
    {
      "type": "Feature",
      "properties": {
        "feature_type": "station",
        "ref": "KHH10003018651",
        "name": "水利工作站",
        "name_en": "Irrigation Workstation",
        "line": "30",
        "color": "#9f1239",
        "direction": 0
      },
      "geometry": {
        "type": "Point",
        "coordinates": [
          120.371472,
          22.575393
        ]
      }
    },
    {
      "type": "Feature",
      "properties": {
        "feature_type": "station",
        "ref": "KHH10003018661",
        "name": "孔宅",
        "name_en": "Kongjhai",
        "line": "30",
        "color": "#9f1239",
        "direction": 0
      },
      "geometry": {
        "type": "Point",
        "coordinates": [
          120.371598,
          22.579566
        ]
      }
    },
    {
      "type": "Feature",
      "properties": {
        "feature_type": "station",
        "ref": "KHH10003018701",
        "name": "中安路(高鳳路口)",
        "name_en": "Jhongan Rd.(Gaofong Rd. Intersection)",
        "line": "30",
        "color": "#9f1239",
        "direction": 0
      },
      "geometry": {
        "type": "Point",
        "coordinates": [
          120.367292,
          22.584949
        ]
      }
    },
    {
      "type": "Feature",
      "properties": {
        "feature_type": "station",
        "ref": "KHH10003018741",
        "name": "金城路",
        "name_en": "Jincheng Rd.",
        "line": "30",
        "color": "#9f1239",
        "direction": 0
      },
      "geometry": {
        "type": "Point",
        "coordinates": [
          120.365711,
          22.582738
        ]
      }
    },
    {
      "type": "Feature",
      "properties": {
        "feature_type": "station",
        "ref": "KHH10003018751",
        "name": "金城路口",
        "name_en": "Jincheng Rd. Intersection",
        "line": "30",
        "color": "#9f1239",
        "direction": 0
      },
      "geometry": {
        "type": "Point",
        "coordinates": [
          120.365457,
          22.581306
        ]
      }
    },
    {
      "type": "Feature",
      "properties": {
        "feature_type": "station",
        "ref": "KHH10003018791",
        "name": "合作一村",
        "name_en": "Hezuo 1st Village",
        "line": "30",
        "color": "#9f1239",
        "direction": 0
      },
      "geometry": {
        "type": "Point",
        "coordinates": [
          120.362302,
          22.58139
        ]
      }
    },
    {
      "type": "Feature",
      "properties": {
        "feature_type": "station",
        "ref": "KHH10003018801",
        "name": "孔鳳路",
        "name_en": "Kongfong Rd.",
        "line": "30",
        "color": "#9f1239",
        "direction": 0
      },
      "geometry": {
        "type": "Point",
        "coordinates": [
          120.359305,
          22.581486
        ]
      }
    },
    {
      "type": "Feature",
      "properties": {
        "feature_type": "station",
        "ref": "KHH10003058441",
        "name": "孔鳳路口",
        "name_en": "Kongfong Rd. Intersection",
        "line": "30",
        "color": "#9f1239",
        "direction": 0
      },
      "geometry": {
        "type": "Point",
        "coordinates": [
          120.358787,
          22.584025
        ]
      }
    },
    {
      "type": "Feature",
      "properties": {
        "feature_type": "station",
        "ref": "KHH10003058451",
        "name": "中安路口(鳳頂路)",
        "name_en": "Jhongan Rd. Intersection(Fongding Rd.)",
        "line": "30",
        "color": "#9f1239",
        "direction": 0
      },
      "geometry": {
        "type": "Point",
        "coordinates": [
          120.358867,
          22.585957
        ]
      }
    },
    {
      "type": "Feature",
      "properties": {
        "feature_type": "station",
        "ref": "KHH100030113161",
        "name": "翡翠晶鑽",
        "name_en": "Feicuei Jingzuan",
        "line": "30",
        "color": "#9f1239",
        "direction": 0
      },
      "geometry": {
        "type": "Point",
        "coordinates": [
          120.360151,
          22.588332
        ]
      }
    },
    {
      "type": "Feature",
      "properties": {
        "feature_type": "station",
        "ref": "KHH100030113171",
        "name": "過埤路口",
        "name_en": "Guopi Rd. Intersection",
        "line": "30",
        "color": "#9f1239",
        "direction": 0
      },
      "geometry": {
        "type": "Point",
        "coordinates": [
          120.362873,
          22.589665
        ]
      }
    },
    {
      "type": "Feature",
      "properties": {
        "feature_type": "station",
        "ref": "KHH10003078661",
        "name": "過埤國小",
        "name_en": "Guopi Elementary School",
        "line": "30",
        "color": "#9f1239",
        "direction": 0
      },
      "geometry": {
        "type": "Point",
        "coordinates": [
          120.362953,
          22.592031
        ]
      }
    },
    {
      "type": "Feature",
      "properties": {
        "feature_type": "station",
        "ref": "KHH100030113191",
        "name": "鳳頂路口",
        "name_en": "Fongding Rd. Intersection",
        "line": "30",
        "color": "#9f1239",
        "direction": 0
      },
      "geometry": {
        "type": "Point",
        "coordinates": [
          120.362327,
          22.594579
        ]
      }
    },
    {
      "type": "Feature",
      "properties": {
        "feature_type": "station",
        "ref": "KHH10003058481",
        "name": "田中央路口",
        "name_en": "Tianjhongyang Rd. Intersection",
        "line": "30",
        "color": "#9f1239",
        "direction": 0
      },
      "geometry": {
        "type": "Point",
        "coordinates": [
          120.359467,
          22.595347
        ]
      }
    },
    {
      "type": "Feature",
      "properties": {
        "feature_type": "station",
        "ref": "KHH10003058511",
        "name": "誠義里",
        "name_en": "Chengyi Village",
        "line": "30",
        "color": "#9f1239",
        "direction": 0
      },
      "geometry": {
        "type": "Point",
        "coordinates": [
          120.36058,
          22.608524
        ]
      }
    },
    {
      "type": "Feature",
      "properties": {
        "feature_type": "station",
        "ref": "KHH100030130871",
        "name": "花鄉",
        "name_en": "Hua-xiang Motel",
        "line": "30",
        "color": "#9f1239",
        "direction": 0
      },
      "geometry": {
        "type": "Point",
        "coordinates": [
          120.360503,
          22.610716
        ]
      }
    },
    {
      "type": "Feature",
      "properties": {
        "feature_type": "station",
        "ref": "KHH10003058521",
        "name": "誠義路口",
        "name_en": "Chengyi Rd. Intersection",
        "line": "30",
        "color": "#9f1239",
        "direction": 0
      },
      "geometry": {
        "type": "Point",
        "coordinates": [
          120.360447,
          22.61267
        ]
      }
    },
    {
      "type": "Feature",
      "properties": {
        "feature_type": "station",
        "ref": "KHH10003058551",
        "name": "台糖花卉市場",
        "name_en": "Taiwan Sugar Flowers and Plants Market",
        "line": "30",
        "color": "#9f1239",
        "direction": 0
      },
      "geometry": {
        "type": "Point",
        "coordinates": [
          120.358374,
          22.614616
        ]
      }
    },
    {
      "type": "Feature",
      "properties": {
        "feature_type": "station",
        "ref": "KHH10003058561",
        "name": "國昌路口(國泰路二段)",
        "name_en": "Guochang Rd. Intersection(Guotai Rd. Sec. 2)",
        "line": "30",
        "color": "#9f1239",
        "direction": 0
      },
      "geometry": {
        "type": "Point",
        "coordinates": [
          120.352126,
          22.617222
        ]
      }
    },
    {
      "type": "Feature",
      "properties": {
        "feature_type": "station",
        "ref": "KHH10003058601",
        "name": "高雄市議會(忠孝國中)",
        "name_en": "Kaohsiung City Council(Jhong Siao Junior High School)",
        "line": "30",
        "color": "#9f1239",
        "direction": 0
      },
      "geometry": {
        "type": "Point",
        "coordinates": [
          120.34758,
          22.620155
        ]
      }
    },
    {
      "type": "Feature",
      "properties": {
        "feature_type": "station",
        "ref": "KHH10003024941",
        "name": "衛武社區",
        "name_en": "weiwu Community",
        "line": "30",
        "color": "#9f1239",
        "direction": 0
      },
      "geometry": {
        "type": "Point",
        "coordinates": [
          120.344598,
          22.628623
        ]
      }
    },
    {
      "type": "Feature",
      "properties": {
        "feature_type": "station",
        "ref": "KHH10003024981",
        "name": "鳳山行政中心(澄清路)",
        "name_en": "Fongshan Admin. Hall(Chengcing Rd.)",
        "line": "30",
        "color": "#9f1239",
        "direction": 0
      },
      "geometry": {
        "type": "Point",
        "coordinates": [
          120.344619,
          22.630257
        ]
      }
    },
    {
      "type": "Feature",
      "properties": {
        "feature_type": "station",
        "ref": "KHH100030155081",
        "name": "臺鐵正義站(澄清路)",
        "name_en": "TRA Jhengyi Station(Chengcing Rd.)",
        "line": "30",
        "color": "#9f1239",
        "direction": 0
      },
      "geometry": {
        "type": "Point",
        "coordinates": [
          120.344571,
          22.634238
        ]
      }
    },
    {
      "type": "Feature",
      "properties": {
        "feature_type": "station",
        "ref": "KHH10003025001",
        "name": "覺民路口(澄清路)",
        "name_en": "Jyuemin Rd. Intersection(Chengcing Rd)",
        "line": "30",
        "color": "#9f1239",
        "direction": 0
      },
      "geometry": {
        "type": "Point",
        "coordinates": [
          120.344898,
          22.637595
        ]
      }
    },
    {
      "type": "Feature",
      "properties": {
        "feature_type": "station",
        "ref": "KHH10003025021",
        "name": "褒揚街口",
        "name_en": "Baoyang St. Intersection",
        "line": "30",
        "color": "#9f1239",
        "direction": 0
      },
      "geometry": {
        "type": "Point",
        "coordinates": [
          120.345451,
          22.639982
        ]
      }
    },
    {
      "type": "Feature",
      "properties": {
        "feature_type": "station",
        "ref": "KHH10003025051",
        "name": "澄清路",
        "name_en": "Chengcing Rd.",
        "line": "30",
        "color": "#9f1239",
        "direction": 0
      },
      "geometry": {
        "type": "Point",
        "coordinates": [
          120.346035,
          22.642328
        ]
      }
    },
    {
      "type": "Feature",
      "properties": {
        "feature_type": "station",
        "ref": "KHH10003029141",
        "name": "澄清澄和路口",
        "name_en": "Chengcing Chenghe Rd.Intersection",
        "line": "30",
        "color": "#9f1239",
        "direction": 0
      },
      "geometry": {
        "type": "Point",
        "coordinates": [
          120.346427,
          22.643814
        ]
      }
    },
    {
      "type": "Feature",
      "properties": {
        "feature_type": "station",
        "ref": "KHH10003025141",
        "name": "大華里(澄清路)",
        "name_en": "Dahua Village(Chengcing Rd.)",
        "line": "30",
        "color": "#9f1239",
        "direction": 0
      },
      "geometry": {
        "type": "Point",
        "coordinates": [
          120.34713,
          22.646858
        ]
      }
    },
    {
      "type": "Feature",
      "properties": {
        "feature_type": "station",
        "ref": "KHH10003025171",
        "name": "正修科大(澄清湖)",
        "name_en": "Cheng Shiu University(Cheng Ching Lake)",
        "line": "30",
        "color": "#9f1239",
        "direction": 0
      },
      "geometry": {
        "type": "Point",
        "coordinates": [
          120.349095,
          22.651369
        ]
      }
    },
    {
      "type": "Feature",
      "properties": {
        "feature_type": "station",
        "ref": "KHH10003025861",
        "name": "長庚復健大樓",
        "name_en": "Chang Gung Rehabilitation Building",
        "line": "30",
        "color": "#9f1239",
        "direction": 0
      },
      "geometry": {
        "type": "Point",
        "coordinates": [
          120.352521,
          22.650472
        ]
      }
    },
    {
      "type": "Feature",
      "properties": {
        "feature_type": "station",
        "ref": "KHH10003025271",
        "name": "長庚醫院",
        "name_en": "Chang Gung Memorial Hospital",
        "line": "30",
        "color": "#9f1239",
        "direction": 0
      },
      "geometry": {
        "type": "Point",
        "coordinates": [
          120.356891,
          22.650753
        ]
      }
    },
    {
      "type": "Feature",
      "properties": {
        "feature_type": "station",
        "ref": "KHH10003025301",
        "name": "澄清湖棒球場",
        "name_en": "Chengcing Lake Baseball Field",
        "line": "30",
        "color": "#9f1239",
        "direction": 0
      },
      "geometry": {
        "type": "Point",
        "coordinates": [
          120.360146,
          22.655483
        ]
      }
    },
    {
      "type": "Feature",
      "properties": {
        "feature_type": "station",
        "ref": "KHH10003025401",
        "name": "忠誠路口",
        "name_en": "Jhongcheng Rd. Intersection",
        "line": "30",
        "color": "#9f1239",
        "direction": 0
      },
      "geometry": {
        "type": "Point",
        "coordinates": [
          120.360809,
          22.658027
        ]
      }
    },
    {
      "type": "Feature",
      "properties": {
        "feature_type": "station",
        "ref": "KHH10003025431",
        "name": "澄清湖棒球場",
        "name_en": "Chengcing Lake Baseball Field",
        "line": "30",
        "color": "#9f1239",
        "direction": 0
      },
      "geometry": {
        "type": "Point",
        "coordinates": [
          120.360001,
          22.655186
        ]
      }
    },
    {
      "type": "Feature",
      "properties": {
        "feature_type": "station",
        "ref": "KHH10003025532",
        "name": "長庚醫院",
        "name_en": "Chang Gung Memorial Hospital",
        "line": "30",
        "color": "#9f1239",
        "direction": 1
      },
      "geometry": {
        "type": "Point",
        "coordinates": [
          120.356797,
          22.650963
        ]
      }
    },
    {
      "type": "Feature",
      "properties": {
        "feature_type": "station",
        "ref": "KHH10003025602",
        "name": "正修科大(澄清湖)",
        "name_en": "Cheng Shiu University(Cheng Ching Lake)",
        "line": "30",
        "color": "#9f1239",
        "direction": 1
      },
      "geometry": {
        "type": "Point",
        "coordinates": [
          120.348722,
          22.651528
        ]
      }
    },
    {
      "type": "Feature",
      "properties": {
        "feature_type": "station",
        "ref": "KHH10003025662",
        "name": "大華里(澄清路)",
        "name_en": "Dahua Village(Chengcing Rd.)",
        "line": "30",
        "color": "#9f1239",
        "direction": 1
      },
      "geometry": {
        "type": "Point",
        "coordinates": [
          120.346829,
          22.646832
        ]
      }
    },
    {
      "type": "Feature",
      "properties": {
        "feature_type": "station",
        "ref": "KHH10003029202",
        "name": "澄清澄和路口",
        "name_en": "Chengcing Chenghe Rd.Intersection",
        "line": "30",
        "color": "#9f1239",
        "direction": 1
      },
      "geometry": {
        "type": "Point",
        "coordinates": [
          120.346151,
          22.643901
        ]
      }
    },
    {
      "type": "Feature",
      "properties": {
        "feature_type": "station",
        "ref": "KHH10003025732",
        "name": "澄清路",
        "name_en": "Chengcing Rd.",
        "line": "30",
        "color": "#9f1239",
        "direction": 1
      },
      "geometry": {
        "type": "Point",
        "coordinates": [
          120.345787,
          22.642403
        ]
      }
    },
    {
      "type": "Feature",
      "properties": {
        "feature_type": "station",
        "ref": "KHH10003013432",
        "name": "覺民路口(澄清路)",
        "name_en": "Jyuemin Rd. Intersection(Chengcing Rd)",
        "line": "30",
        "color": "#9f1239",
        "direction": 1
      },
      "geometry": {
        "type": "Point",
        "coordinates": [
          120.344638,
          22.637864
        ]
      }
    },
    {
      "type": "Feature",
      "properties": {
        "feature_type": "station",
        "ref": "KHH100030168912",
        "name": "臺鐵正義站(澄清路)",
        "name_en": "TRA Jhengyi Station(Chengcing Rd.)",
        "line": "30",
        "color": "#9f1239",
        "direction": 1
      },
      "geometry": {
        "type": "Point",
        "coordinates": [
          120.344324,
          22.634278
        ]
      }
    },
    {
      "type": "Feature",
      "properties": {
        "feature_type": "station",
        "ref": "KHH100030172252",
        "name": "鳳山行政中心(澄清路)",
        "name_en": "Fongshan Admin. Hall(Chengcing Rd.)",
        "line": "30",
        "color": "#9f1239",
        "direction": 1
      },
      "geometry": {
        "type": "Point",
        "coordinates": [
          120.344388,
          22.630279
        ]
      }
    },
    {
      "type": "Feature",
      "properties": {
        "feature_type": "station",
        "ref": "KHH10003025902",
        "name": "衛武社區",
        "name_en": "weiwu Community",
        "line": "30",
        "color": "#9f1239",
        "direction": 1
      },
      "geometry": {
        "type": "Point",
        "coordinates": [
          120.344312,
          22.627619
        ]
      }
    },
    {
      "type": "Feature",
      "properties": {
        "feature_type": "station",
        "ref": "KHH10003058622",
        "name": "高雄市議會(忠孝國中)",
        "name_en": "Kaohsiung City Council(Jhong Siao Junior High School)",
        "line": "30",
        "color": "#9f1239",
        "direction": 1
      },
      "geometry": {
        "type": "Point",
        "coordinates": [
          120.347194,
          22.619871
        ]
      }
    },
    {
      "type": "Feature",
      "properties": {
        "feature_type": "station",
        "ref": "KHH10003058632",
        "name": "國昌路口(國泰路二段)",
        "name_en": "Guochang Rd. Intersection(Guotai Rd. Sec. 2)",
        "line": "30",
        "color": "#9f1239",
        "direction": 1
      },
      "geometry": {
        "type": "Point",
        "coordinates": [
          120.35193,
          22.617061
        ]
      }
    },
    {
      "type": "Feature",
      "properties": {
        "feature_type": "station",
        "ref": "KHH10003058652",
        "name": "台糖花卉市場",
        "name_en": "Taiwan Sugar Flowers and Plants Market",
        "line": "30",
        "color": "#9f1239",
        "direction": 1
      },
      "geometry": {
        "type": "Point",
        "coordinates": [
          120.35831,
          22.61415
        ]
      }
    },
    {
      "type": "Feature",
      "properties": {
        "feature_type": "station",
        "ref": "KHH10003058662",
        "name": "誠義路口",
        "name_en": "Chengyi Rd. Intersection",
        "line": "30",
        "color": "#9f1239",
        "direction": 1
      },
      "geometry": {
        "type": "Point",
        "coordinates": [
          120.360356,
          22.612591
        ]
      }
    },
    {
      "type": "Feature",
      "properties": {
        "feature_type": "station",
        "ref": "KHH100030130872",
        "name": "花鄉",
        "name_en": "Hua-xiang Motel",
        "line": "30",
        "color": "#9f1239",
        "direction": 1
      },
      "geometry": {
        "type": "Point",
        "coordinates": [
          120.360449,
          22.61077
        ]
      }
    },
    {
      "type": "Feature",
      "properties": {
        "feature_type": "station",
        "ref": "KHH10003058672",
        "name": "誠義里",
        "name_en": "Chengyi Village",
        "line": "30",
        "color": "#9f1239",
        "direction": 1
      },
      "geometry": {
        "type": "Point",
        "coordinates": [
          120.360543,
          22.608484
        ]
      }
    },
    {
      "type": "Feature",
      "properties": {
        "feature_type": "station",
        "ref": "KHH10003058682",
        "name": "中正預校(鳳頂路口)",
        "name_en": "Chung Cheng armed forces prepartory school(Fongding Rd.)",
        "line": "30",
        "color": "#9f1239",
        "direction": 1
      },
      "geometry": {
        "type": "Point",
        "coordinates": [
          120.361793,
          22.607311
        ]
      }
    },
    {
      "type": "Feature",
      "properties": {
        "feature_type": "station",
        "ref": "KHH10003058692",
        "name": "田中央路口",
        "name_en": "Tianjhongyang Rd. Intersection",
        "line": "30",
        "color": "#9f1239",
        "direction": 1
      },
      "geometry": {
        "type": "Point",
        "coordinates": [
          120.359395,
          22.595814
        ]
      }
    },
    {
      "type": "Feature",
      "properties": {
        "feature_type": "station",
        "ref": "KHH100030113212",
        "name": "過埤國小",
        "name_en": "Guopi Elementary School",
        "line": "30",
        "color": "#9f1239",
        "direction": 1
      },
      "geometry": {
        "type": "Point",
        "coordinates": [
          120.362736,
          22.591341
        ]
      }
    },
    {
      "type": "Feature",
      "properties": {
        "feature_type": "station",
        "ref": "KHH100030113222",
        "name": "過埤路口",
        "name_en": "Guopi Rd. Intersection",
        "line": "30",
        "color": "#9f1239",
        "direction": 1
      },
      "geometry": {
        "type": "Point",
        "coordinates": [
          120.362784,
          22.588978
        ]
      }
    },
    {
      "type": "Feature",
      "properties": {
        "feature_type": "station",
        "ref": "KHH100030113232",
        "name": "翡翠晶鑽",
        "name_en": "Feicuei Jingzuan",
        "line": "30",
        "color": "#9f1239",
        "direction": 1
      },
      "geometry": {
        "type": "Point",
        "coordinates": [
          120.360196,
          22.588357
        ]
      }
    },
    {
      "type": "Feature",
      "properties": {
        "feature_type": "station",
        "ref": "KHH10003058702",
        "name": "中安路口(鳳頂路)",
        "name_en": "Jhongan Rd. Intersection(Fongding Rd.)",
        "line": "30",
        "color": "#9f1239",
        "direction": 1
      },
      "geometry": {
        "type": "Point",
        "coordinates": [
          120.3587,
          22.58587
        ]
      }
    },
    {
      "type": "Feature",
      "properties": {
        "feature_type": "station",
        "ref": "KHH10003058712",
        "name": "孔鳳路口",
        "name_en": "Kongfong Rd. Intersection",
        "line": "30",
        "color": "#9f1239",
        "direction": 1
      },
      "geometry": {
        "type": "Point",
        "coordinates": [
          120.35863,
          22.58385
        ]
      }
    },
    {
      "type": "Feature",
      "properties": {
        "feature_type": "station",
        "ref": "KHH10003019252",
        "name": "孔鳳路",
        "name_en": "Kongfong Rd.",
        "line": "30",
        "color": "#9f1239",
        "direction": 1
      },
      "geometry": {
        "type": "Point",
        "coordinates": [
          120.358996,
          22.581454
        ]
      }
    },
    {
      "type": "Feature",
      "properties": {
        "feature_type": "station",
        "ref": "KHH10003019262",
        "name": "合作一村",
        "name_en": "Hezuo 1st Village",
        "line": "30",
        "color": "#9f1239",
        "direction": 1
      },
      "geometry": {
        "type": "Point",
        "coordinates": [
          120.362646,
          22.581346
        ]
      }
    },
    {
      "type": "Feature",
      "properties": {
        "feature_type": "station",
        "ref": "KHH10003019292",
        "name": "金城路口",
        "name_en": "Jincheng Rd. Intersection",
        "line": "30",
        "color": "#9f1239",
        "direction": 1
      },
      "geometry": {
        "type": "Point",
        "coordinates": [
          120.365088,
          22.58128
        ]
      }
    },
    {
      "type": "Feature",
      "properties": {
        "feature_type": "station",
        "ref": "KHH10003019302",
        "name": "金城路",
        "name_en": "Jincheng Rd.",
        "line": "30",
        "color": "#9f1239",
        "direction": 1
      },
      "geometry": {
        "type": "Point",
        "coordinates": [
          120.365771,
          22.583068
        ]
      }
    },
    {
      "type": "Feature",
      "properties": {
        "feature_type": "station",
        "ref": "KHH10003019332",
        "name": "中安路(高鳳路口)",
        "name_en": "Jhongan Rd.(Gaofong Rd. Intersection)",
        "line": "30",
        "color": "#9f1239",
        "direction": 1
      },
      "geometry": {
        "type": "Point",
        "coordinates": [
          120.36698,
          22.584695
        ]
      }
    },
    {
      "type": "Feature",
      "properties": {
        "feature_type": "station",
        "ref": "KHH10003019372",
        "name": "東高雄",
        "name_en": "East Kaohsiung",
        "line": "30",
        "color": "#9f1239",
        "direction": 1
      },
      "geometry": {
        "type": "Point",
        "coordinates": [
          120.36861,
          22.584388
        ]
      }
    },
    {
      "type": "Feature",
      "properties": {
        "feature_type": "station",
        "ref": "KHH10003019422",
        "name": "孔宅",
        "name_en": "Kongjhai",
        "line": "30",
        "color": "#9f1239",
        "direction": 1
      },
      "geometry": {
        "type": "Point",
        "coordinates": [
          120.371285,
          22.57957
        ]
      }
    },
    {
      "type": "Feature",
      "properties": {
        "feature_type": "station",
        "ref": "KHH10003019432",
        "name": "水利工作站",
        "name_en": "Irrigation Workstation",
        "line": "30",
        "color": "#9f1239",
        "direction": 1
      },
      "geometry": {
        "type": "Point",
        "coordinates": [
          120.371208,
          22.575966
        ]
      }
    },
    {
      "type": "Feature",
      "properties": {
        "feature_type": "station",
        "ref": "KHH10003019462",
        "name": "高松市場",
        "name_en": "Gaosong Market",
        "line": "30",
        "color": "#9f1239",
        "direction": 1
      },
      "geometry": {
        "type": "Point",
        "coordinates": [
          120.37113,
          22.573664
        ]
      }
    },
    {
      "type": "Feature",
      "properties": {
        "feature_type": "station",
        "ref": "KHH10003019472",
        "name": "高松(營口路)",
        "name_en": "Gaosong(Yingkou Rd.)",
        "line": "30",
        "color": "#9f1239",
        "direction": 1
      },
      "geometry": {
        "type": "Point",
        "coordinates": [
          120.37093,
          22.5718
        ]
      }
    },
    {
      "type": "Feature",
      "properties": {
        "feature_type": "station",
        "ref": "KHH10003019512",
        "name": "營口路",
        "name_en": "Yingkou Rd.",
        "line": "30",
        "color": "#9f1239",
        "direction": 1
      },
      "geometry": {
        "type": "Point",
        "coordinates": [
          120.3707,
          22.570061
        ]
      }
    },
    {
      "type": "Feature",
      "properties": {
        "feature_type": "station",
        "ref": "KHH10003019522",
        "name": "高雄餐旅大學(營口路)",
        "name_en": "National Kaohsiung University of Hospitality and Tourism(Yingkou Rd.)",
        "line": "30",
        "color": "#9f1239",
        "direction": 1
      },
      "geometry": {
        "type": "Point",
        "coordinates": [
          120.370658,
          22.566251
        ]
      }
    },
    {
      "type": "Feature",
      "properties": {
        "feature_type": "station",
        "ref": "KHH10003019552",
        "name": "山明路五巷",
        "name_en": "Shanming Rd. 5th lane",
        "line": "30",
        "color": "#9f1239",
        "direction": 1
      },
      "geometry": {
        "type": "Point",
        "coordinates": [
          120.367499,
          22.56569
        ]
      }
    },
    {
      "type": "Feature",
      "properties": {
        "feature_type": "station",
        "ref": "KHH10003019562",
        "name": "合群新村",
        "name_en": "Hecyun New Village",
        "line": "30",
        "color": "#9f1239",
        "direction": 1
      },
      "geometry": {
        "type": "Point",
        "coordinates": [
          120.364836,
          22.565711
        ]
      }
    },
    {
      "type": "Feature",
      "properties": {
        "feature_type": "station",
        "ref": "KHH10003016972",
        "name": "小港醫院",
        "name_en": "Kaohsiung Municipal Siaogang Hospital",
        "line": "30",
        "color": "#9f1239",
        "direction": 1
      },
      "geometry": {
        "type": "Point",
        "coordinates": [
          120.363261,
          22.566468
        ]
      }
    },
    {
      "type": "Feature",
      "properties": {
        "feature_type": "station",
        "ref": "KHH10003015152",
        "name": "新豐街口",
        "name_en": "Sinfong St. Intersection",
        "line": "30",
        "color": "#9f1239",
        "direction": 1
      },
      "geometry": {
        "type": "Point",
        "coordinates": [
          120.360694,
          22.567214
        ]
      }
    },
    {
      "type": "Feature",
      "properties": {
        "feature_type": "station",
        "ref": "KHH10003015182",
        "name": "小港高中",
        "name_en": "Siaogang Senior High School",
        "line": "30",
        "color": "#9f1239",
        "direction": 1
      },
      "geometry": {
        "type": "Point",
        "coordinates": [
          120.357527,
          22.566914
        ]
      }
    },
    {
      "type": "Feature",
      "properties": {
        "feature_type": "station",
        "ref": "KHH10003015252",
        "name": "中山國中",
        "name_en": "Chun-Shan Junior High School",
        "line": "30",
        "color": "#9f1239",
        "direction": 1
      },
      "geometry": {
        "type": "Point",
        "coordinates": [
          120.355114,
          22.566948
        ]
      }
    },
    {
      "type": "Feature",
      "properties": {
        "feature_type": "station",
        "ref": "KHH10003015312",
        "name": "二苓國小(捷運小港站)",
        "name_en": "Erling Elementary School(MRT Siaogang Station)",
        "line": "30",
        "color": "#9f1239",
        "direction": 1
      },
      "geometry": {
        "type": "Point",
        "coordinates": [
          120.351635,
          22.565768
        ]
      }
    },
    {
      "type": "Feature",
      "properties": {
        "feature_type": "station",
        "ref": "KHH10003015432",
        "name": "二苓市場",
        "name_en": "Erling Market",
        "line": "30",
        "color": "#9f1239",
        "direction": 1
      },
      "geometry": {
        "type": "Point",
        "coordinates": [
          120.349733,
          22.565421
        ]
      }
    },
    {
      "type": "Feature",
      "properties": {
        "feature_type": "station",
        "ref": "KHH10003015442",
        "name": "二苓(二苓路)",
        "name_en": "Erling(Erling Rd.)",
        "line": "30",
        "color": "#9f1239",
        "direction": 1
      },
      "geometry": {
        "type": "Point",
        "coordinates": [
          120.348507,
          22.565484
        ]
      }
    },
    {
      "type": "Feature",
      "properties": {
        "feature_type": "station",
        "ref": "KHH10003090412",
        "name": "二苓路",
        "name_en": "Erling Rd.",
        "line": "30",
        "color": "#9f1239",
        "direction": 1
      },
      "geometry": {
        "type": "Point",
        "coordinates": [
          120.347228,
          22.565527
        ]
      }
    },
    {
      "type": "Feature",
      "properties": {
        "feature_type": "station",
        "ref": "KHH10003010092",
        "name": "小港分局",
        "name_en": "Police department siaogang precinct",
        "line": "30",
        "color": "#9f1239",
        "direction": 1
      },
      "geometry": {
        "type": "Point",
        "coordinates": [
          120.344251,
          22.565702
        ]
      }
    },
    {
      "type": "Feature",
      "properties": {
        "feature_type": "station",
        "ref": "KHH1000309512",
        "name": "小港站",
        "name_en": "Siaogang Station",
        "line": "30",
        "color": "#9f1239",
        "direction": 1
      },
      "geometry": {
        "type": "Point",
        "coordinates": [
          120.34063,
          22.565363
        ]
      }
    }
  ]
}
