{
  "type": "FeatureCollection",
  "name": "61",
  "properties": {
    "id": "taichung_61",
    "name": "61",
    "name_en": "61",
    "ref": "61",
    "color": "#7c3aed",
    "city_id": "Taichung",
    "source": "TDX Bus Shape / StopOfRoute",
    "official_map_url": "https://citybus.taichung.gov.tw/ebus/strapi/uploads/61_9391ec4a1b.jpeg",
    "operator_id": "15",
    "operator": "中台灣客運",
    "operator_en": "Ct Bus Co., Ltd."
  },
  "features": [
    {
      "type": "Feature",
      "properties": {
        "feature_type": "route",
        "ref": "61",
        "name": "61",
        "name_en": "61",
        "color": "#7c3aed",
        "direction": 0
      },
      "geometry": {
        "type": "LineString",
        "coordinates": [
          [
            120.70332,
            24.15137
          ],
          [
            120.70316,
            24.14815
          ],
          [
            120.70464,
            24.14824
          ],
          [
            120.70509,
            24.14827
          ],
          [
            120.70573,
            24.14843
          ],
          [
            120.70634,
            24.14858
          ],
          [
            120.70625,
            24.14689
          ],
          [
            120.70619,
            24.14604
          ],
          [
            120.7061,
            24.14486
          ],
          [
            120.70608,
            24.1444
          ],
          [
            120.70605,
            24.1433
          ],
          [
            120.706,
            24.14081
          ],
          [
            120.70599,
            24.14045
          ],
          [
            120.70565,
            24.1388
          ],
          [
            120.7054,
            24.13777
          ],
          [
            120.70528,
            24.13771
          ],
          [
            120.70469,
            24.1381
          ],
          [
            120.70421,
            24.13838
          ],
          [
            120.70373,
            24.1386
          ],
          [
            120.70325,
            24.13876
          ],
          [
            120.70297,
            24.13883
          ],
          [
            120.70263,
            24.13889
          ],
          [
            120.69663,
            24.13889
          ],
          [
            120.69663,
            24.14006
          ],
          [
            120.69641,
            24.14032
          ],
          [
            120.6945,
            24.14273
          ],
          [
            120.69256,
            24.14274
          ],
          [
            120.6922,
            24.1427
          ],
          [
            120.68931,
            24.14291
          ],
          [
            120.6892,
            24.14007
          ],
          [
            120.68589,
            24.14019
          ],
          [
            120.68581,
            24.14009
          ],
          [
            120.68584,
            24.13984
          ],
          [
            120.68603,
            24.13969
          ],
          [
            120.68603,
            24.13891
          ],
          [
            120.68508,
            24.13771
          ],
          [
            120.68484,
            24.13761
          ],
          [
            120.68463,
            24.13781
          ],
          [
            120.68409,
            24.13848
          ],
          [
            120.68223,
            24.1401
          ],
          [
            120.68248,
            24.14034
          ],
          [
            120.68336,
            24.14119
          ],
          [
            120.68525,
            24.14308
          ],
          [
            120.68548,
            24.14317
          ],
          [
            120.68573,
            24.14317
          ],
          [
            120.68586,
            24.14326
          ],
          [
            120.6863,
            24.14468
          ],
          [
            120.68654,
            24.14545
          ],
          [
            120.68643,
            24.14578
          ],
          [
            120.68624,
            24.14611
          ],
          [
            120.68603,
            24.14622
          ],
          [
            120.68399,
            24.14628
          ],
          [
            120.68365,
            24.1462
          ],
          [
            120.6831,
            24.14589
          ],
          [
            120.68291,
            24.14584
          ],
          [
            120.68263,
            24.14596
          ],
          [
            120.68258,
            24.14608
          ],
          [
            120.68298,
            24.14711
          ],
          [
            120.68347,
            24.14833
          ],
          [
            120.68401,
            24.14954
          ],
          [
            120.68449,
            24.15072
          ],
          [
            120.68501,
            24.15198
          ],
          [
            120.68606,
            24.154419999999998
          ],
          [
            120.68598,
            24.15458
          ],
          [
            120.68276,
            24.15337
          ],
          [
            120.68256,
            24.15346
          ],
          [
            120.68199,
            24.15472
          ],
          [
            120.68156,
            24.15565
          ],
          [
            120.68115,
            24.15732
          ],
          [
            120.68095,
            24.15815
          ],
          [
            120.68093,
            24.16112
          ],
          [
            120.68097,
            24.16296
          ],
          [
            120.68087,
            24.16313
          ],
          [
            120.67974,
            24.16314
          ],
          [
            120.6779,
            24.16316
          ],
          [
            120.67597,
            24.16321
          ],
          [
            120.67515,
            24.16306
          ],
          [
            120.67487,
            24.16312
          ],
          [
            120.67467,
            24.16322
          ],
          [
            120.6745,
            24.16333
          ],
          [
            120.67352,
            24.16632
          ],
          [
            120.67335,
            24.16684
          ],
          [
            120.67309,
            24.16762
          ],
          [
            120.6723,
            24.17008
          ],
          [
            120.67183,
            24.17208
          ],
          [
            120.67164,
            24.17293
          ],
          [
            120.67143,
            24.17385
          ],
          [
            120.67128,
            24.17445
          ],
          [
            120.67119,
            24.17477
          ],
          [
            120.67108,
            24.17508
          ],
          [
            120.6709,
            24.17538
          ],
          [
            120.67049,
            24.17591
          ],
          [
            120.67005,
            24.17649
          ],
          [
            120.66984,
            24.17678
          ],
          [
            120.66893,
            24.17794
          ],
          [
            120.66861,
            24.17836
          ],
          [
            120.66815,
            24.17895
          ],
          [
            120.66793,
            24.17924
          ],
          [
            120.66763,
            24.17962
          ],
          [
            120.66734,
            24.18002
          ],
          [
            120.66688,
            24.18063
          ],
          [
            120.66669,
            24.18099
          ],
          [
            120.66636,
            24.18165
          ],
          [
            120.66613,
            24.18212
          ],
          [
            120.66575,
            24.18285
          ],
          [
            120.66561,
            24.1831
          ],
          [
            120.66551,
            24.1833
          ],
          [
            120.66519,
            24.18385
          ],
          [
            120.66502,
            24.18416
          ],
          [
            120.66484,
            24.18445
          ],
          [
            120.66451,
            24.18501
          ],
          [
            120.6643,
            24.18536
          ],
          [
            120.66404,
            24.18581
          ],
          [
            120.6638,
            24.18622
          ],
          [
            120.66366,
            24.18649
          ],
          [
            120.66344,
            24.18688
          ],
          [
            120.66319,
            24.18729
          ],
          [
            120.66283,
            24.1879
          ],
          [
            120.66242,
            24.18865
          ],
          [
            120.66197,
            24.18941
          ],
          [
            120.66151,
            24.1902
          ],
          [
            120.66096,
            24.19115
          ],
          [
            120.66074,
            24.19152
          ],
          [
            120.66057,
            24.1918
          ],
          [
            120.66037,
            24.19212
          ],
          [
            120.66006,
            24.19262
          ],
          [
            120.6593,
            24.19382
          ],
          [
            120.65904,
            24.19424
          ],
          [
            120.65867,
            24.19484
          ],
          [
            120.65811,
            24.19569
          ],
          [
            120.65764,
            24.19645
          ],
          [
            120.65739,
            24.19686
          ],
          [
            120.65685,
            24.19772
          ],
          [
            120.65653,
            24.19827
          ],
          [
            120.65597,
            24.19923
          ],
          [
            120.65566,
            24.19978
          ],
          [
            120.65545,
            24.20013
          ],
          [
            120.65512,
            24.20069
          ],
          [
            120.65485,
            24.20112
          ],
          [
            120.65468,
            24.20143
          ],
          [
            120.6544,
            24.2019
          ],
          [
            120.65417,
            24.2023
          ],
          [
            120.6534,
            24.20359
          ],
          [
            120.65311,
            24.20417
          ],
          [
            120.6528,
            24.20491
          ],
          [
            120.6526,
            24.2054
          ],
          [
            120.65241,
            24.20584
          ],
          [
            120.65215,
            24.20645
          ],
          [
            120.65192,
            24.20703
          ],
          [
            120.65172,
            24.20751
          ],
          [
            120.65118,
            24.2088
          ],
          [
            120.651,
            24.20928
          ],
          [
            120.65086,
            24.20973
          ],
          [
            120.65065,
            24.21045
          ],
          [
            120.6505,
            24.21092
          ],
          [
            120.65036,
            24.21138
          ],
          [
            120.65019,
            24.21196
          ],
          [
            120.65001,
            24.21262
          ],
          [
            120.64984,
            24.21339
          ],
          [
            120.6497,
            24.21414
          ],
          [
            120.64958,
            24.21479
          ],
          [
            120.64944,
            24.21554
          ],
          [
            120.64932,
            24.2162
          ],
          [
            120.64917,
            24.217
          ],
          [
            120.64913,
            24.21718
          ],
          [
            120.64895,
            24.21785
          ],
          [
            120.64888,
            24.21802
          ],
          [
            120.6488,
            24.21821
          ],
          [
            120.64752,
            24.22099
          ],
          [
            120.6471,
            24.22189
          ],
          [
            120.64655,
            24.22307
          ],
          [
            120.64604,
            24.22413
          ],
          [
            120.64536,
            24.22557
          ],
          [
            120.64499,
            24.22636
          ],
          [
            120.64484,
            24.22656
          ],
          [
            120.64477,
            24.22673
          ],
          [
            120.64466,
            24.22688
          ],
          [
            120.64457,
            24.22701
          ],
          [
            120.64433,
            24.22726
          ],
          [
            120.64386,
            24.22773
          ],
          [
            120.64342,
            24.22818
          ],
          [
            120.64458,
            24.22912
          ],
          [
            120.64484,
            24.22923
          ],
          [
            120.64506,
            24.22926
          ],
          [
            120.64746,
            24.22927
          ],
          [
            120.65024,
            24.22929
          ],
          [
            120.65052,
            24.22924
          ],
          [
            120.65084,
            24.22913
          ],
          [
            120.65102,
            24.22902
          ],
          [
            120.65123,
            24.22882
          ],
          [
            120.65178,
            24.22799
          ],
          [
            120.65276,
            24.22647
          ],
          [
            120.65326,
            24.22569
          ],
          [
            120.65346,
            24.22536
          ],
          [
            120.65359,
            24.22487
          ],
          [
            120.65361,
            24.223
          ],
          [
            120.65358,
            24.22178
          ],
          [
            120.65353,
            24.22116
          ],
          [
            120.65415,
            24.22106
          ],
          [
            120.6555,
            24.22085
          ],
          [
            120.65604,
            24.22076
          ],
          [
            120.65661,
            24.22064
          ],
          [
            120.65721,
            24.2205
          ],
          [
            120.6577,
            24.22038
          ],
          [
            120.65821,
            24.22025
          ],
          [
            120.65894,
            24.22007
          ],
          [
            120.65968,
            24.21987
          ],
          [
            120.66009,
            24.21978
          ],
          [
            120.66056,
            24.21971
          ],
          [
            120.66142,
            24.2196
          ],
          [
            120.66193,
            24.21953
          ],
          [
            120.66218,
            24.21949
          ],
          [
            120.66239,
            24.21942
          ],
          [
            120.66296,
            24.21904
          ],
          [
            120.6635,
            24.21867
          ],
          [
            120.66472,
            24.21784
          ],
          [
            120.6653,
            24.21741
          ],
          [
            120.6674,
            24.21575
          ],
          [
            120.66761,
            24.21571
          ],
          [
            120.66827,
            24.21586
          ],
          [
            120.66843,
            24.2159
          ],
          [
            120.66864,
            24.21591
          ],
          [
            120.66905,
            24.21589
          ],
          [
            120.67013,
            24.21579
          ],
          [
            120.67114,
            24.21569
          ],
          [
            120.67126,
            24.21569
          ]
        ]
      }
    },
    {
      "type": "Feature",
      "properties": {
        "feature_type": "route",
        "ref": "61",
        "name": "61",
        "name_en": "61",
        "color": "#7c3aed",
        "direction": 1
      },
      "geometry": {
        "type": "LineString",
        "coordinates": [
          [
            120.67222,
            24.21568
          ],
          [
            120.67201,
            24.21568
          ],
          [
            120.67181,
            24.21569
          ]
        ]
      }
    },
    {
      "type": "Feature",
      "properties": {
        "feature_type": "route",
        "ref": "61",
        "name": "61",
        "name_en": "61",
        "color": "#7c3aed",
        "direction": 1
      },
      "geometry": {
        "type": "LineString",
        "coordinates": [
          [
            120.68581,
            24.13762
          ],
          [
            120.68627,
            24.13767
          ],
          [
            120.68656,
            24.13775
          ],
          [
            120.6867,
            24.13783
          ],
          [
            120.68686,
            24.13801
          ],
          [
            120.68697,
            24.13807
          ],
          [
            120.68711,
            24.1381
          ],
          [
            120.68774,
            24.13812
          ]
        ]
      }
    },
    {
      "type": "Feature",
      "properties": {
        "feature_type": "station",
        "ref": "TXG19611",
        "name": "新光里(新福路)",
        "name_en": "Xinguang Village(Xinfu Road)",
        "line": "61",
        "color": "#7c3aed",
        "direction": 0
      },
      "geometry": {
        "type": "Point",
        "coordinates": [
          120.70324,
          24.15168
        ]
      }
    },
    {
      "type": "Feature",
      "properties": {
        "feature_type": "station",
        "ref": "TXG19691",
        "name": "新福里(新福路)",
        "name_en": "Xinfu Village(Xinfu Road)",
        "line": "61",
        "color": "#7c3aed",
        "direction": 0
      },
      "geometry": {
        "type": "Point",
        "coordinates": [
          120.703161,
          24.149416
        ]
      }
    },
    {
      "type": "Feature",
      "properties": {
        "feature_type": "station",
        "ref": "TXG14340",
        "name": "精武東振福路口",
        "name_en": "Jingwu E.-Zhenfu Intersection",
        "line": "61",
        "color": "#7c3aed",
        "direction": 0
      },
      "geometry": {
        "type": "Point",
        "coordinates": [
          120.704577,
          24.148173
        ]
      }
    },
    {
      "type": "Feature",
      "properties": {
        "feature_type": "station",
        "ref": "TXG17422",
        "name": "東英棒壘球場",
        "name_en": "Dongying Baseball & Softball Field",
        "line": "61",
        "color": "#7c3aed",
        "direction": 0
      },
      "geometry": {
        "type": "Point",
        "coordinates": [
          120.706208,
          24.147372
        ]
      }
    },
    {
      "type": "Feature",
      "properties": {
        "feature_type": "station",
        "ref": "TXG19610",
        "name": "東英十甲路口",
        "name_en": "Dongying-Shijia Intersection",
        "line": "61",
        "color": "#7c3aed",
        "direction": 0
      },
      "geometry": {
        "type": "Point",
        "coordinates": [
          120.706109,
          24.145106
        ]
      }
    },
    {
      "type": "Feature",
      "properties": {
        "feature_type": "station",
        "ref": "TXG12304",
        "name": "東英自由路口",
        "name_en": "Dongying-Ziyou Intersection",
        "line": "61",
        "color": "#7c3aed",
        "direction": 0
      },
      "geometry": {
        "type": "Point",
        "coordinates": [
          120.706068,
          24.14305
        ]
      }
    },
    {
      "type": "Feature",
      "properties": {
        "feature_type": "station",
        "ref": "TXG12303",
        "name": "東英旱溪街口",
        "name_en": "Dongying-Hanxi Intersection",
        "line": "61",
        "color": "#7c3aed",
        "direction": 0
      },
      "geometry": {
        "type": "Point",
        "coordinates": [
          120.705969,
          24.140199
        ]
      }
    },
    {
      "type": "Feature",
      "properties": {
        "feature_type": "station",
        "ref": "TXG12309",
        "name": "東英樂業路口",
        "name_en": "Dongying-Leye Intersection",
        "line": "61",
        "color": "#7c3aed",
        "direction": 0
      },
      "geometry": {
        "type": "Point",
        "coordinates": [
          120.705552,
          24.138537
        ]
      }
    },
    {
      "type": "Feature",
      "properties": {
        "feature_type": "station",
        "ref": "TXG3836",
        "name": "樂成公園",
        "name_en": "Lecheng Park",
        "line": "61",
        "color": "#7c3aed",
        "direction": 0
      },
      "geometry": {
        "type": "Point",
        "coordinates": [
          120.703075,
          24.138725
        ]
      }
    },
    {
      "type": "Feature",
      "properties": {
        "feature_type": "station",
        "ref": "TXG270",
        "name": "育英國中(新天地博物館)",
        "name_en": "Yuying Junior High School(Western Museum Newpalace)",
        "line": "61",
        "color": "#7c3aed",
        "direction": 0
      },
      "geometry": {
        "type": "Point",
        "coordinates": [
          120.699682,
          24.138877
        ]
      }
    },
    {
      "type": "Feature",
      "properties": {
        "feature_type": "station",
        "ref": "TXG271",
        "name": "樂業建成路口",
        "name_en": "Leye-Jiancheng Intersection",
        "line": "61",
        "color": "#7c3aed",
        "direction": 0
      },
      "geometry": {
        "type": "Point",
        "coordinates": [
          120.69693833333,
          24.138831666667
        ]
      }
    },
    {
      "type": "Feature",
      "properties": {
        "feature_type": "station",
        "ref": "TXG14500",
        "name": "媽祖公園(建成路)",
        "name_en": "Mazu Park(Jiancheng Road)",
        "line": "61",
        "color": "#7c3aed",
        "direction": 0
      },
      "geometry": {
        "type": "Point",
        "coordinates": [
          120.6958691,
          24.14102407
        ]
      }
    },
    {
      "type": "Feature",
      "properties": {
        "feature_type": "station",
        "ref": "TXG272",
        "name": "自由進德路口",
        "name_en": "Ziyou-jinde Intersection",
        "line": "61",
        "color": "#7c3aed",
        "direction": 0
      },
      "geometry": {
        "type": "Point",
        "coordinates": [
          120.692161,
          24.142762
        ]
      }
    },
    {
      "type": "Feature",
      "properties": {
        "feature_type": "station",
        "ref": "TXG2720",
        "name": "自由富台東街口",
        "name_en": "Ziyou-Futai E. Intersection",
        "line": "61",
        "color": "#7c3aed",
        "direction": 0
      },
      "geometry": {
        "type": "Point",
        "coordinates": [
          120.69049,
          24.142862
        ]
      }
    },
    {
      "type": "Feature",
      "properties": {
        "feature_type": "station",
        "ref": "TXG19609",
        "name": "國軍英雄館",
        "name_en": "Taichung Hero House",
        "line": "61",
        "color": "#7c3aed",
        "direction": 0
      },
      "geometry": {
        "type": "Point",
        "coordinates": [
          120.687788,
          24.140163
        ]
      }
    },
    {
      "type": "Feature",
      "properties": {
        "feature_type": "station",
        "ref": "TXG11020",
        "name": "臺中車站(臺灣大道)",
        "name_en": "Taichung Station(Taiwan Boulevard)",
        "line": "61",
        "color": "#7c3aed",
        "direction": 0
      },
      "geometry": {
        "type": "Point",
        "coordinates": [
          120.684407,
          24.138207
        ]
      }
    },
    {
      "type": "Feature",
      "properties": {
        "feature_type": "station",
        "ref": "TXG3610",
        "name": "第一廣場",
        "name_en": "First Square",
        "line": "61",
        "color": "#7c3aed",
        "direction": 0
      },
      "geometry": {
        "type": "Point",
        "coordinates": [
          120.683522,
          24.139093
        ]
      }
    },
    {
      "type": "Feature",
      "properties": {
        "feature_type": "station",
        "ref": "TXG3611",
        "name": "彰化銀行(臺灣大道)",
        "name_en": "Chang Hwa Bank(Taiwan Boulevard)",
        "line": "61",
        "color": "#7c3aed",
        "direction": 0
      },
      "geometry": {
        "type": "Point",
        "coordinates": [
          120.68254203337,
          24.139902172999
        ]
      }
    },
    {
      "type": "Feature",
      "properties": {
        "feature_type": "station",
        "ref": "TXG20616",
        "name": "星動銀河旅站",
        "name_en": "Moving Star Hotel",
        "line": "61",
        "color": "#7c3aed",
        "direction": 0
      },
      "geometry": {
        "type": "Point",
        "coordinates": [
          120.683202,
          24.141026
        ]
      }
    },
    {
      "type": "Feature",
      "properties": {
        "feature_type": "station",
        "ref": "TXG3613",
        "name": "臺中公園(雙十路)",
        "name_en": "Taichung Park(Shuangshi Road)",
        "line": "61",
        "color": "#7c3aed",
        "direction": 0
      },
      "geometry": {
        "type": "Point",
        "coordinates": [
          120.686097,
          24.144066
        ]
      }
    },
    {
      "type": "Feature",
      "properties": {
        "feature_type": "station",
        "ref": "TXG16189",
        "name": "中興堂",
        "name_en": "Chunghsing Hall",
        "line": "61",
        "color": "#7c3aed",
        "direction": 0
      },
      "geometry": {
        "type": "Point",
        "coordinates": [
          120.684588,
          24.146352
        ]
      }
    },
    {
      "type": "Feature",
      "properties": {
        "feature_type": "station",
        "ref": "TXG3615",
        "name": "國立臺中科技大學",
        "name_en": "National Taichung University of Science and Technology",
        "line": "61",
        "color": "#7c3aed",
        "direction": 0
      },
      "geometry": {
        "type": "Point",
        "coordinates": [
          120.684165,
          24.149711
        ]
      }
    },
    {
      "type": "Feature",
      "properties": {
        "feature_type": "station",
        "ref": "TXG3616",
        "name": "中友百貨",
        "name_en": "Chungyo Department Store",
        "line": "61",
        "color": "#7c3aed",
        "direction": 0
      },
      "geometry": {
        "type": "Point",
        "coordinates": [
          120.685313,
          24.152402
        ]
      }
    },
    {
      "type": "Feature",
      "properties": {
        "feature_type": "station",
        "ref": "TXG3618",
        "name": "五權學士路口",
        "name_en": "Wuquan-Xueshi Intersection",
        "line": "61",
        "color": "#7c3aed",
        "direction": 0
      },
      "geometry": {
        "type": "Point",
        "coordinates": [
          120.68367,
          24.153761
        ]
      }
    },
    {
      "type": "Feature",
      "properties": {
        "feature_type": "station",
        "ref": "TXG3619",
        "name": "中山堂",
        "name_en": "Chungshan Hall",
        "line": "61",
        "color": "#7c3aed",
        "direction": 0
      },
      "geometry": {
        "type": "Point",
        "coordinates": [
          120.68180536135,
          24.155219938288
        ]
      }
    },
    {
      "type": "Feature",
      "properties": {
        "feature_type": "station",
        "ref": "TXG3620",
        "name": "中國醫藥大學",
        "name_en": "China Medical University",
        "line": "61",
        "color": "#7c3aed",
        "direction": 0
      },
      "geometry": {
        "type": "Point",
        "coordinates": [
          120.681416,
          24.156397
        ]
      }
    },
    {
      "type": "Feature",
      "properties": {
        "feature_type": "station",
        "ref": "TXG3621",
        "name": "學士健行路口",
        "name_en": "Xueshi-Jianxing Intersection",
        "line": "61",
        "color": "#7c3aed",
        "direction": 0
      },
      "geometry": {
        "type": "Point",
        "coordinates": [
          120.681006,
          24.159375
        ]
      }
    },
    {
      "type": "Feature",
      "properties": {
        "feature_type": "station",
        "ref": "TXG3622",
        "name": "學士德化街口",
        "name_en": "Xueshi-Dehua Intersection",
        "line": "61",
        "color": "#7c3aed",
        "direction": 0
      },
      "geometry": {
        "type": "Point",
        "coordinates": [
          120.680995,
          24.161342
        ]
      }
    },
    {
      "type": "Feature",
      "properties": {
        "feature_type": "station",
        "ref": "TXG3623",
        "name": "衛道新世界",
        "name_en": "Weidao Community",
        "line": "61",
        "color": "#7c3aed",
        "direction": 0
      },
      "geometry": {
        "type": "Point",
        "coordinates": [
          120.680238646,
          24.163215295809
        ]
      }
    },
    {
      "type": "Feature",
      "properties": {
        "feature_type": "station",
        "ref": "TXG3624",
        "name": "大道公廟(進化北路)",
        "name_en": "Dadaogong Temple(Jinhua N. Road)",
        "line": "61",
        "color": "#7c3aed",
        "direction": 0
      },
      "geometry": {
        "type": "Point",
        "coordinates": [
          120.67599749648,
          24.163316107223
        ]
      }
    },
    {
      "type": "Feature",
      "properties": {
        "feature_type": "station",
        "ref": "TXG3625",
        "name": "中清太原路口",
        "name_en": "Zhongqing-Taiyuan Intersection",
        "line": "61",
        "color": "#7c3aed",
        "direction": 0
      },
      "geometry": {
        "type": "Point",
        "coordinates": [
          120.674236,
          24.164105
        ]
      }
    },
    {
      "type": "Feature",
      "properties": {
        "feature_type": "station",
        "ref": "TXG3626",
        "name": "中清漢口路口",
        "name_en": "Zhongqing-Hankou Intersection",
        "line": "61",
        "color": "#7c3aed",
        "direction": 0
      },
      "geometry": {
        "type": "Point",
        "coordinates": [
          120.673458,
          24.166587
        ]
      }
    },
    {
      "type": "Feature",
      "properties": {
        "feature_type": "station",
        "ref": "TXG3627",
        "name": "曉明女中(中清路)",
        "name_en": "Stella Matutina Girls' Senior High School(Zhongqing Road)",
        "line": "61",
        "color": "#7c3aed",
        "direction": 0
      },
      "geometry": {
        "type": "Point",
        "coordinates": [
          120.672943,
          24.1683
        ]
      }
    },
    {
      "type": "Feature",
      "properties": {
        "feature_type": "station",
        "ref": "TXG3628",
        "name": "天津路商圈",
        "name_en": "Tianjin Road Shopping District",
        "line": "61",
        "color": "#7c3aed",
        "direction": 0
      },
      "geometry": {
        "type": "Point",
        "coordinates": [
          120.672165,
          24.169876
        ]
      }
    },
    {
      "type": "Feature",
      "properties": {
        "feature_type": "station",
        "ref": "TXG3629",
        "name": "捷運文心中清站(中清路)",
        "name_en": "MRT Wenxin Zhongqing Station(Zhongqing Road)",
        "line": "61",
        "color": "#7c3aed",
        "direction": 0
      },
      "geometry": {
        "type": "Point",
        "coordinates": [
          120.67180213541,
          24.172112333825
        ]
      }
    },
    {
      "type": "Feature",
      "properties": {
        "feature_type": "station",
        "ref": "TXG3630",
        "name": "下水湳",
        "name_en": "Xiashuinan",
        "line": "61",
        "color": "#7c3aed",
        "direction": 0
      },
      "geometry": {
        "type": "Point",
        "coordinates": [
          120.670609,
          24.175465
        ]
      }
    },
    {
      "type": "Feature",
      "properties": {
        "feature_type": "station",
        "ref": "TXG3631",
        "name": "水湳",
        "name_en": "Shuinan",
        "line": "61",
        "color": "#7c3aed",
        "direction": 0
      },
      "geometry": {
        "type": "Point",
        "coordinates": [
          120.67003,
          24.176233
        ]
      }
    },
    {
      "type": "Feature",
      "properties": {
        "feature_type": "station",
        "ref": "TXG3632",
        "name": "水湳市場(中清路)",
        "name_en": "Shuinan Market(Zhongqing Road)",
        "line": "61",
        "color": "#7c3aed",
        "direction": 0
      },
      "geometry": {
        "type": "Point",
        "coordinates": [
          120.669107,
          24.177432
        ]
      }
    },
    {
      "type": "Feature",
      "properties": {
        "feature_type": "station",
        "ref": "TXG3633",
        "name": "大德國中",
        "name_en": "Dade Junior High School",
        "line": "61",
        "color": "#7c3aed",
        "direction": 0
      },
      "geometry": {
        "type": "Point",
        "coordinates": [
          120.667562,
          24.179443
        ]
      }
    },
    {
      "type": "Feature",
      "properties": {
        "feature_type": "station",
        "ref": "TXG3634",
        "name": "全民醫院",
        "name_en": "Quanmin Hospital",
        "line": "61",
        "color": "#7c3aed",
        "direction": 0
      },
      "geometry": {
        "type": "Point",
        "coordinates": [
          120.666817,
          24.180442
        ]
      }
    },
    {
      "type": "Feature",
      "properties": {
        "feature_type": "station",
        "ref": "TXG3635",
        "name": "陳平",
        "name_en": "Chenping",
        "line": "61",
        "color": "#7c3aed",
        "direction": 0
      },
      "geometry": {
        "type": "Point",
        "coordinates": [
          120.666044,
          24.181861
        ]
      }
    },
    {
      "type": "Feature",
      "properties": {
        "feature_type": "station",
        "ref": "TXG3636",
        "name": "頂陳平",
        "name_en": "Dingchenping",
        "line": "61",
        "color": "#7c3aed",
        "direction": 0
      },
      "geometry": {
        "type": "Point",
        "coordinates": [
          120.664532,
          24.184606
        ]
      }
    },
    {
      "type": "Feature",
      "properties": {
        "feature_type": "station",
        "ref": "TXG2281",
        "name": "后庄仔",
        "name_en": "Houzhuangzi",
        "line": "61",
        "color": "#7c3aed",
        "direction": 0
      },
      "geometry": {
        "type": "Point",
        "coordinates": [
          120.66381,
          24.186245
        ]
      }
    },
    {
      "type": "Feature",
      "properties": {
        "feature_type": "station",
        "ref": "TXG3638",
        "name": "中清后庄路口",
        "name_en": "Zhongqing-Houzhuang Intersection",
        "line": "61",
        "color": "#7c3aed",
        "direction": 0
      },
      "geometry": {
        "type": "Point",
        "coordinates": [
          120.662576,
          24.188006
        ]
      }
    },
    {
      "type": "Feature",
      "properties": {
        "feature_type": "station",
        "ref": "TXG3639",
        "name": "后庄國宅",
        "name_en": "Houzhuang Civil House",
        "line": "61",
        "color": "#7c3aed",
        "direction": 0
      },
      "geometry": {
        "type": "Point",
        "coordinates": [
          120.661259,
          24.190317
        ]
      }
    },
    {
      "type": "Feature",
      "properties": {
        "feature_type": "station",
        "ref": "TXG3640",
        "name": "貿易三村(中清路)",
        "name_en": "Maoyi 3rd Village(Zhongqing Road)",
        "line": "61",
        "color": "#7c3aed",
        "direction": 0
      },
      "geometry": {
        "type": "Point",
        "coordinates": [
          120.6602229111,
          24.192424647672
        ]
      }
    },
    {
      "type": "Feature",
      "properties": {
        "feature_type": "station",
        "ref": "TXG3641",
        "name": "中清同榮路口",
        "name_en": "Zhongqing-Tongrong Intersection",
        "line": "61",
        "color": "#7c3aed",
        "direction": 0
      },
      "geometry": {
        "type": "Point",
        "coordinates": [
          120.65937210365,
          24.193752534194
        ]
      }
    },
    {
      "type": "Feature",
      "properties": {
        "feature_type": "station",
        "ref": "TXG3642",
        "name": "下港尾",
        "name_en": "Xiagangwei",
        "line": "61",
        "color": "#7c3aed",
        "direction": 0
      },
      "geometry": {
        "type": "Point",
        "coordinates": [
          120.65838913745,
          24.195363864628
        ]
      }
    },
    {
      "type": "Feature",
      "properties": {
        "feature_type": "station",
        "ref": "TXG2320",
        "name": "中清環中路口",
        "name_en": "Zhongqing-Huanzhong Intersection",
        "line": "61",
        "color": "#7c3aed",
        "direction": 0
      },
      "geometry": {
        "type": "Point",
        "coordinates": [
          120.65619685092,
          24.198974472235
        ]
      }
    },
    {
      "type": "Feature",
      "properties": {
        "feature_type": "station",
        "ref": "TXG3643",
        "name": "港尾",
        "name_en": "Gangwei",
        "line": "61",
        "color": "#7c3aed",
        "direction": 0
      },
      "geometry": {
        "type": "Point",
        "coordinates": [
          120.655126,
          24.200749
        ]
      }
    },
    {
      "type": "Feature",
      "properties": {
        "feature_type": "station",
        "ref": "TXG3645",
        "name": "港尾橋",
        "name_en": "Gangwei Bridge",
        "line": "61",
        "color": "#7c3aed",
        "direction": 0
      },
      "geometry": {
        "type": "Point",
        "coordinates": [
          120.653633,
          24.203401
        ]
      }
    },
    {
      "type": "Feature",
      "properties": {
        "feature_type": "station",
        "ref": "TXG3646",
        "name": "頭張(中清路)",
        "name_en": "Touzhang(Zhongqing Road)",
        "line": "61",
        "color": "#7c3aed",
        "direction": 0
      },
      "geometry": {
        "type": "Point",
        "coordinates": [
          120.652419,
          24.205865
        ]
      }
    },
    {
      "type": "Feature",
      "properties": {
        "feature_type": "station",
        "ref": "TXG3647",
        "name": "頂頭張(中清路)",
        "name_en": "Dingtouzhang(Zhongqing Road)",
        "line": "61",
        "color": "#7c3aed",
        "direction": 0
      },
      "geometry": {
        "type": "Point",
        "coordinates": [
          120.65171444748,
          24.207539195098
        ]
      }
    },
    {
      "type": "Feature",
      "properties": {
        "feature_type": "station",
        "ref": "TXG17849",
        "name": "大雅交流道",
        "name_en": "Daya Interchange",
        "line": "61",
        "color": "#7c3aed",
        "direction": 0
      },
      "geometry": {
        "type": "Point",
        "coordinates": [
          120.651003,
          24.209393
        ]
      }
    },
    {
      "type": "Feature",
      "properties": {
        "feature_type": "station",
        "ref": "TXG3649",
        "name": "龍善寺",
        "name_en": "Longshan Temple",
        "line": "61",
        "color": "#7c3aed",
        "direction": 0
      },
      "geometry": {
        "type": "Point",
        "coordinates": [
          120.650104,
          24.212272
        ]
      }
    },
    {
      "type": "Feature",
      "properties": {
        "feature_type": "station",
        "ref": "TXG3650",
        "name": "大華國中",
        "name_en": "Dahwa Junior High School",
        "line": "61",
        "color": "#7c3aed",
        "direction": 0
      },
      "geometry": {
        "type": "Point",
        "coordinates": [
          120.64956586832,
          24.214964312826
        ]
      }
    },
    {
      "type": "Feature",
      "properties": {
        "feature_type": "station",
        "ref": "TXG12663",
        "name": "南大雅",
        "name_en": "Nandaya",
        "line": "61",
        "color": "#7c3aed",
        "direction": 0
      },
      "geometry": {
        "type": "Point",
        "coordinates": [
          120.649181,
          24.217071
        ]
      }
    },
    {
      "type": "Feature",
      "properties": {
        "feature_type": "station",
        "ref": "TXG12664",
        "name": "中清雅潭路口",
        "name_en": "Zhongqing-Yatan Intersection",
        "line": "61",
        "color": "#7c3aed",
        "direction": 0
      },
      "geometry": {
        "type": "Point",
        "coordinates": [
          120.647874,
          24.219843
        ]
      }
    },
    {
      "type": "Feature",
      "properties": {
        "feature_type": "station",
        "ref": "TXG17622",
        "name": "大雅公園",
        "name_en": "Daya Park",
        "line": "61",
        "color": "#7c3aed",
        "direction": 0
      },
      "geometry": {
        "type": "Point",
        "coordinates": [
          120.646518,
          24.223257
        ]
      }
    },
    {
      "type": "Feature",
      "properties": {
        "feature_type": "station",
        "ref": "TXG19532",
        "name": "大明",
        "name_en": "Daming",
        "line": "61",
        "color": "#7c3aed",
        "direction": 0
      },
      "geometry": {
        "type": "Point",
        "coordinates": [
          120.644675,
          24.226921
        ]
      }
    },
    {
      "type": "Feature",
      "properties": {
        "feature_type": "station",
        "ref": "TXG12667",
        "name": "大明國小(雅環路)",
        "name_en": "Daming Elementary School(Yahuan Road)",
        "line": "61",
        "color": "#7c3aed",
        "direction": 0
      },
      "geometry": {
        "type": "Point",
        "coordinates": [
          120.64399,
          24.228492
        ]
      }
    },
    {
      "type": "Feature",
      "properties": {
        "feature_type": "station",
        "ref": "TXG3658",
        "name": "大雅區公所",
        "name_en": "Daya District Office",
        "line": "61",
        "color": "#7c3aed",
        "direction": 0
      },
      "geometry": {
        "type": "Point",
        "coordinates": [
          120.647996,
          24.229226
        ]
      }
    },
    {
      "type": "Feature",
      "properties": {
        "feature_type": "station",
        "ref": "TXG12668",
        "name": "雅環民生路口",
        "name_en": "Yahuan-Minsheng Intersection",
        "line": "61",
        "color": "#7c3aed",
        "direction": 0
      },
      "geometry": {
        "type": "Point",
        "coordinates": [
          120.651104,
          24.228849
        ]
      }
    },
    {
      "type": "Feature",
      "properties": {
        "feature_type": "station",
        "ref": "TXG12669",
        "name": "雅環大榮路口",
        "name_en": "Yahuan-Darong Intersection",
        "line": "61",
        "color": "#7c3aed",
        "direction": 0
      },
      "geometry": {
        "type": "Point",
        "coordinates": [
          120.65286,
          24.226186
        ]
      }
    },
    {
      "type": "Feature",
      "properties": {
        "feature_type": "station",
        "ref": "TXG12670",
        "name": "雅環保齡球館",
        "name_en": "Yahuan Bowling Hall",
        "line": "61",
        "color": "#7c3aed",
        "direction": 0
      },
      "geometry": {
        "type": "Point",
        "coordinates": [
          120.653551,
          24.224759
        ]
      }
    },
    {
      "type": "Feature",
      "properties": {
        "feature_type": "station",
        "ref": "TXG12671",
        "name": "雅環雅潭路口",
        "name_en": "Yahuan-Yatan Intersection",
        "line": "61",
        "color": "#7c3aed",
        "direction": 0
      },
      "geometry": {
        "type": "Point",
        "coordinates": [
          120.653502,
          24.222124
        ]
      }
    },
    {
      "type": "Feature",
      "properties": {
        "feature_type": "station",
        "ref": "TXG3666",
        "name": "國際花市",
        "name_en": "Flower Market",
        "line": "61",
        "color": "#7c3aed",
        "direction": 0
      },
      "geometry": {
        "type": "Point",
        "coordinates": [
          120.657188,
          24.220625
        ]
      }
    },
    {
      "type": "Feature",
      "properties": {
        "feature_type": "station",
        "ref": "TXG3667",
        "name": "台電大雅服務所",
        "name_en": "Taipower Daya Service Center",
        "line": "61",
        "color": "#7c3aed",
        "direction": 0
      },
      "geometry": {
        "type": "Point",
        "coordinates": [
          120.65822,
          24.220322
        ]
      }
    },
    {
      "type": "Feature",
      "properties": {
        "feature_type": "station",
        "ref": "TXG3668",
        "name": "惠明盲校",
        "name_en": "Huei-Ming School",
        "line": "61",
        "color": "#7c3aed",
        "direction": 0
      },
      "geometry": {
        "type": "Point",
        "coordinates": [
          120.660972,
          24.219784
        ]
      }
    },
    {
      "type": "Feature",
      "properties": {
        "feature_type": "station",
        "ref": "TXG3669",
        "name": "馬岡厝加油站",
        "name_en": "Magangcuo Gas Station",
        "line": "61",
        "color": "#7c3aed",
        "direction": 0
      },
      "geometry": {
        "type": "Point",
        "coordinates": [
          120.6647,
          24.217959
        ]
      }
    },
    {
      "type": "Feature",
      "properties": {
        "feature_type": "station",
        "ref": "TXG6835",
        "name": "清泉醫院",
        "name_en": "Qingquan Hospital",
        "line": "61",
        "color": "#7c3aed",
        "direction": 0
      },
      "geometry": {
        "type": "Point",
        "coordinates": [
          120.666533,
          24.216371
        ]
      }
    },
    {
      "type": "Feature",
      "properties": {
        "feature_type": "station",
        "ref": "TXG19523",
        "name": "員寶庄福德祠",
        "name_en": "YuanBao Zhong Fude Temple",
        "line": "61",
        "color": "#7c3aed",
        "direction": 0
      },
      "geometry": {
        "type": "Point",
        "coordinates": [
          120.668641,
          24.216036
        ]
      }
    },
    {
      "type": "Feature",
      "properties": {
        "feature_type": "station",
        "ref": "TXG14579",
        "name": "西寶里",
        "name_en": "Si Bao Village",
        "line": "61",
        "color": "#7c3aed",
        "direction": 0
      },
      "geometry": {
        "type": "Point",
        "coordinates": [
          120.671254,
          24.215618
        ]
      }
    },
    {
      "type": "Feature",
      "properties": {
        "feature_type": "station",
        "ref": "TXG19522",
        "name": "西寶里",
        "name_en": "Si Bao Village",
        "line": "61",
        "color": "#7c3aed",
        "direction": 1
      },
      "geometry": {
        "type": "Point",
        "coordinates": [
          120.672216,
          24.215721
        ]
      }
    },
    {
      "type": "Feature",
      "properties": {
        "feature_type": "station",
        "ref": "TXG19523",
        "name": "員寶庄福德祠",
        "name_en": "YuanBao Zhong Fude Temple",
        "line": "61",
        "color": "#7c3aed",
        "direction": 1
      },
      "geometry": {
        "type": "Point",
        "coordinates": [
          120.668641,
          24.216036
        ]
      }
    },
    {
      "type": "Feature",
      "properties": {
        "feature_type": "station",
        "ref": "TXG6836",
        "name": "清泉醫院",
        "name_en": "Qingquan Hospital",
        "line": "61",
        "color": "#7c3aed",
        "direction": 1
      },
      "geometry": {
        "type": "Point",
        "coordinates": [
          120.666618,
          24.216538
        ]
      }
    },
    {
      "type": "Feature",
      "properties": {
        "feature_type": "station",
        "ref": "TXG3548",
        "name": "馬岡厝加油站",
        "name_en": "Magangcuo Gas Station",
        "line": "61",
        "color": "#7c3aed",
        "direction": 1
      },
      "geometry": {
        "type": "Point",
        "coordinates": [
          120.6647,
          24.217959
        ]
      }
    },
    {
      "type": "Feature",
      "properties": {
        "feature_type": "station",
        "ref": "TXG3549",
        "name": "惠明盲校",
        "name_en": "Huei-Ming School",
        "line": "61",
        "color": "#7c3aed",
        "direction": 1
      },
      "geometry": {
        "type": "Point",
        "coordinates": [
          120.660972,
          24.219784
        ]
      }
    },
    {
      "type": "Feature",
      "properties": {
        "feature_type": "station",
        "ref": "TXG3550",
        "name": "台電大雅服務所",
        "name_en": "Taipower Daya Service Center",
        "line": "61",
        "color": "#7c3aed",
        "direction": 1
      },
      "geometry": {
        "type": "Point",
        "coordinates": [
          120.65822,
          24.220322
        ]
      }
    },
    {
      "type": "Feature",
      "properties": {
        "feature_type": "station",
        "ref": "TXG3551",
        "name": "國際花市",
        "name_en": "Flower Market",
        "line": "61",
        "color": "#7c3aed",
        "direction": 1
      },
      "geometry": {
        "type": "Point",
        "coordinates": [
          120.657188,
          24.220625
        ]
      }
    },
    {
      "type": "Feature",
      "properties": {
        "feature_type": "station",
        "ref": "TXG12672",
        "name": "雅環雅潭路口",
        "name_en": "Yahuan-Yatan Intersection",
        "line": "61",
        "color": "#7c3aed",
        "direction": 1
      },
      "geometry": {
        "type": "Point",
        "coordinates": [
          120.653631,
          24.222034
        ]
      }
    },
    {
      "type": "Feature",
      "properties": {
        "feature_type": "station",
        "ref": "TXG12673",
        "name": "雅環保齡球館",
        "name_en": "Yahuan Bowling Hall",
        "line": "61",
        "color": "#7c3aed",
        "direction": 1
      },
      "geometry": {
        "type": "Point",
        "coordinates": [
          120.653639,
          24.224669
        ]
      }
    },
    {
      "type": "Feature",
      "properties": {
        "feature_type": "station",
        "ref": "TXG12674",
        "name": "雅環大榮路口",
        "name_en": "Yahuan-Darong Intersection",
        "line": "61",
        "color": "#7c3aed",
        "direction": 1
      },
      "geometry": {
        "type": "Point",
        "coordinates": [
          120.652893,
          24.2263
        ]
      }
    },
    {
      "type": "Feature",
      "properties": {
        "feature_type": "station",
        "ref": "TXG12675",
        "name": "雅環民生路口",
        "name_en": "Yahuan-Minsheng Intersection",
        "line": "61",
        "color": "#7c3aed",
        "direction": 1
      },
      "geometry": {
        "type": "Point",
        "coordinates": [
          120.651325,
          24.228935
        ]
      }
    },
    {
      "type": "Feature",
      "properties": {
        "feature_type": "station",
        "ref": "TXG3559",
        "name": "大雅區公所",
        "name_en": "Daya District Office",
        "line": "61",
        "color": "#7c3aed",
        "direction": 1
      },
      "geometry": {
        "type": "Point",
        "coordinates": [
          120.64795,
          24.229282
        ]
      }
    },
    {
      "type": "Feature",
      "properties": {
        "feature_type": "station",
        "ref": "TXG10381",
        "name": "大明國小(雅環路)",
        "name_en": "Daming Elementary School(Yahuan Road)",
        "line": "61",
        "color": "#7c3aed",
        "direction": 1
      },
      "geometry": {
        "type": "Point",
        "coordinates": [
          120.643973,
          24.228687
        ]
      }
    },
    {
      "type": "Feature",
      "properties": {
        "feature_type": "station",
        "ref": "TXG18872",
        "name": "大明",
        "name_en": "Daming",
        "line": "61",
        "color": "#7c3aed",
        "direction": 1
      },
      "geometry": {
        "type": "Point",
        "coordinates": [
          120.644337,
          24.227053
        ]
      }
    },
    {
      "type": "Feature",
      "properties": {
        "feature_type": "station",
        "ref": "TXG17640",
        "name": "大雅公園",
        "name_en": "Daya Park",
        "line": "61",
        "color": "#7c3aed",
        "direction": 1
      },
      "geometry": {
        "type": "Point",
        "coordinates": [
          120.64617,
          24.223462
        ]
      }
    },
    {
      "type": "Feature",
      "properties": {
        "feature_type": "station",
        "ref": "TXG12679",
        "name": "中清雅潭路口",
        "name_en": "Zhongqing-Yatan Intersection",
        "line": "61",
        "color": "#7c3aed",
        "direction": 1
      },
      "geometry": {
        "type": "Point",
        "coordinates": [
          120.647874,
          24.219843
        ]
      }
    },
    {
      "type": "Feature",
      "properties": {
        "feature_type": "station",
        "ref": "TXG12680",
        "name": "南大雅",
        "name_en": "Nandaya",
        "line": "61",
        "color": "#7c3aed",
        "direction": 1
      },
      "geometry": {
        "type": "Point",
        "coordinates": [
          120.648951,
          24.217274
        ]
      }
    },
    {
      "type": "Feature",
      "properties": {
        "feature_type": "station",
        "ref": "TXG3567",
        "name": "大華國中",
        "name_en": "Dahwa Junior High School",
        "line": "61",
        "color": "#7c3aed",
        "direction": 1
      },
      "geometry": {
        "type": "Point",
        "coordinates": [
          120.649407,
          24.214605
        ]
      }
    },
    {
      "type": "Feature",
      "properties": {
        "feature_type": "station",
        "ref": "TXG3568",
        "name": "龍善寺",
        "name_en": "Longshan Temple",
        "line": "61",
        "color": "#7c3aed",
        "direction": 1
      },
      "geometry": {
        "type": "Point",
        "coordinates": [
          120.649946,
          24.212169
        ]
      }
    },
    {
      "type": "Feature",
      "properties": {
        "feature_type": "station",
        "ref": "TXG17808",
        "name": "大雅交流道",
        "name_en": "Daya Interchange",
        "line": "61",
        "color": "#7c3aed",
        "direction": 1
      },
      "geometry": {
        "type": "Point",
        "coordinates": [
          120.650702119,
          24.2097860851
        ]
      }
    },
    {
      "type": "Feature",
      "properties": {
        "feature_type": "station",
        "ref": "TXG3570",
        "name": "頂頭張(中清路)",
        "name_en": "Dingtouzhang(Zhongqing Road)",
        "line": "61",
        "color": "#7c3aed",
        "direction": 1
      },
      "geometry": {
        "type": "Point",
        "coordinates": [
          120.651509,
          24.20755
        ]
      }
    },
    {
      "type": "Feature",
      "properties": {
        "feature_type": "station",
        "ref": "TXG3571",
        "name": "頭張(中清路)",
        "name_en": "Touzhang(Zhongqing Road)",
        "line": "61",
        "color": "#7c3aed",
        "direction": 1
      },
      "geometry": {
        "type": "Point",
        "coordinates": [
          120.652159,
          24.205938
        ]
      }
    },
    {
      "type": "Feature",
      "properties": {
        "feature_type": "station",
        "ref": "TXG3572",
        "name": "港尾橋",
        "name_en": "Gangwei Bridge",
        "line": "61",
        "color": "#7c3aed",
        "direction": 1
      },
      "geometry": {
        "type": "Point",
        "coordinates": [
          120.653599,
          24.202895
        ]
      }
    },
    {
      "type": "Feature",
      "properties": {
        "feature_type": "station",
        "ref": "TXG3574",
        "name": "港尾",
        "name_en": "Gangwei",
        "line": "61",
        "color": "#7c3aed",
        "direction": 1
      },
      "geometry": {
        "type": "Point",
        "coordinates": [
          120.654822,
          24.200847
        ]
      }
    },
    {
      "type": "Feature",
      "properties": {
        "feature_type": "station",
        "ref": "TXG3573",
        "name": "中清環中路口",
        "name_en": "Zhongqing-Huanzhong Intersection",
        "line": "61",
        "color": "#7c3aed",
        "direction": 1
      },
      "geometry": {
        "type": "Point",
        "coordinates": [
          120.65633642305,
          24.198373650594
        ]
      }
    },
    {
      "type": "Feature",
      "properties": {
        "feature_type": "station",
        "ref": "TXG3575",
        "name": "下港尾",
        "name_en": "Xiagangwei",
        "line": "61",
        "color": "#7c3aed",
        "direction": 1
      },
      "geometry": {
        "type": "Point",
        "coordinates": [
          120.658227,
          24.19526
        ]
      }
    },
    {
      "type": "Feature",
      "properties": {
        "feature_type": "station",
        "ref": "TXG3576",
        "name": "中清同榮路口",
        "name_en": "Zhongqing-Tongrong Intersection",
        "line": "61",
        "color": "#7c3aed",
        "direction": 1
      },
      "geometry": {
        "type": "Point",
        "coordinates": [
          120.659316,
          24.1935
        ]
      }
    },
    {
      "type": "Feature",
      "properties": {
        "feature_type": "station",
        "ref": "TXG3577",
        "name": "貿易三村(中清路)",
        "name_en": "Maoyi 3rd Village(Zhongqing Road)",
        "line": "61",
        "color": "#7c3aed",
        "direction": 1
      },
      "geometry": {
        "type": "Point",
        "coordinates": [
          120.660025,
          24.192338
        ]
      }
    },
    {
      "type": "Feature",
      "properties": {
        "feature_type": "station",
        "ref": "TXG3578",
        "name": "后庄國宅",
        "name_en": "Houzhuang Civil House",
        "line": "61",
        "color": "#7c3aed",
        "direction": 1
      },
      "geometry": {
        "type": "Point",
        "coordinates": [
          120.661259,
          24.190317
        ]
      }
    },
    {
      "type": "Feature",
      "properties": {
        "feature_type": "station",
        "ref": "TXG3579",
        "name": "中清后庄路口",
        "name_en": "Zhongqing-Houzhuang Intersection",
        "line": "61",
        "color": "#7c3aed",
        "direction": 1
      },
      "geometry": {
        "type": "Point",
        "coordinates": [
          120.662576,
          24.188006
        ]
      }
    },
    {
      "type": "Feature",
      "properties": {
        "feature_type": "station",
        "ref": "TXG3580",
        "name": "后庄仔",
        "name_en": "Houzhuangzi",
        "line": "61",
        "color": "#7c3aed",
        "direction": 1
      },
      "geometry": {
        "type": "Point",
        "coordinates": [
          120.663362,
          24.186642
        ]
      }
    },
    {
      "type": "Feature",
      "properties": {
        "feature_type": "station",
        "ref": "TXG3581",
        "name": "頂陳平",
        "name_en": "Dingchenping",
        "line": "61",
        "color": "#7c3aed",
        "direction": 1
      },
      "geometry": {
        "type": "Point",
        "coordinates": [
          120.664532,
          24.184606
        ]
      }
    },
    {
      "type": "Feature",
      "properties": {
        "feature_type": "station",
        "ref": "TXG3582",
        "name": "陳平",
        "name_en": "Chenping",
        "line": "61",
        "color": "#7c3aed",
        "direction": 1
      },
      "geometry": {
        "type": "Point",
        "coordinates": [
          120.666044,
          24.181861
        ]
      }
    },
    {
      "type": "Feature",
      "properties": {
        "feature_type": "station",
        "ref": "TXG3583",
        "name": "全民醫院",
        "name_en": "Quanmin Hospital",
        "line": "61",
        "color": "#7c3aed",
        "direction": 1
      },
      "geometry": {
        "type": "Point",
        "coordinates": [
          120.666817,
          24.180442
        ]
      }
    },
    {
      "type": "Feature",
      "properties": {
        "feature_type": "station",
        "ref": "TXG3584",
        "name": "大德國中",
        "name_en": "Dade Junior High School",
        "line": "61",
        "color": "#7c3aed",
        "direction": 1
      },
      "geometry": {
        "type": "Point",
        "coordinates": [
          120.667562,
          24.179443
        ]
      }
    },
    {
      "type": "Feature",
      "properties": {
        "feature_type": "station",
        "ref": "TXG3632",
        "name": "水湳市場(中清路)",
        "name_en": "Shuinan Market(Zhongqing Road)",
        "line": "61",
        "color": "#7c3aed",
        "direction": 1
      },
      "geometry": {
        "type": "Point",
        "coordinates": [
          120.669107,
          24.177432
        ]
      }
    },
    {
      "type": "Feature",
      "properties": {
        "feature_type": "station",
        "ref": "TXG10393",
        "name": "水湳",
        "name_en": "Shuinan",
        "line": "61",
        "color": "#7c3aed",
        "direction": 1
      },
      "geometry": {
        "type": "Point",
        "coordinates": [
          120.67003,
          24.176233
        ]
      }
    },
    {
      "type": "Feature",
      "properties": {
        "feature_type": "station",
        "ref": "TXG3630",
        "name": "下水湳",
        "name_en": "Xiashuinan",
        "line": "61",
        "color": "#7c3aed",
        "direction": 1
      },
      "geometry": {
        "type": "Point",
        "coordinates": [
          120.670609,
          24.175465
        ]
      }
    },
    {
      "type": "Feature",
      "properties": {
        "feature_type": "station",
        "ref": "TXG14465",
        "name": "捷運文心中清站(中清路)",
        "name_en": "MRT Wenxin Zhongqing Station(Zhongqing Road)",
        "line": "61",
        "color": "#7c3aed",
        "direction": 1
      },
      "geometry": {
        "type": "Point",
        "coordinates": [
          120.671428,
          24.173135
        ]
      }
    },
    {
      "type": "Feature",
      "properties": {
        "feature_type": "station",
        "ref": "TXG3588",
        "name": "中清北平路口",
        "name_en": "Zhongqing-Beiping Intersection",
        "line": "61",
        "color": "#7c3aed",
        "direction": 1
      },
      "geometry": {
        "type": "Point",
        "coordinates": [
          120.67179,
          24.171373
        ]
      }
    },
    {
      "type": "Feature",
      "properties": {
        "feature_type": "station",
        "ref": "TXG10392",
        "name": "天津路商圈",
        "name_en": "Tianjin Road Shopping District",
        "line": "61",
        "color": "#7c3aed",
        "direction": 1
      },
      "geometry": {
        "type": "Point",
        "coordinates": [
          120.672165,
          24.169876
        ]
      }
    },
    {
      "type": "Feature",
      "properties": {
        "feature_type": "station",
        "ref": "TXG3590",
        "name": "曉明女中(中清路)",
        "name_en": "Stella Matutina Girls' Senior High School(Zhongqing Road)",
        "line": "61",
        "color": "#7c3aed",
        "direction": 1
      },
      "geometry": {
        "type": "Point",
        "coordinates": [
          120.672618,
          24.168374
        ]
      }
    },
    {
      "type": "Feature",
      "properties": {
        "feature_type": "station",
        "ref": "TXG3591",
        "name": "中清漢口路口",
        "name_en": "Zhongqing-Hankou Intersection",
        "line": "61",
        "color": "#7c3aed",
        "direction": 1
      },
      "geometry": {
        "type": "Point",
        "coordinates": [
          120.673254,
          24.166479
        ]
      }
    },
    {
      "type": "Feature",
      "properties": {
        "feature_type": "station",
        "ref": "TXG3593",
        "name": "大道公廟(進化北路)",
        "name_en": "Dadaogong Temple(Jinhua N. Road)",
        "line": "61",
        "color": "#7c3aed",
        "direction": 1
      },
      "geometry": {
        "type": "Point",
        "coordinates": [
          120.67618177967,
          24.163075772956
        ]
      }
    },
    {
      "type": "Feature",
      "properties": {
        "feature_type": "station",
        "ref": "TXG3594",
        "name": "衛道新世界",
        "name_en": "Weidao Community",
        "line": "61",
        "color": "#7c3aed",
        "direction": 1
      },
      "geometry": {
        "type": "Point",
        "coordinates": [
          120.68026,
          24.162994
        ]
      }
    },
    {
      "type": "Feature",
      "properties": {
        "feature_type": "station",
        "ref": "TXG3595",
        "name": "學士德化街口",
        "name_en": "Xueshi-Dehua Intersection",
        "line": "61",
        "color": "#7c3aed",
        "direction": 1
      },
      "geometry": {
        "type": "Point",
        "coordinates": [
          120.68088,
          24.161396
        ]
      }
    },
    {
      "type": "Feature",
      "properties": {
        "feature_type": "station",
        "ref": "TXG3596",
        "name": "學士健行路口",
        "name_en": "Xueshi-Jianxing Intersection",
        "line": "61",
        "color": "#7c3aed",
        "direction": 1
      },
      "geometry": {
        "type": "Point",
        "coordinates": [
          120.68087104697,
          24.159326170492
        ]
      }
    },
    {
      "type": "Feature",
      "properties": {
        "feature_type": "station",
        "ref": "TXG3597",
        "name": "中國醫藥大學",
        "name_en": "China Medical University",
        "line": "61",
        "color": "#7c3aed",
        "direction": 1
      },
      "geometry": {
        "type": "Point",
        "coordinates": [
          120.681244,
          24.156664
        ]
      }
    },
    {
      "type": "Feature",
      "properties": {
        "feature_type": "station",
        "ref": "TXG3598",
        "name": "中山堂",
        "name_en": "Chungshan Hall",
        "line": "61",
        "color": "#7c3aed",
        "direction": 1
      },
      "geometry": {
        "type": "Point",
        "coordinates": [
          120.681722,
          24.15515
        ]
      }
    },
    {
      "type": "Feature",
      "properties": {
        "feature_type": "station",
        "ref": "TXG3599",
        "name": "五權學士路口",
        "name_en": "Wuquan-Xueshi Intersection",
        "line": "61",
        "color": "#7c3aed",
        "direction": 1
      },
      "geometry": {
        "type": "Point",
        "coordinates": [
          120.68388,
          24.153678
        ]
      }
    },
    {
      "type": "Feature",
      "properties": {
        "feature_type": "station",
        "ref": "TXG3600",
        "name": "三民錦新街口",
        "name_en": "Sanmin-Jinxin Intersection",
        "line": "61",
        "color": "#7c3aed",
        "direction": 1
      },
      "geometry": {
        "type": "Point",
        "coordinates": [
          120.685717,
          24.153871
        ]
      }
    },
    {
      "type": "Feature",
      "properties": {
        "feature_type": "station",
        "ref": "TXG2249",
        "name": "中友百貨",
        "name_en": "Chungyo Department Store",
        "line": "61",
        "color": "#7c3aed",
        "direction": 1
      },
      "geometry": {
        "type": "Point",
        "coordinates": [
          120.684828,
          24.151707
        ]
      }
    },
    {
      "type": "Feature",
      "properties": {
        "feature_type": "station",
        "ref": "TXG3602",
        "name": "國立臺中科技大學",
        "name_en": "National Taichung University of Science and Technology",
        "line": "61",
        "color": "#7c3aed",
        "direction": 1
      },
      "geometry": {
        "type": "Point",
        "coordinates": [
          120.683849,
          24.149365
        ]
      }
    },
    {
      "type": "Feature",
      "properties": {
        "feature_type": "station",
        "ref": "TXG16296",
        "name": "中興堂",
        "name_en": "Chunghsing Hall",
        "line": "61",
        "color": "#7c3aed",
        "direction": 1
      },
      "geometry": {
        "type": "Point",
        "coordinates": [
          120.684488,
          24.146212
        ]
      }
    },
    {
      "type": "Feature",
      "properties": {
        "feature_type": "station",
        "ref": "TXG3604",
        "name": "臺中公園(雙十路)",
        "name_en": "Taichung Park(Shuangshi Road)",
        "line": "61",
        "color": "#7c3aed",
        "direction": 1
      },
      "geometry": {
        "type": "Point",
        "coordinates": [
          120.685888,
          24.144184
        ]
      }
    },
    {
      "type": "Feature",
      "properties": {
        "feature_type": "station",
        "ref": "TXG10391",
        "name": "干城站",
        "name_en": "Gancheng Station",
        "line": "61",
        "color": "#7c3aed",
        "direction": 1
      },
      "geometry": {
        "type": "Point",
        "coordinates": [
          120.685758,
          24.140969
        ]
      }
    },
    {
      "type": "Feature",
      "properties": {
        "feature_type": "station",
        "ref": "TXG11633",
        "name": "臺中車站(C月台)",
        "name_en": "Taichung Station(Platform C)",
        "line": "61",
        "color": "#7c3aed",
        "direction": 1
      },
      "geometry": {
        "type": "Point",
        "coordinates": [
          120.686542,
          24.137583
        ]
      }
    },
    {
      "type": "Feature",
      "properties": {
        "feature_type": "station",
        "ref": "TXG14180",
        "name": "復興公園東路口",
        "name_en": "Fuxing Park E. Intersection",
        "line": "61",
        "color": "#7c3aed",
        "direction": 1
      },
      "geometry": {
        "type": "Point",
        "coordinates": [
          120.68929,
          24.141261
        ]
      }
    },
    {
      "type": "Feature",
      "properties": {
        "feature_type": "station",
        "ref": "TXG2720",
        "name": "自由富台東街口",
        "name_en": "Ziyou-Futai E. Intersection",
        "line": "61",
        "color": "#7c3aed",
        "direction": 1
      },
      "geometry": {
        "type": "Point",
        "coordinates": [
          120.69049,
          24.142862
        ]
      }
    },
    {
      "type": "Feature",
      "properties": {
        "feature_type": "station",
        "ref": "TXG272",
        "name": "自由進德路口",
        "name_en": "Ziyou-jinde Intersection",
        "line": "61",
        "color": "#7c3aed",
        "direction": 1
      },
      "geometry": {
        "type": "Point",
        "coordinates": [
          120.692161,
          24.142762
        ]
      }
    },
    {
      "type": "Feature",
      "properties": {
        "feature_type": "station",
        "ref": "TXG14499",
        "name": "媽祖公園(建成路)",
        "name_en": "Mazu Park(Jiancheng Road)",
        "line": "61",
        "color": "#7c3aed",
        "direction": 1
      },
      "geometry": {
        "type": "Point",
        "coordinates": [
          120.694894,
          24.14194238
        ]
      }
    },
    {
      "type": "Feature",
      "properties": {
        "feature_type": "station",
        "ref": "TXG271",
        "name": "樂業建成路口",
        "name_en": "Leye-Jiancheng Intersection",
        "line": "61",
        "color": "#7c3aed",
        "direction": 1
      },
      "geometry": {
        "type": "Point",
        "coordinates": [
          120.69693833333,
          24.138831666667
        ]
      }
    },
    {
      "type": "Feature",
      "properties": {
        "feature_type": "station",
        "ref": "TXG270",
        "name": "育英國中(新天地博物館)",
        "name_en": "Yuying Junior High School(Western Museum Newpalace)",
        "line": "61",
        "color": "#7c3aed",
        "direction": 1
      },
      "geometry": {
        "type": "Point",
        "coordinates": [
          120.699682,
          24.138877
        ]
      }
    },
    {
      "type": "Feature",
      "properties": {
        "feature_type": "station",
        "ref": "TXG3836",
        "name": "樂成公園",
        "name_en": "Lecheng Park",
        "line": "61",
        "color": "#7c3aed",
        "direction": 1
      },
      "geometry": {
        "type": "Point",
        "coordinates": [
          120.703075,
          24.138725
        ]
      }
    },
    {
      "type": "Feature",
      "properties": {
        "feature_type": "station",
        "ref": "TXG12303",
        "name": "東英旱溪街口",
        "name_en": "Dongying-Hanxi Intersection",
        "line": "61",
        "color": "#7c3aed",
        "direction": 1
      },
      "geometry": {
        "type": "Point",
        "coordinates": [
          120.705969,
          24.140199
        ]
      }
    },
    {
      "type": "Feature",
      "properties": {
        "feature_type": "station",
        "ref": "TXG12304",
        "name": "東英自由路口",
        "name_en": "Dongying-Ziyou Intersection",
        "line": "61",
        "color": "#7c3aed",
        "direction": 1
      },
      "geometry": {
        "type": "Point",
        "coordinates": [
          120.706068,
          24.14305
        ]
      }
    },
    {
      "type": "Feature",
      "properties": {
        "feature_type": "station",
        "ref": "TXG17423",
        "name": "東英棒壘球場",
        "name_en": "Dongying Baseball & Softball Field",
        "line": "61",
        "color": "#7c3aed",
        "direction": 1
      },
      "geometry": {
        "type": "Point",
        "coordinates": [
          120.7063,
          24.146882
        ]
      }
    },
    {
      "type": "Feature",
      "properties": {
        "feature_type": "station",
        "ref": "TXG14340",
        "name": "精武東振福路口",
        "name_en": "Jingwu E.-Zhenfu Intersection",
        "line": "61",
        "color": "#7c3aed",
        "direction": 1
      },
      "geometry": {
        "type": "Point",
        "coordinates": [
          120.704577,
          24.148173
        ]
      }
    },
    {
      "type": "Feature",
      "properties": {
        "feature_type": "station",
        "ref": "TXG19691",
        "name": "新福里(新福路)",
        "name_en": "Xinfu Village(Xinfu Road)",
        "line": "61",
        "color": "#7c3aed",
        "direction": 1
      },
      "geometry": {
        "type": "Point",
        "coordinates": [
          120.703161,
          24.149416
        ]
      }
    },
    {
      "type": "Feature",
      "properties": {
        "feature_type": "station",
        "ref": "TXG19611",
        "name": "新光里(新福路)",
        "name_en": "Xinguang Village(Xinfu Road)",
        "line": "61",
        "color": "#7c3aed",
        "direction": 1
      },
      "geometry": {
        "type": "Point",
        "coordinates": [
          120.70324,
          24.15168
        ]
      }
    }
  ]
}
