{
  "type": "FeatureCollection",
  "name": "66左環",
  "properties": {
    "id": "taichung_66_79af3c461b",
    "name": "66左環",
    "name_en": "66左環",
    "ref": "66左環",
    "color": "#6b21a8",
    "city_id": "Taichung",
    "source": "TDX Bus Shape / StopOfRoute",
    "operator_id": "1",
    "operator": "台中客運",
    "operator_en": "Taichung Bus Co., Ltd.",
    "official_map_url": "https://www.tcbus.com.tw/image/66.gif"
  },
  "features": [
    {
      "type": "Feature",
      "properties": {
        "feature_type": "route",
        "ref": "66左環",
        "name": "66左環",
        "name_en": "66左環",
        "color": "#6b21a8",
        "direction": 0
      },
      "geometry": {
        "type": "LineString",
        "coordinates": [
          [
            120.72262,
            24.20379
          ],
          [
            120.72266,
            24.20313
          ],
          [
            120.72262,
            24.20267
          ],
          [
            120.72239,
            24.20124
          ],
          [
            120.72219,
            24.20011
          ],
          [
            120.72172,
            24.19767
          ],
          [
            120.7214,
            24.1964
          ],
          [
            120.72115,
            24.19587
          ],
          [
            120.7214352116516,
            24.1957035624147
          ],
          [
            120.72146763427757,
            24.195690270647052
          ],
          [
            120.72150251457545,
            24.195686414275194
          ],
          [
            120.72153708777557,
            24.195692147429014
          ],
          [
            120.72156829851538,
            24.195706963448345
          ],
          [
            120.7215933885855,
            24.195729552986343
          ],
          [
            120.72161023077481,
            24.195758149215592
          ],
          [
            120.72171,
            24.19601
          ],
          [
            120.72139926090263,
            24.196140814220875
          ],
          [
            120.72137075849321,
            24.196149098570235
          ],
          [
            120.7213412200595,
            24.19615056906277
          ],
          [
            120.72131220945288,
            24.196145255035287
          ],
          [
            120.72128554436556,
            24.19613348944416
          ],
          [
            120.7212628955286,
            24.19611600947574
          ],
          [
            120.72124551738908,
            24.1960936298237
          ],
          [
            120.71966,
            24.1934
          ],
          [
            120.71938,
            24.19291
          ],
          [
            120.71905,
            24.19243
          ],
          [
            120.71875,
            24.19208
          ],
          [
            120.71844,
            24.19172
          ],
          [
            120.71795,
            24.19121
          ],
          [
            120.7178,
            24.19097
          ],
          [
            120.718,
            24.18979
          ],
          [
            120.71808,
            24.18943
          ],
          [
            120.7182,
            24.18874
          ],
          [
            120.71949,
            24.18209
          ],
          [
            120.71963,
            24.18132
          ],
          [
            120.71969,
            24.18071
          ],
          [
            120.71963,
            24.18003
          ],
          [
            120.71918884019784,
            24.175959251844723
          ],
          [
            120.71919038910713,
            24.175928092947768
          ],
          [
            120.7192015552324,
            24.175898558288623
          ],
          [
            120.71922142042423,
            24.175873172336992
          ],
          [
            120.7192483368923,
            24.175854040822568
          ],
          [
            120.71928007195277,
            24.175842750678083
          ],
          [
            120.71931404638542,
            24.17584024155716
          ],
          [
            120.72474,
            24.17616
          ],
          [
            120.7253,
            24.1762
          ],
          [
            120.72607000000001,
            24.17633
          ],
          [
            120.73009,
            24.17712
          ],
          [
            120.73039,
            24.17717
          ],
          [
            120.73099,
            24.17715
          ],
          [
            120.73296,
            24.17691
          ],
          [
            120.73351,
            24.17689
          ],
          [
            120.73378,
            24.17694
          ],
          [
            120.7344,
            24.17704
          ],
          [
            120.73502,
            24.17731
          ],
          [
            120.73658,
            24.17824
          ],
          [
            120.7369,
            24.17839
          ],
          [
            120.73734,
            24.17844
          ],
          [
            120.73825,
            24.17835
          ],
          [
            120.7387,
            24.17844
          ],
          [
            120.73967362799051,
            24.17895191557314
          ],
          [
            120.73968538545711,
            24.178956997067147
          ],
          [
            120.73969766394285,
            24.178960176890396
          ],
          [
            120.7397103419777,
            24.17896147888981
          ],
          [
            120.73972308165656,
            24.17896086836345
          ],
          [
            120.73973554343131,
            24.17895836158356
          ],
          [
            120.73974759143874,
            24.17895393555954
          ],
          [
            120.74001445509072,
            24.178832631705703
          ],
          [
            120.74005467978074,
            24.17882176692901
          ],
          [
            120.74009618013066,
            24.178824415681785
          ],
          [
            120.74013410944204,
            24.178840113464144
          ],
          [
            120.74016376659885,
            24.178866914627903
          ],
          [
            120.74018147577019,
            24.178901497325754
          ],
          [
            120.74018504860685,
            24.1789395065713
          ],
          [
            120.74016,
            24.17919
          ],
          [
            120.74029,
            24.1793
          ],
          [
            120.74058,
            24.17954
          ],
          [
            120.741,
            24.17991
          ],
          [
            120.74149,
            24.1803
          ],
          [
            120.7416,
            24.1804
          ],
          [
            120.74228,
            24.18122
          ],
          [
            120.74245,
            24.18147
          ],
          [
            120.74253,
            24.18165
          ],
          [
            120.74265,
            24.18175
          ],
          [
            120.74282,
            24.18185
          ],
          [
            120.74307,
            24.18202
          ],
          [
            120.74347,
            24.18246
          ],
          [
            120.74357,
            24.18268
          ],
          [
            120.74366,
            24.18289
          ],
          [
            120.74373,
            24.18313
          ],
          [
            120.744,
            24.18417
          ],
          [
            120.74405,
            24.18444
          ],
          [
            120.74408,
            24.18484
          ],
          [
            120.74406,
            24.18538
          ],
          [
            120.74407,
            24.18574
          ],
          [
            120.74408,
            24.18586
          ],
          [
            120.7441,
            24.18621
          ],
          [
            120.74412,
            24.18638
          ],
          [
            120.74418,
            24.18651
          ],
          [
            120.74525,
            24.18831
          ],
          [
            120.74534,
            24.18842
          ],
          [
            120.74543,
            24.18852
          ],
          [
            120.74584,
            24.18875
          ],
          [
            120.746,
            24.18889
          ],
          [
            120.74611,
            24.18908
          ],
          [
            120.74619,
            24.18927
          ],
          [
            120.74621,
            24.18948
          ],
          [
            120.74619,
            24.18988
          ],
          [
            120.74618,
            24.19037
          ],
          [
            120.74617,
            24.19056
          ],
          [
            120.74619,
            24.19072
          ],
          [
            120.74624,
            24.19085
          ],
          [
            120.74635,
            24.19102
          ],
          [
            120.74653,
            24.19126
          ],
          [
            120.74661,
            24.19145
          ],
          [
            120.74742,
            24.19345
          ],
          [
            120.74745,
            24.19366
          ],
          [
            120.74753,
            24.19468
          ],
          [
            120.74759,
            24.19558
          ],
          [
            120.74762,
            24.19672
          ],
          [
            120.74765,
            24.19692
          ],
          [
            120.74775,
            24.19715
          ],
          [
            120.74788,
            24.19733
          ],
          [
            120.74807,
            24.1975
          ],
          [
            120.74831,
            24.19768
          ],
          [
            120.74868,
            24.19791
          ],
          [
            120.7491,
            24.1981
          ],
          [
            120.74944,
            24.19822
          ],
          [
            120.74978,
            24.19832
          ],
          [
            120.75021,
            24.19839
          ],
          [
            120.7508,
            24.19839
          ],
          [
            120.75133,
            24.19855
          ],
          [
            120.75178,
            24.1988
          ],
          [
            120.75211,
            24.19897
          ],
          [
            120.75243,
            24.19906
          ],
          [
            120.75408,
            24.19937
          ],
          [
            120.75469,
            24.1996
          ],
          [
            120.75512,
            24.19987
          ],
          [
            120.75527,
            24.19993
          ],
          [
            120.75612,
            24.19988
          ],
          [
            120.75641,
            24.1999
          ],
          [
            120.75672,
            24.19997
          ],
          [
            120.75711,
            24.20013
          ],
          [
            120.75733,
            24.20025
          ],
          [
            120.75746,
            24.20028
          ],
          [
            120.75756,
            24.2003
          ],
          [
            120.75782,
            24.20031
          ],
          [
            120.75797,
            24.2003
          ],
          [
            120.75808,
            24.20028
          ],
          [
            120.75895,
            24.20009
          ],
          [
            120.7594,
            24.2
          ],
          [
            120.75995,
            24.19994
          ],
          [
            120.7604,
            24.19989
          ],
          [
            120.76132,
            24.19969
          ],
          [
            120.76151,
            24.19965
          ],
          [
            120.76573,
            24.19875
          ],
          [
            120.76632,
            24.19855
          ],
          [
            120.76673,
            24.19843
          ],
          [
            120.76814,
            24.19806
          ],
          [
            120.76984,
            24.19762
          ],
          [
            120.77103,
            24.1973
          ],
          [
            120.77183,
            24.1971
          ],
          [
            120.77214,
            24.1971
          ],
          [
            120.77242,
            24.19719
          ],
          [
            120.77457,
            24.19838
          ],
          [
            120.77496,
            24.19854
          ],
          [
            120.77559,
            24.19861
          ],
          [
            120.77679,
            24.19869
          ],
          [
            120.77813358058181,
            24.198894644975695
          ],
          [
            120.77815633533315,
            24.1988960868757
          ],
          [
            120.77817883649608,
            24.198893513818977
          ],
          [
            120.7782003885429,
            24.19888704082458
          ],
          [
            120.77822019810746,
            24.19887690617403
          ],
          [
            120.77823753596734,
            24.198863482940403
          ],
          [
            120.77825197301925,
            24.19884697257081
          ],
          [
            120.7790975363587,
            24.197667379587653
          ],
          [
            120.7791129025415,
            24.19763555950759
          ],
          [
            120.7791164889885,
            24.19760055863546
          ],
          [
            120.77910771071579,
            24.197566340301645
          ],
          [
            120.77908748832942,
            24.197536493094265
          ],
          [
            120.77905794261694,
            24.197514147187196
          ],
          [
            120.77902233186175,
            24.197501676038527
          ],
          [
            120.77781027059075,
            24.197275116312426
          ],
          [
            120.77777089913623,
            24.197260554729496
          ],
          [
            120.77773956926893,
            24.19723403534495
          ],
          [
            120.77772051215024,
            24.19719903445771
          ],
          [
            120.77771620435375,
            24.197160100618593
          ],
          [
            120.77772720570046,
            24.197122293486366
          ],
          [
            120.7777517877076,
            24.197090791153098
          ],
          [
            120.77815,
            24.19674
          ],
          [
            120.77848,
            24.19651
          ],
          [
            120.77869,
            24.19631
          ],
          [
            120.77878,
            24.19622
          ],
          [
            120.77886,
            24.19616
          ],
          [
            120.77953,
            24.19607
          ],
          [
            120.77966,
            24.19603
          ],
          [
            120.7802,
            24.19564
          ],
          [
            120.78041,
            24.19529
          ],
          [
            120.78088,
            24.1947
          ],
          [
            120.78115,
            24.19429
          ],
          [
            120.78164825876615,
            24.193706763402833
          ],
          [
            120.78165929857113,
            24.193691141460622
          ],
          [
            120.78166739443601,
            24.19367366400674
          ],
          [
            120.78167205022532,
            24.193655157862217
          ],
          [
            120.7816731234116,
            24.19363618955463
          ],
          [
            120.78167058114148,
            24.193617339759733
          ],
          [
            120.78166460982199,
            24.193599431676287
          ],
          [
            120.78144761957205,
            24.1931094220924
          ],
          [
            120.7814420321546,
            24.19309306230278
          ],
          [
            120.78143934536223,
            24.193075831010546
          ],
          [
            120.78143973765991,
            24.19305842758831
          ],
          [
            120.78144319865153,
            24.193041313234826
          ],
          [
            120.78144963661924,
            24.193024941488392
          ],
          [
            120.78145867066269,
            24.193010035000416
          ],
          [
            120.78189,
            24.19242
          ],
          [
            120.78199,
            24.19232
          ],
          [
            120.78215,
            24.19224
          ],
          [
            120.78248,
            24.19214
          ],
          [
            120.78281,
            24.19206
          ],
          [
            120.78307,
            24.19201
          ],
          [
            120.78325,
            24.19193
          ],
          [
            120.78337,
            24.19178
          ],
          [
            120.78419993732211,
            24.190573406744353
          ],
          [
            120.78421238948081,
            24.19054507632587
          ],
          [
            120.7842133850492,
            24.190514265503236
          ],
          [
            120.78420263932098,
            24.1904850644614
          ],
          [
            120.78418149729804,
            24.19046112818345
          ],
          [
            120.78415260524673,
            24.190445452682066
          ],
          [
            120.78411957947563,
            24.190440000000002
          ],
          [
            120.78402,
            24.19044
          ],
          [
            120.78376,
            24.19062
          ]
        ]
      }
    },
    {
      "type": "Feature",
      "properties": {
        "feature_type": "route",
        "ref": "66左環",
        "name": "66左環",
        "name_en": "66左環",
        "color": "#6b21a8",
        "direction": 1
      },
      "geometry": {
        "type": "LineString",
        "coordinates": [
          [
            120.78376,
            24.19062
          ],
          [
            120.7835069853207,
            24.190898397403995
          ],
          [
            120.78348420652934,
            24.190915984196923
          ],
          [
            120.78345640554494,
            24.190924978303347
          ],
          [
            120.78342693676385,
            24.190924437387906
          ],
          [
            120.78339954908863,
            24.19091443026373
          ],
          [
            120.7833777266717,
            24.19089622999784
          ],
          [
            120.78336419860868,
            24.190872010011148
          ],
          [
            120.7832946201576,
            24.19066347174587
          ],
          [
            120.78328963901345,
            24.19063595579297
          ],
          [
            120.78329250597898,
            24.190607975328444
          ],
          [
            120.7833030959648,
            24.190581608598404
          ],
          [
            120.78332069920955,
            24.19055862275214
          ],
          [
            120.78334413590973,
            24.190540558345567
          ],
          [
            120.7833716055589,
            24.190528693601827
          ],
          [
            120.78400510909822,
            24.19034330734786
          ],
          [
            120.78402292285368,
            24.1903365422232
          ],
          [
            120.78403949595375,
            24.190327074919782
          ],
          [
            120.78405414686615,
            24.190315231024318
          ],
          [
            120.78406647600775,
            24.190301333562484
          ],
          [
            120.78407614711841,
            24.19028576156812
          ],
          [
            120.78408295330779,
            24.190268750905563
          ],
          [
            120.7843,
            24.18955
          ],
          [
            120.78445,
            24.18882
          ],
          [
            120.78448,
            24.18867
          ],
          [
            120.78485,
            24.18814
          ],
          [
            120.78488,
            24.18804
          ],
          [
            120.78492114455713,
            24.187517988223135
          ],
          [
            120.78492434121151,
            24.18749954050269
          ],
          [
            120.78493090913692,
            24.187481919410306
          ],
          [
            120.78494065927316,
            24.187465589048635
          ],
          [
            120.78495330460797,
            24.18745103013035
          ],
          [
            120.78496847290386,
            24.18743867122259
          ],
          [
            120.78498541872189,
            24.18742901537069
          ],
          [
            120.78605184254533,
            24.186934159476078
          ],
          [
            120.78607446611326,
            24.18692037017117
          ],
          [
            120.78609326637068,
            24.186901954146926
          ],
          [
            120.7861069275055,
            24.186880046722386
          ],
          [
            120.78611471059699,
            24.186855832854004
          ],
          [
            120.78611619466346,
            24.186830622252096
          ],
          [
            120.78611136654712,
            24.18680598149761
          ],
          [
            120.78593986477252,
            24.186289413404907
          ],
          [
            120.78593589056871,
            24.18626984174681
          ],
          [
            120.78593667907535,
            24.18624976877898
          ],
          [
            120.78594224810654,
            24.186230345208585
          ],
          [
            120.78595232561686,
            24.186212519870768
          ],
          [
            120.78596641932322,
            24.186197163527506
          ],
          [
            120.78598357769069,
            24.186185171058142
          ],
          [
            120.78684432667741,
            24.185713322710658
          ],
          [
            120.78686905408043,
            24.185695100185413
          ],
          [
            120.78688779093615,
            24.185671197530617
          ],
          [
            120.78689884352389,
            24.18564354753355
          ],
          [
            120.78690139813558,
            24.185614185828314
          ],
          [
            120.78689526669694,
            24.185585274067535
          ],
          [
            120.78688111881841,
            24.185559234318752
          ],
          [
            120.7864295684907,
            24.18495446157714
          ],
          [
            120.78641108525274,
            24.184934971133806
          ],
          [
            120.7863884499795,
            24.18492021740009
          ],
          [
            120.78636269317116,
            24.18491072063596
          ],
          [
            120.78633523561798,
            24.184907004699404
          ],
          [
            120.78630759192629,
            24.18490927456794
          ],
          [
            120.78628099605722,
            24.18491753208231
          ],
          [
            120.78552803396617,
            24.18524498658912
          ],
          [
            120.78551373672865,
            24.185249944644248
          ],
          [
            120.78549898783942,
            24.18525262046039
          ],
          [
            120.78548396101904,
            24.18525303982733
          ],
          [
            120.7854690625201,
            24.185251191407428
          ],
          [
            120.78545469512598,
            24.185247125173017
          ],
          [
            120.78544100328686,
            24.185240814486427
          ],
          [
            120.78526,
            24.18514
          ],
          [
            120.78456121781898,
            24.18497479503212
          ],
          [
            120.78454555825324,
            24.184968608316417
          ],
          [
            120.78453257902072,
            24.18495832311126
          ],
          [
            120.78452358226419,
            24.184944919882124
          ],
          [
            120.78451940639287,
            24.18492964767819
          ],
          [
            120.78452044055695,
            24.184913929718732
          ],
          [
            120.7845265041364,
            24.18489936636367
          ],
          [
            120.78457,
            24.18483
          ],
          [
            120.78468,
            24.18472
          ],
          [
            120.78482,
            24.18462
          ],
          [
            120.78498,
            24.18454
          ],
          [
            120.78576003721807,
            24.184293331640266
          ],
          [
            120.78579188965325,
            24.184277827892455
          ],
          [
            120.7858173220664,
            24.184254032179286
          ],
          [
            120.78583369185468,
            24.184224267135125
          ],
          [
            120.78583945423257,
            24.18419134163
          ],
          [
            120.78583406541559,
            24.18415836278059
          ],
          [
            120.78581825746366,
            24.184128736489345
          ],
          [
            120.78533,
            24.18349
          ],
          [
            120.78491664021985,
            24.182926681736937
          ],
          [
            120.78490194019996,
            24.182910242134476
          ],
          [
            120.7848843517304,
            24.182896948766743
          ],
          [
            120.78486431395119,
            24.18288700217512
          ],
          [
            120.78484257125375,
            24.182880771869492
          ],
          [
            120.78481993136616,
            24.18287848930195
          ],
          [
            120.78479709071541,
            24.182880263578113
          ],
          [
            120.78404350133458,
            24.183006409332958
          ],
          [
            120.78401942005915,
            24.183007977360244
          ],
          [
            120.78399568390947,
            24.183004675922653
          ],
          [
            120.78397330755926,
            24.182996687199836
          ],
          [
            120.7839533735439,
            24.1829843976746
          ],
          [
            120.78393684624201,
            24.182968401896307
          ],
          [
            120.78392440513602,
            24.182949231709024
          ],
          [
            120.78383,
            24.18276
          ],
          [
            120.78377,
            24.18269
          ],
          [
            120.78323278434011,
            24.182330524888794
          ],
          [
            120.78321502913963,
            24.18231578850367
          ],
          [
            120.78320066918351,
            24.182297754447873
          ],
          [
            120.7831906324058,
            24.182277401487088
          ],
          [
            120.78318534401322,
            24.182255591871723
          ],
          [
            120.7831850280478,
            24.182233249563172
          ],
          [
            120.78318963050359,
            24.18221152441639
          ],
          [
            120.78335307823777,
            24.181719917239565
          ],
          [
            120.78335813863224,
            24.181689945376537
          ],
          [
            120.7833539147448,
            24.181659652382667
          ],
          [
            120.78334067364662,
            24.181631638999253
          ],
          [
            120.7833194633183,
            24.181608122374875
          ],
          [
            120.78329196247351,
            24.181590963757422
          ],
          [
            120.78326048708205,
            24.18158154365133
          ],
          [
            120.78223984801248,
            24.18141758296366
          ],
          [
            120.78221090242863,
            24.181408088310956
          ],
          [
            120.7821869286622,
            24.181390260436597
          ],
          [
            120.78217074996842,
            24.181366135853846
          ],
          [
            120.78216419863594,
            24.18133844674861
          ],
          [
            120.78216801662407,
            24.181310329000343
          ],
          [
            120.78218159089937,
            24.18128519475885
          ],
          [
            120.78225,
            24.1812
          ],
          [
            120.78235,
            24.18117
          ],
          [
            120.78274,
            24.18109
          ],
          [
            120.78311,
            24.18105
          ],
          [
            120.78388049588206,
            24.180912665417722
          ],
          [
            120.78390210819795,
            24.180906770092502
          ],
          [
            120.7839222392338,
            24.18089713314324
          ],
          [
            120.78393999298538,
            24.180884137611233
          ],
          [
            120.78395471426633,
            24.180868263085
          ],
          [
            120.78396585980087,
            24.180850095399798
          ],
          [
            120.78397305828167,
            24.18083014393019
          ],
          [
            120.78417270264478,
            24.18002818941325
          ],
          [
            120.78418695135194,
            24.179995844066767
          ],
          [
            120.78421149646591,
            24.179969429370562
          ],
          [
            120.78424386562465,
            24.179951487830593
          ],
          [
            120.78428074572837,
            24.179943855827965
          ],
          [
            120.7843183619659,
            24.179947314525588
          ],
          [
            120.78435318291471,
            24.179961703296435
          ],
          [
            120.7853927052912,
            24.18059003062866
          ],
          [
            120.78542836536772,
            24.180604647423745
          ],
          [
            120.78546688270939,
            24.180607815844198
          ],
          [
            120.78550445085901,
            24.180599390132564
          ],
          [
            120.78553704615751,
            24.180580272707285
          ],
          [
            120.78556117755281,
            24.180552511100707
          ],
          [
            120.78557428694413,
            24.180518946331958
          ],
          [
            120.78562169722832,
            24.180281768405223
          ],
          [
            120.7856221602526,
            24.180277194361476
          ],
          [
            120.78562173642891,
            24.180272584558285
          ],
          [
            120.78562043269277,
            24.180268116078697
          ],
          [
            120.78561829006813,
            24.180263929529797
          ],
          [
            120.78561537597568,
            24.180260156647314
          ],
          [
            120.78561185772271,
            24.18025697335888
          ],
          [
            120.78482,
            24.17966
          ],
          [
            120.78466,
            24.17951
          ],
          [
            120.78436,
            24.17926
          ],
          [
            120.78377362679734,
            24.178783513023102
          ],
          [
            120.78374802444345,
            24.17876753001582
          ],
          [
            120.78371918637839,
            24.17875828086507
          ],
          [
            120.7836887311999,
            24.17875613183004
          ],
          [
            120.78365869393372,
            24.17876122651001
          ],
          [
            120.7836310816805,
            24.17877322447667
          ],
          [
            120.78360746117684,
            24.17879160509425
          ],
          [
            120.78303213211856,
            24.179369318244632
          ],
          [
            120.78300070501265,
            24.17939193875475
          ],
          [
            120.78296328072435,
            24.179403593935255
          ],
          [
            120.78292376624263,
            24.179403261352494
          ],
          [
            120.78288658067211,
            24.17939097820089
          ],
          [
            120.7828558826634,
            24.179368118167474
          ],
          [
            120.7828349967765,
            24.179336991883595
          ],
          [
            120.78259679204889,
            24.178799434375186
          ],
          [
            120.78258881916003,
            24.178769770952893
          ],
          [
            120.78259021181525,
            24.17873898038361
          ],
          [
            120.78260096618352,
            24.178709789991096
          ],
          [
            120.78262021561038,
            24.17868455212045
          ],
          [
            120.78264640885615,
            24.17866530059774
          ],
          [
            120.78267724322323,
            24.17865363151114
          ],
          [
            120.78360537452816,
            24.178438537110583
          ],
          [
            120.7836400997562,
            24.178424672815954
          ],
          [
            120.78366839321022,
            24.178401288250917
          ],
          [
            120.7836871280607,
            24.178370853871535
          ],
          [
            120.78369436084441,
            24.17833652679388
          ],
          [
            120.78368934126712,
            24.178301867943812
          ],
          [
            120.78367281638579,
            24.178270766440885
          ],
          [
            120.78320191831153,
            24.17766252890625
          ],
          [
            120.78319651662456,
            24.177653766963335
          ],
          [
            120.78319310103058,
            24.17764402525763
          ],
          [
            120.78319191964432,
            24.177633848340065
          ],
          [
            120.78319302212013,
            24.17762366395178
          ],
          [
            120.78319636212032,
            24.17761390014791
          ],
          [
            120.78320169627851,
            24.177605102402342
          ],
          [
            120.78398340574644,
            24.17658321220854
          ],
          [
            120.78399652083945,
            24.17656070012684
          ],
          [
            120.78400360269882,
            24.176535641022014
          ],
          [
            120.78400402453956,
            24.176509753954488
          ],
          [
            120.78399776236847,
            24.17648451131246
          ],
          [
            120.78398517236135,
            24.176461348830895
          ],
          [
            120.78396727363214,
            24.176441843668172
          ],
          [
            120.78366194872329,
            24.176181703282115
          ],
          [
            120.78364317892252,
            24.176168568032324
          ],
          [
            120.78362233149355,
            24.176159252368777
          ],
          [
            120.78359990553226,
            24.176153855593952
          ],
          [
            120.7835767642605,
            24.176152585440928
          ],
          [
            120.78355379843394,
            24.17615549080054
          ],
          [
            120.78353160484816,
            24.17616258182924
          ],
          [
            120.78297,
            24.1764
          ],
          [
            120.78281,
            24.17642
          ],
          [
            120.78263,
            24.17642
          ],
          [
            120.78248,
            24.17639
          ],
          [
            120.7823,
            24.17632
          ],
          [
            120.78217,
            24.17627
          ],
          [
            120.78202,
            24.17626
          ],
          [
            120.78185,
            24.1763
          ],
          [
            120.78171,
            24.17633
          ],
          [
            120.78138,
            24.17646
          ],
          [
            120.78095594853347,
            24.176604512074675
          ],
          [
            120.78093881995188,
            24.176611880911913
          ],
          [
            120.7809229790449,
            24.176621823058134
          ],
          [
            120.78090909810632,
            24.17663398922771
          ],
          [
            120.78089754303775,
            24.176648058720332
          ],
          [
            120.78088861843091,
            24.176663660664108
          ],
          [
            120.78088251428639,
            24.17668055453563
          ],
          [
            120.78073621928483,
            24.17722969687684
          ],
          [
            120.78072942078705,
            24.17724806796884
          ],
          [
            120.78071927821843,
            24.17726488828547
          ],
          [
            120.78070606452773,
            24.17727980068319
          ],
          [
            120.78069019429718,
            24.177292337282502
          ],
          [
            120.78067216545845,
            24.177302104745085
          ],
          [
            120.78065274803978,
            24.17730874511441
          ],
          [
            120.78001,
            24.17747
          ],
          [
            120.7799,
            24.17752
          ],
          [
            120.77951,
            24.17785
          ],
          [
            120.77927,
            24.17791
          ],
          [
            120.77907,
            24.17796
          ],
          [
            120.77893,
            24.17813
          ],
          [
            120.77880999999999,
            24.17823
          ],
          [
            120.77866,
            24.17833
          ],
          [
            120.77811,
            24.17857
          ],
          [
            120.77797,
            24.1786
          ],
          [
            120.77782,
            24.1786
          ],
          [
            120.77738371341952,
            24.178417462107433
          ],
          [
            120.77736001725907,
            24.17841013899906
          ],
          [
            120.77733548879665,
            24.17840756230584
          ],
          [
            120.77731091292142,
            24.178409724318623
          ],
          [
            120.77728736244958,
            24.17841653065858
          ],
          [
            120.77726586543518,
            24.178427684207026
          ],
          [
            120.77724708103504,
            24.178442978605712
          ],
          [
            120.7766795037279,
            24.179010740544932
          ],
          [
            120.77666503234063,
            24.17902307847884
          ],
          [
            120.77664889032867,
            24.17903284878189
          ],
          [
            120.77663123038924,
            24.17904007047502
          ],
          [
            120.77661252513136,
            24.179044550293817
          ],
          [
            120.77659327513858,
            24.17904616835096
          ],
          [
            120.7765738703924,
            24.17904486338658
          ],
          [
            120.77598,
            24.17896
          ],
          [
            120.77528,
            24.17891
          ],
          [
            120.7745,
            24.17895
          ],
          [
            120.77428,
            24.17897
          ],
          [
            120.77405,
            24.17906
          ],
          [
            120.77373,
            24.17929
          ],
          [
            120.7732507238762,
            24.179793824029925
          ],
          [
            120.77323188308947,
            24.17980986999021
          ],
          [
            120.77321008800016,
            24.179821640722636
          ],
          [
            120.77318606621893,
            24.179828882531204
          ],
          [
            120.77316091739937,
            24.179831263905072
          ],
          [
            120.7731357927879,
            24.179828675831253
          ],
          [
            120.77311155470649,
            24.179821114098672
          ],
          [
            120.77252,
            24.17957
          ],
          [
            120.77229,
            24.17938
          ],
          [
            120.77191,
            24.17919
          ],
          [
            120.77163,
            24.17901
          ],
          [
            120.77139,
            24.17888
          ],
          [
            120.77121,
            24.17886
          ],
          [
            120.77059459905894,
            24.17905084815377
          ],
          [
            120.77057301412185,
            24.17905557297946
          ],
          [
            120.77055110063604,
            24.179056518105284
          ],
          [
            120.77052937463398,
            24.179053725470123
          ],
          [
            120.77050858495768,
            24.179047291329255
          ],
          [
            120.77048944817624,
            24.179037437451733
          ],
          [
            120.7704723319054,
            24.17902423202189
          ],
          [
            120.77023,
            24.1788
          ],
          [
            120.77005,
            24.17868
          ],
          [
            120.76984,
            24.17867
          ],
          [
            120.76919,
            24.17871
          ],
          [
            120.76901,
            24.17869
          ],
          [
            120.76889,
            24.17862
          ],
          [
            120.76876,
            24.17855
          ],
          [
            120.76852,
            24.17848
          ],
          [
            120.7682,
            24.17845
          ],
          [
            120.76751,
            24.17865
          ],
          [
            120.76731,
            24.17867
          ],
          [
            120.76708,
            24.17869
          ],
          [
            120.76679,
            24.17866
          ],
          [
            120.76631,
            24.17867
          ],
          [
            120.76576,
            24.17869
          ],
          [
            120.76541,
            24.17867
          ],
          [
            120.76521,
            24.1787
          ],
          [
            120.76449681257604,
            24.17910485095838
          ],
          [
            120.76447653796242,
            24.179114101918394
          ],
          [
            120.76445508174903,
            24.179119571694567
          ],
          [
            120.76443288954643,
            24.179121246329025
          ],
          [
            120.76441074940186,
            24.179119066355323
          ],
          [
            120.7643894475141,
            24.179113109184545
          ],
          [
            120.76436942169397,
            24.179103394549838
          ],
          [
            120.76408,
            24.17893
          ],
          [
            120.76395,
            24.17887
          ],
          [
            120.76336,
            24.17893
          ],
          [
            120.7632,
            24.17891
          ],
          [
            120.76303,
            24.17887
          ],
          [
            120.76261,
            24.1787
          ],
          [
            120.76172265879514,
            24.178439382754334
          ],
          [
            120.76170216285746,
            24.178435120886135
          ],
          [
            120.76168141086158,
            24.17843425222435
          ],
          [
            120.76166081397231,
            24.17843673571863
          ],
          [
            120.76164100877422,
            24.178442494612046
          ],
          [
            120.7616226073832,
            24.17845135091544
          ],
          [
            120.76160587497084,
            24.17846328993092
          ],
          [
            120.76128,
            24.17874
          ],
          [
            120.76115,
            24.17877
          ],
          [
            120.7607,
            24.17873
          ],
          [
            120.76046,
            24.17874
          ],
          [
            120.76011,
            24.17879
          ],
          [
            120.75887,
            24.17909
          ],
          [
            120.75876,
            24.17917
          ],
          [
            120.7585,
            24.17956
          ],
          [
            120.75814,
            24.17976
          ],
          [
            120.75742864240951,
            24.18009312529172
          ],
          [
            120.75740147458734,
            24.1801022889313
          ],
          [
            120.75737303404125,
            24.180105115396984
          ],
          [
            120.75734468757425,
            24.180101580144665
          ],
          [
            120.75731809650004,
            24.180091890366416
          ],
          [
            120.75729481925323,
            24.180076613955265
          ],
          [
            120.75727600881405,
            24.180056353305734
          ],
          [
            120.75696,
            24.17962
          ],
          [
            120.75704,
            24.17949
          ],
          [
            120.75711,
            24.17931
          ],
          [
            120.75716,
            24.17915
          ],
          [
            120.75726,
            24.17891
          ],
          [
            120.75743309096923,
            24.178179700990725
          ],
          [
            120.75743569944838,
            24.178160150324043
          ],
          [
            120.75743439382153,
            24.178140332165487
          ],
          [
            120.7574291812739,
            24.17812106392143
          ],
          [
            120.7574202361632,
            24.178102990107135
          ],
          [
            120.75740785769987,
            24.178086715284653
          ],
          [
            120.7573927748229,
            24.178073021556582
          ],
          [
            120.75671680159948,
            24.177564424102833
          ],
          [
            120.75670035086844,
            24.17754922018665
          ],
          [
            120.75668728335197,
            24.17753101132747
          ],
          [
            120.75667844142544,
            24.177510770171825
          ],
          [
            120.75667418199059,
            24.17748931374792
          ],
          [
            120.75667467697826,
            24.177467508137926
          ],
          [
            120.75667982756815,
            24.177446450707233
          ],
          [
            120.75705,
            24.17643
          ],
          [
            120.7572793535803,
            24.175792058242102
          ],
          [
            120.75728404194402,
            24.17577360930588
          ],
          [
            120.75728515954492,
            24.17575446604419
          ],
          [
            120.75728259444917,
            24.175735440665964
          ],
          [
            120.75727642665115,
            24.175717126491506
          ],
          [
            120.75726684849813,
            24.17570009466171
          ],
          [
            120.75725443780556,
            24.175685156917027
          ],
          [
            120.75653988172394,
            24.174969071358248
          ],
          [
            120.75650977010929,
            24.174947181817707
          ],
          [
            120.75647401571393,
            24.174935387188754
          ],
          [
            120.75643603543544,
            24.174934625929435
          ],
          [
            120.7563997551717,
            24.17494497672865
          ],
          [
            120.75636892509563,
            24.17496536965793
          ],
          [
            120.75634658493962,
            24.174993969227224
          ],
          [
            120.75618,
            24.1753
          ],
          [
            120.7563646335241,
            24.175762522161097
          ],
          [
            120.7563702829141,
            24.175782560855207
          ],
          [
            120.7563716803774,
            24.175803466199085
          ],
          [
            120.75636868212794,
            24.175824229003616
          ],
          [
            120.75636139977334,
            24.175844076388852
          ],
          [
            120.75635010439383,
            24.17586226955064
          ],
          [
            120.75633551603863,
            24.175877867349705
          ],
          [
            120.75582,
            24.17633
          ],
          [
            120.7557,
            24.17656
          ],
          [
            120.75557,
            24.17687
          ],
          [
            120.7550493685593,
            24.177518163971442
          ],
          [
            120.75503661278393,
            24.177531671593133
          ],
          [
            120.75502194124144,
            24.17754286325504
          ],
          [
            120.75500550120898,
            24.17755174095565
          ],
          [
            120.75498772086887,
            24.17755807347434
          ],
          [
            120.75496906331185,
            24.177561695880033
          ],
          [
            120.7549499861027,
            24.17756251293627
          ],
          [
            120.75455,
            24.17755
          ],
          [
            120.75423,
            24.17754
          ],
          [
            120.75394,
            24.17759
          ],
          [
            120.75305,
            24.17786
          ],
          [
            120.75232,
            24.17884
          ],
          [
            120.75204,
            24.17906
          ],
          [
            120.75149,
            24.17924
          ],
          [
            120.75106,
            24.17931
          ],
          [
            120.75044,
            24.17925
          ],
          [
            120.74997,
            24.179
          ],
          [
            120.74968,
            24.17882
          ],
          [
            120.74947,
            24.17873
          ],
          [
            120.74924,
            24.17869
          ],
          [
            120.74802,
            24.17864
          ],
          [
            120.74783,
            24.1786
          ],
          [
            120.74712138204166,
            24.178208467162754
          ],
          [
            120.74710152184859,
            24.17819962357099
          ],
          [
            120.74708058022732,
            24.178194385162854
          ],
          [
            120.74705894897822,
            24.178192754030185
          ],
          [
            120.7470373578889,
            24.178194785203583
          ],
          [
            120.74701653539206,
            24.178200410156023
          ],
          [
            120.74699686683603,
            24.178209623250694
          ],
          [
            120.74621889111674,
            24.178660258138663
          ],
          [
            120.74619509601735,
            24.178670919443405
          ],
          [
            120.74616968741535,
            24.178676405384294
          ],
          [
            120.7461435877455,
            24.178676632820743
          ],
          [
            120.74611807044643,
            24.178671590655828
          ],
          [
            120.74609438054212,
            24.178661524903674
          ],
          [
            120.74607337492438,
            24.178646662063898
          ],
          [
            120.74534,
            24.178
          ],
          [
            120.74503,
            24.17785
          ],
          [
            120.74455,
            24.17773
          ],
          [
            120.74436,
            24.17757
          ],
          [
            120.74401,
            24.1771
          ],
          [
            120.74301695434444,
            24.176458720403353
          ],
          [
            120.74299530152595,
            24.17644756744439
          ],
          [
            120.74297197415254,
            24.176440887032545
          ],
          [
            120.7429476499552,
            24.17643875746613
          ],
          [
            120.74292336906781,
            24.176441269808137
          ],
          [
            120.74290016977231,
            24.1764483166276
          ],
          [
            120.7428787245925,
            24.176459811458592
          ],
          [
            120.74246,
            24.17674
          ],
          [
            120.74226,
            24.17734
          ],
          [
            120.7421,
            24.17772
          ],
          [
            120.74184,
            24.17791
          ],
          [
            120.74126,
            24.17816
          ],
          [
            120.74012032294688,
            24.17878614318792
          ],
          [
            120.74010860687662,
            24.178794445797816
          ],
          [
            120.74009914831738,
            24.178805136124826
          ],
          [
            120.74009262927784,
            24.17881754273574
          ],
          [
            120.74008940143676,
            24.17883099633842
          ],
          [
            120.74008963892456,
            24.178844771159284
          ],
          [
            120.74009327521543,
            24.178857994463993
          ],
          [
            120.74016696600387,
            24.17903470046872
          ],
          [
            120.74017326421283,
            24.17906201344447
          ],
          [
            120.74017025020471,
            24.17909000713322
          ],
          [
            120.74015812603527,
            24.17911583824629
          ],
          [
            120.74013803663041,
            24.17913706746511
          ],
          [
            120.7401118791,
            24.17915169004341
          ],
          [
            120.74008218205557,
            24.17915832058543
          ],
          [
            120.73988633311397,
            24.179173373235166
          ],
          [
            120.73987376686568,
            24.179173165021577
          ],
          [
            120.73986154355416,
            24.179170624092745
          ],
          [
            120.73985013502791,
            24.17916585881675
          ],
          [
            120.73984001532257,
            24.17915906719556
          ],
          [
            120.739831604922,
            24.17915053142781
          ],
          [
            120.73982518549278,
            24.179140469736158
          ],
          [
            120.73977,
            24.17903
          ],
          [
            120.73858,
            24.17841
          ],
          [
            120.73828,
            24.17834
          ],
          [
            120.73738,
            24.17845
          ],
          [
            120.73705,
            24.17841
          ],
          [
            120.73677,
            24.17832
          ],
          [
            120.7348,
            24.17722
          ],
          [
            120.73378,
            24.17691
          ],
          [
            120.73308,
            24.17689
          ],
          [
            120.73099,
            24.17715
          ],
          [
            120.73033,
            24.17718
          ],
          [
            120.72542,
            24.1762
          ],
          [
            120.71933506231211,
            24.175826607122954
          ],
          [
            120.71930110438636,
            24.175829028471284
          ],
          [
            120.71926935735048,
            24.17584022332212
          ],
          [
            120.7192423952094,
            24.175859261095827
          ],
          [
            120.71922245100193,
            24.175884565059818
          ],
          [
            120.71921117653261,
            24.175914039507653
          ],
          [
            120.71920949824727,
            24.1759451716343
          ],
          [
            120.7196,
            24.1797
          ],
          [
            120.71966,
            24.18014
          ],
          [
            120.71967,
            24.18115
          ],
          [
            120.71808,
            24.18943
          ],
          [
            120.71781,
            24.19091
          ],
          [
            120.71786,
            24.19114
          ],
          [
            120.71888,
            24.19221
          ],
          [
            120.71948,
            24.19306
          ],
          [
            120.7198,
            24.1936
          ],
          [
            120.72035,
            24.19454
          ],
          [
            120.72116,
            24.19582
          ],
          [
            120.72157,
            24.19563
          ],
          [
            120.72173,
            24.19601
          ],
          [
            120.72136,
            24.19618
          ],
          [
            120.72148,
            24.19646
          ],
          [
            120.722,
            24.19903
          ],
          [
            120.72263,
            24.2027
          ],
          [
            120.72266,
            24.20326
          ]
        ]
      }
    },
    {
      "type": "Feature",
      "properties": {
        "feature_type": "station",
        "ref": "TXG14343",
        "name": "潭子聯合辦公大樓",
        "name_en": "Tanzi Regional Government Office",
        "line": "66左環",
        "color": "#6b21a8",
        "direction": 0,
        "station_id": "4258"
      },
      "geometry": {
        "type": "Point",
        "coordinates": [
          120.7226,
          24.203778
        ]
      }
    },
    {
      "type": "Feature",
      "properties": {
        "feature_type": "station",
        "ref": "TXG14347",
        "name": "中興",
        "name_en": "Zhongxing",
        "line": "66左環",
        "color": "#6b21a8",
        "direction": 0,
        "station_id": "4254"
      },
      "geometry": {
        "type": "Point",
        "coordinates": [
          120.72189707853,
          24.199190025288
        ]
      }
    },
    {
      "type": "Feature",
      "properties": {
        "feature_type": "station",
        "ref": "TXG18348",
        "name": "慈濟醫院",
        "name_en": "Tzu Chi Hospital",
        "line": "66左環",
        "color": "#6b21a8",
        "direction": 0,
        "station_id": "1720"
      },
      "geometry": {
        "type": "Point",
        "coordinates": [
          120.721643,
          24.195722
        ]
      }
    },
    {
      "type": "Feature",
      "properties": {
        "feature_type": "station",
        "ref": "TXG18351",
        "name": "慈濟中醫院區",
        "name_en": "Tzu Chi Chinese Medicine Hospital",
        "line": "66左環",
        "color": "#6b21a8",
        "direction": 0,
        "station_id": "2219"
      },
      "geometry": {
        "type": "Point",
        "coordinates": [
          120.71932119089,
          24.193069630014
        ]
      }
    },
    {
      "type": "Feature",
      "properties": {
        "feature_type": "station",
        "ref": "TXG3802",
        "name": "聚興",
        "name_en": "Juxing",
        "line": "66左環",
        "color": "#6b21a8",
        "direction": 0,
        "station_id": "2218"
      },
      "geometry": {
        "type": "Point",
        "coordinates": [
          120.71823910973,
          24.191664676758
        ]
      }
    },
    {
      "type": "Feature",
      "properties": {
        "feature_type": "station",
        "ref": "TXG3806",
        "name": "名人球場",
        "name_en": "Min Ren Golf Course",
        "line": "66左環",
        "color": "#6b21a8",
        "direction": 0,
        "station_id": "331"
      },
      "geometry": {
        "type": "Point",
        "coordinates": [
          120.718189,
          24.18845
        ]
      }
    },
    {
      "type": "Feature",
      "properties": {
        "feature_type": "station",
        "ref": "TXG3807",
        "name": "仁愛園區",
        "name_en": "Renai Sr. Citizens Home",
        "line": "66左環",
        "color": "#6b21a8",
        "direction": 0,
        "station_id": "205"
      },
      "geometry": {
        "type": "Point",
        "coordinates": [
          120.718891,
          24.18474
        ]
      }
    },
    {
      "type": "Feature",
      "properties": {
        "feature_type": "station",
        "ref": "TXG3808",
        "name": "軍功松竹路口",
        "name_en": "Jungong-Songzhu Intersection",
        "line": "66左環",
        "color": "#6b21a8",
        "direction": 0,
        "station_id": "2216"
      },
      "geometry": {
        "type": "Point",
        "coordinates": [
          120.719177,
          24.183209
        ]
      }
    },
    {
      "type": "Feature",
      "properties": {
        "feature_type": "station",
        "ref": "TXG842",
        "name": "建功橋頭",
        "name_en": "Jiangong Qiaotou",
        "line": "66左環",
        "color": "#6b21a8",
        "direction": 0,
        "station_id": "5114"
      },
      "geometry": {
        "type": "Point",
        "coordinates": [
          120.7196,
          24.179896
        ]
      }
    },
    {
      "type": "Feature",
      "properties": {
        "feature_type": "station",
        "ref": "TXG833",
        "name": "軍功農會",
        "name_en": "Jungong Farmers' Association",
        "line": "66左環",
        "color": "#6b21a8",
        "direction": 0,
        "station_id": "854"
      },
      "geometry": {
        "type": "Point",
        "coordinates": [
          120.719351,
          24.177189
        ]
      }
    },
    {
      "type": "Feature",
      "properties": {
        "feature_type": "station",
        "ref": "TXG13593",
        "name": "軍功里",
        "name_en": "Jungong Village",
        "line": "66左環",
        "color": "#6b21a8",
        "direction": 0,
        "station_id": "2145"
      },
      "geometry": {
        "type": "Point",
        "coordinates": [
          120.71973599592,
          24.175790002537
        ]
      }
    },
    {
      "type": "Feature",
      "properties": {
        "feature_type": "station",
        "ref": "TXG31",
        "name": "和平里(東山路)",
        "name_en": "Heping Village(Dongshan Road)",
        "line": "66左環",
        "color": "#6b21a8",
        "direction": 0,
        "station_id": "306"
      },
      "geometry": {
        "type": "Point",
        "coordinates": [
          120.7221999871,
          24.175938027208
        ]
      }
    },
    {
      "type": "Feature",
      "properties": {
        "feature_type": "station",
        "ref": "TXG46",
        "name": "東山建和路口",
        "name_en": "Dongshan-Jianhe Intersection",
        "line": "66左環",
        "color": "#6b21a8",
        "direction": 0,
        "station_id": "34"
      },
      "geometry": {
        "type": "Point",
        "coordinates": [
          120.724407,
          24.176174
        ]
      }
    },
    {
      "type": "Feature",
      "properties": {
        "feature_type": "station",
        "ref": "TXG29",
        "name": "正覺寺",
        "name_en": "Zhengjue Temple",
        "line": "66左環",
        "color": "#6b21a8",
        "direction": 0,
        "station_id": "753"
      },
      "geometry": {
        "type": "Point",
        "coordinates": [
          120.72700698918,
          24.176428039304
        ]
      }
    },
    {
      "type": "Feature",
      "properties": {
        "feature_type": "station",
        "ref": "TXG22388",
        "name": "東山松竹路口",
        "name_en": "Dongshan-Songzhu Intersection",
        "line": "66左環",
        "color": "#6b21a8",
        "direction": 0,
        "station_id": "4825"
      },
      "geometry": {
        "type": "Point",
        "coordinates": [
          120.7298900062,
          24.176983186078
        ]
      }
    },
    {
      "type": "Feature",
      "properties": {
        "feature_type": "station",
        "ref": "TXG28",
        "name": "大坑9號步道",
        "name_en": "Dakeng Trail NO.9",
        "line": "66左環",
        "color": "#6b21a8",
        "direction": 0,
        "station_id": "176"
      },
      "geometry": {
        "type": "Point",
        "coordinates": [
          120.73186182202,
          24.176971016554
        ]
      }
    },
    {
      "type": "Feature",
      "properties": {
        "feature_type": "station",
        "ref": "TXG10670",
        "name": "台電東山所",
        "name_en": "Taipower Dongshan Office",
        "line": "66左環",
        "color": "#6b21a8",
        "direction": 0,
        "station_id": "22"
      },
      "geometry": {
        "type": "Point",
        "coordinates": [
          120.734667,
          24.177067
        ]
      }
    },
    {
      "type": "Feature",
      "properties": {
        "feature_type": "station",
        "ref": "TXG10669",
        "name": "梨仔園",
        "name_en": "Liziyuan",
        "line": "66左環",
        "color": "#6b21a8",
        "direction": 0,
        "station_id": "2289"
      },
      "geometry": {
        "type": "Point",
        "coordinates": [
          120.73565,
          24.177592
        ]
      }
    },
    {
      "type": "Feature",
      "properties": {
        "feature_type": "station",
        "ref": "TXG10671",
        "name": "逢甲橋",
        "name_en": "Fengjia Bridge",
        "line": "66左環",
        "color": "#6b21a8",
        "direction": 0,
        "station_id": "3338"
      },
      "geometry": {
        "type": "Point",
        "coordinates": [
          120.73677383781,
          24.178213201584
        ]
      }
    },
    {
      "type": "Feature",
      "properties": {
        "feature_type": "station",
        "ref": "TXG10672",
        "name": "大坑圓環",
        "name_en": "Dakeng Traffic Circle",
        "line": "66左環",
        "color": "#6b21a8",
        "direction": 0,
        "station_id": "51"
      },
      "geometry": {
        "type": "Point",
        "coordinates": [
          120.739172,
          24.178632
        ]
      }
    },
    {
      "type": "Feature",
      "properties": {
        "feature_type": "station",
        "ref": "TXG11261",
        "name": "大坑農會",
        "name_en": "DaKeng Farmers Assoc.",
        "line": "66左環",
        "color": "#6b21a8",
        "direction": 0,
        "station_id": "350"
      },
      "geometry": {
        "type": "Point",
        "coordinates": [
          120.740317,
          24.179182
        ]
      }
    },
    {
      "type": "Feature",
      "properties": {
        "feature_type": "station",
        "ref": "TXG11259",
        "name": "崇聖寶殿(東山路)",
        "name_en": "Chongsheng Temple(Dongshan Road)",
        "line": "66左環",
        "color": "#6b21a8",
        "direction": 0,
        "station_id": "5228"
      },
      "geometry": {
        "type": "Point",
        "coordinates": [
          120.742009,
          24.180785
        ]
      }
    },
    {
      "type": "Feature",
      "properties": {
        "feature_type": "station",
        "ref": "TXG3167",
        "name": "聖壽宮",
        "name_en": "Shengshou Temple",
        "line": "66左環",
        "color": "#6b21a8",
        "direction": 0,
        "station_id": "4950"
      },
      "geometry": {
        "type": "Point",
        "coordinates": [
          120.7438630591,
          24.183527788622
        ]
      }
    },
    {
      "type": "Feature",
      "properties": {
        "feature_type": "station",
        "ref": "TXG3166",
        "name": "清水橋",
        "name_en": "Qingshui Bridge",
        "line": "66左環",
        "color": "#6b21a8",
        "direction": 0,
        "station_id": "4992"
      },
      "geometry": {
        "type": "Point",
        "coordinates": [
          120.744398,
          24.186701
        ]
      }
    },
    {
      "type": "Feature",
      "properties": {
        "feature_type": "station",
        "ref": "TXG18904",
        "name": "青山社區",
        "name_en": "Qingshan Community",
        "line": "66左環",
        "color": "#6b21a8",
        "direction": 0,
        "station_id": "3526"
      },
      "geometry": {
        "type": "Point",
        "coordinates": [
          120.745251,
          24.188128
        ]
      }
    },
    {
      "type": "Feature",
      "properties": {
        "feature_type": "station",
        "ref": "TXG3164",
        "name": "龜山農場",
        "name_en": "Guishan Farm",
        "line": "66左環",
        "color": "#6b21a8",
        "direction": 0,
        "station_id": "4969"
      },
      "geometry": {
        "type": "Point",
        "coordinates": [
          120.746276,
          24.190192
        ]
      }
    },
    {
      "type": "Feature",
      "properties": {
        "feature_type": "station",
        "ref": "TXG3168",
        "name": "三貴城",
        "name_en": "Sanguicheng",
        "line": "66左環",
        "color": "#6b21a8",
        "direction": 0,
        "station_id": "6299"
      },
      "geometry": {
        "type": "Point",
        "coordinates": [
          120.747302415,
          24.192921278735
        ]
      }
    },
    {
      "type": "Feature",
      "properties": {
        "feature_type": "station",
        "ref": "TXG3162",
        "name": "貴城山莊",
        "name_en": "Guicheng Community",
        "line": "66左環",
        "color": "#6b21a8",
        "direction": 0,
        "station_id": "2520"
      },
      "geometry": {
        "type": "Point",
        "coordinates": [
          120.747517,
          24.193852
        ]
      }
    },
    {
      "type": "Feature",
      "properties": {
        "feature_type": "station",
        "ref": "TXG5678",
        "name": "大坑國小",
        "name_en": "Dakeng Elementary School",
        "line": "66左環",
        "color": "#6b21a8",
        "direction": 0,
        "station_id": "5564"
      },
      "geometry": {
        "type": "Point",
        "coordinates": [
          120.747643,
          24.195823
        ]
      }
    },
    {
      "type": "Feature",
      "properties": {
        "feature_type": "station",
        "ref": "TXG14171",
        "name": "普陀精舍",
        "name_en": "Phortor Temple",
        "line": "66左環",
        "color": "#6b21a8",
        "direction": 0,
        "station_id": "2703"
      },
      "geometry": {
        "type": "Point",
        "coordinates": [
          120.750974,
          24.198346
        ]
      }
    },
    {
      "type": "Feature",
      "properties": {
        "feature_type": "station",
        "ref": "TXG3160",
        "name": "觀光果園",
        "name_en": "Tourism Orchard",
        "line": "66左環",
        "color": "#6b21a8",
        "direction": 0,
        "station_id": "5087"
      },
      "geometry": {
        "type": "Point",
        "coordinates": [
          120.752624,
          24.199006
        ]
      }
    },
    {
      "type": "Feature",
      "properties": {
        "feature_type": "station",
        "ref": "TXG3159",
        "name": "福慧寺",
        "name_en": "Fuhui Temple",
        "line": "66左環",
        "color": "#6b21a8",
        "direction": 0,
        "station_id": "5061"
      },
      "geometry": {
        "type": "Point",
        "coordinates": [
          120.75618,
          24.199824
        ]
      }
    },
    {
      "type": "Feature",
      "properties": {
        "feature_type": "station",
        "ref": "TXG3158",
        "name": "荔園",
        "name_en": "Litchi Orchard",
        "line": "66左環",
        "color": "#6b21a8",
        "direction": 0,
        "station_id": "2333"
      },
      "geometry": {
        "type": "Point",
        "coordinates": [
          120.760646,
          24.199824
        ]
      }
    },
    {
      "type": "Feature",
      "properties": {
        "feature_type": "station",
        "ref": "TXG3157",
        "name": "東山竹坑巷口",
        "name_en": "Dongshan-Zhukeng Intersection",
        "line": "66左環",
        "color": "#6b21a8",
        "direction": 0,
        "station_id": "321"
      },
      "geometry": {
        "type": "Point",
        "coordinates": [
          120.763057,
          24.199311
        ]
      }
    },
    {
      "type": "Feature",
      "properties": {
        "feature_type": "station",
        "ref": "TXG1477",
        "name": "復興橋",
        "name_en": "Fuxing Bridge",
        "line": "66左環",
        "color": "#6b21a8",
        "direction": 0,
        "station_id": "4766"
      },
      "geometry": {
        "type": "Point",
        "coordinates": [
          120.766026,
          24.198635
        ]
      }
    },
    {
      "type": "Feature",
      "properties": {
        "feature_type": "station",
        "ref": "TXG3156",
        "name": "三角埔(東山路)",
        "name_en": "Sanjiaopu(Dongshan Road)",
        "line": "66左環",
        "color": "#6b21a8",
        "direction": 0,
        "station_id": "922"
      },
      "geometry": {
        "type": "Point",
        "coordinates": [
          120.76846384326,
          24.197895247916
        ]
      }
    },
    {
      "type": "Feature",
      "properties": {
        "feature_type": "station",
        "ref": "TXG12930",
        "name": "原村山莊(東山路)",
        "name_en": "Yuan-cun Community(Dongshan Road)",
        "line": "66左環",
        "color": "#6b21a8",
        "direction": 0,
        "station_id": "7066"
      },
      "geometry": {
        "type": "Point",
        "coordinates": [
          120.770667,
          24.197361
        ]
      }
    },
    {
      "type": "Feature",
      "properties": {
        "feature_type": "station",
        "ref": "TXG14170",
        "name": "昌龍橋",
        "name_en": "Changlong Bridge",
        "line": "66左環",
        "color": "#6b21a8",
        "direction": 0,
        "station_id": "2701"
      },
      "geometry": {
        "type": "Point",
        "coordinates": [
          120.77325,
          24.197615
        ]
      }
    },
    {
      "type": "Feature",
      "properties": {
        "feature_type": "station",
        "ref": "TXG3151",
        "name": "民德橋",
        "name_en": "Minde Bridge",
        "line": "66左環",
        "color": "#6b21a8",
        "direction": 0,
        "station_id": "2421"
      },
      "geometry": {
        "type": "Point",
        "coordinates": [
          120.77637680295,
          24.198581668288
        ]
      }
    },
    {
      "type": "Feature",
      "properties": {
        "feature_type": "station",
        "ref": "TXG3154",
        "name": "雙連坪",
        "name_en": "Shuanglianping",
        "line": "66左環",
        "color": "#6b21a8",
        "direction": 0,
        "station_id": "2137"
      },
      "geometry": {
        "type": "Point",
        "coordinates": [
          120.77804797097,
          24.198819514806
        ]
      }
    },
    {
      "type": "Feature",
      "properties": {
        "feature_type": "station",
        "ref": "TXG18087",
        "name": "連坑巷",
        "name_en": "Lian Keng Lane",
        "line": "66左環",
        "color": "#6b21a8",
        "direction": 0,
        "station_id": "1153"
      },
      "geometry": {
        "type": "Point",
        "coordinates": [
          120.778972,
          24.197806
        ]
      }
    },
    {
      "type": "Feature",
      "properties": {
        "feature_type": "station",
        "ref": "TXG18077",
        "name": "董聖巖",
        "name_en": "Dongshengyan",
        "line": "66左環",
        "color": "#6b21a8",
        "direction": 0,
        "station_id": "1118"
      },
      "geometry": {
        "type": "Point",
        "coordinates": [
          120.780361,
          24.195333
        ]
      }
    },
    {
      "type": "Feature",
      "properties": {
        "feature_type": "station",
        "ref": "TXG18097",
        "name": "長壽橋",
        "name_en": "Changshou bridge",
        "line": "66左環",
        "color": "#6b21a8",
        "direction": 0,
        "station_id": "1154"
      },
      "geometry": {
        "type": "Point",
        "coordinates": [
          120.781556,
          24.193611
        ]
      }
    },
    {
      "type": "Feature",
      "properties": {
        "feature_type": "station",
        "ref": "TXG3153",
        "name": "一號登山步道口(體訓場)",
        "name_en": "No. 1 Hikking TrailHead",
        "line": "66左環",
        "color": "#6b21a8",
        "direction": 0,
        "station_id": "2445"
      },
      "geometry": {
        "type": "Point",
        "coordinates": [
          120.78378500008,
          24.190636666618
        ]
      }
    },
    {
      "type": "Feature",
      "properties": {
        "feature_type": "station",
        "ref": "TXG15311",
        "name": "一號登山步道口(體訓場)",
        "name_en": "No. 1 Hikking TrailHead",
        "line": "66左環",
        "color": "#6b21a8",
        "direction": 1,
        "station_id": "2445"
      },
      "geometry": {
        "type": "Point",
        "coordinates": [
          120.78378500008,
          24.190636666618
        ]
      }
    },
    {
      "type": "Feature",
      "properties": {
        "feature_type": "station",
        "ref": "TXG18053",
        "name": "濁水頭",
        "name_en": "jhuo shuei tou",
        "line": "66左環",
        "color": "#6b21a8",
        "direction": 1,
        "station_id": "1049"
      },
      "geometry": {
        "type": "Point",
        "coordinates": [
          120.78485,
          24.187941
        ]
      }
    },
    {
      "type": "Feature",
      "properties": {
        "feature_type": "station",
        "ref": "TXG3172",
        "name": "二號登山步道口",
        "name_en": "No. 2 Hiking Trail",
        "line": "66左環",
        "color": "#6b21a8",
        "direction": 1,
        "station_id": "4930"
      },
      "geometry": {
        "type": "Point",
        "coordinates": [
          120.785692,
          24.184121
        ]
      }
    },
    {
      "type": "Feature",
      "properties": {
        "feature_type": "station",
        "ref": "TXG18052",
        "name": "大蓄水池",
        "name_en": "large reservoir",
        "line": "66左環",
        "color": "#6b21a8",
        "direction": 1,
        "station_id": "1046"
      },
      "geometry": {
        "type": "Point",
        "coordinates": [
          120.783265,
          24.18202
        ]
      }
    },
    {
      "type": "Feature",
      "properties": {
        "feature_type": "station",
        "ref": "TXG3163",
        "name": "三號登山步道口",
        "name_en": "No. 3 Hiking Trail",
        "line": "66左環",
        "color": "#6b21a8",
        "direction": 1,
        "station_id": "4958"
      },
      "geometry": {
        "type": "Point",
        "coordinates": [
          120.78497,
          24.179795
        ]
      }
    },
    {
      "type": "Feature",
      "properties": {
        "feature_type": "station",
        "ref": "TXG18133",
        "name": "三號步道停車場",
        "name_en": "Trail No. 3 parking lot",
        "line": "66左環",
        "color": "#6b21a8",
        "direction": 1,
        "station_id": "1267"
      },
      "geometry": {
        "type": "Point",
        "coordinates": [
          120.783184,
          24.17936
        ]
      }
    },
    {
      "type": "Feature",
      "properties": {
        "feature_type": "station",
        "ref": "TXG3165",
        "name": "聖母堂停車場",
        "name_en": "Shengmutang Parking Lot",
        "line": "66左環",
        "color": "#6b21a8",
        "direction": 1,
        "station_id": "6423"
      },
      "geometry": {
        "type": "Point",
        "coordinates": [
          120.78266166667,
          24.178935
        ]
      }
    },
    {
      "type": "Feature",
      "properties": {
        "feature_type": "station",
        "ref": "TXG3184",
        "name": "中正露營區",
        "name_en": "Zhongzheng Campground",
        "line": "66左環",
        "color": "#6b21a8",
        "direction": 1,
        "station_id": "4960"
      },
      "geometry": {
        "type": "Point",
        "coordinates": [
          120.78343,
          24.176195
        ]
      }
    },
    {
      "type": "Feature",
      "properties": {
        "feature_type": "station",
        "ref": "TXG18216",
        "name": "橫坑三號橋",
        "name_en": "Hengkeng No. 3 Bridge",
        "line": "66左環",
        "color": "#6b21a8",
        "direction": 1,
        "station_id": "1519"
      },
      "geometry": {
        "type": "Point",
        "coordinates": [
          120.780767,
          24.17711
        ]
      }
    },
    {
      "type": "Feature",
      "properties": {
        "feature_type": "station",
        "ref": "TXG17693",
        "name": "橫坑巷105號",
        "name_en": "No. 105, Hengkeng Lane",
        "line": "66左環",
        "color": "#6b21a8",
        "direction": 1,
        "station_id": "11070"
      },
      "geometry": {
        "type": "Point",
        "coordinates": [
          120.778775,
          24.178255
        ]
      }
    },
    {
      "type": "Feature",
      "properties": {
        "feature_type": "station",
        "ref": "TXG25087",
        "name": "育化堂",
        "name_en": "Yuhua Temple",
        "line": "66左環",
        "color": "#6b21a8",
        "direction": 1,
        "station_id": "3048"
      },
      "geometry": {
        "type": "Point",
        "coordinates": [
          120.776047,
          24.179001
        ]
      }
    },
    {
      "type": "Feature",
      "properties": {
        "feature_type": "station",
        "ref": "TXG18041",
        "name": "橫坑巷95之5號",
        "name_en": "No.95-5,Hengkeng Lane",
        "line": "66左環",
        "color": "#6b21a8",
        "direction": 1,
        "station_id": "1010"
      },
      "geometry": {
        "type": "Point",
        "coordinates": [
          120.774546,
          24.178952
        ]
      }
    },
    {
      "type": "Feature",
      "properties": {
        "feature_type": "station",
        "ref": "TXG3183",
        "name": "九華山苦行林",
        "name_en": "Jiuhua Mountain Kuxinglin",
        "line": "66左環",
        "color": "#6b21a8",
        "direction": 1,
        "station_id": "5764"
      },
      "geometry": {
        "type": "Point",
        "coordinates": [
          120.77339833333,
          24.179658333333
        ]
      }
    },
    {
      "type": "Feature",
      "properties": {
        "feature_type": "station",
        "ref": "TXG3182",
        "name": "保安橋(武廟育化堂)",
        "name_en": "Bao-an Bridge(Wumiaoyuhua temple)",
        "line": "66左環",
        "color": "#6b21a8",
        "direction": 1,
        "station_id": "2091"
      },
      "geometry": {
        "type": "Point",
        "coordinates": [
          120.768668,
          24.178565
        ]
      }
    },
    {
      "type": "Feature",
      "properties": {
        "feature_type": "station",
        "ref": "TXG3180",
        "name": "順豐窯",
        "name_en": "ShunFengYao",
        "line": "66左環",
        "color": "#6b21a8",
        "direction": 1,
        "station_id": "5062"
      },
      "geometry": {
        "type": "Point",
        "coordinates": [
          120.76428166667,
          24.179135
        ]
      }
    },
    {
      "type": "Feature",
      "properties": {
        "feature_type": "station",
        "ref": "TXG3181",
        "name": "同仁堂互動館",
        "name_en": "Tongrentang Mutual Hall",
        "line": "66左環",
        "color": "#6b21a8",
        "direction": 1,
        "station_id": "6479"
      },
      "geometry": {
        "type": "Point",
        "coordinates": [
          120.761979,
          24.178614
        ]
      }
    },
    {
      "type": "Feature",
      "properties": {
        "feature_type": "station",
        "ref": "TXG3179",
        "name": "新民高中活動中心",
        "name_en": "Shin-min Senior High School Activity Center",
        "line": "66左環",
        "color": "#6b21a8",
        "direction": 1,
        "station_id": "440"
      },
      "geometry": {
        "type": "Point",
        "coordinates": [
          120.758785,
          24.179223333333
        ]
      }
    },
    {
      "type": "Feature",
      "properties": {
        "feature_type": "station",
        "ref": "TXG20640",
        "name": "聖地雅哥社區",
        "name_en": "Shengdiyage Community",
        "line": "66左環",
        "color": "#6b21a8",
        "direction": 1,
        "station_id": "4687"
      },
      "geometry": {
        "type": "Point",
        "coordinates": [
          120.756888,
          24.179752
        ]
      }
    },
    {
      "type": "Feature",
      "properties": {
        "feature_type": "station",
        "ref": "TXG3178",
        "name": "亞哥花園",
        "name_en": "Encore Garden",
        "line": "66左環",
        "color": "#6b21a8",
        "direction": 1,
        "station_id": "6377"
      },
      "geometry": {
        "type": "Point",
        "coordinates": [
          120.756797,
          24.17534
        ]
      }
    },
    {
      "type": "Feature",
      "properties": {
        "feature_type": "station",
        "ref": "TXG18054",
        "name": "雅歌皇家",
        "name_en": "Encore Royal",
        "line": "66左環",
        "color": "#6b21a8",
        "direction": 1,
        "station_id": "1105"
      },
      "geometry": {
        "type": "Point",
        "coordinates": [
          120.753361,
          24.177778
        ]
      }
    },
    {
      "type": "Feature",
      "properties": {
        "feature_type": "station",
        "ref": "TXG3177",
        "name": "法寶宮",
        "name_en": "Fabao Temple",
        "line": "66左環",
        "color": "#6b21a8",
        "direction": 1,
        "station_id": "2016"
      },
      "geometry": {
        "type": "Point",
        "coordinates": [
          120.750126,
          24.179212
        ]
      }
    },
    {
      "type": "Feature",
      "properties": {
        "feature_type": "station",
        "ref": "TXG22102",
        "name": "橫坑橋(無極證道院)",
        "name_en": "Hengkeng Bridge(WU_JI_ZHENG_DAO _YUAN)",
        "line": "66左環",
        "color": "#6b21a8",
        "direction": 1,
        "station_id": "4787"
      },
      "geometry": {
        "type": "Point",
        "coordinates": [
          120.74761,
          24.178542
        ]
      }
    },
    {
      "type": "Feature",
      "properties": {
        "feature_type": "station",
        "ref": "TXG3176",
        "name": "華陽山莊(霞客溫泉)",
        "name_en": "Huayang Community(Shangrila Hot Springs)",
        "line": "66左環",
        "color": "#6b21a8",
        "direction": 1,
        "station_id": "5071"
      },
      "geometry": {
        "type": "Point",
        "coordinates": [
          120.74571333333,
          24.178396666667
        ]
      }
    },
    {
      "type": "Feature",
      "properties": {
        "feature_type": "station",
        "ref": "TXG3175",
        "name": "光政橋",
        "name_en": "Guangzheng Bridge",
        "line": "66左環",
        "color": "#6b21a8",
        "direction": 1,
        "station_id": "6527"
      },
      "geometry": {
        "type": "Point",
        "coordinates": [
          120.743327,
          24.176806
        ]
      }
    },
    {
      "type": "Feature",
      "properties": {
        "feature_type": "station",
        "ref": "TXG3174",
        "name": "祥龍橋",
        "name_en": "Xianglong Bridge",
        "line": "66左環",
        "color": "#6b21a8",
        "direction": 1,
        "station_id": "485"
      },
      "geometry": {
        "type": "Point",
        "coordinates": [
          120.741339,
          24.178139
        ]
      }
    },
    {
      "type": "Feature",
      "properties": {
        "feature_type": "station",
        "ref": "TXG3169",
        "name": "大坑圓環",
        "name_en": "Dakeng Traffic Circle",
        "line": "66左環",
        "color": "#6b21a8",
        "direction": 1,
        "station_id": "52"
      },
      "geometry": {
        "type": "Point",
        "coordinates": [
          120.739309,
          24.178878
        ]
      }
    },
    {
      "type": "Feature",
      "properties": {
        "feature_type": "station",
        "ref": "TXG3173",
        "name": "逢甲橋",
        "name_en": "Fengjia Bridge",
        "line": "66左環",
        "color": "#6b21a8",
        "direction": 1,
        "station_id": "3339"
      },
      "geometry": {
        "type": "Point",
        "coordinates": [
          120.73715,
          24.178484
        ]
      }
    },
    {
      "type": "Feature",
      "properties": {
        "feature_type": "station",
        "ref": "TXG3171",
        "name": "梨仔園",
        "name_en": "Liziyuan",
        "line": "66左環",
        "color": "#6b21a8",
        "direction": 1,
        "station_id": "2290"
      },
      "geometry": {
        "type": "Point",
        "coordinates": [
          120.735755,
          24.177828
        ]
      }
    },
    {
      "type": "Feature",
      "properties": {
        "feature_type": "station",
        "ref": "TXG3185",
        "name": "台電東山所",
        "name_en": "Taipower Dongshan Office",
        "line": "66左環",
        "color": "#6b21a8",
        "direction": 1,
        "station_id": "23"
      },
      "geometry": {
        "type": "Point",
        "coordinates": [
          120.734704,
          24.177246
        ]
      }
    },
    {
      "type": "Feature",
      "properties": {
        "feature_type": "station",
        "ref": "TXG48",
        "name": "大坑9號步道",
        "name_en": "Dakeng Trail NO.9",
        "line": "66左環",
        "color": "#6b21a8",
        "direction": 1,
        "station_id": "175"
      },
      "geometry": {
        "type": "Point",
        "coordinates": [
          120.731952,
          24.177072
        ]
      }
    },
    {
      "type": "Feature",
      "properties": {
        "feature_type": "station",
        "ref": "TXG22389",
        "name": "東山松竹路口",
        "name_en": "Dongshan-Songzhu Intersection",
        "line": "66左環",
        "color": "#6b21a8",
        "direction": 1,
        "station_id": "4826"
      },
      "geometry": {
        "type": "Point",
        "coordinates": [
          120.729422,
          24.177051
        ]
      }
    },
    {
      "type": "Feature",
      "properties": {
        "feature_type": "station",
        "ref": "TXG47",
        "name": "正覺寺",
        "name_en": "Zhengjue Temple",
        "line": "66左環",
        "color": "#6b21a8",
        "direction": 1,
        "station_id": "752"
      },
      "geometry": {
        "type": "Point",
        "coordinates": [
          120.727585,
          24.176666
        ]
      }
    },
    {
      "type": "Feature",
      "properties": {
        "feature_type": "station",
        "ref": "TXG30",
        "name": "東山建和路口",
        "name_en": "Dongshan-Jianhe Intersection",
        "line": "66左環",
        "color": "#6b21a8",
        "direction": 1,
        "station_id": "33"
      },
      "geometry": {
        "type": "Point",
        "coordinates": [
          120.72445347521,
          24.176068298078
        ]
      }
    },
    {
      "type": "Feature",
      "properties": {
        "feature_type": "station",
        "ref": "TXG45",
        "name": "和平里(東山路)",
        "name_en": "Heping Village(Dongshan Road)",
        "line": "66左環",
        "color": "#6b21a8",
        "direction": 1,
        "station_id": "305"
      },
      "geometry": {
        "type": "Point",
        "coordinates": [
          120.722331,
          24.176049
        ]
      }
    },
    {
      "type": "Feature",
      "properties": {
        "feature_type": "station",
        "ref": "TXG44",
        "name": "軍功里",
        "name_en": "Jungong Village",
        "line": "66左環",
        "color": "#6b21a8",
        "direction": 1,
        "station_id": "2146"
      },
      "geometry": {
        "type": "Point",
        "coordinates": [
          120.719592,
          24.175905
        ]
      }
    },
    {
      "type": "Feature",
      "properties": {
        "feature_type": "station",
        "ref": "TXG877",
        "name": "軍功農會",
        "name_en": "Jungong Farmers' Association",
        "line": "66左環",
        "color": "#6b21a8",
        "direction": 1,
        "station_id": "855"
      },
      "geometry": {
        "type": "Point",
        "coordinates": [
          120.7193,
          24.177279
        ]
      }
    },
    {
      "type": "Feature",
      "properties": {
        "feature_type": "station",
        "ref": "TXG878",
        "name": "建功橋頭",
        "name_en": "Jiangong Qiaotou",
        "line": "66左環",
        "color": "#6b21a8",
        "direction": 1,
        "station_id": "5113"
      },
      "geometry": {
        "type": "Point",
        "coordinates": [
          120.719513,
          24.17961
        ]
      }
    },
    {
      "type": "Feature",
      "properties": {
        "feature_type": "station",
        "ref": "TXG3799",
        "name": "軍功松竹路口",
        "name_en": "Jungong-Songzhu Intersection",
        "line": "66左環",
        "color": "#6b21a8",
        "direction": 1,
        "station_id": "2215"
      },
      "geometry": {
        "type": "Point",
        "coordinates": [
          120.719396,
          24.182736
        ]
      }
    },
    {
      "type": "Feature",
      "properties": {
        "feature_type": "station",
        "ref": "TXG3800",
        "name": "仁愛園區",
        "name_en": "Renai Sr. Citizens Home",
        "line": "66左環",
        "color": "#6b21a8",
        "direction": 1,
        "station_id": "204"
      },
      "geometry": {
        "type": "Point",
        "coordinates": [
          120.719109,
          24.184332
        ]
      }
    },
    {
      "type": "Feature",
      "properties": {
        "feature_type": "station",
        "ref": "TXG3801",
        "name": "名人球場",
        "name_en": "Min Ren Golf Course",
        "line": "66左環",
        "color": "#6b21a8",
        "direction": 1,
        "station_id": "330"
      },
      "geometry": {
        "type": "Point",
        "coordinates": [
          120.718272,
          24.188379
        ]
      }
    },
    {
      "type": "Feature",
      "properties": {
        "feature_type": "station",
        "ref": "TXG3805",
        "name": "聚興",
        "name_en": "Juxing",
        "line": "66左環",
        "color": "#6b21a8",
        "direction": 1,
        "station_id": "2217"
      },
      "geometry": {
        "type": "Point",
        "coordinates": [
          120.718364,
          24.191565
        ]
      }
    },
    {
      "type": "Feature",
      "properties": {
        "feature_type": "station",
        "ref": "TXG18352",
        "name": "慈濟中醫院區",
        "name_en": "Tzu Chi Chinese Medicine Hospital",
        "line": "66左環",
        "color": "#6b21a8",
        "direction": 1,
        "station_id": "2220"
      },
      "geometry": {
        "type": "Point",
        "coordinates": [
          120.719528,
          24.19304
        ]
      }
    },
    {
      "type": "Feature",
      "properties": {
        "feature_type": "station",
        "ref": "TXG18359",
        "name": "慈濟醫院",
        "name_en": "Tzu Chi Hospital",
        "line": "66左環",
        "color": "#6b21a8",
        "direction": 1,
        "station_id": "1723"
      },
      "geometry": {
        "type": "Point",
        "coordinates": [
          120.721738,
          24.195901
        ]
      }
    },
    {
      "type": "Feature",
      "properties": {
        "feature_type": "station",
        "ref": "TXG14342",
        "name": "中興",
        "name_en": "Zhongxing",
        "line": "66左環",
        "color": "#6b21a8",
        "direction": 1,
        "station_id": "4255"
      },
      "geometry": {
        "type": "Point",
        "coordinates": [
          120.722069,
          24.199369
        ]
      }
    },
    {
      "type": "Feature",
      "properties": {
        "feature_type": "station",
        "ref": "TXG14331",
        "name": "潭子聯合辦公大樓",
        "name_en": "Tanzi Regional Government Office",
        "line": "66左環",
        "color": "#6b21a8",
        "direction": 1,
        "station_id": "4257"
      },
      "geometry": {
        "type": "Point",
        "coordinates": [
          120.722664,
          24.20327
        ]
      }
    }
  ]
}
