{
  "type": "FeatureCollection",
  "name": "樂活1路",
  "properties": {
    "id": "chiayi_1_f7aa4f9f2d",
    "name": "樂活1路",
    "name_en": "樂活1路",
    "ref": "樂活1路",
    "color": "#86198f",
    "city_id": "Chiayi",
    "source": "TDX Bus Shape / StopOfRoute",
    "official_map_url": "https://web.taiwanbus.tw/MISUploadData/Schematic/file/0123.jpg",
    "operator_id": "108",
    "operator": "捷乘交通有限公司"
  },
  "features": [
    {
      "type": "Feature",
      "properties": {
        "feature_type": "route",
        "ref": "樂活1路",
        "name": "樂活1路",
        "name_en": "樂活1路",
        "color": "#86198f",
        "direction": 0
      },
      "geometry": {
        "type": "LineString",
        "coordinates": [
          [
            120.48337,
            23.49337
          ],
          [
            120.48324,
            23.49359
          ],
          [
            120.48318,
            23.49365
          ],
          [
            120.48314,
            23.49368
          ],
          [
            120.48308,
            23.49374
          ],
          [
            120.48292,
            23.49387
          ],
          [
            120.48271,
            23.49402
          ],
          [
            120.48245,
            23.49422
          ],
          [
            120.48223,
            23.4944
          ],
          [
            120.48199,
            23.49457
          ],
          [
            120.48199,
            23.49457
          ],
          [
            120.48223,
            23.49482
          ],
          [
            120.48223,
            23.49482
          ],
          [
            120.48199,
            23.49457
          ],
          [
            120.48188,
            23.49444
          ],
          [
            120.48175,
            23.4943
          ],
          [
            120.48163,
            23.49416
          ],
          [
            120.48098,
            23.49345
          ],
          [
            120.48088,
            23.49334
          ],
          [
            120.48084,
            23.4933
          ],
          [
            120.48073,
            23.49319
          ],
          [
            120.48062,
            23.4931
          ],
          [
            120.48056,
            23.49305
          ],
          [
            120.48022,
            23.49289
          ],
          [
            120.48019,
            23.49288
          ],
          [
            120.48013,
            23.49287
          ],
          [
            120.48002,
            23.49284
          ],
          [
            120.47961,
            23.49274
          ],
          [
            120.4794,
            23.49272
          ],
          [
            120.47907,
            23.49265
          ],
          [
            120.47869,
            23.49258
          ],
          [
            120.4784,
            23.49254
          ],
          [
            120.47821,
            23.49251
          ],
          [
            120.47819,
            23.49251
          ],
          [
            120.47722,
            23.49239
          ],
          [
            120.47707,
            23.49237
          ],
          [
            120.47707,
            23.49237
          ],
          [
            120.47711,
            23.49211
          ],
          [
            120.47714,
            23.49186
          ],
          [
            120.47714,
            23.49186
          ],
          [
            120.47711,
            23.49211
          ],
          [
            120.47707,
            23.49237
          ],
          [
            120.47598,
            23.49223
          ],
          [
            120.47568,
            23.49221
          ],
          [
            120.47411,
            23.49216
          ],
          [
            120.4738,
            23.49216
          ],
          [
            120.47168,
            23.49211
          ],
          [
            120.47155,
            23.49211
          ],
          [
            120.47084,
            23.49207
          ],
          [
            120.47068,
            23.49206
          ],
          [
            120.47055,
            23.49204
          ],
          [
            120.47043,
            23.49201
          ],
          [
            120.47032,
            23.49197
          ],
          [
            120.47024,
            23.49192
          ],
          [
            120.47016,
            23.49187
          ],
          [
            120.46997,
            23.49173
          ],
          [
            120.46997,
            23.49173
          ],
          [
            120.46973,
            23.49156
          ],
          [
            120.46939,
            23.49133
          ],
          [
            120.46939,
            23.49133
          ],
          [
            120.46952,
            23.4909
          ],
          [
            120.46961,
            23.49061
          ],
          [
            120.46967,
            23.49057
          ],
          [
            120.46969,
            23.49046
          ],
          [
            120.4697,
            23.4904
          ],
          [
            120.4697,
            23.49034
          ],
          [
            120.46971,
            23.4903
          ],
          [
            120.4697,
            23.49012
          ],
          [
            120.46967,
            23.48992
          ],
          [
            120.46952,
            23.48962
          ],
          [
            120.46949,
            23.48958
          ],
          [
            120.46926,
            23.48928
          ],
          [
            120.46926,
            23.48928
          ],
          [
            120.4692,
            23.48921
          ],
          [
            120.46907,
            23.48904
          ],
          [
            120.46888,
            23.48878
          ],
          [
            120.46888,
            23.48878
          ],
          [
            120.46907,
            23.48904
          ],
          [
            120.4692,
            23.48921
          ],
          [
            120.46926,
            23.48928
          ],
          [
            120.46926,
            23.48928
          ],
          [
            120.46949,
            23.48958
          ],
          [
            120.46952,
            23.48962
          ],
          [
            120.46967,
            23.48992
          ],
          [
            120.4697,
            23.49012
          ],
          [
            120.46971,
            23.4903
          ],
          [
            120.4697,
            23.49034
          ],
          [
            120.4697,
            23.4904
          ],
          [
            120.46969,
            23.49046
          ],
          [
            120.46967,
            23.49057
          ],
          [
            120.46961,
            23.49061
          ],
          [
            120.46952,
            23.4909
          ],
          [
            120.46939,
            23.49133
          ],
          [
            120.46939,
            23.49133
          ],
          [
            120.46893,
            23.4911
          ],
          [
            120.46878,
            23.491
          ],
          [
            120.46871,
            23.49096
          ],
          [
            120.46851,
            23.49084
          ],
          [
            120.46831,
            23.49074
          ],
          [
            120.46798,
            23.49057
          ],
          [
            120.46754,
            23.49038
          ],
          [
            120.46729,
            23.49025
          ],
          [
            120.46717,
            23.49021
          ],
          [
            120.46703,
            23.49016
          ],
          [
            120.46641,
            23.48993
          ],
          [
            120.46641,
            23.48993
          ],
          [
            120.46617,
            23.48984
          ],
          [
            120.46574,
            23.48969
          ],
          [
            120.46561,
            23.48965
          ],
          [
            120.46533,
            23.48957
          ],
          [
            120.46505,
            23.48948
          ],
          [
            120.46497,
            23.48946
          ],
          [
            120.46425,
            23.4891
          ],
          [
            120.46357,
            23.48883
          ],
          [
            120.46214,
            23.48824
          ],
          [
            120.46047,
            23.48755
          ],
          [
            120.46032,
            23.48749
          ],
          [
            120.46021,
            23.48745
          ],
          [
            120.46001,
            23.48739
          ],
          [
            120.45961,
            23.48728
          ],
          [
            120.45941,
            23.48722
          ],
          [
            120.45924,
            23.48718
          ],
          [
            120.45924,
            23.48718
          ],
          [
            120.45913,
            23.48715
          ],
          [
            120.45858,
            23.48706
          ],
          [
            120.45817,
            23.48702
          ],
          [
            120.45806,
            23.487
          ],
          [
            120.45791,
            23.48698
          ],
          [
            120.45757,
            23.48693
          ],
          [
            120.45716,
            23.48687
          ],
          [
            120.45695,
            23.48684
          ],
          [
            120.45681,
            23.48682
          ],
          [
            120.45667,
            23.4868
          ],
          [
            120.45448,
            23.48654
          ],
          [
            120.4543,
            23.48648
          ],
          [
            120.4543,
            23.48648
          ],
          [
            120.45386,
            23.48634
          ],
          [
            120.45379,
            23.48634
          ],
          [
            120.45348,
            23.48621
          ],
          [
            120.45339,
            23.48617
          ],
          [
            120.45342,
            23.48606
          ],
          [
            120.45347,
            23.48599
          ],
          [
            120.45348,
            23.4859
          ],
          [
            120.45349,
            23.48578
          ],
          [
            120.45352,
            23.48568
          ],
          [
            120.45353,
            23.4856
          ],
          [
            120.45355,
            23.48539
          ],
          [
            120.45358,
            23.48521
          ],
          [
            120.45363,
            23.48479
          ],
          [
            120.45368,
            23.4843
          ],
          [
            120.45368,
            23.4843
          ],
          [
            120.45371,
            23.48406
          ],
          [
            120.45383,
            23.48334
          ],
          [
            120.45383,
            23.4833
          ],
          [
            120.45387,
            23.48302
          ],
          [
            120.45387,
            23.48302
          ],
          [
            120.45275,
            23.48287
          ],
          [
            120.45266,
            23.48285
          ],
          [
            120.45266,
            23.48285
          ],
          [
            120.45264,
            23.48289
          ],
          [
            120.45263,
            23.48291
          ],
          [
            120.45262,
            23.48293
          ],
          [
            120.4526,
            23.48295
          ],
          [
            120.45259,
            23.48297
          ],
          [
            120.45257,
            23.48298
          ],
          [
            120.45254,
            23.483
          ],
          [
            120.45252,
            23.48301
          ],
          [
            120.4525,
            23.48302
          ],
          [
            120.45247,
            23.48302
          ],
          [
            120.45245,
            23.48303
          ],
          [
            120.45242,
            23.48303
          ],
          [
            120.4524,
            23.48303
          ],
          [
            120.4524,
            23.48303
          ],
          [
            120.45246,
            23.4828
          ],
          [
            120.45254,
            23.4826
          ],
          [
            120.45261,
            23.48238
          ],
          [
            120.45265,
            23.48225
          ],
          [
            120.45265,
            23.48225
          ],
          [
            120.45269,
            23.48213
          ],
          [
            120.45292,
            23.48139
          ],
          [
            120.453,
            23.48098
          ],
          [
            120.45302,
            23.48065
          ],
          [
            120.45307,
            23.48031
          ],
          [
            120.45313,
            23.47989
          ],
          [
            120.45313,
            23.47989
          ],
          [
            120.45244,
            23.47981
          ],
          [
            120.45213,
            23.47978
          ],
          [
            120.4519,
            23.47978
          ],
          [
            120.45117,
            23.47982
          ],
          [
            120.44976,
            23.47991
          ],
          [
            120.44976,
            23.47991
          ],
          [
            120.44976,
            23.47992
          ],
          [
            120.44976,
            23.47993
          ],
          [
            120.44976,
            23.47994
          ],
          [
            120.44975,
            23.47996
          ],
          [
            120.44975,
            23.47997
          ],
          [
            120.44975,
            23.47998
          ],
          [
            120.44974,
            23.47998
          ],
          [
            120.44974,
            23.47999
          ],
          [
            120.44974,
            23.48
          ],
          [
            120.44973,
            23.48001
          ],
          [
            120.44972,
            23.48001
          ],
          [
            120.44971,
            23.48002
          ],
          [
            120.44971,
            23.48003
          ],
          [
            120.4497,
            23.48004
          ],
          [
            120.44969,
            23.48004
          ],
          [
            120.44968,
            23.48005
          ],
          [
            120.44967,
            23.48006
          ],
          [
            120.44966,
            23.48006
          ],
          [
            120.44964,
            23.48006
          ],
          [
            120.44963,
            23.48007
          ],
          [
            120.44962,
            23.48007
          ],
          [
            120.44961,
            23.48007
          ],
          [
            120.4496,
            23.48007
          ],
          [
            120.44958,
            23.48007
          ],
          [
            120.44957,
            23.48007
          ],
          [
            120.44956,
            23.48007
          ],
          [
            120.44955,
            23.48007
          ],
          [
            120.44954,
            23.48006
          ],
          [
            120.44953,
            23.48006
          ],
          [
            120.44951,
            23.48006
          ],
          [
            120.4495,
            23.48005
          ],
          [
            120.44949,
            23.48005
          ],
          [
            120.44948,
            23.48004
          ],
          [
            120.44947,
            23.48003
          ],
          [
            120.44947,
            23.48002
          ],
          [
            120.44946,
            23.48002
          ],
          [
            120.44945,
            23.48001
          ],
          [
            120.44944,
            23.48
          ],
          [
            120.44944,
            23.47999
          ],
          [
            120.44943,
            23.47998
          ],
          [
            120.44943,
            23.47997
          ],
          [
            120.44942,
            23.47996
          ],
          [
            120.44942,
            23.47995
          ],
          [
            120.44942,
            23.47994
          ],
          [
            120.44942,
            23.47993
          ],
          [
            120.44942,
            23.47991
          ],
          [
            120.44912,
            23.47987
          ],
          [
            120.44846,
            23.47981
          ],
          [
            120.44778,
            23.47974
          ],
          [
            120.44733,
            23.4797
          ],
          [
            120.44682,
            23.47967
          ],
          [
            120.4462,
            23.47961
          ],
          [
            120.4462,
            23.47961
          ],
          [
            120.44618,
            23.4798
          ],
          [
            120.44614,
            23.48014
          ],
          [
            120.4461,
            23.48057
          ],
          [
            120.44609,
            23.48075
          ],
          [
            120.44607,
            23.48089
          ],
          [
            120.44605,
            23.48105
          ],
          [
            120.44603,
            23.48124
          ],
          [
            120.446,
            23.48145
          ],
          [
            120.44598,
            23.48168
          ],
          [
            120.44595,
            23.48188
          ],
          [
            120.44595,
            23.48188
          ],
          [
            120.4464,
            23.4819
          ],
          [
            120.44645,
            23.4819
          ],
          [
            120.44659,
            23.48191
          ],
          [
            120.4471,
            23.48193
          ],
          [
            120.4476,
            23.48199
          ],
          [
            120.4476,
            23.48199
          ],
          [
            120.4481,
            23.48205
          ],
          [
            120.44877,
            23.48212
          ],
          [
            120.44877,
            23.48212
          ],
          [
            120.44881,
            23.48212
          ],
          [
            120.4489,
            23.48213
          ],
          [
            120.44899,
            23.48214
          ],
          [
            120.44909,
            23.48214
          ],
          [
            120.44909,
            23.48214
          ],
          [
            120.4492,
            23.48164
          ],
          [
            120.44931,
            23.48114
          ],
          [
            120.44931,
            23.48114
          ],
          [
            120.44937,
            23.4809
          ],
          [
            120.44937,
            23.4809
          ],
          [
            120.44933,
            23.48089
          ],
          [
            120.44924,
            23.48087
          ],
          [
            120.44903,
            23.48086
          ],
          [
            120.44835,
            23.48079
          ],
          [
            120.4477,
            23.48076
          ],
          [
            120.44728,
            23.48072
          ],
          [
            120.44675,
            23.48064
          ],
          [
            120.4461,
            23.48057
          ],
          [
            120.4461,
            23.48057
          ],
          [
            120.44614,
            23.48014
          ],
          [
            120.44618,
            23.4798
          ],
          [
            120.4462,
            23.47961
          ],
          [
            120.4462,
            23.47961
          ],
          [
            120.44511,
            23.4795
          ],
          [
            120.44472,
            23.47946
          ],
          [
            120.44464,
            23.47946
          ],
          [
            120.44464,
            23.47946
          ],
          [
            120.44414,
            23.47942
          ],
          [
            120.44358,
            23.47938
          ],
          [
            120.443,
            23.47933
          ],
          [
            120.44274,
            23.47929
          ],
          [
            120.44256,
            23.47926
          ],
          [
            120.44244,
            23.47925
          ],
          [
            120.44236,
            23.47926
          ],
          [
            120.44229,
            23.47927
          ],
          [
            120.44229,
            23.47927
          ],
          [
            120.44218,
            23.47933
          ],
          [
            120.44202,
            23.47918
          ],
          [
            120.44186,
            23.47903
          ],
          [
            120.4416,
            23.47875
          ],
          [
            120.44159,
            23.47875
          ],
          [
            120.44142,
            23.47857
          ],
          [
            120.44123,
            23.47836
          ],
          [
            120.44105,
            23.47815
          ],
          [
            120.44092,
            23.47799
          ],
          [
            120.44062,
            23.47766
          ],
          [
            120.44042,
            23.47743
          ],
          [
            120.4404,
            23.47741
          ],
          [
            120.44034,
            23.47732
          ],
          [
            120.44029,
            23.47725
          ],
          [
            120.44013,
            23.4769
          ],
          [
            120.44003,
            23.47666
          ],
          [
            120.43983,
            23.47623
          ],
          [
            120.43936,
            23.4753
          ],
          [
            120.43936,
            23.4753
          ],
          [
            120.43932,
            23.47531
          ],
          [
            120.43931,
            23.47532
          ],
          [
            120.43928,
            23.47532
          ],
          [
            120.43923,
            23.47531
          ],
          [
            120.43917,
            23.4753
          ],
          [
            120.43912,
            23.47528
          ],
          [
            120.43907,
            23.47525
          ],
          [
            120.43903,
            23.47522
          ],
          [
            120.439,
            23.47519
          ],
          [
            120.43897,
            23.47516
          ],
          [
            120.43897,
            23.47515
          ],
          [
            120.43896,
            23.47514
          ],
          [
            120.43896,
            23.47513
          ],
          [
            120.43895,
            23.47512
          ],
          [
            120.43895,
            23.4751
          ],
          [
            120.43895,
            23.47509
          ],
          [
            120.43896,
            23.47503
          ],
          [
            120.43879,
            23.47502
          ],
          [
            120.43879,
            23.47502
          ],
          [
            120.43878,
            23.47503
          ],
          [
            120.43877,
            23.47504
          ],
          [
            120.43876,
            23.47505
          ],
          [
            120.43875,
            23.47505
          ],
          [
            120.43874,
            23.47506
          ],
          [
            120.43872,
            23.47506
          ],
          [
            120.43871,
            23.47507
          ],
          [
            120.4387,
            23.47507
          ],
          [
            120.43869,
            23.47507
          ],
          [
            120.43867,
            23.47507
          ],
          [
            120.4385,
            23.47506
          ],
          [
            120.43849,
            23.47506
          ],
          [
            120.4379,
            23.47502
          ],
          [
            120.4379,
            23.47502
          ],
          [
            120.43791,
            23.47497
          ],
          [
            120.43792,
            23.47479
          ],
          [
            120.43851,
            23.47484
          ],
          [
            120.43866,
            23.47486
          ],
          [
            120.43871,
            23.47487
          ],
          [
            120.43874,
            23.47487
          ],
          [
            120.43876,
            23.47488
          ],
          [
            120.43878,
            23.47489
          ],
          [
            120.43879,
            23.4749
          ],
          [
            120.4388,
            23.4749
          ],
          [
            120.43881,
            23.47491
          ],
          [
            120.43883,
            23.47493
          ],
          [
            120.43883,
            23.47495
          ],
          [
            120.43896,
            23.47496
          ],
          [
            120.43924,
            23.47498
          ],
          [
            120.43935,
            23.47501
          ],
          [
            120.43967,
            23.47506
          ],
          [
            120.43976,
            23.47511
          ],
          [
            120.44015,
            23.47515
          ],
          [
            120.44119,
            23.47523
          ],
          [
            120.44221,
            23.47533
          ],
          [
            120.44341,
            23.47544
          ],
          [
            120.44396,
            23.47549
          ],
          [
            120.44396,
            23.47549
          ],
          [
            120.44453,
            23.47554
          ],
          [
            120.44492,
            23.47558
          ],
          [
            120.44493,
            23.47558
          ],
          [
            120.4455,
            23.47563
          ],
          [
            120.44571,
            23.47564
          ],
          [
            120.4466,
            23.47574
          ],
          [
            120.44665,
            23.4753
          ],
          [
            120.44668,
            23.47504
          ],
          [
            120.44671,
            23.47469
          ],
          [
            120.44675,
            23.47426
          ],
          [
            120.44676,
            23.47419
          ],
          [
            120.44677,
            23.47411
          ],
          [
            120.44678,
            23.47405
          ],
          [
            120.44678,
            23.474
          ],
          [
            120.44683,
            23.47365
          ],
          [
            120.44685,
            23.4735
          ],
          [
            120.44688,
            23.47321
          ],
          [
            120.44693,
            23.47279
          ],
          [
            120.44696,
            23.47247
          ],
          [
            120.44698,
            23.47232
          ],
          [
            120.44701,
            23.47195
          ],
          [
            120.44706,
            23.4716
          ],
          [
            120.44707,
            23.47144
          ],
          [
            120.44709,
            23.47127
          ],
          [
            120.44712,
            23.47101
          ],
          [
            120.44714,
            23.4708
          ],
          [
            120.44717,
            23.47049
          ],
          [
            120.44684,
            23.47046
          ],
          [
            120.44656,
            23.47044
          ],
          [
            120.44634,
            23.47042
          ],
          [
            120.44512,
            23.47031
          ],
          [
            120.44473,
            23.47027
          ],
          [
            120.44404,
            23.47021
          ],
          [
            120.44391,
            23.4702
          ],
          [
            120.44398,
            23.47011
          ],
          [
            120.444,
            23.46995
          ]
        ]
      }
    },
    {
      "type": "Feature",
      "properties": {
        "feature_type": "route",
        "ref": "樂活1路",
        "name": "樂活1路",
        "name_en": "樂活1路",
        "color": "#86198f",
        "direction": 1
      },
      "geometry": {
        "type": "LineString",
        "coordinates": [
          [
            120.44985,
            23.48231
          ],
          [
            120.45015,
            23.48237
          ],
          [
            120.45069,
            23.48247
          ],
          [
            120.45121,
            23.48256
          ],
          [
            120.45158,
            23.48263
          ],
          [
            120.45183,
            23.48268
          ]
        ]
      }
    },
    {
      "type": "Feature",
      "properties": {
        "feature_type": "route",
        "ref": "樂活1路",
        "name": "樂活1路",
        "name_en": "樂活1路",
        "color": "#86198f",
        "direction": 1
      },
      "geometry": {
        "type": "LineString",
        "coordinates": [
          [
            120.48257,
            23.49519
          ],
          [
            120.48257,
            23.49519
          ]
        ]
      }
    },
    {
      "type": "Feature",
      "properties": {
        "feature_type": "station",
        "ref": "CYI309170",
        "name": "濟美仁愛之家",
        "name_en": "Ji-Mei Residential Home for the Elderly",
        "line": "樂活1路",
        "color": "#86198f",
        "direction": 0
      },
      "geometry": {
        "type": "Point",
        "coordinates": [
          120.48325,
          23.49331
        ]
      }
    },
    {
      "type": "Feature",
      "properties": {
        "feature_type": "station",
        "ref": "CYI312097",
        "name": "孔雀山莊(預約站)",
        "name_en": "Kongque Villa(Res ervation Only)",
        "line": "樂活1路",
        "color": "#86198f",
        "direction": 0
      },
      "geometry": {
        "type": "Point",
        "coordinates": [
          120.48213,
          23.4949
        ]
      }
    },
    {
      "type": "Feature",
      "properties": {
        "feature_type": "station",
        "ref": "CYI308368",
        "name": "精忠社區",
        "name_en": "Jingjhong community",
        "line": "樂活1路",
        "color": "#86198f",
        "direction": 0
      },
      "geometry": {
        "type": "Point",
        "coordinates": [
          120.47714,
          23.49186
        ]
      }
    },
    {
      "type": "Feature",
      "properties": {
        "feature_type": "station",
        "ref": "CYI308369",
        "name": "英統別墅",
        "name_en": "Yingtong Villa",
        "line": "樂活1路",
        "color": "#86198f",
        "direction": 0
      },
      "geometry": {
        "type": "Point",
        "coordinates": [
          120.46989,
          23.49183
        ]
      }
    },
    {
      "type": "Feature",
      "properties": {
        "feature_type": "station",
        "ref": "CYI310023",
        "name": "福正宮",
        "name_en": "Fuzheng Palace",
        "line": "樂活1路",
        "color": "#86198f",
        "direction": 0
      },
      "geometry": {
        "type": "Point",
        "coordinates": [
          120.468827,
          23.488814
        ]
      }
    },
    {
      "type": "Feature",
      "properties": {
        "feature_type": "station",
        "ref": "CYI308371",
        "name": "新店",
        "name_en": "Xindian",
        "line": "樂活1路",
        "color": "#86198f",
        "direction": 0
      },
      "geometry": {
        "type": "Point",
        "coordinates": [
          120.46637,
          23.49003
        ]
      }
    },
    {
      "type": "Feature",
      "properties": {
        "feature_type": "station",
        "ref": "CYI308373",
        "name": "嘉大林森校區",
        "name_en": "Chiayi University Linsen Campus",
        "line": "樂活1路",
        "color": "#86198f",
        "direction": 0
      },
      "geometry": {
        "type": "Point",
        "coordinates": [
          120.45922,
          23.48725
        ]
      }
    },
    {
      "type": "Feature",
      "properties": {
        "feature_type": "station",
        "ref": "CYI308375",
        "name": "檜意森活村(北門)",
        "name_en": "Hinoki Village(North Gate)",
        "line": "樂活1路",
        "color": "#86198f",
        "direction": 0
      },
      "geometry": {
        "type": "Point",
        "coordinates": [
          120.45427,
          23.48656
        ]
      }
    },
    {
      "type": "Feature",
      "properties": {
        "feature_type": "station",
        "ref": "CYI308377",
        "name": "忠孝護理之家",
        "name_en": "Chung Hsiao nursing home",
        "line": "樂活1路",
        "color": "#86198f",
        "direction": 0
      },
      "geometry": {
        "type": "Point",
        "coordinates": [
          120.45364,
          23.4843
        ]
      }
    },
    {
      "type": "Feature",
      "properties": {
        "feature_type": "station",
        "ref": "CYI308379",
        "name": "市政府(吳鳳北路)",
        "name_en": "City Hall(Wufeng North Road)",
        "line": "樂活1路",
        "color": "#86198f",
        "direction": 0
      },
      "geometry": {
        "type": "Point",
        "coordinates": [
          120.4525,
          23.48221
        ]
      }
    },
    {
      "type": "Feature",
      "properties": {
        "feature_type": "station",
        "ref": "CYI308333",
        "name": "盧亞人醫院",
        "name_en": "Lu ya-Ren hospital",
        "line": "樂活1路",
        "color": "#86198f",
        "direction": 0
      },
      "geometry": {
        "type": "Point",
        "coordinates": [
          120.44761,
          23.48191
        ]
      }
    },
    {
      "type": "Feature",
      "properties": {
        "feature_type": "station",
        "ref": "CYI308337",
        "name": "陽明醫院護理之家",
        "name_en": "Yang Ming Hospital nursing home",
        "line": "樂活1路",
        "color": "#86198f",
        "direction": 0
      },
      "geometry": {
        "type": "Point",
        "coordinates": [
          120.44878,
          23.48205
        ]
      }
    },
    {
      "type": "Feature",
      "properties": {
        "feature_type": "station",
        "ref": "CYI308340",
        "name": "中央廣場",
        "name_en": "Chiayi City Central Plaza",
        "line": "樂活1路",
        "color": "#86198f",
        "direction": 0
      },
      "geometry": {
        "type": "Point",
        "coordinates": [
          120.44931,
          23.48114
        ]
      }
    },
    {
      "type": "Feature",
      "properties": {
        "feature_type": "station",
        "ref": "CYI308382",
        "name": "彰化銀行",
        "name_en": "Chang Hwa Bank",
        "line": "樂活1路",
        "color": "#86198f",
        "direction": 0
      },
      "geometry": {
        "type": "Point",
        "coordinates": [
          120.44465,
          23.47935
        ]
      }
    },
    {
      "type": "Feature",
      "properties": {
        "feature_type": "station",
        "ref": "CYI308381",
        "name": "嘉義火車站",
        "name_en": "Chiayi train station",
        "line": "樂活1路",
        "color": "#86198f",
        "direction": 0
      },
      "geometry": {
        "type": "Point",
        "coordinates": [
          120.44152,
          23.47881
        ]
      }
    },
    {
      "type": "Feature",
      "properties": {
        "feature_type": "station",
        "ref": "CYI311847",
        "name": "民族新榮路口",
        "name_en": "Minzu Xinrong Road Intersection",
        "line": "樂活1路",
        "color": "#86198f",
        "direction": 0
      },
      "geometry": {
        "type": "Point",
        "coordinates": [
          120.44397,
          23.47544
        ]
      }
    },
    {
      "type": "Feature",
      "properties": {
        "feature_type": "station",
        "ref": "CYI297540",
        "name": "舊嘉義市政府",
        "name_en": "Chiayi Old City Government",
        "line": "樂活1路",
        "color": "#86198f",
        "direction": 0
      },
      "geometry": {
        "type": "Point",
        "coordinates": [
          120.446736,
          23.474076
        ]
      }
    },
    {
      "type": "Feature",
      "properties": {
        "feature_type": "station",
        "ref": "CYI308345",
        "name": "榮民醫院長照點",
        "name_en": "chiayi branch taichung Veterans general hospital long term care",
        "line": "樂活1路",
        "color": "#86198f",
        "direction": 0
      },
      "geometry": {
        "type": "Point",
        "coordinates": [
          120.44398,
          23.46996
        ]
      }
    },
    {
      "type": "Feature",
      "properties": {
        "feature_type": "station",
        "ref": "CYI308346",
        "name": "榮民醫院長照點",
        "name_en": "chiayi branch taichung Veterans general hospital long term care",
        "line": "樂活1路",
        "color": "#86198f",
        "direction": 1
      },
      "geometry": {
        "type": "Point",
        "coordinates": [
          120.44401,
          23.46996
        ]
      }
    },
    {
      "type": "Feature",
      "properties": {
        "feature_type": "station",
        "ref": "CYI308384",
        "name": "舊嘉義市政府",
        "name_en": "Chiayi Old City Government",
        "line": "樂活1路",
        "color": "#86198f",
        "direction": 1
      },
      "geometry": {
        "type": "Point",
        "coordinates": [
          120.44691,
          23.47398
        ]
      }
    },
    {
      "type": "Feature",
      "properties": {
        "feature_type": "station",
        "ref": "CYI311848",
        "name": "民族新榮路口",
        "name_en": "Minzu Xinrong Road Intersection",
        "line": "樂活1路",
        "color": "#86198f",
        "direction": 1
      },
      "geometry": {
        "type": "Point",
        "coordinates": [
          120.44424,
          23.47557
        ]
      }
    },
    {
      "type": "Feature",
      "properties": {
        "feature_type": "station",
        "ref": "CYI309432",
        "name": "嘉義火車站",
        "name_en": "Chiayi train station",
        "line": "樂活1路",
        "color": "#86198f",
        "direction": 1
      },
      "geometry": {
        "type": "Point",
        "coordinates": [
          120.44103,
          23.47774
        ]
      }
    },
    {
      "type": "Feature",
      "properties": {
        "feature_type": "station",
        "ref": "CYI308383",
        "name": "彰化銀行",
        "name_en": "Chang Hwa Bank",
        "line": "樂活1路",
        "color": "#86198f",
        "direction": 1
      },
      "geometry": {
        "type": "Point",
        "coordinates": [
          120.44589,
          23.47964
        ]
      }
    },
    {
      "type": "Feature",
      "properties": {
        "feature_type": "station",
        "ref": "CYI308333",
        "name": "盧亞人醫院",
        "name_en": "Lu ya-Ren hospital",
        "line": "樂活1路",
        "color": "#86198f",
        "direction": 1
      },
      "geometry": {
        "type": "Point",
        "coordinates": [
          120.44761,
          23.48191
        ]
      }
    },
    {
      "type": "Feature",
      "properties": {
        "feature_type": "station",
        "ref": "CYI308337",
        "name": "陽明醫院護理之家",
        "name_en": "Yang Ming Hospital nursing home",
        "line": "樂活1路",
        "color": "#86198f",
        "direction": 1
      },
      "geometry": {
        "type": "Point",
        "coordinates": [
          120.44878,
          23.48205
        ]
      }
    },
    {
      "type": "Feature",
      "properties": {
        "feature_type": "station",
        "ref": "CYI308339",
        "name": "中央廣場",
        "name_en": "Chiayi City Central Plaza",
        "line": "樂活1路",
        "color": "#86198f",
        "direction": 1
      },
      "geometry": {
        "type": "Point",
        "coordinates": [
          120.44927,
          23.48114
        ]
      }
    },
    {
      "type": "Feature",
      "properties": {
        "feature_type": "station",
        "ref": "CYI308380",
        "name": "市政府(吳鳳北路)",
        "name_en": "City Hall(Wufeng North Road)",
        "line": "樂活1路",
        "color": "#86198f",
        "direction": 1
      },
      "geometry": {
        "type": "Point",
        "coordinates": [
          120.45286,
          23.48175
        ]
      }
    },
    {
      "type": "Feature",
      "properties": {
        "feature_type": "station",
        "ref": "CYI308378",
        "name": "忠孝護理之家",
        "name_en": "Chung Hsiao nursing home",
        "line": "樂活1路",
        "color": "#86198f",
        "direction": 1
      },
      "geometry": {
        "type": "Point",
        "coordinates": [
          120.45372,
          23.48429
        ]
      }
    },
    {
      "type": "Feature",
      "properties": {
        "feature_type": "station",
        "ref": "CYI308376",
        "name": "檜意森活村(北門)",
        "name_en": "Hinoki Village(North Gate)",
        "line": "樂活1路",
        "color": "#86198f",
        "direction": 1
      },
      "geometry": {
        "type": "Point",
        "coordinates": [
          120.45421,
          23.48639
        ]
      }
    },
    {
      "type": "Feature",
      "properties": {
        "feature_type": "station",
        "ref": "CYI308374",
        "name": "嘉大林森校區",
        "name_en": "Chiayi University Linsen Campus",
        "line": "樂活1路",
        "color": "#86198f",
        "direction": 1
      },
      "geometry": {
        "type": "Point",
        "coordinates": [
          120.45906,
          23.48706
        ]
      }
    },
    {
      "type": "Feature",
      "properties": {
        "feature_type": "station",
        "ref": "CYI297611",
        "name": "新店",
        "name_en": "Xindian",
        "line": "樂活1路",
        "color": "#86198f",
        "direction": 1
      },
      "geometry": {
        "type": "Point",
        "coordinates": [
          120.46637,
          23.48988
        ]
      }
    },
    {
      "type": "Feature",
      "properties": {
        "feature_type": "station",
        "ref": "CYI310023",
        "name": "福正宮",
        "name_en": "Fuzheng Palace",
        "line": "樂活1路",
        "color": "#86198f",
        "direction": 1
      },
      "geometry": {
        "type": "Point",
        "coordinates": [
          120.468827,
          23.488814
        ]
      }
    },
    {
      "type": "Feature",
      "properties": {
        "feature_type": "station",
        "ref": "CYI308370",
        "name": "英統別墅",
        "name_en": "Yingtong Villa",
        "line": "樂活1路",
        "color": "#86198f",
        "direction": 1
      },
      "geometry": {
        "type": "Point",
        "coordinates": [
          120.46996,
          23.49164
        ]
      }
    },
    {
      "type": "Feature",
      "properties": {
        "feature_type": "station",
        "ref": "CYI308368",
        "name": "精忠社區",
        "name_en": "Jingjhong community",
        "line": "樂活1路",
        "color": "#86198f",
        "direction": 1
      },
      "geometry": {
        "type": "Point",
        "coordinates": [
          120.47714,
          23.49186
        ]
      }
    },
    {
      "type": "Feature",
      "properties": {
        "feature_type": "station",
        "ref": "CYI308367",
        "name": "孔雀山莊(預約站)",
        "name_en": "Kongque Villa(Res ervation Only)",
        "line": "樂活1路",
        "color": "#86198f",
        "direction": 1
      },
      "geometry": {
        "type": "Point",
        "coordinates": [
          120.48263,
          23.49514
        ]
      }
    },
    {
      "type": "Feature",
      "properties": {
        "feature_type": "station",
        "ref": "CYI309171",
        "name": "濟美仁愛之家",
        "name_en": "Ji-Mei Residential Home for the Elderly",
        "line": "樂活1路",
        "color": "#86198f",
        "direction": 1
      },
      "geometry": {
        "type": "Point",
        "coordinates": [
          120.48325,
          23.49331
        ]
      }
    }
  ]
}
