{
  "type": "FeatureCollection",
  "name": "T515(延駛衛生所)(週一至周四行駛)",
  "properties": {
    "id": "kaohsiung_t515_4cc36e56eb",
    "name": "T515(延駛衛生所)(週一至周四行駛)",
    "name_en": "T515(延駛衛生所)(週一至周四行駛)",
    "ref": "T515(延駛衛生所)(週一至周四行駛)",
    "color": "#86198f",
    "city_id": "Kaohsiung",
    "source": "TDX Bus Shape / StopOfRoute",
    "operator_id": "20090",
    "operator": "福倫交通",
    "operator_en": "Crown Taxi(Shuttle Taxi)",
    "official_map_url": "https://www.fuluntaxi.com.tw/wp-content/uploads/2025/07/T515%E8%B7%AF%E7%B7%9A%E5%9C%96.jpg"
  },
  "features": [
    {
      "type": "Feature",
      "properties": {
        "feature_type": "route",
        "ref": "T515(延駛衛生所)(週一至周四行駛)",
        "name": "T515(延駛衛生所)(週一至周四行駛)",
        "name_en": "T515(延駛衛生所)(週一至周四行駛)",
        "color": "#86198f",
        "direction": 0
      },
      "geometry": {
        "type": "LineString",
        "coordinates": [
          [
            120.71998,
            23.27967
          ],
          [
            120.71982,
            23.27902
          ],
          [
            120.7206,
            23.2785
          ],
          [
            120.72138,
            23.27827
          ],
          [
            120.72152,
            23.27811
          ],
          [
            120.72153,
            23.27796
          ],
          [
            120.72138,
            23.27783
          ],
          [
            120.72096,
            23.27775
          ],
          [
            120.7208,
            23.27771
          ],
          [
            120.7207,
            23.27751
          ],
          [
            120.72062,
            23.27693
          ],
          [
            120.72058,
            23.27674
          ],
          [
            120.72036,
            23.27628
          ],
          [
            120.72008,
            23.27529
          ],
          [
            120.71975,
            23.27513
          ],
          [
            120.7196,
            23.27495
          ],
          [
            120.71922,
            23.27146
          ],
          [
            120.71946,
            23.27143
          ],
          [
            120.7198,
            23.2712
          ],
          [
            120.7201,
            23.27094
          ],
          [
            120.72016,
            23.27087
          ],
          [
            120.72012,
            23.2704
          ],
          [
            120.71996,
            23.27026
          ],
          [
            120.71972,
            23.27012
          ],
          [
            120.71962,
            23.26993
          ],
          [
            120.72002,
            23.26878
          ],
          [
            120.71964,
            23.26997
          ],
          [
            120.71979,
            23.27015
          ],
          [
            120.72009,
            23.27035
          ],
          [
            120.72017,
            23.27087
          ],
          [
            120.71976,
            23.27123
          ],
          [
            120.71952,
            23.27139
          ],
          [
            120.71924,
            23.27149
          ],
          [
            120.7192,
            23.27118
          ],
          [
            120.71804,
            23.26991
          ],
          [
            120.71728,
            23.2686
          ],
          [
            120.71725,
            23.26836
          ],
          [
            120.71758,
            23.26799
          ],
          [
            120.71771,
            23.26764
          ],
          [
            120.71742,
            23.26717
          ],
          [
            120.71711,
            23.26699
          ],
          [
            120.71688,
            23.26716
          ],
          [
            120.71671,
            23.26762
          ],
          [
            120.71641,
            23.26764
          ],
          [
            120.71545,
            23.26681
          ],
          [
            120.71515,
            23.26673
          ],
          [
            120.71467,
            23.26685
          ],
          [
            120.71439,
            23.26665
          ],
          [
            120.71421,
            23.2659
          ],
          [
            120.71409,
            23.26516
          ],
          [
            120.71386,
            23.26464
          ],
          [
            120.71366,
            23.26463
          ],
          [
            120.71366,
            23.26487
          ],
          [
            120.71385,
            23.26514
          ],
          [
            120.71388,
            23.26615
          ],
          [
            120.71379,
            23.26668
          ],
          [
            120.71353,
            23.26676
          ],
          [
            120.71321,
            23.26647
          ],
          [
            120.71181,
            23.26501
          ],
          [
            120.71076,
            23.26503
          ],
          [
            120.71024,
            23.26476
          ],
          [
            120.70938,
            23.26371
          ],
          [
            120.70798,
            23.26306
          ],
          [
            120.70543,
            23.26225
          ],
          [
            120.70259,
            23.26074
          ],
          [
            120.69955,
            23.25928
          ],
          [
            120.6984,
            23.25953
          ],
          [
            120.69729,
            23.2595
          ],
          [
            120.6966,
            23.25963
          ],
          [
            120.69548,
            23.25915
          ],
          [
            120.69404,
            23.2594
          ],
          [
            120.69371,
            23.25912
          ],
          [
            120.69352,
            23.25865
          ],
          [
            120.69327,
            23.2578
          ],
          [
            120.6926,
            23.25685
          ],
          [
            120.69245,
            23.25593
          ],
          [
            120.69225,
            23.25573
          ],
          [
            120.69182,
            23.25549
          ],
          [
            120.69167,
            23.25504
          ],
          [
            120.69143,
            23.25459
          ],
          [
            120.69101,
            23.25404
          ],
          [
            120.69071,
            23.253
          ],
          [
            120.69126,
            23.25188
          ],
          [
            120.69161,
            23.25091
          ],
          [
            120.69212,
            23.24923
          ],
          [
            120.69202,
            23.2485
          ],
          [
            120.69275,
            23.24723
          ],
          [
            120.69442,
            23.24634
          ],
          [
            120.6949,
            23.24608
          ],
          [
            120.69514,
            23.24579
          ],
          [
            120.69581,
            23.24514
          ],
          [
            120.69606,
            23.24458
          ],
          [
            120.69638,
            23.24356
          ],
          [
            120.69747,
            23.24237
          ],
          [
            120.69778,
            23.24156
          ],
          [
            120.69795,
            23.24014
          ],
          [
            120.69804,
            23.23922
          ],
          [
            120.69781,
            23.23833
          ],
          [
            120.69775,
            23.23749
          ],
          [
            120.69774,
            23.23721
          ],
          [
            120.69794,
            23.23694
          ],
          [
            120.69775,
            23.23633
          ],
          [
            120.69724,
            23.23518
          ],
          [
            120.69663,
            23.23406
          ],
          [
            120.69533,
            23.23188
          ],
          [
            120.69522,
            23.23152
          ],
          [
            120.69518,
            23.23134
          ],
          [
            120.69528,
            23.23109
          ],
          [
            120.69504,
            23.23077
          ],
          [
            120.69465,
            23.23038
          ],
          [
            120.6945,
            23.23031
          ],
          [
            120.69431,
            23.2303
          ],
          [
            120.6942,
            23.23038
          ],
          [
            120.69402,
            23.23039
          ],
          [
            120.69422,
            23.23134
          ],
          [
            120.69403,
            23.23043
          ],
          [
            120.69427,
            23.23033
          ],
          [
            120.69444,
            23.2303
          ],
          [
            120.69462,
            23.23035
          ],
          [
            120.69496,
            23.23069
          ],
          [
            120.69529,
            23.2311
          ],
          [
            120.69518,
            23.23135
          ],
          [
            120.69529,
            23.23131
          ],
          [
            120.69539,
            23.23107
          ],
          [
            120.6955,
            23.23045
          ],
          [
            120.69494,
            23.22766
          ],
          [
            120.69477,
            23.2271
          ],
          [
            120.69425,
            23.22661
          ],
          [
            120.6941,
            23.22621
          ],
          [
            120.69412,
            23.22502
          ],
          [
            120.69375,
            23.22431
          ],
          [
            120.69378,
            23.22382
          ],
          [
            120.69389,
            23.22342
          ],
          [
            120.69388,
            23.223
          ],
          [
            120.69358,
            23.22189
          ],
          [
            120.6936,
            23.22077
          ],
          [
            120.69386,
            23.22003
          ],
          [
            120.69364,
            23.2194
          ],
          [
            120.69336,
            23.21884
          ],
          [
            120.69317,
            23.21803
          ],
          [
            120.69294,
            23.21721
          ],
          [
            120.69297,
            23.21574
          ],
          [
            120.69278,
            23.21549
          ],
          [
            120.69119,
            23.21456
          ],
          [
            120.68992,
            23.21289
          ],
          [
            120.68801,
            23.21141
          ],
          [
            120.68686,
            23.21087
          ],
          [
            120.68617,
            23.21048
          ],
          [
            120.68563,
            23.20988
          ],
          [
            120.68503,
            23.20722
          ],
          [
            120.68401,
            23.20717
          ],
          [
            120.68204,
            23.20749
          ],
          [
            120.68139,
            23.20767
          ],
          [
            120.68023,
            23.20773
          ],
          [
            120.67866,
            23.20823
          ],
          [
            120.67756,
            23.20999
          ],
          [
            120.67763,
            23.21034
          ],
          [
            120.67786,
            23.21064
          ],
          [
            120.67757,
            23.2112
          ],
          [
            120.67715,
            23.21188
          ],
          [
            120.67654,
            23.21255
          ],
          [
            120.67568,
            23.21296
          ],
          [
            120.67457,
            23.21286
          ],
          [
            120.67352,
            23.21258
          ],
          [
            120.67316,
            23.21226
          ],
          [
            120.67297,
            23.2118
          ],
          [
            120.6729,
            23.21133
          ],
          [
            120.67268,
            23.21122
          ],
          [
            120.67242,
            23.21117
          ],
          [
            120.67081,
            23.21189
          ],
          [
            120.67057,
            23.21183
          ],
          [
            120.67014,
            23.21143
          ],
          [
            120.66902,
            23.21112
          ],
          [
            120.66868,
            23.21115
          ],
          [
            120.66817,
            23.21117
          ],
          [
            120.66794,
            23.2111
          ],
          [
            120.6678,
            23.21081
          ],
          [
            120.66837,
            23.20981
          ],
          [
            120.66795,
            23.20897
          ],
          [
            120.66729,
            23.208
          ],
          [
            120.66769,
            23.20664
          ],
          [
            120.66788,
            23.20616
          ],
          [
            120.6679,
            23.20563
          ],
          [
            120.66739,
            23.20366
          ],
          [
            120.66707,
            23.20323
          ],
          [
            120.66662,
            23.20306
          ],
          [
            120.66531,
            23.20297
          ],
          [
            120.66467,
            23.20287
          ],
          [
            120.66385,
            23.20295
          ],
          [
            120.66346,
            23.20285
          ],
          [
            120.66334,
            23.20101
          ],
          [
            120.66307,
            23.20075
          ],
          [
            120.66274,
            23.20056
          ],
          [
            120.66211,
            23.20013
          ],
          [
            120.66165,
            23.19975
          ],
          [
            120.66104,
            23.1992
          ],
          [
            120.66087,
            23.19876
          ],
          [
            120.66024,
            23.19816
          ],
          [
            120.65871,
            23.19838
          ],
          [
            120.65791,
            23.19817
          ],
          [
            120.65672,
            23.1979
          ],
          [
            120.6553,
            23.19829
          ],
          [
            120.65427,
            23.19862
          ],
          [
            120.65388,
            23.19825
          ],
          [
            120.65284,
            23.19684
          ],
          [
            120.65191,
            23.19544
          ],
          [
            120.65194,
            23.19495
          ],
          [
            120.65265,
            23.19432
          ],
          [
            120.65352,
            23.19275
          ],
          [
            120.65428,
            23.19157
          ],
          [
            120.65454,
            23.19088
          ],
          [
            120.65465,
            23.18928
          ],
          [
            120.65459,
            23.18896
          ],
          [
            120.65445,
            23.18864
          ],
          [
            120.65367,
            23.18805
          ],
          [
            120.65286,
            23.18776
          ],
          [
            120.65224,
            23.18694
          ],
          [
            120.65186,
            23.18641
          ],
          [
            120.65159,
            23.18584
          ],
          [
            120.65134,
            23.18521
          ],
          [
            120.65079,
            23.1847
          ],
          [
            120.65061,
            23.18349
          ],
          [
            120.65107,
            23.18287
          ],
          [
            120.65063,
            23.18229
          ],
          [
            120.65007,
            23.18165
          ],
          [
            120.65013,
            23.17897
          ],
          [
            120.65011,
            23.1777
          ],
          [
            120.64975,
            23.17654
          ],
          [
            120.64954,
            23.1762
          ],
          [
            120.64926,
            23.17586
          ],
          [
            120.64859,
            23.17522
          ],
          [
            120.64735,
            23.17392
          ],
          [
            120.64661,
            23.17287
          ],
          [
            120.64608,
            23.17171
          ],
          [
            120.64602,
            23.17079
          ],
          [
            120.6457,
            23.16998
          ],
          [
            120.64428,
            23.16826
          ],
          [
            120.64378,
            23.16788
          ],
          [
            120.64248,
            23.16612
          ],
          [
            120.64252,
            23.16493
          ],
          [
            120.64228,
            23.16445
          ],
          [
            120.63808,
            23.16124
          ],
          [
            120.63482,
            23.15908
          ],
          [
            120.63425,
            23.15859
          ],
          [
            120.6341,
            23.15812
          ],
          [
            120.63434,
            23.15777
          ],
          [
            120.63685,
            23.15573
          ],
          [
            120.63724,
            23.15567
          ],
          [
            120.63861,
            23.15608
          ],
          [
            120.63942,
            23.15612
          ],
          [
            120.64006,
            23.1559
          ],
          [
            120.64023,
            23.15558
          ],
          [
            120.63993,
            23.15556
          ],
          [
            120.63966,
            23.15573
          ],
          [
            120.63931,
            23.15569
          ],
          [
            120.63895,
            23.15552
          ],
          [
            120.63882,
            23.15527
          ],
          [
            120.63896,
            23.15507
          ],
          [
            120.63951,
            23.15503
          ],
          [
            120.63978,
            23.15494
          ],
          [
            120.63989,
            23.15416
          ],
          [
            120.64053,
            23.15393
          ],
          [
            120.64097,
            23.15308
          ],
          [
            120.64091,
            23.15284
          ],
          [
            120.64049,
            23.15264
          ],
          [
            120.64019,
            23.15278
          ],
          [
            120.63949,
            23.15394
          ],
          [
            120.63892,
            23.15427
          ],
          [
            120.63834,
            23.15418
          ],
          [
            120.63778,
            23.15397
          ],
          [
            120.63169,
            23.14865
          ],
          [
            120.62546,
            23.1435
          ],
          [
            120.6251,
            23.14312
          ],
          [
            120.62491,
            23.14268
          ],
          [
            120.62498,
            23.14197
          ],
          [
            120.62466,
            23.14117
          ],
          [
            120.62409,
            23.14075
          ],
          [
            120.62356,
            23.14033
          ],
          [
            120.62315,
            23.13972
          ],
          [
            120.62303,
            23.13904
          ],
          [
            120.62262,
            23.13931
          ],
          [
            120.62221,
            23.13941
          ],
          [
            120.62194,
            23.13918
          ],
          [
            120.62184,
            23.13878
          ],
          [
            120.62148,
            23.13841
          ],
          [
            120.62104,
            23.13809
          ],
          [
            120.62035,
            23.1375
          ],
          [
            120.61984,
            23.13685
          ],
          [
            120.61932,
            23.13641
          ],
          [
            120.61885,
            23.13572
          ],
          [
            120.61849,
            23.13547
          ],
          [
            120.61834,
            23.13535
          ],
          [
            120.61823,
            23.13512
          ],
          [
            120.61747,
            23.13432
          ],
          [
            120.6173,
            23.13408
          ],
          [
            120.6172,
            23.13358
          ],
          [
            120.61677,
            23.13324
          ],
          [
            120.61603,
            23.13252
          ],
          [
            120.6157,
            23.13241
          ],
          [
            120.615,
            23.13237
          ],
          [
            120.61459,
            23.13253
          ],
          [
            120.61437,
            23.13236
          ],
          [
            120.61402,
            23.13185
          ],
          [
            120.61378,
            23.13136
          ],
          [
            120.61365,
            23.13097
          ],
          [
            120.61345,
            23.13067
          ],
          [
            120.61328,
            23.12982
          ],
          [
            120.61334,
            23.12939
          ],
          [
            120.61322,
            23.12891
          ],
          [
            120.61289,
            23.12828
          ],
          [
            120.61281,
            23.12786
          ],
          [
            120.61243,
            23.12729
          ],
          [
            120.61205,
            23.12667
          ],
          [
            120.61144,
            23.12543
          ],
          [
            120.61009,
            23.12528
          ],
          [
            120.60976,
            23.12504
          ],
          [
            120.60946,
            23.1246
          ],
          [
            120.60932,
            23.12416
          ],
          [
            120.60934,
            23.12368
          ],
          [
            120.60895,
            23.12304
          ],
          [
            120.60851,
            23.12238
          ],
          [
            120.6083,
            23.12212
          ],
          [
            120.60814,
            23.12179
          ],
          [
            120.60741,
            23.1207
          ],
          [
            120.60733,
            23.12038
          ],
          [
            120.60708,
            23.11996
          ],
          [
            120.60682,
            23.11967
          ],
          [
            120.60667,
            23.11946
          ],
          [
            120.60657,
            23.11916
          ],
          [
            120.60641,
            23.11902
          ],
          [
            120.60616,
            23.11891
          ],
          [
            120.60601,
            23.11881
          ],
          [
            120.6058,
            23.11843
          ],
          [
            120.6054,
            23.11825
          ],
          [
            120.60499,
            23.11802
          ],
          [
            120.60459,
            23.11773
          ],
          [
            120.60443,
            23.11754
          ],
          [
            120.60432,
            23.11743
          ],
          [
            120.60406,
            23.11707
          ],
          [
            120.60361,
            23.11642
          ],
          [
            120.60343,
            23.11615
          ],
          [
            120.60325,
            23.11578
          ],
          [
            120.60272,
            23.1147
          ],
          [
            120.60265,
            23.11369
          ],
          [
            120.60252,
            23.11333
          ],
          [
            120.60256,
            23.11292
          ],
          [
            120.60247,
            23.11265
          ],
          [
            120.60234,
            23.11238
          ],
          [
            120.60236,
            23.11211
          ],
          [
            120.60206,
            23.11132
          ],
          [
            120.60227,
            23.10889
          ],
          [
            120.60227,
            23.10788
          ],
          [
            120.60237,
            23.10787
          ],
          [
            120.60231,
            23.10694
          ],
          [
            120.60219,
            23.10542
          ],
          [
            120.60177,
            23.10486
          ],
          [
            120.60137,
            23.10312
          ],
          [
            120.60006,
            23.10085
          ],
          [
            120.59749,
            23.09644
          ],
          [
            120.59665,
            23.09605
          ],
          [
            120.59345,
            23.09525
          ],
          [
            120.58924,
            23.09426
          ],
          [
            120.5886,
            23.09375
          ],
          [
            120.58813,
            23.0931
          ],
          [
            120.58807,
            23.0926
          ],
          [
            120.58817,
            23.09154
          ],
          [
            120.58818,
            23.08998
          ],
          [
            120.58814,
            23.08885
          ],
          [
            120.58794,
            23.08781
          ],
          [
            120.58768,
            23.08704
          ],
          [
            120.58784,
            23.08583
          ],
          [
            120.5874,
            23.08558
          ],
          [
            120.58716,
            23.08521
          ],
          [
            120.587,
            23.08484
          ],
          [
            120.58711,
            23.08332
          ],
          [
            120.58705,
            23.0826
          ],
          [
            120.58792,
            23.0827
          ]
        ]
      }
    },
    {
      "type": "Feature",
      "properties": {
        "feature_type": "route",
        "ref": "T515(延駛衛生所)(週一至周四行駛)",
        "name": "T515(延駛衛生所)(週一至周四行駛)",
        "name_en": "T515(延駛衛生所)(週一至周四行駛)",
        "color": "#86198f",
        "direction": 1
      },
      "geometry": {
        "type": "LineString",
        "coordinates": [
          [
            120.66725,
            23.21054
          ],
          [
            120.66717,
            23.21049
          ],
          [
            120.66712,
            23.21047
          ],
          [
            120.66709,
            23.21044
          ],
          [
            120.66696,
            23.21034
          ],
          [
            120.66677,
            23.21012
          ],
          [
            120.66661,
            23.20991
          ],
          [
            120.66645,
            23.20978
          ],
          [
            120.66641,
            23.20973
          ],
          [
            120.66639,
            23.20972
          ],
          [
            120.66636,
            23.20964
          ],
          [
            120.66636,
            23.20953
          ],
          [
            120.66642,
            23.20941
          ],
          [
            120.66655,
            23.20924
          ],
          [
            120.66663,
            23.20916
          ],
          [
            120.66673,
            23.20904
          ],
          [
            120.66679,
            23.20892
          ],
          [
            120.66695,
            23.20868
          ],
          [
            120.667,
            23.20864
          ]
        ]
      }
    },
    {
      "type": "Feature",
      "properties": {
        "feature_type": "station",
        "ref": "KHH115230344041",
        "name": "瑪星哈蘭 大光教會",
        "name_en": "MaShingHaLan DaGuang Church",
        "line": "T515(延駛衛生所)(週一至周四行駛)",
        "color": "#86198f",
        "direction": 0
      },
      "geometry": {
        "type": "Point",
        "coordinates": [
          120.719876,
          23.279423
        ]
      }
    },
    {
      "type": "Feature",
      "properties": {
        "feature_type": "station",
        "ref": "KHH115230344051",
        "name": "那瑪夏區公所.衛生所",
        "name_en": "Namasia District Office, Health Center",
        "line": "T515(延駛衛生所)(週一至周四行駛)",
        "color": "#86198f",
        "direction": 0
      },
      "geometry": {
        "type": "Point",
        "coordinates": [
          120.720522,
          23.276674
        ]
      }
    },
    {
      "type": "Feature",
      "properties": {
        "feature_type": "station",
        "ref": "KHH115230344061",
        "name": "達卡努瓦里 西那的店",
        "name_en": "DaKaNuWaLi ShiNa Store",
        "line": "T515(延駛衛生所)(週一至周四行駛)",
        "color": "#86198f",
        "direction": 0
      },
      "geometry": {
        "type": "Point",
        "coordinates": [
          120.720064,
          23.268892
        ]
      }
    },
    {
      "type": "Feature",
      "properties": {
        "feature_type": "station",
        "ref": "KHH115230344071",
        "name": "達卡努瓦里 世文商店",
        "name_en": "DaKaNuWaLi ShiWen Store",
        "line": "T515(延駛衛生所)(週一至周四行駛)",
        "color": "#86198f",
        "direction": 0
      },
      "geometry": {
        "type": "Point",
        "coordinates": [
          120.719129,
          23.271396
        ]
      }
    },
    {
      "type": "Feature",
      "properties": {
        "feature_type": "station",
        "ref": "KHH115230344081",
        "name": "達卡努瓦里 皆得藥局",
        "name_en": "DaKaNuWaLi Chieh Tei Pharmacy",
        "line": "T515(延駛衛生所)(週一至周四行駛)",
        "color": "#86198f",
        "direction": 0
      },
      "geometry": {
        "type": "Point",
        "coordinates": [
          120.717763,
          23.269598
        ]
      }
    },
    {
      "type": "Feature",
      "properties": {
        "feature_type": "station",
        "ref": "KHH115230344091",
        "name": "達卡努瓦里 吉巴谷",
        "name_en": "DaKaNuWaLi ChiBaKu",
        "line": "T515(延駛衛生所)(週一至周四行駛)",
        "color": "#86198f",
        "direction": 0
      },
      "geometry": {
        "type": "Point",
        "coordinates": [
          120.702513,
          23.260789
        ]
      }
    },
    {
      "type": "Feature",
      "properties": {
        "feature_type": "station",
        "ref": "KHH115230344101",
        "name": "瑪雅里 民權宮",
        "name_en": "MaYaKi MinChiuan Temple",
        "line": "T515(延駛衛生所)(週一至周四行駛)",
        "color": "#86198f",
        "direction": 0
      },
      "geometry": {
        "type": "Point",
        "coordinates": [
          120.692364,
          23.255907
        ]
      }
    },
    {
      "type": "Feature",
      "properties": {
        "feature_type": "station",
        "ref": "KHH115230344111",
        "name": "瑪雅里 民權大橋",
        "name_en": "MaYaKi MinChiuan Bridge",
        "line": "T515(延駛衛生所)(週一至周四行駛)",
        "color": "#86198f",
        "direction": 0
      },
      "geometry": {
        "type": "Point",
        "coordinates": [
          120.695072,
          23.245811
        ]
      }
    },
    {
      "type": "Feature",
      "properties": {
        "feature_type": "station",
        "ref": "KHH115230344121",
        "name": "瑪雅里 二姊茶鋪",
        "name_en": "MaYaKi Tea Shop",
        "line": "T515(延駛衛生所)(週一至周四行駛)",
        "color": "#86198f",
        "direction": 0
      },
      "geometry": {
        "type": "Point",
        "coordinates": [
          120.697682,
          23.237815
        ]
      }
    },
    {
      "type": "Feature",
      "properties": {
        "feature_type": "station",
        "ref": "KHH115230344141",
        "name": "瑪雅里 泥巴莊",
        "name_en": "MaYaKi Mud Village",
        "line": "T515(延駛衛生所)(週一至周四行駛)",
        "color": "#86198f",
        "direction": 0
      },
      "geometry": {
        "type": "Point",
        "coordinates": [
          120.6941,
          23.231241
        ]
      }
    },
    {
      "type": "Feature",
      "properties": {
        "feature_type": "station",
        "ref": "KHH115230344151",
        "name": "南沙魯里 北家扶中心",
        "name_en": "NanShaLuLi CCF",
        "line": "T515(延駛衛生所)(週一至周四行駛)",
        "color": "#86198f",
        "direction": 0
      },
      "geometry": {
        "type": "Point",
        "coordinates": [
          120.693324,
          23.218833
        ]
      }
    },
    {
      "type": "Feature",
      "properties": {
        "feature_type": "station",
        "ref": "KHH115230344161",
        "name": "錫安山",
        "name_en": "ShiAnShan",
        "line": "T515(延駛衛生所)(週一至周四行駛)",
        "color": "#86198f",
        "direction": 0
      },
      "geometry": {
        "type": "Point",
        "coordinates": [
          120.666656,
          23.203173
        ]
      }
    },
    {
      "type": "Feature",
      "properties": {
        "feature_type": "station",
        "ref": "KHH115230344171",
        "name": "甲仙站",
        "name_en": "JiaShian Station",
        "line": "T515(延駛衛生所)(週一至周四行駛)",
        "color": "#86198f",
        "direction": 0
      },
      "geometry": {
        "type": "Point",
        "coordinates": [
          120.587837,
          23.082615
        ]
      }
    },
    {
      "type": "Feature",
      "properties": {
        "feature_type": "station",
        "ref": "KHH115230344182",
        "name": "甲仙站",
        "name_en": "JiaShian Station",
        "line": "T515(延駛衛生所)(週一至周四行駛)",
        "color": "#86198f",
        "direction": 1
      },
      "geometry": {
        "type": "Point",
        "coordinates": [
          120.587837,
          23.082615
        ]
      }
    },
    {
      "type": "Feature",
      "properties": {
        "feature_type": "station",
        "ref": "KHH115230344192",
        "name": "錫安山",
        "name_en": "ShiAnShan",
        "line": "T515(延駛衛生所)(週一至周四行駛)",
        "color": "#86198f",
        "direction": 1
      },
      "geometry": {
        "type": "Point",
        "coordinates": [
          120.666742,
          23.203086
        ]
      }
    },
    {
      "type": "Feature",
      "properties": {
        "feature_type": "station",
        "ref": "KHH115230344202",
        "name": "南沙魯里 北家扶中心",
        "name_en": "NanShaLuLi CCF",
        "line": "T515(延駛衛生所)(週一至周四行駛)",
        "color": "#86198f",
        "direction": 1
      },
      "geometry": {
        "type": "Point",
        "coordinates": [
          120.693418,
          23.218821
        ]
      }
    },
    {
      "type": "Feature",
      "properties": {
        "feature_type": "station",
        "ref": "KHH115230344212",
        "name": "瑪雅里 泥巴莊",
        "name_en": "MaYaKi Mud Village",
        "line": "T515(延駛衛生所)(週一至周四行駛)",
        "color": "#86198f",
        "direction": 1
      },
      "geometry": {
        "type": "Point",
        "coordinates": [
          120.694267,
          23.231276
        ]
      }
    },
    {
      "type": "Feature",
      "properties": {
        "feature_type": "station",
        "ref": "KHH115230344232",
        "name": "瑪雅里 二姊茶鋪",
        "name_en": "MaYaKi Tea Shop",
        "line": "T515(延駛衛生所)(週一至周四行駛)",
        "color": "#86198f",
        "direction": 1
      },
      "geometry": {
        "type": "Point",
        "coordinates": [
          120.697827,
          23.237776
        ]
      }
    },
    {
      "type": "Feature",
      "properties": {
        "feature_type": "station",
        "ref": "KHH115230344242",
        "name": "瑪雅里 民權大橋",
        "name_en": "MaYaKi MinChiuan Bridge",
        "line": "T515(延駛衛生所)(週一至周四行駛)",
        "color": "#86198f",
        "direction": 1
      },
      "geometry": {
        "type": "Point",
        "coordinates": [
          120.695174,
          23.245861
        ]
      }
    },
    {
      "type": "Feature",
      "properties": {
        "feature_type": "station",
        "ref": "KHH115230344252",
        "name": "瑪雅里 民權宮",
        "name_en": "MaYaKi MinChiuan Temple",
        "line": "T515(延駛衛生所)(週一至周四行駛)",
        "color": "#86198f",
        "direction": 1
      },
      "geometry": {
        "type": "Point",
        "coordinates": [
          120.692528,
          23.255837
        ]
      }
    },
    {
      "type": "Feature",
      "properties": {
        "feature_type": "station",
        "ref": "KHH115230344262",
        "name": "達卡努瓦里 吉巴谷",
        "name_en": "DaKaNuWaLi ChiBaKu",
        "line": "T515(延駛衛生所)(週一至周四行駛)",
        "color": "#86198f",
        "direction": 1
      },
      "geometry": {
        "type": "Point",
        "coordinates": [
          120.702561,
          23.260687
        ]
      }
    },
    {
      "type": "Feature",
      "properties": {
        "feature_type": "station",
        "ref": "KHH115230344272",
        "name": "達卡努瓦里 皆得藥局",
        "name_en": "DaKaNuWaLi Chieh Tei Pharmacy",
        "line": "T515(延駛衛生所)(週一至周四行駛)",
        "color": "#86198f",
        "direction": 1
      },
      "geometry": {
        "type": "Point",
        "coordinates": [
          120.7179,
          23.269593
        ]
      }
    },
    {
      "type": "Feature",
      "properties": {
        "feature_type": "station",
        "ref": "KHH115230344282",
        "name": "達卡努瓦里 世文商店",
        "name_en": "DaKaNuWaLi ShiWen Store",
        "line": "T515(延駛衛生所)(週一至周四行駛)",
        "color": "#86198f",
        "direction": 1
      },
      "geometry": {
        "type": "Point",
        "coordinates": [
          120.719129,
          23.271396
        ]
      }
    },
    {
      "type": "Feature",
      "properties": {
        "feature_type": "station",
        "ref": "KHH115230344292",
        "name": "達卡努瓦里 西那的店",
        "name_en": "DaKaNuWaLi ShiNa Store",
        "line": "T515(延駛衛生所)(週一至周四行駛)",
        "color": "#86198f",
        "direction": 1
      },
      "geometry": {
        "type": "Point",
        "coordinates": [
          120.720064,
          23.268892
        ]
      }
    },
    {
      "type": "Feature",
      "properties": {
        "feature_type": "station",
        "ref": "KHH115230344302",
        "name": "那瑪夏區公所.衛生所",
        "name_en": "Namasia District Office, Health Center",
        "line": "T515(延駛衛生所)(週一至周四行駛)",
        "color": "#86198f",
        "direction": 1
      },
      "geometry": {
        "type": "Point",
        "coordinates": [
          120.720655,
          23.276691
        ]
      }
    },
    {
      "type": "Feature",
      "properties": {
        "feature_type": "station",
        "ref": "KHH115230344312",
        "name": "瑪星哈蘭 大光教會",
        "name_en": "MaShingHaLan DaGuang Church",
        "line": "T515(延駛衛生所)(週一至周四行駛)",
        "color": "#86198f",
        "direction": 1
      },
      "geometry": {
        "type": "Point",
        "coordinates": [
          120.719984,
          23.279413
        ]
      }
    }
  ]
}
