{
  "type": "FeatureCollection",
  "name": "57",
  "properties": {
    "id": "new_taipei_57",
    "name": "57",
    "name_en": "57",
    "ref": "57",
    "color": "#0891b2",
    "city_id": "NewTaipei",
    "source": "TDX Bus Shape / StopOfRoute",
    "official_map_url": "https://ebus.gov.taipei/File/Get/82d4d7fd-c644-4ed6-b503-1b7f41417c1c?v=639234358637316353",
    "operator_id": "16176",
    "operator": "臺北客運",
    "operator_en": "Taipei Bus Co., Ltd."
  },
  "features": [
    {
      "type": "Feature",
      "properties": {
        "feature_type": "route",
        "ref": "57",
        "name": "57",
        "name_en": "57",
        "color": "#0891b2",
        "direction": 0
      },
      "geometry": {
        "type": "LineString",
        "coordinates": [
          [
            121.448822500273,
            24.9946218671498
          ],
          [
            121.447954496638,
            24.9936873815545
          ],
          [
            121.448998971495,
            24.9934871905403
          ],
          [
            121.449321017909,
            24.9933566311832
          ],
          [
            121.449899831059,
            24.9930171768547
          ],
          [
            121.45013918988,
            24.9933218153546
          ],
          [
            121.450552627845,
            24.9937548372224
          ],
          [
            121.450918194044,
            24.9940333638509
          ],
          [
            121.451194544684,
            24.9942052670044
          ],
          [
            121.453996130889,
            24.9953400454167
          ],
          [
            121.456555094288,
            24.9964149841237
          ],
          [
            121.456820564981,
            24.9965999432129
          ],
          [
            121.456977236209,
            24.9968393020343
          ],
          [
            121.457878095774,
            24.9988455641554
          ],
          [
            121.458483020795,
            25.0001293978337
          ],
          [
            121.459364296455,
            25.0018070855727
          ],
          [
            121.459621063191,
            25.0023412909423
          ],
          [
            121.459786438377,
            25.0025871777315
          ],
          [
            121.459986629391,
            25.0030223755886
          ],
          [
            121.460023621209,
            25.0033411580189
          ],
          [
            121.459962693509,
            25.0038220516509
          ],
          [
            121.459858246023,
            25.0044422085972
          ],
          [
            121.459773382441,
            25.0050775974686
          ],
          [
            121.45953402362,
            25.006339671254
          ],
          [
            121.459429576134,
            25.0070729796432
          ],
          [
            121.461705660926,
            25.0074233139181
          ],
          [
            121.46345950829,
            25.0077301284073
          ],
          [
            121.464473519297,
            25.0078824476573
          ],
          [
            121.464630190526,
            25.0079738392073
          ],
          [
            121.464945708972,
            25.0087789552429
          ],
          [
            121.465191595762,
            25.0086679797893
          ],
          [
            121.46683881965,
            25.0080793746876
          ],
          [
            121.468178141056,
            25.0076409128466
          ],
          [
            121.469189976073,
            25.0072709946681
          ],
          [
            121.470044051868,
            25.0069391563021
          ],
          [
            121.470730576487,
            25.006705237454
          ],
          [
            121.471176654291,
            25.0065572701826
          ],
          [
            121.471812043162,
            25.0064789345683
          ],
          [
            121.472645447058,
            25.0063505512004
          ],
          [
            121.473215556251,
            25.0062548076719
          ],
          [
            121.475450297247,
            25.0059066493862
          ],
          [
            121.476944113892,
            25.0056063628649
          ],
          [
            121.477335791963,
            25.0055954829184
          ],
          [
            121.477651310409,
            25.0056041868756
          ],
          [
            121.478255147436,
            25.0057456261791
          ],
          [
            121.479361637988,
            25.0060089208826
          ],
          [
            121.479656484536,
            25.006023064813
          ],
          [
            121.479991586886,
            25.0059360252416
          ],
          [
            121.480124322232,
            25.0054268437488
          ],
          [
            121.480230945707,
            25.0050721574953
          ],
          [
            121.480361505064,
            25.0047511990757
          ],
          [
            121.48072380728,
            25.0039961307937
          ],
          [
            121.481185117009,
            25.003029991551
          ],
          [
            121.481235164762,
            25.0027677848421
          ],
          [
            121.481256924655,
            25.0021062840994
          ],
          [
            121.481267804601,
            25.0006690431765
          ],
          [
            121.481274332569,
            24.9992372422267
          ],
          [
            121.481265628612,
            24.9979980163287
          ],
          [
            121.481263452623,
            24.9976433300752
          ],
          [
            121.481191644976,
            24.9968251581039
          ],
          [
            121.480913118348,
            24.9950016790828
          ],
          [
            121.48233839133,
            24.9953955331435
          ],
          [
            121.482740949348,
            24.9955152125542
          ],
          [
            121.483345874369,
            24.9958329069898
          ],
          [
            121.483824592012,
            24.9961712733237
          ],
          [
            121.484003023133,
            24.9961690973344
          ],
          [
            121.487537917727,
            24.9961778012915
          ],
          [
            121.489169909691,
            24.9961712733237
          ],
          [
            121.490952044916,
            24.9963605843915
          ],
          [
            121.491350250955,
            24.9964019281879
          ],
          [
            121.491969319907,
            24.9965085516629
          ],
          [
            121.492943075112,
            24.9967827263129
          ],
          [
            121.49325206559,
            24.9969209016325
          ],
          [
            121.493613279812,
            24.9972016042503
          ],
          [
            121.494472699975,
            24.9977967467824
          ],
          [
            121.495457430731,
            24.9984582380626
          ],
          [
            121.49581102899,
            24.9988053083536
          ],
          [
            121.497049166893,
            25.0006657791925
          ],
          [
            121.49717972625,
            25.0008877300996
          ],
          [
            121.497654091915,
            25.0014643672602
          ],
          [
            121.497967434372,
            25.0017135180334
          ],
          [
            121.498282952818,
            25.0018930371494
          ],
          [
            121.498607175222,
            25.0020518843673
          ],
          [
            121.499365507487,
            25.0023848107279
          ],
          [
            121.49947865893,
            25.0025110181065
          ],
          [
            121.49950912278,
            25.0023652268244
          ],
          [
            121.500100991866,
            25.0013642717531
          ],
          [
            121.500211967319,
            25.0012369763799
          ],
          [
            121.500776636539,
            25.0008028665175
          ],
          [
            121.501388089528,
            25.0003089169497
          ],
          [
            121.501670968135,
            25.0000434462569
          ],
          [
            121.50196037471,
            24.9998040874355
          ],
          [
            121.50221822944,
            24.9997747115802
          ],
          [
            121.503353007853,
            24.999750775698
          ],
          [
            121.504491050249,
            24.9997181358588
          ],
          [
            121.507622298831,
            24.9996006324373
          ],
          [
            121.50814236027,
            24.9995777845498
          ],
          [
            121.508270743638,
            24.9994755130534
          ],
          [
            121.509687312662,
            25.0010737771835
          ],
          [
            121.510235661962,
            25.0016939341298
          ],
          [
            121.511079945805,
            25.0026339615011
          ],
          [
            121.511545607512,
            25.0031442309885
          ],
          [
            121.512201668282,
            25.0039569629866
          ],
          [
            121.51257158646,
            25.0044139207365
          ],
          [
            121.513035072178,
            25.0049274542078
          ],
          [
            121.513898939924,
            25.0058544256434
          ],
          [
            121.515007606465,
            25.007155667236
          ],
          [
            121.514165498612,
            25.0077638562412
          ],
          [
            121.513917435833,
            25.0079281434323
          ],
          [
            121.514566338268,
            25.0103540859888
          ],
          [
            121.514973878631,
            25.0117198047619
          ],
          [
            121.515243701302,
            25.0126554801546
          ],
          [
            121.515425396408,
            25.0132593171813
          ],
          [
            121.515886706136,
            25.0149326529417
          ],
          [
            121.516937708961,
            25.0148521413382
          ],
          [
            121.517069356313,
            25.0147846856703
          ],
          [
            121.517152043906,
            25.0147150540132
          ],
          [
            121.517786344782,
            25.0141155689651
          ],
          [
            121.518789475843,
            25.0132484372349
          ],
          [
            121.519281249421,
            25.0127740715707
          ],
          [
            121.519469472494,
            25.0124721530573
          ],
          [
            121.519591871892,
            25.0122001543967
          ],
          [
            121.519954174108,
            25.0113308466772
          ],
          [
            121.520203324881,
            25.0107395215889
          ],
          [
            121.520353468142,
            25.0103467555229
          ],
          [
            121.520394811938,
            25.0101966122622
          ],
          [
            121.520582491014,
            25.009270184824
          ],
          [
            121.520803897924,
            25.0077943200912
          ],
          [
            121.519106082284,
            25.0076207849457
          ],
          [
            121.516931180993,
            25.007409713985
          ],
          [
            121.517093292195,
            25.0059713850674
          ],
          [
            121.517503466175,
            25.0059790010299
          ],
          [
            121.517979463831,
            25.0059387452282
          ],
          [
            121.518492453305,
            25.0056754505246
          ],
          [
            121.518628996633,
            25.0056090828514
          ],
          [
            121.51882048369,
            25.0054600275854
          ],
          [
            121.519935853215,
            25.0045349040292
          ],
          [
            121.520583579008,
            25.0040097307267
          ],
          [
            121.521205911944,
            25.0034809653304
          ],
          [
            121.521817364933,
            25.0029804877948
          ],
          [
            121.522058899744,
            25.0028390484912
          ],
          [
            121.522662736771,
            25.0026714973162
          ],
          [
            121.52235413272,
            25.001612153581
          ],
          [
            121.521987092098,
            25.0003725646363
          ],
          [
            121.521807572981,
            24.9997970154703
          ],
          [
            121.522947791367,
            24.999584856515
          ],
          [
            121.52275630431,
            24.9984729259902
          ],
          [
            121.522621392974,
            24.9976895698475
          ],
          [
            121.522564817253,
            24.9971243566306
          ],
          [
            121.522399442067,
            24.9961506014254
          ],
          [
            121.521655253731,
            24.9962539609165
          ],
          [
            121.520758746146,
            24.9963975762093
          ],
          [
            121.520547675185,
            24.9964019281879
          ],
          [
            121.520355100134,
            24.9964062801665
          ],
          [
            121.520330076257,
            24.9963279445522
          ],
          [
            121.520150557141,
            24.9952029580917
          ],
          [
            121.51996995003,
            24.9942607547311
          ],
          [
            121.521927252392,
            24.993981140108
          ]
        ]
      }
    },
    {
      "type": "Feature",
      "properties": {
        "feature_type": "route",
        "ref": "57",
        "name": "57",
        "name_en": "57",
        "color": "#0891b2",
        "direction": 1
      },
      "geometry": {
        "type": "LineString",
        "coordinates": [
          [
            121.522838991903,
            25.0032764223376
          ],
          [
            121.522643152867,
            25.0032807743161
          ]
        ]
      }
    },
    {
      "type": "Feature",
      "properties": {
        "feature_type": "route",
        "ref": "57",
        "name": "57",
        "name_en": "57",
        "color": "#0891b2",
        "direction": 1
      },
      "geometry": {
        "type": "LineString",
        "coordinates": [
          [
            121.513449598137,
            25.0073253944002
          ],
          [
            121.513140607658,
            25.0069511242431
          ],
          [
            121.512988288408,
            25.0066551897003
          ],
          [
            121.512973056483,
            25.0062134638754
          ]
        ]
      }
    },
    {
      "type": "Feature",
      "properties": {
        "feature_type": "route",
        "ref": "57",
        "name": "57",
        "name_en": "57",
        "color": "#0891b2",
        "direction": 1
      },
      "geometry": {
        "type": "LineString",
        "coordinates": [
          [
            121.463847922378,
            25.0092021851589
          ],
          [
            121.463226677437,
            25.0093849682588
          ],
          [
            121.462462905198,
            25.0096406469999
          ],
          [
            121.462051643223,
            25.0096449989784
          ],
          [
            121.461770940605,
            25.009695046732
          ],
          [
            121.461418430341,
            25.0098974137355
          ],
          [
            121.460221636234,
            25.0082545418251
          ]
        ]
      }
    },
    {
      "type": "Feature",
      "properties": {
        "feature_type": "station",
        "ref": "NWT208583",
        "name": "臺北客運南雅站(華東街)",
        "name_en": "Taipei Bus Nanya Station(Hua-dong St.)",
        "line": "57",
        "color": "#0891b2",
        "direction": 0
      },
      "geometry": {
        "type": "Point",
        "coordinates": [
          121.448751,
          24.994615
        ]
      }
    },
    {
      "type": "Feature",
      "properties": {
        "feature_type": "station",
        "ref": "NWT127696",
        "name": "南雅站",
        "name_en": "Nanya Stop",
        "line": "57",
        "color": "#0891b2",
        "direction": 0
      },
      "geometry": {
        "type": "Point",
        "coordinates": [
          121.45162,
          24.994319
        ]
      }
    },
    {
      "type": "Feature",
      "properties": {
        "feature_type": "station",
        "ref": "NWT127697",
        "name": "亞東科技大學",
        "name_en": "Oriental University of Science & Technology",
        "line": "57",
        "color": "#0891b2",
        "direction": 0
      },
      "geometry": {
        "type": "Point",
        "coordinates": [
          121.45373,
          24.995168
        ]
      }
    },
    {
      "type": "Feature",
      "properties": {
        "feature_type": "station",
        "ref": "NWT127698",
        "name": "豫章工商",
        "name_en": "Yu Chang Technical & Commercial Vocational Senior High School",
        "line": "57",
        "color": "#0891b2",
        "direction": 0
      },
      "geometry": {
        "type": "Point",
        "coordinates": [
          121.457306,
          24.997381
        ]
      }
    },
    {
      "type": "Feature",
      "properties": {
        "feature_type": "station",
        "ref": "NWT127699",
        "name": "仁愛新村",
        "name_en": "Renai New Village",
        "line": "57",
        "color": "#0891b2",
        "direction": 0
      },
      "geometry": {
        "type": "Point",
        "coordinates": [
          121.458394,
          24.999752
        ]
      }
    },
    {
      "type": "Feature",
      "properties": {
        "feature_type": "station",
        "ref": "NWT127700",
        "name": "福星里",
        "name_en": "Fuxing Village",
        "line": "57",
        "color": "#0891b2",
        "direction": 0
      },
      "geometry": {
        "type": "Point",
        "coordinates": [
          121.45986,
          25.002648
        ]
      }
    },
    {
      "type": "Feature",
      "properties": {
        "feature_type": "station",
        "ref": "NWT127701",
        "name": "鄉雲里",
        "name_en": "Xiangyun Village",
        "line": "57",
        "color": "#0891b2",
        "direction": 0
      },
      "geometry": {
        "type": "Point",
        "coordinates": [
          121.459931,
          25.00437
        ]
      }
    },
    {
      "type": "Feature",
      "properties": {
        "feature_type": "station",
        "ref": "NWT127702",
        "name": "後站商圈",
        "name_en": "Old Banqiao Sta. Shopping Circle",
        "line": "57",
        "color": "#0891b2",
        "direction": 0
      },
      "geometry": {
        "type": "Point",
        "coordinates": [
          121.461043262981,
          25.0072766153747
        ]
      }
    },
    {
      "type": "Feature",
      "properties": {
        "feature_type": "station",
        "ref": "NWT127703",
        "name": "介壽公園(館前東路)",
        "name_en": "Jieshou Park(Guanqian E. Rd.)",
        "line": "57",
        "color": "#0891b2",
        "direction": 0
      },
      "geometry": {
        "type": "Point",
        "coordinates": [
          121.462603,
          25.007484
        ]
      }
    },
    {
      "type": "Feature",
      "properties": {
        "feature_type": "station",
        "ref": "NWT127704",
        "name": "民族區運路口",
        "name_en": "Minzu & Quyun Intersection",
        "line": "57",
        "color": "#0891b2",
        "direction": 0
      },
      "geometry": {
        "type": "Point",
        "coordinates": [
          121.46584,
          25.00839
        ]
      }
    },
    {
      "type": "Feature",
      "properties": {
        "feature_type": "station",
        "ref": "NWT127705",
        "name": "電信訓練所",
        "name_en": "Telecommunications Training Center",
        "line": "57",
        "color": "#0891b2",
        "direction": 0
      },
      "geometry": {
        "type": "Point",
        "coordinates": [
          121.46822,
          25.007531
        ]
      }
    },
    {
      "type": "Feature",
      "properties": {
        "feature_type": "station",
        "ref": "NWT127706",
        "name": "國泰街口",
        "name_en": "Guotai St. Entrance",
        "line": "57",
        "color": "#0891b2",
        "direction": 0
      },
      "geometry": {
        "type": "Point",
        "coordinates": [
          121.470497,
          25.006683
        ]
      }
    },
    {
      "type": "Feature",
      "properties": {
        "feature_type": "station",
        "ref": "NWT127707",
        "name": "環球購物中心",
        "name_en": "Global Mall",
        "line": "57",
        "color": "#0891b2",
        "direction": 0
      },
      "geometry": {
        "type": "Point",
        "coordinates": [
          121.4730341,
          25.00622954
        ]
      }
    },
    {
      "type": "Feature",
      "properties": {
        "feature_type": "station",
        "ref": "NWT127708",
        "name": "板橋監理站",
        "name_en": "Banqiao Motor Vehicles Supervision Sta.",
        "line": "57",
        "color": "#0891b2",
        "direction": 0
      },
      "geometry": {
        "type": "Point",
        "coordinates": [
          121.476177,
          25.005723
        ]
      }
    },
    {
      "type": "Feature",
      "properties": {
        "feature_type": "station",
        "ref": "NWT127709",
        "name": "積穗",
        "name_en": "Jisui",
        "line": "57",
        "color": "#0891b2",
        "direction": 0
      },
      "geometry": {
        "type": "Point",
        "coordinates": [
          121.478674,
          25.005751
        ]
      }
    },
    {
      "type": "Feature",
      "properties": {
        "feature_type": "station",
        "ref": "NWT199164",
        "name": "積穗派出所",
        "name_en": "Jisui Police Station",
        "line": "57",
        "color": "#0891b2",
        "direction": 0
      },
      "geometry": {
        "type": "Point",
        "coordinates": [
          121.480278,
          25.004871
        ]
      }
    },
    {
      "type": "Feature",
      "properties": {
        "feature_type": "station",
        "ref": "NWT127710",
        "name": "員山公園",
        "name_en": "Yuanshan Park",
        "line": "57",
        "color": "#0891b2",
        "direction": 0
      },
      "geometry": {
        "type": "Point",
        "coordinates": [
          121.480636,
          25.00395
        ]
      }
    },
    {
      "type": "Feature",
      "properties": {
        "feature_type": "station",
        "ref": "NWT127711",
        "name": "積穗國中",
        "name_en": "JiSuei Junior High School",
        "line": "57",
        "color": "#0891b2",
        "direction": 0
      },
      "geometry": {
        "type": "Point",
        "coordinates": [
          121.481193,
          25.000604
        ]
      }
    },
    {
      "type": "Feature",
      "properties": {
        "feature_type": "station",
        "ref": "NWT127712",
        "name": "員山派出所",
        "name_en": "Yuanshan Police Station",
        "line": "57",
        "color": "#0891b2",
        "direction": 0
      },
      "geometry": {
        "type": "Point",
        "coordinates": [
          121.481182,
          24.998038
        ]
      }
    },
    {
      "type": "Feature",
      "properties": {
        "feature_type": "station",
        "ref": "NWT127713",
        "name": "中和高中(員山路)",
        "name_en": "Zhonghe High School(Yuanshan Rd.)",
        "line": "57",
        "color": "#0891b2",
        "direction": 0
      },
      "geometry": {
        "type": "Point",
        "coordinates": [
          121.4809504,
          24.99579873
        ]
      }
    },
    {
      "type": "Feature",
      "properties": {
        "feature_type": "station",
        "ref": "NWT127714",
        "name": "連城路",
        "name_en": "Liancheng Rd.",
        "line": "57",
        "color": "#0891b2",
        "direction": 0
      },
      "geometry": {
        "type": "Point",
        "coordinates": [
          121.482957,
          24.995553
        ]
      }
    },
    {
      "type": "Feature",
      "properties": {
        "feature_type": "station",
        "ref": "NWT127715",
        "name": "連城中正路口",
        "name_en": "Liancheng Zhongzheng Intersection",
        "line": "57",
        "color": "#0891b2",
        "direction": 0
      },
      "geometry": {
        "type": "Point",
        "coordinates": [
          121.484429,
          24.996128
        ]
      }
    },
    {
      "type": "Feature",
      "properties": {
        "feature_type": "station",
        "ref": "NWT127717",
        "name": "台貿一村",
        "name_en": "Taimao Village 1",
        "line": "57",
        "color": "#0891b2",
        "direction": 0
      },
      "geometry": {
        "type": "Point",
        "coordinates": [
          121.492320399314,
          24.9965568353221
        ]
      }
    },
    {
      "type": "Feature",
      "properties": {
        "feature_type": "station",
        "ref": "NWT127718",
        "name": "中和國稅局",
        "name_en": "Gonglu 2nd. Village",
        "line": "57",
        "color": "#0891b2",
        "direction": 0
      },
      "geometry": {
        "type": "Point",
        "coordinates": [
          121.4951329,
          24.99819818
        ]
      }
    },
    {
      "type": "Feature",
      "properties": {
        "feature_type": "station",
        "ref": "NWT127720",
        "name": "連城中和路口",
        "name_en": "Liancheng Zhonghe Rd. Intersection",
        "line": "57",
        "color": "#0891b2",
        "direction": 0
      },
      "geometry": {
        "type": "Point",
        "coordinates": [
          121.498554,
          25.001978
        ]
      }
    },
    {
      "type": "Feature",
      "properties": {
        "feature_type": "station",
        "ref": "NWT127721",
        "name": "中和廟口",
        "name_en": "Zhonghe Temple",
        "line": "57",
        "color": "#0891b2",
        "direction": 0
      },
      "geometry": {
        "type": "Point",
        "coordinates": [
          121.500968,
          25.000553
        ]
      }
    },
    {
      "type": "Feature",
      "properties": {
        "feature_type": "station",
        "ref": "NWT127722",
        "name": "中和派出所",
        "name_en": "Zhonghe Police Station",
        "line": "57",
        "color": "#0891b2",
        "direction": 0
      },
      "geometry": {
        "type": "Point",
        "coordinates": [
          121.502769736506,
          24.9996954644534
        ]
      }
    },
    {
      "type": "Feature",
      "properties": {
        "feature_type": "station",
        "ref": "NWT127723",
        "name": "南山高中",
        "name_en": "Nanshan Senior High School",
        "line": "57",
        "color": "#0891b2",
        "direction": 0
      },
      "geometry": {
        "type": "Point",
        "coordinates": [
          121.5048263,
          24.99965591
        ]
      }
    },
    {
      "type": "Feature",
      "properties": {
        "feature_type": "station",
        "ref": "NWT127724",
        "name": "雙和里",
        "name_en": "Shuanghe Village",
        "line": "57",
        "color": "#0891b2",
        "direction": 0
      },
      "geometry": {
        "type": "Point",
        "coordinates": [
          121.50739,
          24.999571
        ]
      }
    },
    {
      "type": "Feature",
      "properties": {
        "feature_type": "station",
        "ref": "NWT127725",
        "name": "華泰新城",
        "name_en": "Huatai Xincheng",
        "line": "57",
        "color": "#0891b2",
        "direction": 0
      },
      "geometry": {
        "type": "Point",
        "coordinates": [
          121.509133,
          25.000374
        ]
      }
    },
    {
      "type": "Feature",
      "properties": {
        "feature_type": "station",
        "ref": "NWT127726",
        "name": "捷運永安市場站",
        "name_en": "MRT Yongan Market Sta.",
        "line": "57",
        "color": "#0891b2",
        "direction": 0
      },
      "geometry": {
        "type": "Point",
        "coordinates": [
          121.51094,
          25.002402
        ]
      }
    },
    {
      "type": "Feature",
      "properties": {
        "feature_type": "station",
        "ref": "NWT127728",
        "name": "自由街口",
        "name_en": "Ziyou St. Entrance",
        "line": "57",
        "color": "#0891b2",
        "direction": 0
      },
      "geometry": {
        "type": "Point",
        "coordinates": [
          121.514104,
          25.005973
        ]
      }
    },
    {
      "type": "Feature",
      "properties": {
        "feature_type": "station",
        "ref": "NWT127729",
        "name": "樂華夜市",
        "name_en": "Lehua Shopping Circle",
        "line": "57",
        "color": "#0891b2",
        "direction": 0
      },
      "geometry": {
        "type": "Point",
        "coordinates": [
          121.5141176,
          25.00856393
        ]
      }
    },
    {
      "type": "Feature",
      "properties": {
        "feature_type": "station",
        "ref": "NWT127730",
        "name": "捷運頂溪站",
        "name_en": "MRT Dingxi Sta.",
        "line": "57",
        "color": "#0891b2",
        "direction": 0
      },
      "geometry": {
        "type": "Point",
        "coordinates": [
          121.515273,
          25.01258
        ]
      }
    },
    {
      "type": "Feature",
      "properties": {
        "feature_type": "station",
        "ref": "NWT127731",
        "name": "竹林路口",
        "name_en": "Zhulin Rd. Entrance",
        "line": "57",
        "color": "#0891b2",
        "direction": 0
      },
      "geometry": {
        "type": "Point",
        "coordinates": [
          121.517439,
          25.014413
        ]
      }
    },
    {
      "type": "Feature",
      "properties": {
        "feature_type": "station",
        "ref": "NWT127732",
        "name": "網溪國小",
        "name_en": "Wangxi Elementary School",
        "line": "57",
        "color": "#0891b2",
        "direction": 0
      },
      "geometry": {
        "type": "Point",
        "coordinates": [
          121.5196559,
          25.01187111
        ]
      }
    },
    {
      "type": "Feature",
      "properties": {
        "feature_type": "station",
        "ref": "NWT127734",
        "name": "永和區公所(竹林路)",
        "name_en": "Yonghe Dist. Office(Zhulin Rd.)",
        "line": "57",
        "color": "#0891b2",
        "direction": 0
      },
      "geometry": {
        "type": "Point",
        "coordinates": [
          121.5206462,
          25.00825972
        ]
      }
    },
    {
      "type": "Feature",
      "properties": {
        "feature_type": "station",
        "ref": "NWT127735",
        "name": "福和路",
        "name_en": "Fuhe Rd.",
        "line": "57",
        "color": "#0891b2",
        "direction": 0
      },
      "geometry": {
        "type": "Point",
        "coordinates": [
          121.5186354,
          25.00759386
        ]
      }
    },
    {
      "type": "Feature",
      "properties": {
        "feature_type": "station",
        "ref": "NWT127736",
        "name": "福和里",
        "name_en": "Fuhe Village",
        "line": "57",
        "color": "#0891b2",
        "direction": 0
      },
      "geometry": {
        "type": "Point",
        "coordinates": [
          121.5168879,
          25.00661028
        ]
      }
    },
    {
      "type": "Feature",
      "properties": {
        "feature_type": "station",
        "ref": "NWT127737",
        "name": "永利路",
        "name_en": "Yongli Rd.",
        "line": "57",
        "color": "#0891b2",
        "direction": 0
      },
      "geometry": {
        "type": "Point",
        "coordinates": [
          121.5188661,
          25.00531696
        ]
      }
    },
    {
      "type": "Feature",
      "properties": {
        "feature_type": "station",
        "ref": "NWT127738",
        "name": "福和國中",
        "name_en": "Fuhe Junior High School",
        "line": "57",
        "color": "#0891b2",
        "direction": 0
      },
      "geometry": {
        "type": "Point",
        "coordinates": [
          121.521553502861,
          25.0031337977071
        ]
      }
    },
    {
      "type": "Feature",
      "properties": {
        "feature_type": "station",
        "ref": "NWT127739",
        "name": "永元路",
        "name_en": "Yongyuan Rd.",
        "line": "57",
        "color": "#0891b2",
        "direction": 0
      },
      "geometry": {
        "type": "Point",
        "coordinates": [
          121.522296,
          25.00158
        ]
      }
    },
    {
      "type": "Feature",
      "properties": {
        "feature_type": "station",
        "ref": "NWT127740",
        "name": "民生路",
        "name_en": "MinSheng Rd.",
        "line": "57",
        "color": "#0891b2",
        "direction": 0
      },
      "geometry": {
        "type": "Point",
        "coordinates": [
          121.52277,
          24.99886
        ]
      }
    },
    {
      "type": "Feature",
      "properties": {
        "feature_type": "station",
        "ref": "NWT127741",
        "name": "自立路",
        "name_en": "Zili Rd.",
        "line": "57",
        "color": "#0891b2",
        "direction": 0
      },
      "geometry": {
        "type": "Point",
        "coordinates": [
          121.5223989,
          24.996524
        ]
      }
    },
    {
      "type": "Feature",
      "properties": {
        "feature_type": "station",
        "ref": "NWT223254",
        "name": "自強站",
        "name_en": "Ziqiang Stop",
        "line": "57",
        "color": "#0891b2",
        "direction": 0
      },
      "geometry": {
        "type": "Point",
        "coordinates": [
          121.519995,
          24.99488
        ]
      }
    },
    {
      "type": "Feature",
      "properties": {
        "feature_type": "station",
        "ref": "NWT127742",
        "name": "秀山站",
        "name_en": "Xiushan Stop",
        "line": "57",
        "color": "#0891b2",
        "direction": 0
      },
      "geometry": {
        "type": "Point",
        "coordinates": [
          121.52026055769093,
          24.994126762334457
        ]
      }
    },
    {
      "type": "Feature",
      "properties": {
        "feature_type": "station",
        "ref": "NWT127743",
        "name": "秀山國小",
        "name_en": "Xiushan Elementary School",
        "line": "57",
        "color": "#0891b2",
        "direction": 1
      },
      "geometry": {
        "type": "Point",
        "coordinates": [
          121.5220764,
          24.994738
        ]
      }
    },
    {
      "type": "Feature",
      "properties": {
        "feature_type": "station",
        "ref": "NWT127744",
        "name": "自立路",
        "name_en": "Zili Rd.",
        "line": "57",
        "color": "#0891b2",
        "direction": 1
      },
      "geometry": {
        "type": "Point",
        "coordinates": [
          121.5225142,
          24.996558
        ]
      }
    },
    {
      "type": "Feature",
      "properties": {
        "feature_type": "station",
        "ref": "NWT127745",
        "name": "民生路",
        "name_en": "Minsheng Rd.",
        "line": "57",
        "color": "#0891b2",
        "direction": 1
      },
      "geometry": {
        "type": "Point",
        "coordinates": [
          121.5228225,
          24.998297
        ]
      }
    },
    {
      "type": "Feature",
      "properties": {
        "feature_type": "station",
        "ref": "NWT127746",
        "name": "永元路",
        "name_en": "Yongyuan Rd.",
        "line": "57",
        "color": "#0891b2",
        "direction": 1
      },
      "geometry": {
        "type": "Point",
        "coordinates": [
          121.522385215721,
          25.0012830070909
        ]
      }
    },
    {
      "type": "Feature",
      "properties": {
        "feature_type": "station",
        "ref": "NWT127747",
        "name": "福和國中",
        "name_en": "Fuhe Junior High School",
        "line": "57",
        "color": "#0891b2",
        "direction": 1
      },
      "geometry": {
        "type": "Point",
        "coordinates": [
          121.52146366371,
          25.0033491522373
        ]
      }
    },
    {
      "type": "Feature",
      "properties": {
        "feature_type": "station",
        "ref": "NWT127748",
        "name": "永利路",
        "name_en": "Yongli Rd.",
        "line": "57",
        "color": "#0891b2",
        "direction": 1
      },
      "geometry": {
        "type": "Point",
        "coordinates": [
          121.5188342,
          25.00550237
        ]
      }
    },
    {
      "type": "Feature",
      "properties": {
        "feature_type": "station",
        "ref": "NWT127749",
        "name": "福和里",
        "name_en": "Fuhe Village",
        "line": "57",
        "color": "#0891b2",
        "direction": 1
      },
      "geometry": {
        "type": "Point",
        "coordinates": [
          121.517121,
          25.006519
        ]
      }
    },
    {
      "type": "Feature",
      "properties": {
        "feature_type": "station",
        "ref": "NWT127750",
        "name": "福和路",
        "name_en": "Fuhe Rd.",
        "line": "57",
        "color": "#0891b2",
        "direction": 1
      },
      "geometry": {
        "type": "Point",
        "coordinates": [
          121.51865,
          25.007465
        ]
      }
    },
    {
      "type": "Feature",
      "properties": {
        "feature_type": "station",
        "ref": "NWT127751",
        "name": "永和區公所(竹林路)",
        "name_en": "Yonghe City Office",
        "line": "57",
        "color": "#0891b2",
        "direction": 1
      },
      "geometry": {
        "type": "Point",
        "coordinates": [
          121.520668,
          25.009245
        ]
      }
    },
    {
      "type": "Feature",
      "properties": {
        "feature_type": "station",
        "ref": "NWT127753",
        "name": "網溪國小一",
        "name_en": "Wangxi Elementary School 1",
        "line": "57",
        "color": "#0891b2",
        "direction": 1
      },
      "geometry": {
        "type": "Point",
        "coordinates": [
          121.520115,
          25.011264
        ]
      }
    },
    {
      "type": "Feature",
      "properties": {
        "feature_type": "station",
        "ref": "NWT127752",
        "name": "網溪國小",
        "name_en": "Wangxi Elementary School",
        "line": "57",
        "color": "#0891b2",
        "direction": 1
      },
      "geometry": {
        "type": "Point",
        "coordinates": [
          121.518655,
          25.013451
        ]
      }
    },
    {
      "type": "Feature",
      "properties": {
        "feature_type": "station",
        "ref": "NWT127754",
        "name": "竹林路口",
        "name_en": "Zhulin Rd. Entrance",
        "line": "57",
        "color": "#0891b2",
        "direction": 1
      },
      "geometry": {
        "type": "Point",
        "coordinates": [
          121.517667,
          25.014315
        ]
      }
    },
    {
      "type": "Feature",
      "properties": {
        "feature_type": "station",
        "ref": "NWT127755",
        "name": "捷運頂溪站",
        "name_en": "MRT Dingxi Sta.",
        "line": "57",
        "color": "#0891b2",
        "direction": 1
      },
      "geometry": {
        "type": "Point",
        "coordinates": [
          121.5155769771344,
          25.014430464101867
        ]
      }
    },
    {
      "type": "Feature",
      "properties": {
        "feature_type": "station",
        "ref": "NWT127756",
        "name": "中興街口",
        "name_en": "Zhongxing St. Entrance",
        "line": "57",
        "color": "#0891b2",
        "direction": 1
      },
      "geometry": {
        "type": "Point",
        "coordinates": [
          121.5147464,
          25.0115956
        ]
      }
    },
    {
      "type": "Feature",
      "properties": {
        "feature_type": "station",
        "ref": "NWT127757",
        "name": "樂華夜市",
        "name_en": "Lehua Shopping Circle",
        "line": "57",
        "color": "#0891b2",
        "direction": 1
      },
      "geometry": {
        "type": "Point",
        "coordinates": [
          121.51386,
          25.00839
        ]
      }
    },
    {
      "type": "Feature",
      "properties": {
        "feature_type": "station",
        "ref": "NWT127758",
        "name": "永和路口",
        "name_en": "Yonghe Rd. Entrance",
        "line": "57",
        "color": "#0891b2",
        "direction": 1
      },
      "geometry": {
        "type": "Point",
        "coordinates": [
          121.51286138332,
          25.0056877314979
        ]
      }
    },
    {
      "type": "Feature",
      "properties": {
        "feature_type": "station",
        "ref": "NWT127759",
        "name": "捷運永安市場站",
        "name_en": "MRT Yongan Market Sta.",
        "line": "57",
        "color": "#0891b2",
        "direction": 1
      },
      "geometry": {
        "type": "Point",
        "coordinates": [
          121.510832,
          25.002521
        ]
      }
    },
    {
      "type": "Feature",
      "properties": {
        "feature_type": "station",
        "ref": "NWT127760",
        "name": "華泰新城",
        "name_en": "Huatai Xincheng",
        "line": "57",
        "color": "#0891b2",
        "direction": 1
      },
      "geometry": {
        "type": "Point",
        "coordinates": [
          121.509035,
          25.000533
        ]
      }
    },
    {
      "type": "Feature",
      "properties": {
        "feature_type": "station",
        "ref": "NWT127761",
        "name": "雙和里",
        "name_en": "Shuanghe Village",
        "line": "57",
        "color": "#0891b2",
        "direction": 1
      },
      "geometry": {
        "type": "Point",
        "coordinates": [
          121.5068521,
          24.99973099
        ]
      }
    },
    {
      "type": "Feature",
      "properties": {
        "feature_type": "station",
        "ref": "NWT127762",
        "name": "南山高中",
        "name_en": "Nanshan High School",
        "line": "57",
        "color": "#0891b2",
        "direction": 1
      },
      "geometry": {
        "type": "Point",
        "coordinates": [
          121.505547,
          24.999775
        ]
      }
    },
    {
      "type": "Feature",
      "properties": {
        "feature_type": "station",
        "ref": "NWT127763",
        "name": "中和派出所",
        "name_en": "Zhonghe Police Station",
        "line": "57",
        "color": "#0891b2",
        "direction": 1
      },
      "geometry": {
        "type": "Point",
        "coordinates": [
          121.502819563683,
          24.9998556483866
        ]
      }
    },
    {
      "type": "Feature",
      "properties": {
        "feature_type": "station",
        "ref": "NWT127764",
        "name": "中和廟口",
        "name_en": "Zhonghe",
        "line": "57",
        "color": "#0891b2",
        "direction": 1
      },
      "geometry": {
        "type": "Point",
        "coordinates": [
          121.5009078,
          25.00081436
        ]
      }
    },
    {
      "type": "Feature",
      "properties": {
        "feature_type": "station",
        "ref": "NWT127765",
        "name": "連城中和路口",
        "name_en": "Liancheng Zhonghe Rd. Intersection",
        "line": "57",
        "color": "#0891b2",
        "direction": 1
      },
      "geometry": {
        "type": "Point",
        "coordinates": [
          121.498749,
          25.002187
        ]
      }
    },
    {
      "type": "Feature",
      "properties": {
        "feature_type": "station",
        "ref": "NWT127767",
        "name": "中和國稅局",
        "name_en": "Gonglu 2nd. Village",
        "line": "57",
        "color": "#0891b2",
        "direction": 1
      },
      "geometry": {
        "type": "Point",
        "coordinates": [
          121.4948985,
          24.99825646
        ]
      }
    },
    {
      "type": "Feature",
      "properties": {
        "feature_type": "station",
        "ref": "NWT127768",
        "name": "台貿一村",
        "name_en": "Taimao Village 1",
        "line": "57",
        "color": "#0891b2",
        "direction": 1
      },
      "geometry": {
        "type": "Point",
        "coordinates": [
          121.49222,
          24.99673
        ]
      }
    },
    {
      "type": "Feature",
      "properties": {
        "feature_type": "station",
        "ref": "NWT127770",
        "name": "連城中正路口",
        "name_en": "Liancheng Zhongzheng Intersection",
        "line": "57",
        "color": "#0891b2",
        "direction": 1
      },
      "geometry": {
        "type": "Point",
        "coordinates": [
          121.484217,
          24.996296
        ]
      }
    },
    {
      "type": "Feature",
      "properties": {
        "feature_type": "station",
        "ref": "NWT127771",
        "name": "連城路",
        "name_en": "Liancheng Rd.",
        "line": "57",
        "color": "#0891b2",
        "direction": 1
      },
      "geometry": {
        "type": "Point",
        "coordinates": [
          121.482763,
          24.995775
        ]
      }
    },
    {
      "type": "Feature",
      "properties": {
        "feature_type": "station",
        "ref": "NWT127772",
        "name": "中和高中(員山路)",
        "name_en": "Zhonghe High School(Yuanshan Rd.)",
        "line": "57",
        "color": "#0891b2",
        "direction": 1
      },
      "geometry": {
        "type": "Point",
        "coordinates": [
          121.481263,
          24.996623
        ]
      }
    },
    {
      "type": "Feature",
      "properties": {
        "feature_type": "station",
        "ref": "NWT127773",
        "name": "員山派出所",
        "name_en": "Yuanshan Police Station",
        "line": "57",
        "color": "#0891b2",
        "direction": 1
      },
      "geometry": {
        "type": "Point",
        "coordinates": [
          121.4813853,
          24.99794083
        ]
      }
    },
    {
      "type": "Feature",
      "properties": {
        "feature_type": "station",
        "ref": "NWT127774",
        "name": "積穗國中",
        "name_en": "Jisui Junior High School",
        "line": "57",
        "color": "#0891b2",
        "direction": 1
      },
      "geometry": {
        "type": "Point",
        "coordinates": [
          121.4813353,
          25.0006
        ]
      }
    },
    {
      "type": "Feature",
      "properties": {
        "feature_type": "station",
        "ref": "NWT127775",
        "name": "員山公園",
        "name_en": "Yuanshan Park",
        "line": "57",
        "color": "#0891b2",
        "direction": 1
      },
      "geometry": {
        "type": "Point",
        "coordinates": [
          121.4810458,
          25.00346806
        ]
      }
    },
    {
      "type": "Feature",
      "properties": {
        "feature_type": "station",
        "ref": "NWT127776",
        "name": "積穗",
        "name_en": "Jisui",
        "line": "57",
        "color": "#0891b2",
        "direction": 1
      },
      "geometry": {
        "type": "Point",
        "coordinates": [
          121.479221,
          25.006146
        ]
      }
    },
    {
      "type": "Feature",
      "properties": {
        "feature_type": "station",
        "ref": "NWT127777",
        "name": "板橋監理站",
        "name_en": "Banqiao Motor Vehicles Supervision Sta.",
        "line": "57",
        "color": "#0891b2",
        "direction": 1
      },
      "geometry": {
        "type": "Point",
        "coordinates": [
          121.475774,
          25.005992
        ]
      }
    },
    {
      "type": "Feature",
      "properties": {
        "feature_type": "station",
        "ref": "NWT127778",
        "name": "環球購物中心",
        "name_en": "Global Mall",
        "line": "57",
        "color": "#0891b2",
        "direction": 1
      },
      "geometry": {
        "type": "Point",
        "coordinates": [
          121.47349,
          25.00638
        ]
      }
    },
    {
      "type": "Feature",
      "properties": {
        "feature_type": "station",
        "ref": "NWT127779",
        "name": "國泰街口",
        "name_en": "Guotai St. Entrance",
        "line": "57",
        "color": "#0891b2",
        "direction": 1
      },
      "geometry": {
        "type": "Point",
        "coordinates": [
          121.4707676,
          25.00682585
        ]
      }
    },
    {
      "type": "Feature",
      "properties": {
        "feature_type": "station",
        "ref": "NWT127780",
        "name": "電信訓練所",
        "name_en": "Telecommunications Training Center",
        "line": "57",
        "color": "#0891b2",
        "direction": 1
      },
      "geometry": {
        "type": "Point",
        "coordinates": [
          121.468177,
          25.007745
        ]
      }
    },
    {
      "type": "Feature",
      "properties": {
        "feature_type": "station",
        "ref": "NWT127781",
        "name": "民族區運路口",
        "name_en": "Minzu & Quyun Intersection",
        "line": "57",
        "color": "#0891b2",
        "direction": 1
      },
      "geometry": {
        "type": "Point",
        "coordinates": [
          121.4656708,
          25.00864249
        ]
      }
    },
    {
      "type": "Feature",
      "properties": {
        "feature_type": "station",
        "ref": "NWT127782",
        "name": "板橋外站",
        "name_en": "Banqiao Bus Terminal Extension",
        "line": "57",
        "color": "#0891b2",
        "direction": 1
      },
      "geometry": {
        "type": "Point",
        "coordinates": [
          121.462406,
          25.009662
        ]
      }
    },
    {
      "type": "Feature",
      "properties": {
        "feature_type": "station",
        "ref": "NWT127783",
        "name": "後站商圈",
        "name_en": "Old Banqiao Sta. Shopping Circle",
        "line": "57",
        "color": "#0891b2",
        "direction": 1
      },
      "geometry": {
        "type": "Point",
        "coordinates": [
          121.460535,
          25.008843
        ]
      }
    },
    {
      "type": "Feature",
      "properties": {
        "feature_type": "station",
        "ref": "NWT127784",
        "name": "鄉雲里",
        "name_en": "Xiangyun Village",
        "line": "57",
        "color": "#0891b2",
        "direction": 1
      },
      "geometry": {
        "type": "Point",
        "coordinates": [
          121.459645,
          25.005073
        ]
      }
    },
    {
      "type": "Feature",
      "properties": {
        "feature_type": "station",
        "ref": "NWT127785",
        "name": "福星里",
        "name_en": "Fuxing Village",
        "line": "57",
        "color": "#0891b2",
        "direction": 1
      },
      "geometry": {
        "type": "Point",
        "coordinates": [
          121.459747,
          25.002721
        ]
      }
    },
    {
      "type": "Feature",
      "properties": {
        "feature_type": "station",
        "ref": "NWT127786",
        "name": "仁愛新村",
        "name_en": "Renai New Village",
        "line": "57",
        "color": "#0891b2",
        "direction": 1
      },
      "geometry": {
        "type": "Point",
        "coordinates": [
          121.458052,
          24.999454
        ]
      }
    },
    {
      "type": "Feature",
      "properties": {
        "feature_type": "station",
        "ref": "NWT127787",
        "name": "豫章工商",
        "name_en": "Yu Chang Technical & Commercial Vocational Senior High School",
        "line": "57",
        "color": "#0891b2",
        "direction": 1
      },
      "geometry": {
        "type": "Point",
        "coordinates": [
          121.4570296,
          24.99736525
        ]
      }
    },
    {
      "type": "Feature",
      "properties": {
        "feature_type": "station",
        "ref": "NWT127788",
        "name": "亞東科技大學",
        "name_en": "Oriental University of Science & Technology",
        "line": "57",
        "color": "#0891b2",
        "direction": 1
      },
      "geometry": {
        "type": "Point",
        "coordinates": [
          121.4532287,
          24.99527614
        ]
      }
    },
    {
      "type": "Feature",
      "properties": {
        "feature_type": "station",
        "ref": "NWT148643",
        "name": "南雅站",
        "name_en": "Nanya Stop",
        "line": "57",
        "color": "#0891b2",
        "direction": 1
      },
      "geometry": {
        "type": "Point",
        "coordinates": [
          121.450379,
          24.993821
        ]
      }
    }
  ]
}
