{
  "type": "FeatureCollection",
  "name": "5",
  "properties": {
    "id": "taipei_5",
    "name": "5",
    "name_en": "5",
    "ref": "5",
    "color": "#0f766e",
    "city_id": "Taipei",
    "source": "TDX Bus Shape / StopOfRoute",
    "official_map_url": "https://ebus.gov.taipei/File/Get/49d0d099-10d5-4d68-9ccf-3880c650832d?v=639234358436208099",
    "operator_id": "800",
    "operator": "大都會客運",
    "operator_en": "Metropolitan Bus Co., Ltd."
  },
  "features": [
    {
      "type": "Feature",
      "properties": {
        "feature_type": "route",
        "ref": "5",
        "name": "5",
        "name_en": "5",
        "color": "#0f766e",
        "direction": 0
      },
      "geometry": {
        "type": "LineString",
        "coordinates": [
          [
            121.49239928159434,
            25.002618001944654
          ],
          [
            121.49324673879399,
            25.002213622103767
          ],
          [
            121.49350646081072,
            25.002134991688706
          ],
          [
            121.49367459856789,
            25.002092404597114
          ],
          [
            121.49395140177509,
            25.002086415786167
          ],
          [
            121.49435228917864,
            25.002125675763676
          ],
          [
            121.49623557890405,
            25.002301347373777
          ],
          [
            121.49655937257612,
            25.002339941860534
          ],
          [
            121.49697421027392,
            25.002361235365267
          ],
          [
            121.49921066271196,
            25.002572839368042
          ],
          [
            121.49935750791474,
            25.002522267375365
          ],
          [
            121.49950288466547,
            25.00235724283341
          ],
          [
            121.49981272804328,
            25.001830227489332
          ],
          [
            121.50000509525887,
            25.001494852911517
          ],
          [
            121.5002282999671,
            25.001239328809184
          ],
          [
            121.5008773557633,
            25.000757557962412
          ],
          [
            121.50130761220738,
            25.0004221804566
          ],
          [
            121.50146620502639,
            25.000249167893283
          ],
          [
            121.50170996806294,
            25.000004288156468
          ],
          [
            121.5018979299225,
            24.999827282390655
          ],
          [
            121.50206533345364,
            24.999758077059493
          ],
          [
            121.50229588042197,
            24.999759407931617
          ],
          [
            121.50334141826562,
            24.99975142269867
          ],
          [
            121.50540753026844,
            24.99969818779914
          ],
          [
            121.50748685833953,
            24.999618335406602
          ],
          [
            121.50806102308232,
            24.999593048804815
          ],
          [
            121.50817996769658,
            24.999531163152177
          ],
          [
            121.50832681289934,
            24.999352160390025
          ],
          [
            121.50876441160354,
            24.999035411368947
          ],
          [
            121.50940245400955,
            24.998567606174216
          ],
          [
            121.5100918922365,
            24.99803791279382
          ],
          [
            121.5106807414996,
            24.997594059924126
          ],
          [
            121.51121746071566,
            24.99720543780432
          ],
          [
            121.51131070741941,
            24.997127580142816
          ],
          [
            121.51143258893772,
            24.99713290374518
          ],
          [
            121.51152803831951,
            24.99721408865255
          ],
          [
            121.51211688758258,
            24.997922125243235
          ],
          [
            121.51266902554497,
            24.998543650241484
          ],
          [
            121.51315802007015,
            24.99916384121751
          ],
          [
            121.51378504908594,
            24.99989449137688
          ],
          [
            121.51427037248108,
            25.000481403931925
          ],
          [
            121.51460371109134,
            25.000834082463456
          ],
          [
            121.51503176485741,
            25.001329826989544
          ],
          [
            121.51510445323278,
            25.00146823584232
          ],
          [
            121.51511840352703,
            25.00159067431288
          ],
          [
            121.51511399817095,
            25.001706458406485
          ],
          [
            121.51504424669965,
            25.002024531389388
          ],
          [
            121.51492163095533,
            25.002471695361873
          ],
          [
            121.51475716432824,
            25.00304794891437
          ],
          [
            121.51466391762449,
            25.003476477517424
          ],
          [
            121.51461399025554,
            25.00372866989411
          ],
          [
            121.51456186020856,
            25.003936279061072
          ],
          [
            121.51448623492915,
            25.00418913590593
          ],
          [
            121.51442896530007,
            25.00446661242359
          ],
          [
            121.5143981278075,
            25.004739430451014
          ],
          [
            121.51438344328722,
            25.00501291328015
          ],
          [
            121.51439592512943,
            25.005274418189682
          ],
          [
            121.51439665935544,
            25.005590485721523
          ],
          [
            121.51441354655375,
            25.006051610156593
          ],
          [
            121.51443851023824,
            25.00631643985767
          ],
          [
            121.51447668999094,
            25.006453512292783
          ],
          [
            121.51462647209776,
            25.006636497101262
          ],
          [
            121.51505232318578,
            25.007111590931352
          ],
          [
            121.515012674981,
            25.00722404284348
          ],
          [
            121.51492897321542,
            25.00729457475949
          ],
          [
            121.5146338143579,
            25.00749951632338
          ],
          [
            121.51425054837868,
            25.007805597243138
          ],
          [
            121.51407213145733,
            25.00793335253184
          ],
          [
            121.51399063236978,
            25.008041145953328
          ],
          [
            121.51398769546574,
            25.008099700364856
          ],
          [
            121.514107374306,
            25.008583438583102
          ],
          [
            121.51425862486484,
            25.009061851810916
          ],
          [
            121.51437169567097,
            25.009522963213985
          ],
          [
            121.51452221200378,
            25.010058595498602
          ],
          [
            121.51463528280992,
            25.01036600079819
          ],
          [
            121.51467419678863,
            25.010475788218717
          ],
          [
            121.51478506491674,
            25.010926913680127
          ],
          [
            121.51494659463977,
            25.011517100387834
          ],
          [
            121.51507802109626,
            25.01196556054438
          ],
          [
            121.5152446904014,
            25.0124951938723
          ],
          [
            121.51537978798794,
            25.012978914777726
          ],
          [
            121.51549139034205,
            25.013451322626153
          ],
          [
            121.51565732542115,
            25.01401887500412
          ],
          [
            121.51579903104184,
            25.014539184492488
          ],
          [
            121.5159363313064,
            25.01501823987245
          ],
          [
            121.51604793366049,
            25.01542343942231
          ],
          [
            121.51618670237711,
            25.015895172517467
          ],
          [
            121.51622635058185,
            25.016111410636515
          ],
          [
            121.5162131345136,
            25.016309684023295
          ],
          [
            121.5161859681511,
            25.01650130363647
          ],
          [
            121.5161382434602,
            25.016746815828792
          ],
          [
            121.51606335240679,
            25.016946418875374
          ],
          [
            121.5159568896348,
            25.01721322110754
          ],
          [
            121.51579682836378,
            25.017589138480616
          ],
          [
            121.51569477094787,
            25.017877230130836
          ],
          [
            121.51565805964718,
            25.01802027769674
          ],
          [
            121.51563162751066,
            25.01835959916322
          ],
          [
            121.51562501947654,
            25.01874682369094
          ],
          [
            121.51559638466202,
            25.01927376644714
          ],
          [
            121.51557876323767,
            25.01994974020639
          ],
          [
            121.51558830817588,
            25.0202850643908
          ],
          [
            121.51561767721644,
            25.020515931898057
          ],
          [
            121.51568082065363,
            25.020778734439837
          ],
          [
            121.51575571170706,
            25.020978330931086
          ],
          [
            121.51582179204827,
            25.021147987693478
          ],
          [
            121.51597744796318,
            25.021401474419207
          ],
          [
            121.51617862589097,
            25.0216689322867
          ],
          [
            121.51641798357147,
            25.021924413884577
          ],
          [
            121.51658758978067,
            25.022117355363893
          ],
          [
            121.51669478677867,
            25.02226638581617
          ],
          [
            121.51680565490675,
            25.02244335924324
          ],
          [
            121.51687393792604,
            25.022685532993112
          ],
          [
            121.51692239684296,
            25.023024176254218
          ],
          [
            121.51691578880884,
            25.023355500190917
          ],
          [
            121.5168989016105,
            25.023893068048892
          ],
          [
            121.51682694746115,
            25.024207757051407
          ],
          [
            121.51671167397699,
            25.02469741951847
          ],
          [
            121.5165626260962,
            25.02524096918109
          ],
          [
            121.51647892433063,
            25.02553369994821
          ],
          [
            121.51639669101708,
            25.025847719449423
          ],
          [
            121.5163342818059,
            25.026084564134905
          ],
          [
            121.51611401400174,
            25.02691285164563
          ],
          [
            121.51606996044093,
            25.02719892555131
          ],
          [
            121.51625058004034,
            25.027402503319905
          ],
          [
            121.51642092047554,
            25.027494312791326
          ],
          [
            121.51748554819552,
            25.028130324344943
          ],
          [
            121.51766616779494,
            25.028236769471235
          ],
          [
            121.51771168980778,
            25.02833789225568
          ],
          [
            121.5176588255348,
            25.028441676079396
          ],
          [
            121.51719185779001,
            25.029075021614148
          ],
          [
            121.51684824001558,
            25.029531400928914
          ],
          [
            121.5165104960492,
            25.029989109090778
          ],
          [
            121.51650535646706,
            25.030076924996404
          ],
          [
            121.51669478677864,
            25.03019135168821
          ],
          [
            121.51753180443437,
            25.030674337595265
          ],
          [
            121.51756411037897,
            25.030752839257296
          ],
          [
            121.51756117347493,
            25.030839324081047
          ],
          [
            121.51740258065594,
            25.031040234744
          ],
          [
            121.51717497059164,
            25.031320976907427
          ],
          [
            121.51685705072767,
            25.031787992068992
          ],
          [
            121.5166360486975,
            25.032101995565675
          ],
          [
            121.51645469487211,
            25.032350802850434
          ],
          [
            121.51615806756253,
            25.032729334890774
          ],
          [
            121.51576672509718,
            25.03324690405051
          ],
          [
            121.51539300405618,
            25.03378110232017
          ],
          [
            121.51505232318576,
            25.03424145562555
          ],
          [
            121.51500313004284,
            25.03436652241011
          ],
          [
            121.51510078210268,
            25.034486267084358
          ],
          [
            121.51517787583414,
            25.034613329360887
          ],
          [
            121.51519990261454,
            25.034759683652435
          ],
          [
            121.51525717224362,
            25.03514286497057
          ],
          [
            121.51527185676387,
            25.035305184473618
          ],
          [
            121.51523955081927,
            25.035444220270605
          ],
          [
            121.51506847615805,
            25.035574607764797
          ],
          [
            121.51506113389793,
            25.03567772022584
          ],
          [
            121.51510885858882,
            25.036471350654242
          ],
          [
            121.5151338222733,
            25.03706008407555
          ],
          [
            121.51516465976587,
            25.037999390757047
          ],
          [
            121.51521678981285,
            25.038193637416853
          ],
          [
            121.51530636538654,
            25.038520263812252
          ],
          [
            121.51545614749335,
            25.03904246510183
          ],
          [
            121.5157145950502,
            25.039950491349387
          ],
          [
            121.51607289734491,
            25.041159852132157
          ],
          [
            121.51643119963968,
            25.042366540169073
          ],
          [
            121.516766006702,
            25.043512018047878
          ],
          [
            121.51716102029741,
            25.0448477301913
          ],
          [
            121.51719920005011,
            25.044966134250966
          ],
          [
            121.51723444289881,
            25.044970125397054
          ],
          [
            121.51729024407584,
            25.044962143104755
          ],
          [
            121.51906707102924,
            25.044528437775142
          ],
          [
            121.51928733883337,
            25.04448852616466
          ],
          [
            121.51937397750301,
            25.044497838874936
          ],
          [
            121.5194106888037,
            25.044555045508236
          ],
          [
            121.51967354171663,
            25.04542777595353
          ],
          [
            121.51977486490652,
            25.04573110154391
          ],
          [
            121.52004799698368,
            25.04628985724616
          ],
          [
            121.52031378680064,
            25.046856592571604
          ],
          [
            121.52058985578184,
            25.047489843028885
          ],
          [
            121.5208483033387,
            25.048047260367635
          ],
          [
            121.52115814671649,
            25.048615317912184
          ],
          [
            121.52162805136534,
            25.04956384841364
          ],
          [
            121.52177636502014,
            25.049891109688872
          ],
          [
            121.52197166913983,
            25.050318144429387
          ],
          [
            121.52221396372437,
            25.05085160318362
          ],
          [
            121.5223857726116,
            25.051287946772824
          ],
          [
            121.52251793329408,
            25.051708325103196
          ],
          [
            121.5225928243475,
            25.051971725980625
          ],
          [
            121.52262806719617,
            25.052119389861286
          ],
          [
            121.52272204812594,
            25.05216195959566
          ],
          [
            121.52289532546519,
            25.052176592938434
          ],
          [
            121.52419784241367,
            25.052124711078896
          ],
          [
            121.52451796495568,
            25.05213402320915
          ],
          [
            121.52484249285378,
            25.052132692904873
          ],
          [
            121.52650478054905,
            25.052074159502332
          ],
          [
            121.52737704105344,
            25.052064847367532
          ],
          [
            121.52879703416409,
            25.052052209469167
          ],
          [
            121.529164147171,
            25.05205686553714
          ],
          [
            121.52936973045489,
            25.05206019129987
          ],
          [
            121.5299350844855,
            25.052056200384584
          ],
          [
            121.53090940240581,
            25.052031589737478
          ],
          [
            121.53136755943841,
            25.052030924584784
          ],
          [
            121.53276258886464,
            25.052028929126685
          ],
          [
            121.53293880310795,
            25.05203824126421
          ],
          [
            121.53302911290764,
            25.052082141331596
          ],
          [
            121.53304893701,
            25.052136683817665
          ],
          [
            121.53304600010593,
            25.052890298854294
          ],
          [
            121.53305848194816,
            25.053212230078906
          ],
          [
            121.53307316646844,
            25.053614642920653
          ],
          [
            121.53308491408465,
            25.054301069710903
          ],
          [
            121.5330944590228,
            25.054672882617194
          ],
          [
            121.53314218371362,
            25.054749373504528
          ],
          [
            121.53319137685656,
            25.054831185444243
          ],
          [
            121.53320092179474,
            25.05502673571304
          ],
          [
            121.53320606137682,
            25.05593929950872
          ],
          [
            121.53320312447275,
            25.056952955700876
          ],
          [
            121.53322661970518,
            25.057763076472195
          ],
          [
            121.53329857385454,
            25.057829588612904
          ],
          [
            121.53345422976946,
            25.057845551521304
          ],
          [
            121.5358066899177,
            25.057817616430242
          ],
          [
            121.53812390721727,
            25.057773718417142
          ],
          [
            121.54147050938823,
            25.057735141362336
          ],
          [
            121.54395513021892,
            25.057692573563635
          ],
          [
            121.54422092003588,
            25.05777903938926
          ],
          [
            121.54429581108931,
            25.057904082167642
          ],
          [
            121.54429581108931,
            25.05815150686375
          ],
          [
            121.54428259502107,
            25.058786029204352
          ],
          [
            121.5443002164454,
            25.059659988558437
          ],
          [
            121.54433986465013,
            25.06139591673388
          ],
          [
            121.54434867536227,
            25.061981204980956
          ],
          [
            121.54429507686322,
            25.06216277678939
          ],
          [
            121.54403809775843,
            25.062305107615934
          ],
          [
            121.54383838828268,
            25.06236230593891
          ],
          [
            121.54348742824807,
            25.06239023999391
          ],
          [
            121.54259020405918,
            25.06238890980096
          ],
          [
            121.54163717869326,
            25.062379598449898
          ],
          [
            121.54145655909386,
            25.062367626711783
          ],
          [
            121.54107916692277,
            25.06236629651858
          ],
          [
            121.54061219917801,
            25.06239423057268
          ],
          [
            121.53821274856492,
            25.06241152307916
          ],
          [
            121.53799835456888,
            25.062395560765573
          ],
          [
            121.53745502731869,
            25.062387579607993
          ],
          [
            121.53657248765008,
            25.062432806160714
          ],
          [
            121.53505117134951,
            25.062480693080694
          ],
          [
            121.5342332435701,
            25.0624953251914
          ],
          [
            121.53393955316456,
            25.062480693080115
          ],
          [
            121.53349305196993,
            25.062493828725607
          ]
        ]
      }
    },
    {
      "type": "Feature",
      "properties": {
        "feature_type": "route",
        "ref": "5",
        "name": "5",
        "name_en": "5",
        "color": "#0f766e",
        "direction": 1
      },
      "geometry": {
        "type": "LineString",
        "coordinates": [
          [
            121.53313144565814,
            25.062013628537862
          ],
          [
            121.53314613017842,
            25.061687729831462
          ],
          [
            121.53315934624665,
            25.061278027370715
          ],
          [
            121.5331828414791,
            25.06108381728409
          ],
          [
            121.53318577838317,
            25.060428023415582
          ],
          [
            121.5331461301784,
            25.06026307673803
          ],
          [
            121.53313731946625,
            25.05992520139883
          ],
          [
            121.53310501352163,
            25.05907252760141
          ],
          [
            121.53312410339801,
            25.05887565355703
          ]
        ]
      }
    },
    {
      "type": "Feature",
      "properties": {
        "feature_type": "route",
        "ref": "5",
        "name": "5",
        "name_en": "5",
        "color": "#0f766e",
        "direction": 1
      },
      "geometry": {
        "type": "LineString",
        "coordinates": [
          [
            121.51474422359297,
            25.035092140079456
          ],
          [
            121.51470604384023,
            25.03485132130507
          ]
        ]
      }
    },
    {
      "type": "Feature",
      "properties": {
        "feature_type": "route",
        "ref": "5",
        "name": "5",
        "name_en": "5",
        "color": "#0f766e",
        "direction": 1
      },
      "geometry": {
        "type": "LineString",
        "coordinates": [
          [
            121.514537171857,
            25.03198141698485
          ],
          [
            121.5144373171191,
            25.031932187627817
          ],
          [
            121.51439620046231,
            25.031816432034798
          ],
          [
            121.5144696230637,
            25.031622175276965
          ],
          [
            121.5147662503733,
            25.030875747476244
          ],
          [
            121.51516713777688,
            25.02991642807313
          ],
          [
            121.51528020858302,
            25.02960508008054
          ],
          [
            121.5155107555514,
            25.028753525980225
          ],
          [
            121.51570605967109,
            25.028036353177207
          ]
        ]
      }
    },
    {
      "type": "Feature",
      "properties": {
        "feature_type": "route",
        "ref": "5",
        "name": "5",
        "name_en": "5",
        "color": "#0f766e",
        "direction": 1
      },
      "geometry": {
        "type": "LineString",
        "coordinates": [
          [
            121.51361645243557,
            25.007557239246186
          ],
          [
            121.5133418519064,
            25.00727511194241
          ],
          [
            121.51310836803398,
            25.00700229954654
          ],
          [
            121.51294977521502,
            25.00664697712731
          ],
          [
            121.51293362224268,
            25.006468650132536
          ],
          [
            121.51294243295486,
            25.00605610161507
          ],
          [
            121.51296739663931,
            25.00546256163993
          ],
          [
            121.51297327044742,
            25.00512852779187
          ],
          [
            121.51294977521499,
            25.004971491645033
          ],
          [
            121.51270160682232,
            25.004601524336028
          ],
          [
            121.51259440982429,
            25.00445513408595
          ],
          [
            121.51257385149587,
            25.004298097078294
          ],
          [
            121.5127133544385,
            25.004182315427133
          ],
          [
            121.51320822277187,
            25.00382964650695
          ],
          [
            121.51360323636732,
            25.00366196206147
          ],
          [
            121.51367812742075,
            25.003598082212505
          ],
          [
            121.51367959587279,
            25.003523555680072
          ],
          [
            121.51339765308344,
            25.003168223198415
          ],
          [
            121.51298648651566,
            25.002711745880468
          ],
          [
            121.51255623007157,
            25.00221800320577
          ],
          [
            121.51187046297464,
            25.001466073182744
          ],
          [
            121.51132419882028,
            25.00084456298398
          ],
          [
            121.51098131527183,
            25.000437319039023
          ],
          [
            121.5109108295745,
            25.00035214366417
          ],
          [
            121.51086457333562,
            25.00024567436257
          ],
          [
            121.51084034387715,
            25.000038058959095
          ],
          [
            121.51085576262342,
            24.99986903846773
          ],
          [
            121.51092698254676,
            24.999704675798423
          ],
          [
            121.51099893669615,
            24.999580239137366
          ],
          [
            121.51143726962644,
            24.99925750175538
          ]
        ]
      }
    },
    {
      "type": "Feature",
      "properties": {
        "feature_type": "station",
        "ref": "TPE11384",
        "name": "中和保養廠",
        "name_en": "Zhonghe Maintenance Plant",
        "line": "5",
        "color": "#0f766e",
        "direction": 0
      },
      "geometry": {
        "type": "Point",
        "coordinates": [
          121.492374,
          25.002543
        ]
      }
    },
    {
      "type": "Feature",
      "properties": {
        "feature_type": "station",
        "ref": "TPE201649",
        "name": "家美工業區",
        "name_en": "Jiamei industrial Area",
        "line": "5",
        "color": "#0f766e",
        "direction": 0
      },
      "geometry": {
        "type": "Point",
        "coordinates": [
          121.493912,
          25.002028
        ]
      }
    },
    {
      "type": "Feature",
      "properties": {
        "feature_type": "station",
        "ref": "TPE11386",
        "name": "捷運中和站(中山路)",
        "name_en": "MRT Zhonghe Sta. (Zhongshan Rd.)",
        "line": "5",
        "color": "#0f766e",
        "direction": 0
      },
      "geometry": {
        "type": "Point",
        "coordinates": [
          121.495441,
          25.002211
        ]
      }
    },
    {
      "type": "Feature",
      "properties": {
        "feature_type": "station",
        "ref": "TPE11388",
        "name": "一江新村",
        "name_en": "Yijiang New Village",
        "line": "5",
        "color": "#0f766e",
        "direction": 0
      },
      "geometry": {
        "type": "Point",
        "coordinates": [
          121.498123,
          25.002407
        ]
      }
    },
    {
      "type": "Feature",
      "properties": {
        "feature_type": "station",
        "ref": "TPE11390",
        "name": "中和農會(中和路)",
        "name_en": "Zhonghe Farmers Association(Zhonghe Rd.)",
        "line": "5",
        "color": "#0f766e",
        "direction": 0
      },
      "geometry": {
        "type": "Point",
        "coordinates": [
          121.499736,
          25.001903
        ]
      }
    },
    {
      "type": "Feature",
      "properties": {
        "feature_type": "station",
        "ref": "TPE11392",
        "name": "中和廟口",
        "name_en": "Zhonghe Temple",
        "line": "5",
        "color": "#0f766e",
        "direction": 0
      },
      "geometry": {
        "type": "Point",
        "coordinates": [
          121.500968,
          25.000553
        ]
      }
    },
    {
      "type": "Feature",
      "properties": {
        "feature_type": "station",
        "ref": "TPE11394",
        "name": "中和派出所",
        "name_en": "Zhonghe Police Station",
        "line": "5",
        "color": "#0f766e",
        "direction": 0
      },
      "geometry": {
        "type": "Point",
        "coordinates": [
          121.502769736506,
          24.9996954644534
        ]
      }
    },
    {
      "type": "Feature",
      "properties": {
        "feature_type": "station",
        "ref": "TPE11396",
        "name": "南山高中",
        "name_en": "Nanshan High School",
        "line": "5",
        "color": "#0f766e",
        "direction": 0
      },
      "geometry": {
        "type": "Point",
        "coordinates": [
          121.5048263,
          24.99965591
        ]
      }
    },
    {
      "type": "Feature",
      "properties": {
        "feature_type": "station",
        "ref": "TPE11398",
        "name": "雙和里",
        "name_en": "Shuanghe Village",
        "line": "5",
        "color": "#0f766e",
        "direction": 0
      },
      "geometry": {
        "type": "Point",
        "coordinates": [
          121.50739,
          24.999571
        ]
      }
    },
    {
      "type": "Feature",
      "properties": {
        "feature_type": "station",
        "ref": "TPE11400",
        "name": "華泰新城(宜安路)",
        "name_en": "Huatai New Village(Yian Rd.)",
        "line": "5",
        "color": "#0f766e",
        "direction": 0
      },
      "geometry": {
        "type": "Point",
        "coordinates": [
          121.508875,
          24.998841
        ]
      }
    },
    {
      "type": "Feature",
      "properties": {
        "feature_type": "station",
        "ref": "TPE11402",
        "name": "宜安路",
        "name_en": "Yian Road",
        "line": "5",
        "color": "#0f766e",
        "direction": 0
      },
      "geometry": {
        "type": "Point",
        "coordinates": [
          121.5109042,
          24.99738917
        ]
      }
    },
    {
      "type": "Feature",
      "properties": {
        "feature_type": "station",
        "ref": "TPE11404",
        "name": "安平路",
        "name_en": "Anping Rd.",
        "line": "5",
        "color": "#0f766e",
        "direction": 0
      },
      "geometry": {
        "type": "Point",
        "coordinates": [
          121.51196,
          24.99767
        ]
      }
    },
    {
      "type": "Feature",
      "properties": {
        "feature_type": "station",
        "ref": "TPE11406",
        "name": "潭墘",
        "name_en": "Tanqian",
        "line": "5",
        "color": "#0f766e",
        "direction": 0
      },
      "geometry": {
        "type": "Point",
        "coordinates": [
          121.51347,
          24.99948
        ]
      }
    },
    {
      "type": "Feature",
      "properties": {
        "feature_type": "station",
        "ref": "TPE11408",
        "name": "823紀念公園",
        "name_en": "823 Memorial Park",
        "line": "5",
        "color": "#0f766e",
        "direction": 0
      },
      "geometry": {
        "type": "Point",
        "coordinates": [
          121.5151052,
          25.00190917
        ]
      }
    },
    {
      "type": "Feature",
      "properties": {
        "feature_type": "station",
        "ref": "TPE11410",
        "name": "永安市場",
        "name_en": "Yongan Market",
        "line": "5",
        "color": "#0f766e",
        "direction": 0
      },
      "geometry": {
        "type": "Point",
        "coordinates": [
          121.51445,
          25.00506
        ]
      }
    },
    {
      "type": "Feature",
      "properties": {
        "feature_type": "station",
        "ref": "TPE11412",
        "name": "自強街口",
        "name_en": "Ziqiang St. Entrance",
        "line": "5",
        "color": "#0f766e",
        "direction": 0
      },
      "geometry": {
        "type": "Point",
        "coordinates": [
          121.514584,
          25.007558
        ]
      }
    },
    {
      "type": "Feature",
      "properties": {
        "feature_type": "station",
        "ref": "TPE11414",
        "name": "樂華夜市",
        "name_en": "Yao Hua Shopping Area",
        "line": "5",
        "color": "#0f766e",
        "direction": 0
      },
      "geometry": {
        "type": "Point",
        "coordinates": [
          121.5141176,
          25.00856393
        ]
      }
    },
    {
      "type": "Feature",
      "properties": {
        "feature_type": "station",
        "ref": "TPE11416",
        "name": "捷運頂溪站",
        "name_en": "MRT Dingxi Sta.",
        "line": "5",
        "color": "#0f766e",
        "direction": 0
      },
      "geometry": {
        "type": "Point",
        "coordinates": [
          121.515273,
          25.01258
        ]
      }
    },
    {
      "type": "Feature",
      "properties": {
        "feature_type": "station",
        "ref": "TPE11418",
        "name": "中正橋頭",
        "name_en": "Zhongzheng Bridge Stop",
        "line": "5",
        "color": "#0f766e",
        "direction": 0
      },
      "geometry": {
        "type": "Point",
        "coordinates": [
          121.5162239,
          25.01604284
        ]
      }
    },
    {
      "type": "Feature",
      "properties": {
        "feature_type": "station",
        "ref": "TPE11420",
        "name": "重慶南路三段(中正橋)",
        "name_en": "Chongqing S. Road Sec. 3 (Zhongzheng Bridge)",
        "line": "5",
        "color": "#0f766e",
        "direction": 0
      },
      "geometry": {
        "type": "Point",
        "coordinates": [
          121.516898839078,
          25.0242546637841
        ]
      }
    },
    {
      "type": "Feature",
      "properties": {
        "feature_type": "station",
        "ref": "TPE11422",
        "name": "福州街",
        "name_en": "Fuzhou St.",
        "line": "5",
        "color": "#0f766e",
        "direction": 0
      },
      "geometry": {
        "type": "Point",
        "coordinates": [
          121.517445,
          25.028027
        ]
      }
    },
    {
      "type": "Feature",
      "properties": {
        "feature_type": "station",
        "ref": "TPE11424",
        "name": "自來水西分處(牯嶺)",
        "name_en": "Taipei Water Dept. West District Business Office (Guling)",
        "line": "5",
        "color": "#0f766e",
        "direction": 0
      },
      "geometry": {
        "type": "Point",
        "coordinates": [
          121.5166342,
          25.02986525
        ]
      }
    },
    {
      "type": "Feature",
      "properties": {
        "feature_type": "station",
        "ref": "TPE11426",
        "name": "南昌路",
        "name_en": "Nanchang Rd.",
        "line": "5",
        "color": "#0f766e",
        "direction": 0
      },
      "geometry": {
        "type": "Point",
        "coordinates": [
          121.51730073589657,
          25.031281468826304
        ]
      }
    },
    {
      "type": "Feature",
      "properties": {
        "feature_type": "station",
        "ref": "TPE11428",
        "name": "南門",
        "name_en": "Nanmen",
        "line": "5",
        "color": "#0f766e",
        "direction": 0
      },
      "geometry": {
        "type": "Point",
        "coordinates": [
          121.51568,
          25.033381
        ]
      }
    },
    {
      "type": "Feature",
      "properties": {
        "feature_type": "station",
        "ref": "TPE11430",
        "name": "一女中(公園)",
        "name_en": "Taipei First Girls High School (Gongyuan)",
        "line": "5",
        "color": "#0f766e",
        "direction": 0
      },
      "geometry": {
        "type": "Point",
        "coordinates": [
          121.515136595156,
          25.0368285357308
        ]
      }
    },
    {
      "type": "Feature",
      "properties": {
        "feature_type": "station",
        "ref": "TPE11432",
        "name": "捷運台大醫院站",
        "name_en": "MRT NTU Hospital Station",
        "line": "5",
        "color": "#0f766e",
        "direction": 0
      },
      "geometry": {
        "type": "Point",
        "coordinates": [
          121.5163535,
          25.04192722
        ]
      }
    },
    {
      "type": "Feature",
      "properties": {
        "feature_type": "station",
        "ref": "TPE11434",
        "name": "臺北車站(青島)",
        "name_en": "Taipei Main Sta. (Qingdao)",
        "line": "5",
        "color": "#0f766e",
        "direction": 0
      },
      "geometry": {
        "type": "Point",
        "coordinates": [
          121.517704,
          25.04484411
        ]
      }
    },
    {
      "type": "Feature",
      "properties": {
        "feature_type": "station",
        "ref": "TPE11436",
        "name": "行政院",
        "name_en": "Executive Yuan",
        "line": "5",
        "color": "#0f766e",
        "direction": 0
      },
      "geometry": {
        "type": "Point",
        "coordinates": [
          121.520239869754,
          25.046578538214
        ]
      }
    },
    {
      "type": "Feature",
      "properties": {
        "feature_type": "station",
        "ref": "TPE11438",
        "name": "中山市場",
        "name_en": "ZhongShan Market",
        "line": "5",
        "color": "#0f766e",
        "direction": 0
      },
      "geometry": {
        "type": "Point",
        "coordinates": [
          121.522081,
          25.050519
        ]
      }
    },
    {
      "type": "Feature",
      "properties": {
        "feature_type": "station",
        "ref": "TPE11440",
        "name": "南京林森路口",
        "name_en": "Nanjing & Linsen Intersection",
        "line": "5",
        "color": "#0f766e",
        "direction": 0
      },
      "geometry": {
        "type": "Point",
        "coordinates": [
          121.525060474751,
          25.052069472359
        ]
      }
    },
    {
      "type": "Feature",
      "properties": {
        "feature_type": "station",
        "ref": "TPE11442",
        "name": "南京吉林路口",
        "name_en": "Nanjing & Jilin Intersection",
        "line": "5",
        "color": "#0f766e",
        "direction": 0
      },
      "geometry": {
        "type": "Point",
        "coordinates": [
          121.529855025946,
          25.0520078098529
        ]
      }
    },
    {
      "type": "Feature",
      "properties": {
        "feature_type": "station",
        "ref": "TPE11444",
        "name": "捷運松江南京站",
        "name_en": "MRT Songjiang Nanjing Sta.",
        "line": "5",
        "color": "#0f766e",
        "direction": 0
      },
      "geometry": {
        "type": "Point",
        "coordinates": [
          121.532641149751,
          25.0519912439505
        ]
      }
    },
    {
      "type": "Feature",
      "properties": {
        "feature_type": "station",
        "ref": "TPE11446",
        "name": "長春松江路口",
        "name_en": "ChangChun&SongJiang Intersection",
        "line": "5",
        "color": "#0f766e",
        "direction": 0
      },
      "geometry": {
        "type": "Point",
        "coordinates": [
          121.5331386,
          25.05453652
        ]
      }
    },
    {
      "type": "Feature",
      "properties": {
        "feature_type": "station",
        "ref": "TPE11448",
        "name": "民生松江路口",
        "name_en": "Minsheng & Songjiang Intersection",
        "line": "5",
        "color": "#0f766e",
        "direction": 0
      },
      "geometry": {
        "type": "Point",
        "coordinates": [
          121.535046,
          25.057791
        ]
      }
    },
    {
      "type": "Feature",
      "properties": {
        "feature_type": "station",
        "ref": "TPE11450",
        "name": "合江街口",
        "name_en": "Hejiang St. Entrance",
        "line": "5",
        "color": "#0f766e",
        "direction": 0
      },
      "geometry": {
        "type": "Point",
        "coordinates": [
          121.5381394,
          25.05772436
        ]
      }
    },
    {
      "type": "Feature",
      "properties": {
        "feature_type": "station",
        "ref": "TPE11452",
        "name": "臺北大學(臺北校區)",
        "name_en": "Nat'I Taipei U.(Taipei Campus)",
        "line": "5",
        "color": "#0f766e",
        "direction": 0
      },
      "geometry": {
        "type": "Point",
        "coordinates": [
          121.5428,
          25.057628
        ]
      }
    },
    {
      "type": "Feature",
      "properties": {
        "feature_type": "station",
        "ref": "TPE11454",
        "name": "捷運中山國中站",
        "name_en": "MRT Zhongshan Junior High School Sta.",
        "line": "5",
        "color": "#0f766e",
        "direction": 0
      },
      "geometry": {
        "type": "Point",
        "coordinates": [
          121.544405,
          25.060855
        ]
      }
    },
    {
      "type": "Feature",
      "properties": {
        "feature_type": "station",
        "ref": "TPE11456",
        "name": "民權龍江路口",
        "name_en": "Minquan and Longjiang Intersection",
        "line": "5",
        "color": "#0f766e",
        "direction": 0
      },
      "geometry": {
        "type": "Point",
        "coordinates": [
          121.541275218891,
          25.0623959365736
        ]
      }
    },
    {
      "type": "Feature",
      "properties": {
        "feature_type": "station",
        "ref": "TPE11458",
        "name": "民權建國路口",
        "name_en": "Minquan & Jianguo Intersection",
        "line": "5",
        "color": "#0f766e",
        "direction": 0
      },
      "geometry": {
        "type": "Point",
        "coordinates": [
          121.53746,
          25.06248317
        ]
      }
    },
    {
      "type": "Feature",
      "properties": {
        "feature_type": "station",
        "ref": "TPE11460",
        "name": "民權松江路口",
        "name_en": "Minquan and Songjiang Intersection",
        "line": "5",
        "color": "#0f766e",
        "direction": 0
      },
      "geometry": {
        "type": "Point",
        "coordinates": [
          121.5334388,
          25.06252486
        ]
      }
    },
    {
      "type": "Feature",
      "properties": {
        "feature_type": "station",
        "ref": "TPE11462",
        "name": "捷運行天宮站(松江路)",
        "name_en": "MRT Xingtian Temple Sta. (Songjiang Rd.)",
        "line": "5",
        "color": "#0f766e",
        "direction": 1
      },
      "geometry": {
        "type": "Point",
        "coordinates": [
          121.53313278818085,
          25.060643374791923
        ]
      }
    },
    {
      "type": "Feature",
      "properties": {
        "feature_type": "station",
        "ref": "TPE11464",
        "name": "長春松江路口",
        "name_en": "ChangChun&SongJiang Intersection",
        "line": "5",
        "color": "#0f766e",
        "direction": 1
      },
      "geometry": {
        "type": "Point",
        "coordinates": [
          121.533011,
          25.05500621
        ]
      }
    },
    {
      "type": "Feature",
      "properties": {
        "feature_type": "station",
        "ref": "TPE11466",
        "name": "南京吉林路口",
        "name_en": "Nanjing & Jilin Intersection",
        "line": "5",
        "color": "#0f766e",
        "direction": 1
      },
      "geometry": {
        "type": "Point",
        "coordinates": [
          121.530332504829,
          25.0521129968997
        ]
      }
    },
    {
      "type": "Feature",
      "properties": {
        "feature_type": "station",
        "ref": "TPE11468",
        "name": "南京林森路口",
        "name_en": "Nanjing & Linsen Intersection",
        "line": "5",
        "color": "#0f766e",
        "direction": 1
      },
      "geometry": {
        "type": "Point",
        "coordinates": [
          121.525717467074,
          25.0521676118001
        ]
      }
    },
    {
      "type": "Feature",
      "properties": {
        "feature_type": "station",
        "ref": "TPE11470",
        "name": "中山市場",
        "name_en": "ZhongShan Market",
        "line": "5",
        "color": "#0f766e",
        "direction": 1
      },
      "geometry": {
        "type": "Point",
        "coordinates": [
          121.52202112765,
          25.05126405386
        ]
      }
    },
    {
      "type": "Feature",
      "properties": {
        "feature_type": "station",
        "ref": "TPE11472",
        "name": "行政院",
        "name_en": "Executive Yuan",
        "line": "5",
        "color": "#0f766e",
        "direction": 1
      },
      "geometry": {
        "type": "Point",
        "coordinates": [
          121.519759690546,
          25.046484462941
        ]
      }
    },
    {
      "type": "Feature",
      "properties": {
        "feature_type": "station",
        "ref": "TPE11476",
        "name": "臺北車站(公園)",
        "name_en": "Taipei Main Sta. (Gongyuan)",
        "line": "5",
        "color": "#0f766e",
        "direction": 1
      },
      "geometry": {
        "type": "Point",
        "coordinates": [
          121.516775,
          25.043929
        ]
      }
    },
    {
      "type": "Feature",
      "properties": {
        "feature_type": "station",
        "ref": "TPE11478",
        "name": "捷運台大醫院站",
        "name_en": "MRT NTU Hospital Station",
        "line": "5",
        "color": "#0f766e",
        "direction": 1
      },
      "geometry": {
        "type": "Point",
        "coordinates": [
          121.516148167061,
          25.0419357569938
        ]
      }
    },
    {
      "type": "Feature",
      "properties": {
        "feature_type": "station",
        "ref": "TPE11480",
        "name": "一女中(公園)",
        "name_en": "Taipei First Girls High School (Gongyuan)",
        "line": "5",
        "color": "#0f766e",
        "direction": 1
      },
      "geometry": {
        "type": "Point",
        "coordinates": [
          121.5149627,
          25.03800782
        ]
      }
    },
    {
      "type": "Feature",
      "properties": {
        "feature_type": "station",
        "ref": "TPE11482",
        "name": "市立大學附小",
        "name_en": "Affiliated Experimental Elementary School of University of Taipei",
        "line": "5",
        "color": "#0f766e",
        "direction": 1
      },
      "geometry": {
        "type": "Point",
        "coordinates": [
          121.514976309391,
          25.0364625980204
        ]
      }
    },
    {
      "type": "Feature",
      "properties": {
        "feature_type": "station",
        "ref": "TPE11484",
        "name": "南門",
        "name_en": "Nanmen",
        "line": "5",
        "color": "#0f766e",
        "direction": 1
      },
      "geometry": {
        "type": "Point",
        "coordinates": [
          121.51568,
          25.033381
        ]
      }
    },
    {
      "type": "Feature",
      "properties": {
        "feature_type": "station",
        "ref": "TPE11486",
        "name": "寧波重慶路口",
        "name_en": "Ningpo and Chongqing Intersection",
        "line": "5",
        "color": "#0f766e",
        "direction": 1
      },
      "geometry": {
        "type": "Point",
        "coordinates": [
          121.5153917,
          25.02888681
        ]
      }
    },
    {
      "type": "Feature",
      "properties": {
        "feature_type": "station",
        "ref": "TPE11488",
        "name": "重慶南路三段(中正橋)",
        "name_en": "Chongqing S. Road Sec. 3 (Zhongzheng Bridge)",
        "line": "5",
        "color": "#0f766e",
        "direction": 1
      },
      "geometry": {
        "type": "Point",
        "coordinates": [
          121.516528,
          25.024804
        ]
      }
    },
    {
      "type": "Feature",
      "properties": {
        "feature_type": "station",
        "ref": "TPE11490",
        "name": "捷運頂溪站",
        "name_en": "MRT Dingxi Sta.",
        "line": "5",
        "color": "#0f766e",
        "direction": 1
      },
      "geometry": {
        "type": "Point",
        "coordinates": [
          121.5155769771344,
          25.014430464101867
        ]
      }
    },
    {
      "type": "Feature",
      "properties": {
        "feature_type": "station",
        "ref": "TPE11492",
        "name": "中興街口",
        "name_en": "Zhongxing St. Entrance",
        "line": "5",
        "color": "#0f766e",
        "direction": 1
      },
      "geometry": {
        "type": "Point",
        "coordinates": [
          121.5147464,
          25.0115956
        ]
      }
    },
    {
      "type": "Feature",
      "properties": {
        "feature_type": "station",
        "ref": "TPE11494",
        "name": "樂華夜市",
        "name_en": "Yao Hua Shopping Area",
        "line": "5",
        "color": "#0f766e",
        "direction": 1
      },
      "geometry": {
        "type": "Point",
        "coordinates": [
          121.51386,
          25.00839
        ]
      }
    },
    {
      "type": "Feature",
      "properties": {
        "feature_type": "station",
        "ref": "TPE11496",
        "name": "永和路口",
        "name_en": "Yonghe Rd. Entrance",
        "line": "5",
        "color": "#0f766e",
        "direction": 1
      },
      "geometry": {
        "type": "Point",
        "coordinates": [
          121.51286138332,
          25.0056877314979
        ]
      }
    },
    {
      "type": "Feature",
      "properties": {
        "feature_type": "station",
        "ref": "TPE11498",
        "name": "永安市場(永貞路)",
        "name_en": "Yongan Market(Yongzhen Rd.)",
        "line": "5",
        "color": "#0f766e",
        "direction": 1
      },
      "geometry": {
        "type": "Point",
        "coordinates": [
          121.513414,
          25.003661
        ]
      }
    },
    {
      "type": "Feature",
      "properties": {
        "feature_type": "station",
        "ref": "TPE11500",
        "name": "中安街",
        "name_en": "Zhongan St.",
        "line": "5",
        "color": "#0f766e",
        "direction": 1
      },
      "geometry": {
        "type": "Point",
        "coordinates": [
          121.512357,
          25.002081
        ]
      }
    },
    {
      "type": "Feature",
      "properties": {
        "feature_type": "station",
        "ref": "TPE199022",
        "name": "安平派出所",
        "name_en": "Anping Police Station",
        "line": "5",
        "color": "#0f766e",
        "direction": 1
      },
      "geometry": {
        "type": "Point",
        "coordinates": [
          121.511211,
          25.000769
        ]
      }
    },
    {
      "type": "Feature",
      "properties": {
        "feature_type": "station",
        "ref": "TPE11502",
        "name": "安平路",
        "name_en": "Anping Rd.",
        "line": "5",
        "color": "#0f766e",
        "direction": 1
      },
      "geometry": {
        "type": "Point",
        "coordinates": [
          121.5117,
          24.9978
        ]
      }
    },
    {
      "type": "Feature",
      "properties": {
        "feature_type": "station",
        "ref": "TPE11504",
        "name": "宜安路",
        "name_en": "Yian Road",
        "line": "5",
        "color": "#0f766e",
        "direction": 1
      },
      "geometry": {
        "type": "Point",
        "coordinates": [
          121.5112044,
          24.99729519
        ]
      }
    },
    {
      "type": "Feature",
      "properties": {
        "feature_type": "station",
        "ref": "TPE11506",
        "name": "華泰新城(宜安路)",
        "name_en": "Huatai New Village(Yian Rd.)",
        "line": "5",
        "color": "#0f766e",
        "direction": 1
      },
      "geometry": {
        "type": "Point",
        "coordinates": [
          121.509048,
          24.998949
        ]
      }
    },
    {
      "type": "Feature",
      "properties": {
        "feature_type": "station",
        "ref": "TPE11508",
        "name": "雙和里",
        "name_en": "Shuanghe Village",
        "line": "5",
        "color": "#0f766e",
        "direction": 1
      },
      "geometry": {
        "type": "Point",
        "coordinates": [
          121.5068521,
          24.99973099
        ]
      }
    },
    {
      "type": "Feature",
      "properties": {
        "feature_type": "station",
        "ref": "TPE11510",
        "name": "南山高中",
        "name_en": "Nanshan High School",
        "line": "5",
        "color": "#0f766e",
        "direction": 1
      },
      "geometry": {
        "type": "Point",
        "coordinates": [
          121.505547,
          24.999775
        ]
      }
    },
    {
      "type": "Feature",
      "properties": {
        "feature_type": "station",
        "ref": "TPE11512",
        "name": "中和派出所",
        "name_en": "Zhonghe Police Station",
        "line": "5",
        "color": "#0f766e",
        "direction": 1
      },
      "geometry": {
        "type": "Point",
        "coordinates": [
          121.502819563683,
          24.9998556483866
        ]
      }
    },
    {
      "type": "Feature",
      "properties": {
        "feature_type": "station",
        "ref": "TPE11514",
        "name": "中和廟口",
        "name_en": "Zhonghe Temple",
        "line": "5",
        "color": "#0f766e",
        "direction": 1
      },
      "geometry": {
        "type": "Point",
        "coordinates": [
          121.50090778406,
          25.000814361663
        ]
      }
    },
    {
      "type": "Feature",
      "properties": {
        "feature_type": "station",
        "ref": "TPE11516",
        "name": "中和農會(中和路)",
        "name_en": "Zhonghe Farmers Association(Zhonghe Rd.)",
        "line": "5",
        "color": "#0f766e",
        "direction": 1
      },
      "geometry": {
        "type": "Point",
        "coordinates": [
          121.499868,
          25.001862
        ]
      }
    },
    {
      "type": "Feature",
      "properties": {
        "feature_type": "station",
        "ref": "TPE11518",
        "name": "一江新村",
        "name_en": "Yijiang New Village",
        "line": "5",
        "color": "#0f766e",
        "direction": 1
      },
      "geometry": {
        "type": "Point",
        "coordinates": [
          121.498247,
          25.002636
        ]
      }
    },
    {
      "type": "Feature",
      "properties": {
        "feature_type": "station",
        "ref": "TPE11520",
        "name": "捷運中和站(中山路)",
        "name_en": "MRT Zhonghe Sta.(Zhongshan Rd.)",
        "line": "5",
        "color": "#0f766e",
        "direction": 1
      },
      "geometry": {
        "type": "Point",
        "coordinates": [
          121.496157,
          25.002436
        ]
      }
    },
    {
      "type": "Feature",
      "properties": {
        "feature_type": "station",
        "ref": "TPE199729",
        "name": "家美工業區",
        "name_en": "Jiamei Industrial Park",
        "line": "5",
        "color": "#0f766e",
        "direction": 1
      },
      "geometry": {
        "type": "Point",
        "coordinates": [
          121.493465,
          25.00229
        ]
      }
    },
    {
      "type": "Feature",
      "properties": {
        "feature_type": "station",
        "ref": "TPE11524",
        "name": "中和保養廠",
        "name_en": "Zhonghe Maintenance Plant",
        "line": "5",
        "color": "#0f766e",
        "direction": 1
      },
      "geometry": {
        "type": "Point",
        "coordinates": [
          121.491807,
          25.003079
        ]
      }
    }
  ]
}
