{
  "type": "FeatureCollection",
  "name": "63",
  "properties": {
    "id": "taipei_63",
    "name": "63",
    "name_en": "63",
    "ref": "63",
    "color": "#0f766e",
    "city_id": "Taipei",
    "source": "TDX Bus Shape / StopOfRoute",
    "official_map_url": "https://ebus.gov.taipei/File/Get/7261ce70-b41e-4045-b06b-9979edc6388c?v=639234358342500786",
    "operator_id": "800",
    "operator": "大都會客運",
    "operator_en": "Metropolitan Bus Co., Ltd."
  },
  "features": [
    {
      "type": "Feature",
      "properties": {
        "feature_type": "route",
        "ref": "63",
        "name": "63",
        "name_en": "63",
        "color": "#0f766e",
        "direction": 0
      },
      "geometry": {
        "type": "LineString",
        "coordinates": [
          [
            121.576485619963,
            25.0675267713701
          ],
          [
            121.578051596046,
            25.0674936448979
          ],
          [
            121.578108647019,
            25.0674711188917
          ],
          [
            121.578145218156,
            25.0674313671059
          ],
          [
            121.578352942214,
            25.0669553384693
          ],
          [
            121.578732550615,
            25.0661212072815
          ],
          [
            121.578862743863,
            25.0657965637428
          ],
          [
            121.579433253599,
            25.0650280164263
          ],
          [
            121.579456659127,
            25.0649127339129
          ],
          [
            121.579332317261,
            25.0648120272608
          ],
          [
            121.576893753851,
            25.0636777466194
          ],
          [
            121.576735766539,
            25.0635094587605
          ],
          [
            121.576788428976,
            25.063349121294
          ],
          [
            121.577941151212,
            25.061867646182
          ],
          [
            121.578900777845,
            25.0606114260597
          ],
          [
            121.580585975835,
            25.0583772306041
          ],
          [
            121.581007275332,
            25.0576907970112
          ],
          [
            121.582015175866,
            25.0560714345753
          ],
          [
            121.582262396751,
            25.0555016047335
          ],
          [
            121.583036242009,
            25.0531387704005
          ],
          [
            121.583075738837,
            25.0527398802454
          ],
          [
            121.583021613554,
            25.0524059246985
          ],
          [
            121.582933842825,
            25.052227019567
          ],
          [
            121.582755375677,
            25.0517910200419
          ],
          [
            121.582493526337,
            25.0515736823134
          ],
          [
            121.580293406739,
            25.0506552936331
          ],
          [
            121.57975946814,
            25.050440604378
          ],
          [
            121.578937348982,
            25.0502285652385
          ],
          [
            121.578565786231,
            25.0501702544108
          ],
          [
            121.577793403819,
            25.0501397737399
          ],
          [
            121.572616393676,
            25.0499820692778
          ],
          [
            121.572341378726,
            25.0500682103957
          ],
          [
            121.570982395278,
            25.0509786520485
          ],
          [
            121.57071323171,
            25.0511973160673
          ],
          [
            121.570509896189,
            25.0515127216618
          ],
          [
            121.570403108469,
            25.0521316033901
          ],
          [
            121.570233418394,
            25.0531387704006
          ],
          [
            121.570071042546,
            25.0540604534852
          ],
          [
            121.569983271817,
            25.0543712135092
          ],
          [
            121.569891112552,
            25.0549874304164
          ],
          [
            121.569403985009,
            25.0577199506396
          ],
          [
            121.569133358595,
            25.0590954639536
          ],
          [
            121.569068993394,
            25.0592279788718
          ],
          [
            121.568954891447,
            25.0593180889343
          ],
          [
            121.568666710888,
            25.0593247146715
          ],
          [
            121.567718787019,
            25.05925315669
          ],
          [
            121.566270569997,
            25.0591418441913
          ],
          [
            121.564382036486,
            25.0589974028219
          ],
          [
            121.563956348452,
            25.0589563231353
          ],
          [
            121.563755938622,
            25.0590636603519
          ],
          [
            121.563681333502,
            25.0591723226236
          ],
          [
            121.563457518144,
            25.0592173776836
          ],
          [
            121.563292216606,
            25.0592054513458
          ],
          [
            121.563160560513,
            25.0591405190419
          ],
          [
            121.563047921411,
            25.059031856742
          ],
          [
            121.563011350274,
            25.0589245194975
          ],
          [
            121.562897248327,
            25.0588860900909
          ],
          [
            121.560989697825,
            25.0587588754173
          ],
          [
            121.558826149364,
            25.0585879304916
          ],
          [
            121.555607889315,
            25.0583507274479
          ],
          [
            121.553676933285,
            25.0581731561538
          ],
          [
            121.552322338373,
            25.0580538917073
          ],
          [
            121.551715257501,
            25.0579982349259
          ],
          [
            121.54985890659,
            25.0578259637756
          ],
          [
            121.549398110265,
            25.0577848836963
          ],
          [
            121.54806399519,
            25.0578007856641
          ],
          [
            121.545253869029,
            25.0578431909015
          ],
          [
            121.544443452634,
            25.0578352399206
          ],
          [
            121.544301556623,
            25.0579253510072
          ],
          [
            121.544251819877,
            25.0582473650841
          ],
          [
            121.544367384669,
            25.061943177994
          ],
          [
            121.544317647923,
            25.0621306822034
          ],
          [
            121.54400971895,
            25.0623036098595
          ],
          [
            121.543834908916,
            25.0623579395708
          ],
          [
            121.543606705021,
            25.0623758286168
          ],
          [
            121.542630255666,
            25.062376491174
          ],
          [
            121.541699885942,
            25.0623824541887
          ],
          [
            121.541495087575,
            25.0623559518988
          ],
          [
            121.54103429125,
            25.0623692030445
          ],
          [
            121.540634203012,
            25.0623910674317
          ],
          [
            121.53818174257,
            25.0624056436876
          ],
          [
            121.5380508179,
            25.0623943802173
          ],
          [
            121.53779701421,
            25.0623804665171
          ],
          [
            121.537382297517,
            25.0623884172031
          ],
          [
            121.536639903437,
            25.0624235327267
          ],
          [
            121.535917257772,
            25.0624467222178
          ],
          [
            121.535065150281,
            25.0624699117046
          ],
          [
            121.534201340027,
            25.0624891258475
          ],
          [
            121.534062369707,
            25.0624805126114
          ],
          [
            121.533437734688,
            25.0624937637436
          ],
          [
            121.532396920131,
            25.0625401426949
          ],
          [
            121.531826410395,
            25.0625507435956
          ],
          [
            121.531072313552,
            25.0625739330627
          ],
          [
            121.529782083841,
            25.0625964599694
          ],
          [
            121.529097472158,
            25.0626123613128
          ],
          [
            121.526957329225,
            25.0626733164434
          ],
          [
            121.526743022362,
            25.0626666908872
          ],
          [
            121.52586897219,
            25.0626918679989
          ],
          [
            121.524964933685,
            25.0627289711014
          ],
          [
            121.52347575699,
            25.0627647490824
          ],
          [
            121.52288037888,
            25.0627766750738
          ],
          [
            121.518567178991,
            25.0628926221515
          ],
          [
            121.518352140706,
            25.0628356424585
          ],
          [
            121.518214633231,
            25.0626779543325
          ],
          [
            121.518150999453,
            25.0622260905956
          ],
          [
            121.518075662911,
            25.0575026234243
          ],
          [
            121.518066885838,
            25.0568638912067
          ],
          [
            121.518104919821,
            25.0549556257487
          ],
          [
            121.517862087472,
            25.0539643761328
          ],
          [
            121.51751978163,
            25.0530287775638
          ],
          [
            121.517177475788,
            25.0517168072023
          ],
          [
            121.516834411984,
            25.0507311173502
          ]
        ]
      }
    },
    {
      "type": "Feature",
      "properties": {
        "feature_type": "route",
        "ref": "63",
        "name": "63",
        "name_en": "63",
        "color": "#0f766e",
        "direction": 1
      },
      "geometry": {
        "type": "LineString",
        "coordinates": [
          [
            121.516512795375,
            25.0492948432111
          ],
          [
            121.516389916355,
            25.0488946152875
          ],
          [
            121.516269963025,
            25.0488999163281
          ],
          [
            121.514932922259,
            25.0491411134347
          ],
          [
            121.513764108723,
            25.0494035141436
          ],
          [
            121.513443745564,
            25.0495174859937
          ],
          [
            121.5134159515,
            25.0496486860156
          ],
          [
            121.513667560922,
            25.0504358831981
          ],
          [
            121.513927947417,
            25.0513502978213
          ],
          [
            121.514053752128,
            25.051876414448
          ],
          [
            121.51429219594,
            25.0534202952916
          ],
          [
            121.514409223579,
            25.053910622478
          ],
          [
            121.514382160937,
            25.0542843299893
          ],
          [
            121.514288538827,
            25.054705080877
          ],
          [
            121.514012061032,
            25.055785774569
          ],
          [
            121.513914781807,
            25.0561594763628
          ],
          [
            121.513866507907,
            25.0563334063305
          ],
          [
            121.513826279656,
            25.0565209191238
          ],
          [
            121.513793365633,
            25.0568283599733
          ],
          [
            121.513781662869,
            25.0572550653916
          ],
          [
            121.513751674537,
            25.0576406891965
          ],
          [
            121.513692429295,
            25.0580713672693
          ],
          [
            121.513671949458,
            25.0583735035986
          ],
          [
            121.513665366653,
            25.059098031432
          ],
          [
            121.513586372998,
            25.0599719646551
          ],
          [
            121.513554190397,
            25.0602992739016
          ],
          [
            121.513560041779,
            25.0606683239669
          ],
          [
            121.513584178729,
            25.0611162180648
          ],
          [
            121.513601001452,
            25.0616634947251
          ],
          [
            121.513577595925,
            25.0620669937482
          ],
          [
            121.513595881493,
            25.0627805675853
          ],
          [
            121.51369389214,
            25.0628938644418
          ],
          [
            121.513889913434,
            25.0629137410725
          ],
          [
            121.515850126373,
            25.0628514609522
          ],
          [
            121.516188043679,
            25.0629177163982
          ]
        ]
      }
    },
    {
      "type": "Feature",
      "properties": {
        "feature_type": "route",
        "ref": "63",
        "name": "63",
        "name_en": "63",
        "color": "#0f766e",
        "direction": 1
      },
      "geometry": {
        "type": "LineString",
        "coordinates": [
          [
            121.563321656374,
            25.0585494181577
          ],
          [
            121.563476717994,
            25.058546767846
          ]
        ]
      }
    },
    {
      "type": "Feature",
      "properties": {
        "feature_type": "station",
        "ref": "TPE39405",
        "name": "瑞湖街口",
        "name_en": "Ruihu St.Entrance",
        "line": "63",
        "color": "#0f766e",
        "direction": 0
      },
      "geometry": {
        "type": "Point",
        "coordinates": [
          121.576485,
          25.067523
        ]
      }
    },
    {
      "type": "Feature",
      "properties": {
        "feature_type": "station",
        "ref": "TPE39406",
        "name": "行忠行愛路口",
        "name_en": "Xingzhong & Renai Intersection",
        "line": "63",
        "color": "#0f766e",
        "direction": 0
      },
      "geometry": {
        "type": "Point",
        "coordinates": [
          121.5792076,
          25.06526113
        ]
      }
    },
    {
      "type": "Feature",
      "properties": {
        "feature_type": "station",
        "ref": "TPE39407",
        "name": "新湖行忠路口",
        "name_en": "Xinhu and  Xingzhong Intersection",
        "line": "63",
        "color": "#0f766e",
        "direction": 0
      },
      "geometry": {
        "type": "Point",
        "coordinates": [
          121.57789,
          25.0642
        ]
      }
    },
    {
      "type": "Feature",
      "properties": {
        "feature_type": "station",
        "ref": "TPE39408",
        "name": "新湖三路口(台北花市)",
        "name_en": "Xinhu 3rd. Rd. Entrance (Taipei Flower Market)",
        "line": "63",
        "color": "#0f766e",
        "direction": 0
      },
      "geometry": {
        "type": "Point",
        "coordinates": [
          121.57742,
          25.06238
        ]
      }
    },
    {
      "type": "Feature",
      "properties": {
        "feature_type": "station",
        "ref": "TPE39409",
        "name": "新湖一路口",
        "name_en": "Xinhu 1st. Rd. Entrance",
        "line": "63",
        "color": "#0f766e",
        "direction": 0
      },
      "geometry": {
        "type": "Point",
        "coordinates": [
          121.578858331191,
          25.0605916742291
        ]
      }
    },
    {
      "type": "Feature",
      "properties": {
        "feature_type": "station",
        "ref": "TPE39410",
        "name": "潭美國小(舊宗)",
        "name_en": "Tanmei Elementary School (Jiuzong)",
        "line": "63",
        "color": "#0f766e",
        "direction": 0
      },
      "geometry": {
        "type": "Point",
        "coordinates": [
          121.580495,
          25.058297
        ]
      }
    },
    {
      "type": "Feature",
      "properties": {
        "feature_type": "station",
        "ref": "TPE39411",
        "name": "週美里一",
        "name_en": "Zhoumei Village 1",
        "line": "63",
        "color": "#0f766e",
        "direction": 0
      },
      "geometry": {
        "type": "Point",
        "coordinates": [
          121.58190757561452,
          25.05609097336375
        ]
      }
    },
    {
      "type": "Feature",
      "properties": {
        "feature_type": "station",
        "ref": "TPE39412",
        "name": "玉成里",
        "name_en": "Yucheng Village",
        "line": "63",
        "color": "#0f766e",
        "direction": 0
      },
      "geometry": {
        "type": "Point",
        "coordinates": [
          121.580911886242,
          25.0509225264878
        ]
      }
    },
    {
      "type": "Feature",
      "properties": {
        "feature_type": "station",
        "ref": "TPE39413",
        "name": "松山車站(八德)",
        "name_en": "Songshan Rail Sta. (Bade)",
        "line": "63",
        "color": "#0f766e",
        "direction": 0
      },
      "geometry": {
        "type": "Point",
        "coordinates": [
          121.576598,
          25.050168
        ]
      }
    },
    {
      "type": "Feature",
      "properties": {
        "feature_type": "station",
        "ref": "TPE39414",
        "name": "松山農會",
        "name_en": "Songshan Farmers Association",
        "line": "63",
        "color": "#0f766e",
        "direction": 0
      },
      "geometry": {
        "type": "Point",
        "coordinates": [
          121.57491400582,
          25.0500731024231
        ]
      }
    },
    {
      "type": "Feature",
      "properties": {
        "feature_type": "station",
        "ref": "TPE39415",
        "name": "饒河街觀光夜市(塔悠)",
        "name_en": "Raohe St. Night Market (Tayou)",
        "line": "63",
        "color": "#0f766e",
        "direction": 0
      },
      "geometry": {
        "type": "Point",
        "coordinates": [
          121.571871,
          25.050387
        ]
      }
    },
    {
      "type": "Feature",
      "properties": {
        "feature_type": "station",
        "ref": "TPE39416",
        "name": "南松山(塔悠)",
        "name_en": "Nansongshan (Tayou)",
        "line": "63",
        "color": "#0f766e",
        "direction": 0
      },
      "geometry": {
        "type": "Point",
        "coordinates": [
          121.5704299,
          25.05220024
        ]
      }
    },
    {
      "type": "Feature",
      "properties": {
        "feature_type": "station",
        "ref": "TPE39417",
        "name": "發電所(西松高中)",
        "name_en": "Power Sta. (Xisong High School)",
        "line": "63",
        "color": "#0f766e",
        "direction": 0
      },
      "geometry": {
        "type": "Point",
        "coordinates": [
          121.569875,
          25.055027
        ]
      }
    },
    {
      "type": "Feature",
      "properties": {
        "feature_type": "station",
        "ref": "TPE39418",
        "name": "新東里",
        "name_en": "Xindong Village",
        "line": "63",
        "color": "#0f766e",
        "direction": 0
      },
      "geometry": {
        "type": "Point",
        "coordinates": [
          121.569393769344,
          25.0577179708185
        ]
      }
    },
    {
      "type": "Feature",
      "properties": {
        "feature_type": "station",
        "ref": "TPE39419",
        "name": "新東街口",
        "name_en": "Xindong St. Entrance",
        "line": "63",
        "color": "#0f766e",
        "direction": 0
      },
      "geometry": {
        "type": "Point",
        "coordinates": [
          121.5663295,
          25.0591755
        ]
      }
    },
    {
      "type": "Feature",
      "properties": {
        "feature_type": "station",
        "ref": "TPE39420",
        "name": "民生社區活動中心",
        "name_en": "Minsheng Activity Center",
        "line": "63",
        "color": "#0f766e",
        "direction": 0
      },
      "geometry": {
        "type": "Point",
        "coordinates": [
          121.561144568697,
          25.058808540179
        ]
      }
    },
    {
      "type": "Feature",
      "properties": {
        "feature_type": "station",
        "ref": "TPE39421",
        "name": "聯合二村",
        "name_en": "Lianhe Village 2",
        "line": "63",
        "color": "#0f766e",
        "direction": 0
      },
      "geometry": {
        "type": "Point",
        "coordinates": [
          121.558923442523,
          25.0586249332513
        ]
      }
    },
    {
      "type": "Feature",
      "properties": {
        "feature_type": "station",
        "ref": "TPE39422",
        "name": "介壽國中",
        "name_en": "Jieshou Junior High School",
        "line": "63",
        "color": "#0f766e",
        "direction": 0
      },
      "geometry": {
        "type": "Point",
        "coordinates": [
          121.556044429017,
          25.058415078013
        ]
      }
    },
    {
      "type": "Feature",
      "properties": {
        "feature_type": "station",
        "ref": "TPE39423",
        "name": "公教住宅",
        "name_en": "Civil Service Housing",
        "line": "63",
        "color": "#0f766e",
        "direction": 0
      },
      "geometry": {
        "type": "Point",
        "coordinates": [
          121.5526273,
          25.05813129
        ]
      }
    },
    {
      "type": "Feature",
      "properties": {
        "feature_type": "station",
        "ref": "TPE39424",
        "name": "民生敦化路口",
        "name_en": "Minsheng & Dunhua Intersection",
        "line": "63",
        "color": "#0f766e",
        "direction": 0
      },
      "geometry": {
        "type": "Point",
        "coordinates": [
          121.5468517,
          25.05785197
        ]
      }
    },
    {
      "type": "Feature",
      "properties": {
        "feature_type": "station",
        "ref": "TPE59276",
        "name": "民生復興路口",
        "name_en": "Minsheng & Fuxing Intersection",
        "line": "63",
        "color": "#0f766e",
        "direction": 0
      },
      "geometry": {
        "type": "Point",
        "coordinates": [
          121.545132,
          25.05790896
        ]
      }
    },
    {
      "type": "Feature",
      "properties": {
        "feature_type": "station",
        "ref": "TPE39425",
        "name": "民生東路口",
        "name_en": "Minsheng E. Rd. Entrance",
        "line": "63",
        "color": "#0f766e",
        "direction": 0
      },
      "geometry": {
        "type": "Point",
        "coordinates": [
          121.544388,
          25.058117
        ]
      }
    },
    {
      "type": "Feature",
      "properties": {
        "feature_type": "station",
        "ref": "TPE39426",
        "name": "捷運中山國中站",
        "name_en": "MRT Zhongshan Junior High School Sta.",
        "line": "63",
        "color": "#0f766e",
        "direction": 0
      },
      "geometry": {
        "type": "Point",
        "coordinates": [
          121.544405,
          25.060855
        ]
      }
    },
    {
      "type": "Feature",
      "properties": {
        "feature_type": "station",
        "ref": "TPE39427",
        "name": "民權龍江路口",
        "name_en": "Minquan and Longjiang Intersection",
        "line": "63",
        "color": "#0f766e",
        "direction": 0
      },
      "geometry": {
        "type": "Point",
        "coordinates": [
          121.541275218891,
          25.0623959365736
        ]
      }
    },
    {
      "type": "Feature",
      "properties": {
        "feature_type": "station",
        "ref": "TPE39428",
        "name": "民權建國路口",
        "name_en": "Minquan & Jianguo Intersection",
        "line": "63",
        "color": "#0f766e",
        "direction": 0
      },
      "geometry": {
        "type": "Point",
        "coordinates": [
          121.53746,
          25.06248317
        ]
      }
    },
    {
      "type": "Feature",
      "properties": {
        "feature_type": "station",
        "ref": "TPE39429",
        "name": "民權松江路口",
        "name_en": "Minquan and Songjiang Intersection",
        "line": "63",
        "color": "#0f766e",
        "direction": 0
      },
      "geometry": {
        "type": "Point",
        "coordinates": [
          121.5334388,
          25.06252486
        ]
      }
    },
    {
      "type": "Feature",
      "properties": {
        "feature_type": "station",
        "ref": "TPE39430",
        "name": "民權吉林路口",
        "name_en": "Minquan and Jilin Intersection",
        "line": "63",
        "color": "#0f766e",
        "direction": 0
      },
      "geometry": {
        "type": "Point",
        "coordinates": [
          121.529148,
          25.062636
        ]
      }
    },
    {
      "type": "Feature",
      "properties": {
        "feature_type": "station",
        "ref": "TPE39431",
        "name": "捷運中山國小站",
        "name_en": "MRT Zhongshan Elementary School Sta.",
        "line": "63",
        "color": "#0f766e",
        "direction": 0
      },
      "geometry": {
        "type": "Point",
        "coordinates": [
          121.5259472364,
          25.0627519578754
        ]
      }
    },
    {
      "type": "Feature",
      "properties": {
        "feature_type": "station",
        "ref": "TPE39432",
        "name": "民權中山路口",
        "name_en": "Minquan and Zhongshan Intersection",
        "line": "63",
        "color": "#0f766e",
        "direction": 0
      },
      "geometry": {
        "type": "Point",
        "coordinates": [
          121.5230024,
          25.06285356
        ]
      }
    },
    {
      "type": "Feature",
      "properties": {
        "feature_type": "station",
        "ref": "TPE39433",
        "name": "捷運民權西路站",
        "name_en": "MRT Minquan W. Rd. Station",
        "line": "63",
        "color": "#0f766e",
        "direction": 0
      },
      "geometry": {
        "type": "Point",
        "coordinates": [
          121.518977516403,
          25.062948670718
        ]
      }
    },
    {
      "type": "Feature",
      "properties": {
        "feature_type": "station",
        "ref": "TPE39434",
        "name": "成淵高中",
        "name_en": "Chengyuan High School",
        "line": "63",
        "color": "#0f766e",
        "direction": 0
      },
      "geometry": {
        "type": "Point",
        "coordinates": [
          121.518152,
          25.062226
        ]
      }
    },
    {
      "type": "Feature",
      "properties": {
        "feature_type": "station",
        "ref": "TPE39435",
        "name": "民生西路口",
        "name_en": "Minsheng W. Rd. Entrance",
        "line": "63",
        "color": "#0f766e",
        "direction": 0
      },
      "geometry": {
        "type": "Point",
        "coordinates": [
          121.5179896,
          25.05672598
        ]
      }
    },
    {
      "type": "Feature",
      "properties": {
        "feature_type": "station",
        "ref": "TPE39436",
        "name": "臺北車站(承德)",
        "name_en": "Taipei Main Sta. (Chengde)",
        "line": "63",
        "color": "#0f766e",
        "direction": 0
      },
      "geometry": {
        "type": "Point",
        "coordinates": [
          121.5167729,
          25.05073509
        ]
      }
    },
    {
      "type": "Feature",
      "properties": {
        "feature_type": "station",
        "ref": "TPE39437",
        "name": "後車站",
        "name_en": "Old Taipei Railway Sta.",
        "line": "63",
        "color": "#0f766e",
        "direction": 1
      },
      "geometry": {
        "type": "Point",
        "coordinates": [
          121.51371,
          25.05032
        ]
      }
    },
    {
      "type": "Feature",
      "properties": {
        "feature_type": "station",
        "ref": "TPE39438",
        "name": "圓環(重慶)",
        "name_en": "Taipei Circle (Chongqing)",
        "line": "63",
        "color": "#0f766e",
        "direction": 1
      },
      "geometry": {
        "type": "Point",
        "coordinates": [
          121.514207,
          25.052844
        ]
      }
    },
    {
      "type": "Feature",
      "properties": {
        "feature_type": "station",
        "ref": "TPE39439",
        "name": "民生重慶路口",
        "name_en": "Minsheng and Chongqing Intersection",
        "line": "63",
        "color": "#0f766e",
        "direction": 1
      },
      "geometry": {
        "type": "Point",
        "coordinates": [
          121.513825816749,
          25.0567660236851
        ]
      }
    },
    {
      "type": "Feature",
      "properties": {
        "feature_type": "station",
        "ref": "TPE39440",
        "name": "涼州重慶路口",
        "name_en": "Liangzhou and Chongqing Intersection",
        "line": "63",
        "color": "#0f766e",
        "direction": 1
      },
      "geometry": {
        "type": "Point",
        "coordinates": [
          121.51358595205109,
          25.060581358412865
        ]
      }
    },
    {
      "type": "Feature",
      "properties": {
        "feature_type": "station",
        "ref": "TPE39441",
        "name": "捷運大橋頭站",
        "name_en": "MRT Daqiaotou Sta.",
        "line": "63",
        "color": "#0f766e",
        "direction": 1
      },
      "geometry": {
        "type": "Point",
        "coordinates": [
          121.513712,
          25.062346
        ]
      }
    },
    {
      "type": "Feature",
      "properties": {
        "feature_type": "station",
        "ref": "TPE39442",
        "name": "捷運民權西路站",
        "name_en": "MRT Minquan W. Rd. Station",
        "line": "63",
        "color": "#0f766e",
        "direction": 1
      },
      "geometry": {
        "type": "Point",
        "coordinates": [
          121.5178677888,
          25.0628480067
        ]
      }
    },
    {
      "type": "Feature",
      "properties": {
        "feature_type": "station",
        "ref": "TPE39443",
        "name": "民權中山路口",
        "name_en": "Minquan and Zhongshan Intersection",
        "line": "63",
        "color": "#0f766e",
        "direction": 1
      },
      "geometry": {
        "type": "Point",
        "coordinates": [
          121.5223009,
          25.06271419
        ]
      }
    },
    {
      "type": "Feature",
      "properties": {
        "feature_type": "station",
        "ref": "TPE39444",
        "name": "捷運中山國小站",
        "name_en": "MRT Zhongshan Elementary School Sta.",
        "line": "63",
        "color": "#0f766e",
        "direction": 1
      },
      "geometry": {
        "type": "Point",
        "coordinates": [
          121.5253813,
          25.06266873
        ]
      }
    },
    {
      "type": "Feature",
      "properties": {
        "feature_type": "station",
        "ref": "TPE39445",
        "name": "民權吉林路口",
        "name_en": "Minquan and Jilin Intersection",
        "line": "63",
        "color": "#0f766e",
        "direction": 1
      },
      "geometry": {
        "type": "Point",
        "coordinates": [
          121.5300637,
          25.06254664
        ]
      }
    },
    {
      "type": "Feature",
      "properties": {
        "feature_type": "station",
        "ref": "TPE39446",
        "name": "民權松江路口",
        "name_en": "Minquan and Songjiang Intersection",
        "line": "63",
        "color": "#0f766e",
        "direction": 1
      },
      "geometry": {
        "type": "Point",
        "coordinates": [
          121.5328589,
          25.0624771
        ]
      }
    },
    {
      "type": "Feature",
      "properties": {
        "feature_type": "station",
        "ref": "TPE39447",
        "name": "民權建國路口",
        "name_en": "Minquan & Jianguo Intersection",
        "line": "63",
        "color": "#0f766e",
        "direction": 1
      },
      "geometry": {
        "type": "Point",
        "coordinates": [
          121.5364984,
          25.06236889
        ]
      }
    },
    {
      "type": "Feature",
      "properties": {
        "feature_type": "station",
        "ref": "TPE39448",
        "name": "民權龍江路口",
        "name_en": "Minquan and Longjiang Intersection",
        "line": "63",
        "color": "#0f766e",
        "direction": 1
      },
      "geometry": {
        "type": "Point",
        "coordinates": [
          121.540554014847,
          25.0623255291835
        ]
      }
    },
    {
      "type": "Feature",
      "properties": {
        "feature_type": "station",
        "ref": "TPE39449",
        "name": "捷運中山國中站",
        "name_en": "MRT Zhongshan Junior High School Sta.",
        "line": "63",
        "color": "#0f766e",
        "direction": 1
      },
      "geometry": {
        "type": "Point",
        "coordinates": [
          121.5440343,
          25.06148096
        ]
      }
    },
    {
      "type": "Feature",
      "properties": {
        "feature_type": "station",
        "ref": "TPE39450",
        "name": "民生復興路口",
        "name_en": "Minsheng & Fuxing Intersection",
        "line": "63",
        "color": "#0f766e",
        "direction": 1
      },
      "geometry": {
        "type": "Point",
        "coordinates": [
          121.545777,
          25.057658
        ]
      }
    },
    {
      "type": "Feature",
      "properties": {
        "feature_type": "station",
        "ref": "TPE39451",
        "name": "民生敦化路口",
        "name_en": "Minsheng & Dunhua Intersection",
        "line": "63",
        "color": "#0f766e",
        "direction": 1
      },
      "geometry": {
        "type": "Point",
        "coordinates": [
          121.5479795,
          25.05758765
        ]
      }
    },
    {
      "type": "Feature",
      "properties": {
        "feature_type": "station",
        "ref": "TPE39452",
        "name": "公教住宅",
        "name_en": "Civil Service Housing",
        "line": "63",
        "color": "#0f766e",
        "direction": 1
      },
      "geometry": {
        "type": "Point",
        "coordinates": [
          121.5525641,
          25.05792823
        ]
      }
    },
    {
      "type": "Feature",
      "properties": {
        "feature_type": "station",
        "ref": "TPE39453",
        "name": "介壽國中",
        "name_en": "Jieshou Junior High School",
        "line": "63",
        "color": "#0f766e",
        "direction": 1
      },
      "geometry": {
        "type": "Point",
        "coordinates": [
          121.55569442816517,
          25.058201423962956
        ]
      }
    },
    {
      "type": "Feature",
      "properties": {
        "feature_type": "station",
        "ref": "TPE39454",
        "name": "聯合二村",
        "name_en": "Lianhe Village 2",
        "line": "63",
        "color": "#0f766e",
        "direction": 1
      },
      "geometry": {
        "type": "Point",
        "coordinates": [
          121.559216750962,
          25.0585017739443
        ]
      }
    },
    {
      "type": "Feature",
      "properties": {
        "feature_type": "station",
        "ref": "TPE39455",
        "name": "民生社區活動中心",
        "name_en": "Minsheng Activity Center",
        "line": "63",
        "color": "#0f766e",
        "direction": 1
      },
      "geometry": {
        "type": "Point",
        "coordinates": [
          121.560927032747,
          25.0586405271738
        ]
      }
    },
    {
      "type": "Feature",
      "properties": {
        "feature_type": "station",
        "ref": "TPE39456",
        "name": "新東街口",
        "name_en": "Xindong St. Entrance",
        "line": "63",
        "color": "#0f766e",
        "direction": 1
      },
      "geometry": {
        "type": "Point",
        "coordinates": [
          121.5664423,
          25.05902066
        ]
      }
    },
    {
      "type": "Feature",
      "properties": {
        "feature_type": "station",
        "ref": "TPE39457",
        "name": "新東里",
        "name_en": "Xindong Village",
        "line": "63",
        "color": "#0f766e",
        "direction": 1
      },
      "geometry": {
        "type": "Point",
        "coordinates": [
          121.56903,
          25.05789
        ]
      }
    },
    {
      "type": "Feature",
      "properties": {
        "feature_type": "station",
        "ref": "TPE39458",
        "name": "發電所(西松高中)",
        "name_en": "Power Sta. (Xisong High School)",
        "line": "63",
        "color": "#0f766e",
        "direction": 1
      },
      "geometry": {
        "type": "Point",
        "coordinates": [
          121.569528,
          25.055269
        ]
      }
    },
    {
      "type": "Feature",
      "properties": {
        "feature_type": "station",
        "ref": "TPE39459",
        "name": "南松山(塔悠)",
        "name_en": "Nansongshan (Tayou)",
        "line": "63",
        "color": "#0f766e",
        "direction": 1
      },
      "geometry": {
        "type": "Point",
        "coordinates": [
          121.570154,
          25.051932
        ]
      }
    },
    {
      "type": "Feature",
      "properties": {
        "feature_type": "station",
        "ref": "TPE39460",
        "name": "饒河街觀光夜市(塔悠)",
        "name_en": "Raohe St. Night Market (Tayou)",
        "line": "63",
        "color": "#0f766e",
        "direction": 1
      },
      "geometry": {
        "type": "Point",
        "coordinates": [
          121.57131845679393,
          25.050545938983998
        ]
      }
    },
    {
      "type": "Feature",
      "properties": {
        "feature_type": "station",
        "ref": "TPE39461",
        "name": "松山農會",
        "name_en": "Songshan Farmers Association",
        "line": "63",
        "color": "#0f766e",
        "direction": 1
      },
      "geometry": {
        "type": "Point",
        "coordinates": [
          121.573848311551,
          25.0499024516685
        ]
      }
    },
    {
      "type": "Feature",
      "properties": {
        "feature_type": "station",
        "ref": "TPE39462",
        "name": "松山車站(八德)",
        "name_en": "Songshan Rail Sta. (Bade)",
        "line": "63",
        "color": "#0f766e",
        "direction": 1
      },
      "geometry": {
        "type": "Point",
        "coordinates": [
          121.577246475627,
          25.0499755097464
        ]
      }
    },
    {
      "type": "Feature",
      "properties": {
        "feature_type": "station",
        "ref": "TPE39463",
        "name": "玉成里",
        "name_en": "Yucheng Village",
        "line": "63",
        "color": "#0f766e",
        "direction": 1
      },
      "geometry": {
        "type": "Point",
        "coordinates": [
          121.58108,
          25.05082
        ]
      }
    },
    {
      "type": "Feature",
      "properties": {
        "feature_type": "station",
        "ref": "TPE39464",
        "name": "週美里一",
        "name_en": "Zhoumei Village 1",
        "line": "63",
        "color": "#0f766e",
        "direction": 1
      },
      "geometry": {
        "type": "Point",
        "coordinates": [
          121.581944,
          25.05636
        ]
      }
    },
    {
      "type": "Feature",
      "properties": {
        "feature_type": "station",
        "ref": "TPE39465",
        "name": "潭美國小(舊宗)",
        "name_en": "Tanmei Elementary School (Jiuzong)",
        "line": "63",
        "color": "#0f766e",
        "direction": 1
      },
      "geometry": {
        "type": "Point",
        "coordinates": [
          121.581074,
          25.057957
        ]
      }
    },
    {
      "type": "Feature",
      "properties": {
        "feature_type": "station",
        "ref": "TPE39466",
        "name": "新湖一路口",
        "name_en": "Xinhu 1st. Rd. Entrance",
        "line": "63",
        "color": "#0f766e",
        "direction": 1
      },
      "geometry": {
        "type": "Point",
        "coordinates": [
          121.5791317,
          25.06054231
        ]
      }
    },
    {
      "type": "Feature",
      "properties": {
        "feature_type": "station",
        "ref": "TPE39467",
        "name": "新湖三路口(台北花市)",
        "name_en": "Xinhu 3rd. Rd. Entrance (Taipei Flower Market)",
        "line": "63",
        "color": "#0f766e",
        "direction": 1
      },
      "geometry": {
        "type": "Point",
        "coordinates": [
          121.577205,
          25.063161
        ]
      }
    },
    {
      "type": "Feature",
      "properties": {
        "feature_type": "station",
        "ref": "TPE200416",
        "name": "新湖行忠路口",
        "name_en": "Xinhu and Xingzhong Intersection",
        "line": "63",
        "color": "#0f766e",
        "direction": 1
      },
      "geometry": {
        "type": "Point",
        "coordinates": [
          121.57795,
          25.0641
        ]
      }
    },
    {
      "type": "Feature",
      "properties": {
        "feature_type": "station",
        "ref": "TPE200417",
        "name": "行忠行愛路口",
        "name_en": "Xingzhong & Renai Intersection",
        "line": "63",
        "color": "#0f766e",
        "direction": 1
      },
      "geometry": {
        "type": "Point",
        "coordinates": [
          121.5793229,
          25.06534803
        ]
      }
    },
    {
      "type": "Feature",
      "properties": {
        "feature_type": "station",
        "ref": "TPE39470",
        "name": "瑞湖街口",
        "name_en": "Ruihu St.Entrance",
        "line": "63",
        "color": "#0f766e",
        "direction": 1
      },
      "geometry": {
        "type": "Point",
        "coordinates": [
          121.576798,
          25.067659
        ]
      }
    }
  ]
}
