{
  "type": "FeatureCollection",
  "name": "42區",
  "properties": {
    "id": "taipei_42qu",
    "name": "42區",
    "name_en": "42區",
    "ref": "42區",
    "color": "#1e40af",
    "city_id": "Taipei",
    "source": "TDX Bus Shape / StopOfRoute",
    "official_map_url": "https://ebus.gov.taipei/File/Get/a0241876-580c-4776-9b46-86fbe105177f?v=639234358542599746",
    "operator_id": "5100",
    "operator": "指南客運",
    "operator_en": "Zhinan Bus Co., Ltd."
  },
  "features": [
    {
      "type": "Feature",
      "properties": {
        "feature_type": "route",
        "ref": "42區",
        "name": "42區",
        "name_en": "42區",
        "color": "#1e40af",
        "direction": 0
      },
      "geometry": {
        "type": "LineString",
        "coordinates": [
          [
            121.557482859677,
            25.0800207680733
          ],
          [
            121.55621250044,
            25.0800155435395
          ],
          [
            121.553758728965,
            25.0800190572499
          ],
          [
            121.552263189196,
            25.0800173003947
          ],
          [
            121.552173961142,
            25.0800735197469
          ],
          [
            121.551271981904,
            25.0825822820567
          ],
          [
            121.55098102086,
            25.0833675773399
          ],
          [
            121.550915069689,
            25.0837136678451
          ],
          [
            121.550682300854,
            25.083848941533
          ],
          [
            121.54948354135,
            25.0841212452564
          ],
          [
            121.549258531476,
            25.084052730183
          ],
          [
            121.549101412512,
            25.0835116354356
          ],
          [
            121.548870583417,
            25.0824909274685
          ],
          [
            121.548639754321,
            25.0815158886738
          ],
          [
            121.548463237954,
            25.0810081626949
          ],
          [
            121.548308058731,
            25.0807253109768
          ],
          [
            121.548005459244,
            25.080423133264
          ],
          [
            121.547510825469,
            25.0800173003947
          ],
          [
            121.547264478451,
            25.0799417555995
          ],
          [
            121.54471178022,
            25.0797976933027
          ],
          [
            121.543241457075,
            25.079697552338
          ],
          [
            121.541345175344,
            25.0795844025048
          ],
          [
            121.541297576667,
            25.0796434459116
          ],
          [
            121.541058548524,
            25.0822797518636
          ],
          [
            121.540989220015,
            25.0823772181834
          ],
          [
            121.540512198483,
            25.0823875271166
          ],
          [
            121.540049663505,
            25.0824671870251
          ],
          [
            121.539815809131,
            25.0825580929751
          ],
          [
            121.538722074295,
            25.0828064439376
          ],
          [
            121.538569965477,
            25.0828476795204
          ],
          [
            121.538419408789,
            25.0828992239793
          ],
          [
            121.53830455111,
            25.0829531113449
          ],
          [
            121.538184519662,
            25.0830215248358
          ],
          [
            121.538173137369,
            25.08304542269
          ],
          [
            121.538138990492,
            25.0832384796944
          ],
          [
            121.538082079029,
            25.0835627398029
          ],
          [
            121.537982742658,
            25.0841400331303
          ],
          [
            121.538010681012,
            25.0841620564419
          ],
          [
            121.538389400927,
            25.084217817575
          ],
          [
            121.538469594352,
            25.0842056344724
          ],
          [
            121.539850990762,
            25.0834554341684
          ],
          [
            121.539900658948,
            25.0831330481157
          ],
          [
            121.539945153364,
            25.082594174184
          ],
          [
            121.539960674672,
            25.0824404775322
          ],
          [
            121.540046559243,
            25.0823833098258
          ],
          [
            121.540381819495,
            25.0823233305643
          ],
          [
            121.54090230068999,
            25.0823130216257
          ],
          [
            121.540967490183,
            25.0822558538599
          ],
          [
            121.541222039634,
            25.0796888999435
          ],
          [
            121.541163058664,
            25.0795680015534
          ],
          [
            121.54078574586,
            25.0795517328921
          ],
          [
            121.539268868948,
            25.0794621329054
          ],
          [
            121.539096232061,
            25.0794199681831
          ],
          [
            121.538995365566,
            25.0791599520747
          ],
          [
            121.538917775954,
            25.0779564919477
          ],
          [
            121.538884800369,
            25.0778493219321
          ],
          [
            121.538729621145,
            25.0777913446715
          ],
          [
            121.536301066293,
            25.0779301386739
          ],
          [
            121.534134376382,
            25.0780583912198
          ],
          [
            121.533610646502,
            25.0780935288801
          ],
          [
            121.533280890651,
            25.0781971849195
          ],
          [
            121.533090796102,
            25.0782270518975
          ],
          [
            121.532858027267,
            25.0781497491157
          ],
          [
            121.532640776353,
            25.0781058270589
          ],
          [
            121.531539003865,
            25.0782024555632
          ],
          [
            121.53118015191,
            25.0782252950167
          ],
          [
            121.530615687483,
            25.0781567766434
          ],
          [
            121.529323820446,
            25.0779600057171
          ],
          [
            121.528769054721,
            25.0778036428806
          ],
          [
            121.528266661984,
            25.0774768614763
          ],
          [
            121.527190106119,
            25.0766967991145
          ],
          [
            121.52699807183,
            25.0765878710919
          ],
          [
            121.526515076496,
            25.0766581472466
          ],
          [
            121.525712024013,
            25.0769128979692
          ],
          [
            121.525483134658,
            25.0769919584305
          ],
          [
            121.525313407382,
            25.0768962074208
          ],
          [
            121.525202842185,
            25.0767495061874
          ],
          [
            121.525344443227,
            25.0764455617552
          ],
          [
            121.525434641151,
            25.0762830478042
          ],
          [
            121.52556266401,
            25.0759237594388
          ],
          [
            121.525686807389,
            25.0756031222323
          ],
          [
            121.525797372586,
            25.0752297764818
          ],
          [
            121.525832287912,
            25.0749574529811
          ],
          [
            121.525809011028,
            25.0747905447297
          ],
          [
            121.525661590765,
            25.0745656574629
          ],
          [
            121.524707238539,
            25.0739366736954
          ],
          [
            121.524348386585,
            25.073688944565
          ],
          [
            121.524173809958,
            25.0734991942538
          ],
          [
            121.523981775668,
            25.0728877745845
          ],
          [
            121.523799440081,
            25.0721691768757
          ],
          [
            121.523566671245,
            25.0712274385312
          ],
          [
            121.523517207867,
            25.070963891056
          ],
          [
            121.52340276319,
            25.0708971256055
          ],
          [
            121.523135079029,
            25.0698798264769
          ],
          [
            121.522797564217,
            25.0685813961436
          ],
          [
            121.522764309702,
            25.0684968686078
          ],
          [
            121.520694885736,
            25.0685339566151
          ],
          [
            121.520097445724,
            25.06856382595
          ],
          [
            121.520029554814,
            25.0686551909293
          ],
          [
            121.520171155855,
            25.06974102335
          ]
        ]
      }
    },
    {
      "type": "Feature",
      "properties": {
        "feature_type": "route",
        "ref": "42區",
        "name": "42區",
        "name_en": "42區",
        "color": "#1e40af",
        "direction": 1
      },
      "geometry": {
        "type": "LineString",
        "coordinates": [
          [
            121.526411455476,
            25.0747291845957
          ],
          [
            121.52665156269,
            25.0749191656693
          ],
          [
            121.526792315194,
            25.0751291444077
          ],
          [
            121.526835092916,
            25.0756853363498
          ]
        ]
      }
    },
    {
      "type": "Feature",
      "properties": {
        "feature_type": "route",
        "ref": "42區",
        "name": "42區",
        "name_en": "42區",
        "color": "#1e40af",
        "direction": 1
      },
      "geometry": {
        "type": "LineString",
        "coordinates": [
          [
            121.550130322345,
            25.0851614979458
          ],
          [
            121.550527741181,
            25.0853727088853
          ],
          [
            121.551405374443,
            25.0858013784881
          ],
          [
            121.551718617762,
            25.0858926111836
          ],
          [
            121.552196072335,
            25.0858651164058
          ],
          [
            121.552698365586,
            25.0856264114846
          ],
          [
            121.553065426039,
            25.0855164320973
          ],
          [
            121.554413614242,
            25.0851227550711
          ],
          [
            121.556230977459,
            25.0845591073469
          ],
          [
            121.556827105713,
            25.0844091341228
          ],
          [
            121.557217624916,
            25.084371640788
          ],
          [
            121.557660581327,
            25.0843928870125
          ],
          [
            121.558282928184,
            25.0846440920923
          ],
          [
            121.558514755839,
            25.0847215781323
          ],
          [
            121.558536834663,
            25.0840017059362
          ],
          [
            121.558538214589,
            25.0827069251502
          ],
          [
            121.55849819672,
            25.0808622138109
          ],
          [
            121.558488537235,
            25.0800348342482
          ],
          [
            121.558426627096,
            25.0800047757028
          ]
        ]
      }
    },
    {
      "type": "Feature",
      "properties": {
        "feature_type": "station",
        "ref": "TPE134696",
        "name": "大直美堤花園二",
        "name_en": "Dazhi Meiti Garden 2",
        "line": "42區",
        "color": "#1e40af",
        "direction": 0
      },
      "geometry": {
        "type": "Point",
        "coordinates": [
          121.5574829,
          25.08002077
        ]
      }
    },
    {
      "type": "Feature",
      "properties": {
        "feature_type": "station",
        "ref": "TPE134697",
        "name": "大直美堤花園三",
        "name_en": "Dazhi Meiti Garden 3",
        "line": "42區",
        "color": "#1e40af",
        "direction": 0
      },
      "geometry": {
        "type": "Point",
        "coordinates": [
          121.55565762442,
          25.080032815073
        ]
      }
    },
    {
      "type": "Feature",
      "properties": {
        "feature_type": "station",
        "ref": "TPE134698",
        "name": "明水路口",
        "name_en": "Mingshui Rd. Entrance",
        "line": "42區",
        "color": "#1e40af",
        "direction": 0
      },
      "geometry": {
        "type": "Point",
        "coordinates": [
          121.55251766575329,
          25.080092816575963
        ]
      }
    },
    {
      "type": "Feature",
      "properties": {
        "feature_type": "station",
        "ref": "TPE134699",
        "name": "明水路一",
        "name_en": "Mingshui Rd. 1",
        "line": "42區",
        "color": "#1e40af",
        "direction": 0
      },
      "geometry": {
        "type": "Point",
        "coordinates": [
          121.551632,
          25.08172328
        ]
      }
    },
    {
      "type": "Feature",
      "properties": {
        "feature_type": "station",
        "ref": "TPE134700",
        "name": "自強隧道",
        "name_en": "Ziqiang Tunnel",
        "line": "42區",
        "color": "#1e40af",
        "direction": 0
      },
      "geometry": {
        "type": "Point",
        "coordinates": [
          121.5490281,
          25.08377483
        ]
      }
    },
    {
      "type": "Feature",
      "properties": {
        "feature_type": "station",
        "ref": "TPE134701",
        "name": "植福宮",
        "name_en": "Zhifu Temple",
        "line": "42區",
        "color": "#1e40af",
        "direction": 0
      },
      "geometry": {
        "type": "Point",
        "coordinates": [
          121.5482394,
          25.0808482
        ]
      }
    },
    {
      "type": "Feature",
      "properties": {
        "feature_type": "station",
        "ref": "TPE134702",
        "name": "捷運大直站",
        "name_en": "MRT Dazhi Station",
        "line": "42區",
        "color": "#1e40af",
        "direction": 0
      },
      "geometry": {
        "type": "Point",
        "coordinates": [
          121.546139731473,
          25.0799238282333
        ]
      }
    },
    {
      "type": "Feature",
      "properties": {
        "feature_type": "station",
        "ref": "TPE134703",
        "name": "大直高中",
        "name_en": "Dazhi High School",
        "line": "42區",
        "color": "#1e40af",
        "direction": 0
      },
      "geometry": {
        "type": "Point",
        "coordinates": [
          121.5436838,
          25.07978102
        ]
      }
    },
    {
      "type": "Feature",
      "properties": {
        "feature_type": "station",
        "ref": "TPE134709",
        "name": "空軍司令部",
        "name_en": "Air Force Command Headquarters",
        "line": "42區",
        "color": "#1e40af",
        "direction": 0
      },
      "geometry": {
        "type": "Point",
        "coordinates": [
          121.54169,
          25.07961
        ]
      }
    },
    {
      "type": "Feature",
      "properties": {
        "feature_type": "station",
        "ref": "TPE134704",
        "name": "通北街口",
        "name_en": "Tongbei St. Entrance",
        "line": "42區",
        "color": "#1e40af",
        "direction": 0
      },
      "geometry": {
        "type": "Point",
        "coordinates": [
          121.54125,
          25.079985
        ]
      }
    },
    {
      "type": "Feature",
      "properties": {
        "feature_type": "station",
        "ref": "TPE134705",
        "name": "圓山新城一",
        "name_en": "Yuanshan New Village 1",
        "line": "42區",
        "color": "#1e40af",
        "direction": 0
      },
      "geometry": {
        "type": "Point",
        "coordinates": [
          121.540087,
          25.082444
        ]
      }
    },
    {
      "type": "Feature",
      "properties": {
        "feature_type": "station",
        "ref": "TPE134706",
        "name": "力行新村",
        "name_en": "Lixing New Village",
        "line": "42區",
        "color": "#1e40af",
        "direction": 0
      },
      "geometry": {
        "type": "Point",
        "coordinates": [
          121.5380292,
          25.08409294
        ]
      }
    },
    {
      "type": "Feature",
      "properties": {
        "feature_type": "station",
        "ref": "TPE134707",
        "name": "圓山新城二",
        "name_en": "Yuanshan New Village 2",
        "line": "42區",
        "color": "#1e40af",
        "direction": 0
      },
      "geometry": {
        "type": "Point",
        "coordinates": [
          121.5398705,
          25.08290057
        ]
      }
    },
    {
      "type": "Feature",
      "properties": {
        "feature_type": "station",
        "ref": "TPE134708",
        "name": "通北街口",
        "name_en": "Tongbei St. Entrance",
        "line": "42區",
        "color": "#1e40af",
        "direction": 0
      },
      "geometry": {
        "type": "Point",
        "coordinates": [
          121.541188,
          25.07998
        ]
      }
    },
    {
      "type": "Feature",
      "properties": {
        "feature_type": "station",
        "ref": "TPE134710",
        "name": "忠烈祠",
        "name_en": "Martyr Shrine",
        "line": "42區",
        "color": "#1e40af",
        "direction": 0
      },
      "geometry": {
        "type": "Point",
        "coordinates": [
          121.535552182321,
          25.0780024350627
        ]
      }
    },
    {
      "type": "Feature",
      "properties": {
        "feature_type": "station",
        "ref": "TPE134711",
        "name": "中央電台",
        "name_en": "Radio Taiwan International",
        "line": "42區",
        "color": "#1e40af",
        "direction": 0
      },
      "geometry": {
        "type": "Point",
        "coordinates": [
          121.530144788528,
          25.0781282212443
        ]
      }
    },
    {
      "type": "Feature",
      "properties": {
        "feature_type": "station",
        "ref": "TPE134712",
        "name": "圓山大飯店",
        "name_en": "The Grand Hotel",
        "line": "42區",
        "color": "#1e40af",
        "direction": 0
      },
      "geometry": {
        "type": "Point",
        "coordinates": [
          121.527964269875,
          25.077322358349
        ]
      }
    },
    {
      "type": "Feature",
      "properties": {
        "feature_type": "station",
        "ref": "TPE134713",
        "name": "臺北市立美術館",
        "name_en": "Taipei Fine Arts Museum",
        "line": "42區",
        "color": "#1e40af",
        "direction": 0
      },
      "geometry": {
        "type": "Point",
        "coordinates": [
          121.523095139749,
          25.070066233009
        ]
      }
    },
    {
      "type": "Feature",
      "properties": {
        "feature_type": "station",
        "ref": "TPE134714",
        "name": "捷運圓山站",
        "name_en": "MRT Yuanshan Sta.",
        "line": "42區",
        "color": "#1e40af",
        "direction": 0
      },
      "geometry": {
        "type": "Point",
        "coordinates": [
          121.520216,
          25.069744
        ]
      }
    },
    {
      "type": "Feature",
      "properties": {
        "feature_type": "station",
        "ref": "TPE134715",
        "name": "臺北市立美術館",
        "name_en": "Taipei Fine Arts Museum",
        "line": "42區",
        "color": "#1e40af",
        "direction": 1
      },
      "geometry": {
        "type": "Point",
        "coordinates": [
          121.523964286473,
          25.0721395085303
        ]
      }
    },
    {
      "type": "Feature",
      "properties": {
        "feature_type": "station",
        "ref": "TPE134716",
        "name": "圓山大飯店",
        "name_en": "The Grand Hotel",
        "line": "42區",
        "color": "#1e40af",
        "direction": 1
      },
      "geometry": {
        "type": "Point",
        "coordinates": [
          121.528167347349,
          25.0772703676354
        ]
      }
    },
    {
      "type": "Feature",
      "properties": {
        "feature_type": "station",
        "ref": "TPE134717",
        "name": "中央電台",
        "name_en": "Radio Taiwan International",
        "line": "42區",
        "color": "#1e40af",
        "direction": 1
      },
      "geometry": {
        "type": "Point",
        "coordinates": [
          121.53000062511,
          25.0779258290758
        ]
      }
    },
    {
      "type": "Feature",
      "properties": {
        "feature_type": "station",
        "ref": "TPE134718",
        "name": "忠烈祠",
        "name_en": "Martyr Shrine",
        "line": "42區",
        "color": "#1e40af",
        "direction": 1
      },
      "geometry": {
        "type": "Point",
        "coordinates": [
          121.5319142,
          25.07800478
        ]
      }
    },
    {
      "type": "Feature",
      "properties": {
        "feature_type": "station",
        "ref": "TPE134719",
        "name": "經國七海文化園區",
        "name_en": "CHING-KUO Chihai Cultural Park",
        "line": "42區",
        "color": "#1e40af",
        "direction": 1
      },
      "geometry": {
        "type": "Point",
        "coordinates": [
          121.535397,
          25.07778224
        ]
      }
    },
    {
      "type": "Feature",
      "properties": {
        "feature_type": "station",
        "ref": "TPE134720",
        "name": "空軍司令部",
        "name_en": "Air Force Command Headquarters",
        "line": "42區",
        "color": "#1e40af",
        "direction": 1
      },
      "geometry": {
        "type": "Point",
        "coordinates": [
          121.540311649212,
          25.0793999240419
        ]
      }
    },
    {
      "type": "Feature",
      "properties": {
        "feature_type": "station",
        "ref": "TPE134721",
        "name": "通北街口",
        "name_en": "Tongbei St. Entrance",
        "line": "42區",
        "color": "#1e40af",
        "direction": 1
      },
      "geometry": {
        "type": "Point",
        "coordinates": [
          121.54125,
          25.079985
        ]
      }
    },
    {
      "type": "Feature",
      "properties": {
        "feature_type": "station",
        "ref": "TPE134724",
        "name": "圓山新城一",
        "name_en": "Yuanshan New Village 1",
        "line": "42區",
        "color": "#1e40af",
        "direction": 1
      },
      "geometry": {
        "type": "Point",
        "coordinates": [
          121.540087,
          25.082444
        ]
      }
    },
    {
      "type": "Feature",
      "properties": {
        "feature_type": "station",
        "ref": "TPE134723",
        "name": "力行新村",
        "name_en": "Lixing New Village",
        "line": "42區",
        "color": "#1e40af",
        "direction": 1
      },
      "geometry": {
        "type": "Point",
        "coordinates": [
          121.5380292,
          25.08409294
        ]
      }
    },
    {
      "type": "Feature",
      "properties": {
        "feature_type": "station",
        "ref": "TPE134722",
        "name": "圓山新城二",
        "name_en": "Yuanshan New Village 2",
        "line": "42區",
        "color": "#1e40af",
        "direction": 1
      },
      "geometry": {
        "type": "Point",
        "coordinates": [
          121.5398705,
          25.08290057
        ]
      }
    },
    {
      "type": "Feature",
      "properties": {
        "feature_type": "station",
        "ref": "TPE134725",
        "name": "通北街口",
        "name_en": "Tongbei St. Entrance",
        "line": "42區",
        "color": "#1e40af",
        "direction": 1
      },
      "geometry": {
        "type": "Point",
        "coordinates": [
          121.541188,
          25.07998
        ]
      }
    },
    {
      "type": "Feature",
      "properties": {
        "feature_type": "station",
        "ref": "TPE134726",
        "name": "大直高中",
        "name_en": "Dazhi High School",
        "line": "42區",
        "color": "#1e40af",
        "direction": 1
      },
      "geometry": {
        "type": "Point",
        "coordinates": [
          121.54255,
          25.07949
        ]
      }
    },
    {
      "type": "Feature",
      "properties": {
        "feature_type": "station",
        "ref": "TPE134727",
        "name": "大直國小",
        "name_en": "Dazhi Elementary School",
        "line": "42區",
        "color": "#1e40af",
        "direction": 1
      },
      "geometry": {
        "type": "Point",
        "coordinates": [
          121.5453154,
          25.07971159
        ]
      }
    },
    {
      "type": "Feature",
      "properties": {
        "feature_type": "station",
        "ref": "TPE134728",
        "name": "捷運大直站",
        "name_en": "MRT Dazhi Station",
        "line": "42區",
        "color": "#1e40af",
        "direction": 1
      },
      "geometry": {
        "type": "Point",
        "coordinates": [
          121.5479855392,
          25.0802161011772
        ]
      }
    },
    {
      "type": "Feature",
      "properties": {
        "feature_type": "station",
        "ref": "TPE134729",
        "name": "植福宮",
        "name_en": "Zhifu Temple",
        "line": "42區",
        "color": "#1e40af",
        "direction": 1
      },
      "geometry": {
        "type": "Point",
        "coordinates": [
          121.5488002,
          25.08160965
        ]
      }
    },
    {
      "type": "Feature",
      "properties": {
        "feature_type": "station",
        "ref": "TPE134730",
        "name": "自強隧道(大直教會)",
        "name_en": "Zihqiang Tunnel (Dazhi Church)",
        "line": "42區",
        "color": "#1e40af",
        "direction": 1
      },
      "geometry": {
        "type": "Point",
        "coordinates": [
          121.549307259251,
          25.0837373733406
        ]
      }
    },
    {
      "type": "Feature",
      "properties": {
        "feature_type": "station",
        "ref": "TPE134731",
        "name": "自強隧道",
        "name_en": "Ziqiang Tunnel",
        "line": "42區",
        "color": "#1e40af",
        "direction": 1
      },
      "geometry": {
        "type": "Point",
        "coordinates": [
          121.551895985064,
          25.0858624708036
        ]
      }
    },
    {
      "type": "Feature",
      "properties": {
        "feature_type": "station",
        "ref": "TPE134732",
        "name": "捷運劍南路站",
        "name_en": "MRT Jiannan Rd. Station ",
        "line": "42區",
        "color": "#1e40af",
        "direction": 1
      },
      "geometry": {
        "type": "Point",
        "coordinates": [
          121.555253,
          25.08484
        ]
      }
    },
    {
      "type": "Feature",
      "properties": {
        "feature_type": "station",
        "ref": "TPE134733",
        "name": "美麗華",
        "name_en": "Miramar",
        "line": "42區",
        "color": "#1e40af",
        "direction": 1
      },
      "geometry": {
        "type": "Point",
        "coordinates": [
          121.5582146,
          25.08459058
        ]
      }
    },
    {
      "type": "Feature",
      "properties": {
        "feature_type": "station",
        "ref": "TPE134734",
        "name": "敬業四路",
        "name_en": "Jingye 4th Rd.",
        "line": "42區",
        "color": "#1e40af",
        "direction": 1
      },
      "geometry": {
        "type": "Point",
        "coordinates": [
          121.5584464,
          25.08185576
        ]
      }
    },
    {
      "type": "Feature",
      "properties": {
        "feature_type": "station",
        "ref": "TPE134735",
        "name": "大直美堤花園二",
        "name_en": "Dazhi Meiti Garden 2",
        "line": "42區",
        "color": "#1e40af",
        "direction": 1
      },
      "geometry": {
        "type": "Point",
        "coordinates": [
          121.5574829,
          25.08002077
        ]
      }
    }
  ]
}
