{
  "type": "FeatureCollection",
  "name": "6906（和美）",
  "properties": {
    "id": "inter_city_6906",
    "name": "6906（和美）",
    "name_en": "6906 (和美)",
    "ref": "6906",
    "color": "#166534",
    "city_id": "InterCity",
    "source": "TDX Bus Shape / StopOfRoute",
    "via": "和美",
    "official_map_url": "https://web.taiwanbus.tw/MISUploadData/Schematic/file/6906.jpg",
    "operator_id": "60",
    "operator": "彰化客運",
    "operator_en": "Chang Hua Bus Co., Ltd."
  },
  "features": [
    {
      "type": "Feature",
      "properties": {
        "feature_type": "route",
        "ref": "6906",
        "name": "6906（和美）",
        "name_en": "6906 (和美)",
        "color": "#166534",
        "direction": 0
      },
      "geometry": {
        "type": "LineString",
        "coordinates": [
          [
            120.53945,
            24.08156
          ],
          [
            120.54019,
            24.0819
          ],
          [
            120.54067,
            24.08204
          ],
          [
            120.54192,
            24.08238
          ],
          [
            120.54192,
            24.08238
          ],
          [
            120.54244,
            24.08252
          ],
          [
            120.54237,
            24.08303
          ],
          [
            120.54231,
            24.08353
          ],
          [
            120.54219,
            24.08449
          ],
          [
            120.54213,
            24.08471
          ],
          [
            120.54213,
            24.08471
          ],
          [
            120.54199,
            24.08523
          ],
          [
            120.54189,
            24.08533
          ],
          [
            120.5409,
            24.08589
          ],
          [
            120.54057,
            24.08607
          ],
          [
            120.53967,
            24.08659
          ],
          [
            120.53946,
            24.08676
          ],
          [
            120.53937,
            24.08693
          ],
          [
            120.53918,
            24.08756
          ],
          [
            120.53918,
            24.08756
          ],
          [
            120.53912,
            24.08773
          ],
          [
            120.539,
            24.08788
          ],
          [
            120.53856,
            24.08822
          ],
          [
            120.53831,
            24.08843
          ],
          [
            120.53744,
            24.08908
          ],
          [
            120.53631,
            24.08997
          ],
          [
            120.53574,
            24.0904
          ],
          [
            120.53568,
            24.09049
          ],
          [
            120.53557,
            24.09057
          ],
          [
            120.53502,
            24.091
          ],
          [
            120.53502,
            24.091
          ],
          [
            120.5334,
            24.09228
          ],
          [
            120.53284,
            24.09269
          ],
          [
            120.53208,
            24.09329
          ],
          [
            120.53208,
            24.09329
          ],
          [
            120.52872,
            24.09589
          ],
          [
            120.52872,
            24.09589
          ],
          [
            120.52733,
            24.09698
          ],
          [
            120.52549,
            24.09839
          ],
          [
            120.5253,
            24.09854
          ],
          [
            120.5253,
            24.09854
          ],
          [
            120.52429,
            24.09934
          ],
          [
            120.52238,
            24.10078
          ],
          [
            120.52238,
            24.10078
          ],
          [
            120.52188,
            24.1012
          ],
          [
            120.52149,
            24.10151
          ],
          [
            120.52138,
            24.10156
          ],
          [
            120.52109,
            24.10172
          ],
          [
            120.52098,
            24.10173
          ],
          [
            120.52062,
            24.10188
          ],
          [
            120.52016,
            24.10209
          ],
          [
            120.51953,
            24.10226
          ],
          [
            120.51953,
            24.10226
          ],
          [
            120.51894,
            24.1024
          ],
          [
            120.51767,
            24.10269
          ],
          [
            120.51703,
            24.10285
          ],
          [
            120.51703,
            24.10285
          ],
          [
            120.51696,
            24.10287
          ],
          [
            120.51677,
            24.10291
          ],
          [
            120.51639,
            24.10301
          ],
          [
            120.51598,
            24.10312
          ],
          [
            120.51501,
            24.10334
          ],
          [
            120.51449,
            24.10346
          ],
          [
            120.51436,
            24.10354
          ],
          [
            120.51432,
            24.10355
          ],
          [
            120.51381,
            24.10365
          ],
          [
            120.51366,
            24.10368
          ],
          [
            120.51331,
            24.10376
          ],
          [
            120.51331,
            24.10376
          ],
          [
            120.51211,
            24.10404
          ],
          [
            120.51166,
            24.10413
          ],
          [
            120.51083,
            24.10435
          ],
          [
            120.51072,
            24.10437
          ],
          [
            120.51062,
            24.1044
          ],
          [
            120.51025,
            24.10447
          ],
          [
            120.51007,
            24.10452
          ],
          [
            120.51007,
            24.10452
          ],
          [
            120.50926,
            24.10471
          ],
          [
            120.50792,
            24.10501
          ],
          [
            120.50787,
            24.10502
          ],
          [
            120.50731,
            24.10514
          ],
          [
            120.50671,
            24.10527
          ],
          [
            120.50664,
            24.10529
          ],
          [
            120.50648,
            24.10533
          ],
          [
            120.50612,
            24.10542
          ],
          [
            120.50581,
            24.1055
          ],
          [
            120.50516,
            24.1057
          ],
          [
            120.50498,
            24.10576
          ],
          [
            120.50485,
            24.10577
          ],
          [
            120.50472,
            24.10579
          ],
          [
            120.50472,
            24.10579
          ],
          [
            120.50471,
            24.10581
          ],
          [
            120.50471,
            24.10582
          ],
          [
            120.5047,
            24.10583
          ],
          [
            120.50468,
            24.10584
          ],
          [
            120.50466,
            24.10585
          ],
          [
            120.50424,
            24.10604
          ],
          [
            120.50399,
            24.10618
          ],
          [
            120.5038,
            24.10629
          ],
          [
            120.50354,
            24.10646
          ],
          [
            120.50353,
            24.10646
          ],
          [
            120.50353,
            24.10646
          ],
          [
            120.50325,
            24.10669
          ],
          [
            120.5025,
            24.10734
          ],
          [
            120.50233,
            24.1075
          ],
          [
            120.50171,
            24.10826
          ],
          [
            120.50119,
            24.10891
          ],
          [
            120.50119,
            24.10891
          ],
          [
            120.4997,
            24.1107
          ],
          [
            120.4997,
            24.1107
          ],
          [
            120.4988,
            24.11179
          ],
          [
            120.4988,
            24.11179
          ],
          [
            120.49849,
            24.11217
          ],
          [
            120.49831,
            24.11236
          ],
          [
            120.49746,
            24.11341
          ],
          [
            120.49666,
            24.11438
          ],
          [
            120.49666,
            24.11438
          ],
          [
            120.4957,
            24.11556
          ],
          [
            120.4957,
            24.11556
          ],
          [
            120.49497,
            24.11644
          ],
          [
            120.49438,
            24.11717
          ],
          [
            120.49424,
            24.1174
          ],
          [
            120.49347,
            24.11829
          ],
          [
            120.49329,
            24.1185
          ],
          [
            120.49329,
            24.1185
          ],
          [
            120.49279,
            24.11909
          ],
          [
            120.4926,
            24.11935
          ],
          [
            120.49247,
            24.11953
          ],
          [
            120.49228,
            24.11988
          ],
          [
            120.49206,
            24.12036
          ],
          [
            120.49206,
            24.12036
          ],
          [
            120.49193,
            24.12079
          ],
          [
            120.49172,
            24.12184
          ],
          [
            120.4913,
            24.12408
          ],
          [
            120.4913,
            24.12408
          ],
          [
            120.49094,
            24.12599
          ],
          [
            120.49094,
            24.12599
          ],
          [
            120.49034,
            24.12921
          ],
          [
            120.49022,
            24.1299
          ],
          [
            120.49022,
            24.1299
          ],
          [
            120.48984,
            24.13185
          ],
          [
            120.48984,
            24.13185
          ],
          [
            120.48887,
            24.13692
          ],
          [
            120.48887,
            24.13692
          ],
          [
            120.48884,
            24.1371
          ],
          [
            120.48882,
            24.13723
          ],
          [
            120.4885,
            24.13884
          ],
          [
            120.48846,
            24.1391
          ],
          [
            120.48845,
            24.13917
          ],
          [
            120.48846,
            24.13922
          ],
          [
            120.48846,
            24.13922
          ],
          [
            120.48843,
            24.13923
          ],
          [
            120.48842,
            24.13924
          ],
          [
            120.4884,
            24.13925
          ],
          [
            120.48839,
            24.13927
          ],
          [
            120.48838,
            24.13929
          ],
          [
            120.48835,
            24.13937
          ],
          [
            120.48833,
            24.13948
          ],
          [
            120.48812,
            24.14059
          ],
          [
            120.48808,
            24.14081
          ],
          [
            120.48798,
            24.1413
          ],
          [
            120.48794,
            24.14153
          ],
          [
            120.48794,
            24.14153
          ],
          [
            120.48792,
            24.14165
          ],
          [
            120.48785,
            24.142
          ],
          [
            120.48783,
            24.14212
          ],
          [
            120.48781,
            24.14222
          ],
          [
            120.48767,
            24.14306
          ],
          [
            120.48767,
            24.14306
          ],
          [
            120.48762,
            24.14332
          ],
          [
            120.48749,
            24.14397
          ],
          [
            120.48717,
            24.14571
          ],
          [
            120.48707,
            24.14615
          ],
          [
            120.48707,
            24.14615
          ],
          [
            120.48696,
            24.14668
          ],
          [
            120.48684,
            24.14724
          ],
          [
            120.48582,
            24.14711
          ],
          [
            120.48494,
            24.14703
          ],
          [
            120.48494,
            24.14703
          ],
          [
            120.48406,
            24.14693
          ],
          [
            120.48349,
            24.14689
          ],
          [
            120.48319,
            24.1469
          ],
          [
            120.48282,
            24.14693
          ],
          [
            120.48247,
            24.14697
          ],
          [
            120.48247,
            24.14697
          ],
          [
            120.48128,
            24.14723
          ],
          [
            120.47843,
            24.14781
          ],
          [
            120.4782,
            24.14786
          ]
        ]
      }
    },
    {
      "type": "Feature",
      "properties": {
        "feature_type": "route",
        "ref": "6906",
        "name": "6906（和美）",
        "name_en": "6906 (和美)",
        "color": "#166534",
        "direction": 1
      },
      "geometry": {
        "type": "LineString",
        "coordinates": [
          [
            120.4782,
            24.14786
          ],
          [
            120.48183,
            24.14711
          ],
          [
            120.48235,
            24.147
          ],
          [
            120.48235,
            24.147
          ],
          [
            120.48282,
            24.14693
          ],
          [
            120.48319,
            24.1469
          ],
          [
            120.48349,
            24.14689
          ],
          [
            120.48406,
            24.14693
          ],
          [
            120.48474,
            24.147
          ],
          [
            120.48474,
            24.147
          ],
          [
            120.48684,
            24.14724
          ],
          [
            120.48707,
            24.14615
          ],
          [
            120.48707,
            24.14615
          ],
          [
            120.48728,
            24.14512
          ],
          [
            120.48737,
            24.14461
          ],
          [
            120.48755,
            24.14369
          ],
          [
            120.48764,
            24.14321
          ],
          [
            120.48764,
            24.14321
          ],
          [
            120.48765,
            24.14315
          ],
          [
            120.48766,
            24.14311
          ],
          [
            120.48781,
            24.14222
          ],
          [
            120.48783,
            24.14212
          ],
          [
            120.48785,
            24.142
          ],
          [
            120.48791,
            24.14168
          ],
          [
            120.48791,
            24.14168
          ],
          [
            120.48792,
            24.14165
          ],
          [
            120.48798,
            24.1413
          ],
          [
            120.48808,
            24.14081
          ],
          [
            120.48812,
            24.14059
          ],
          [
            120.48833,
            24.13948
          ],
          [
            120.48835,
            24.13937
          ],
          [
            120.48838,
            24.13929
          ],
          [
            120.48839,
            24.13927
          ],
          [
            120.48839,
            24.13927
          ],
          [
            120.48838,
            24.1392
          ],
          [
            120.48838,
            24.13915
          ],
          [
            120.48839,
            24.13902
          ],
          [
            120.48842,
            24.13882
          ],
          [
            120.4885,
            24.13839
          ],
          [
            120.48872,
            24.13726
          ],
          [
            120.48874,
            24.13709
          ],
          [
            120.48878,
            24.13691
          ],
          [
            120.48878,
            24.13691
          ],
          [
            120.48976,
            24.13174
          ],
          [
            120.48976,
            24.13174
          ],
          [
            120.49023,
            24.12931
          ],
          [
            120.49023,
            24.12931
          ],
          [
            120.49082,
            24.12611
          ],
          [
            120.49082,
            24.12611
          ],
          [
            120.49125,
            24.12391
          ],
          [
            120.49125,
            24.12391
          ],
          [
            120.49175,
            24.12127
          ],
          [
            120.49192,
            24.12058
          ],
          [
            120.49192,
            24.12058
          ],
          [
            120.49218,
            24.11986
          ],
          [
            120.4924,
            24.11948
          ],
          [
            120.49258,
            24.11921
          ],
          [
            120.49338,
            24.11823
          ],
          [
            120.49342,
            24.11818
          ],
          [
            120.49342,
            24.11818
          ],
          [
            120.49406,
            24.11742
          ],
          [
            120.49414,
            24.11732
          ],
          [
            120.49438,
            24.11717
          ],
          [
            120.49502,
            24.11638
          ],
          [
            120.49559,
            24.11569
          ],
          [
            120.4957,
            24.11556
          ],
          [
            120.4957,
            24.11556
          ],
          [
            120.49664,
            24.1144
          ],
          [
            120.49664,
            24.1144
          ],
          [
            120.49831,
            24.11236
          ],
          [
            120.49855,
            24.11209
          ],
          [
            120.4987,
            24.11192
          ],
          [
            120.4987,
            24.11192
          ],
          [
            120.49953,
            24.11091
          ],
          [
            120.49953,
            24.11091
          ],
          [
            120.50136,
            24.1087
          ],
          [
            120.50136,
            24.1087
          ],
          [
            120.50171,
            24.10826
          ],
          [
            120.50233,
            24.1075
          ],
          [
            120.5025,
            24.10734
          ],
          [
            120.50311,
            24.10681
          ],
          [
            120.50311,
            24.10681
          ],
          [
            120.50339,
            24.10656
          ],
          [
            120.50317,
            24.10611
          ],
          [
            120.50314,
            24.10602
          ],
          [
            120.5035,
            24.10595
          ],
          [
            120.50471,
            24.10571
          ],
          [
            120.50489,
            24.10569
          ],
          [
            120.50521,
            24.1056
          ],
          [
            120.50663,
            24.10522
          ],
          [
            120.51007,
            24.10443
          ],
          [
            120.51007,
            24.10443
          ],
          [
            120.51082,
            24.10426
          ],
          [
            120.51209,
            24.10399
          ],
          [
            120.51406,
            24.10352
          ],
          [
            120.51406,
            24.10352
          ],
          [
            120.51435,
            24.10345
          ],
          [
            120.51449,
            24.10346
          ],
          [
            120.51501,
            24.10334
          ],
          [
            120.51561,
            24.10321
          ],
          [
            120.51561,
            24.10321
          ],
          [
            120.51639,
            24.10301
          ],
          [
            120.51894,
            24.1024
          ],
          [
            120.51949,
            24.10227
          ],
          [
            120.51949,
            24.10227
          ],
          [
            120.52016,
            24.10209
          ],
          [
            120.52062,
            24.10188
          ],
          [
            120.52098,
            24.10173
          ],
          [
            120.52106,
            24.10162
          ],
          [
            120.52146,
            24.10139
          ],
          [
            120.52232,
            24.10073
          ],
          [
            120.52232,
            24.10073
          ],
          [
            120.52413,
            24.09934
          ],
          [
            120.52518,
            24.0985
          ],
          [
            120.52518,
            24.0985
          ],
          [
            120.52876,
            24.09574
          ],
          [
            120.52876,
            24.09574
          ],
          [
            120.53001,
            24.09479
          ],
          [
            120.53086,
            24.09411
          ],
          [
            120.53171,
            24.09346
          ],
          [
            120.53171,
            24.09346
          ],
          [
            120.53277,
            24.09262
          ],
          [
            120.53331,
            24.09221
          ],
          [
            120.53371,
            24.09185
          ],
          [
            120.53434,
            24.09134
          ],
          [
            120.53468,
            24.09107
          ],
          [
            120.53468,
            24.09107
          ],
          [
            120.53506,
            24.09079
          ],
          [
            120.53561,
            24.09042
          ],
          [
            120.53574,
            24.0904
          ],
          [
            120.53597,
            24.09022
          ],
          [
            120.5364,
            24.0899
          ],
          [
            120.53774,
            24.08885
          ],
          [
            120.53819,
            24.08853
          ],
          [
            120.53847,
            24.08829
          ],
          [
            120.53882,
            24.08802
          ],
          [
            120.539,
            24.08788
          ],
          [
            120.5391,
            24.08776
          ],
          [
            120.53915,
            24.08766
          ],
          [
            120.53922,
            24.08743
          ],
          [
            120.53922,
            24.08743
          ],
          [
            120.53937,
            24.08693
          ],
          [
            120.53942,
            24.08682
          ],
          [
            120.5396,
            24.08665
          ],
          [
            120.53973,
            24.08654
          ],
          [
            120.54076,
            24.08597
          ],
          [
            120.54186,
            24.08535
          ],
          [
            120.54192,
            24.0853
          ],
          [
            120.54199,
            24.08523
          ],
          [
            120.54209,
            24.08488
          ],
          [
            120.54216,
            24.08461
          ],
          [
            120.54216,
            24.08461
          ],
          [
            120.54221,
            24.08436
          ],
          [
            120.54226,
            24.08398
          ],
          [
            120.54244,
            24.08252
          ],
          [
            120.54257,
            24.08148
          ],
          [
            120.54257,
            24.08148
          ],
          [
            120.54268,
            24.08072
          ],
          [
            120.54145,
            24.08061
          ],
          [
            120.54145,
            24.08061
          ],
          [
            120.54039,
            24.08048
          ],
          [
            120.54,
            24.08068
          ],
          [
            120.5392,
            24.08117
          ],
          [
            120.53926,
            24.08125
          ],
          [
            120.53933,
            24.08142
          ],
          [
            120.53934,
            24.08152
          ],
          [
            120.53942,
            24.08155
          ]
        ]
      }
    },
    {
      "type": "Feature",
      "properties": {
        "feature_type": "station",
        "ref": "THB262990",
        "name": "彰化",
        "name_en": "Changhua",
        "line": "6906（和美）",
        "color": "#166534",
        "direction": 0
      },
      "geometry": {
        "type": "Point",
        "coordinates": [
          120.5395161,
          24.0814331
        ]
      }
    },
    {
      "type": "Feature",
      "properties": {
        "feature_type": "station",
        "ref": "THB257442",
        "name": "民生路口",
        "name_en": "Minsheng Rd. Intersection",
        "line": "6906（和美）",
        "color": "#166534",
        "direction": 0
      },
      "geometry": {
        "type": "Point",
        "coordinates": [
          120.5419199732,
          24.0823699967573
        ]
      }
    },
    {
      "type": "Feature",
      "properties": {
        "feature_type": "station",
        "ref": "THB258461",
        "name": "民生國小",
        "name_en": "Minsheng Elementary School",
        "line": "6906（和美）",
        "color": "#166534",
        "direction": 0
      },
      "geometry": {
        "type": "Point",
        "coordinates": [
          120.542233,
          24.084581
        ]
      }
    },
    {
      "type": "Feature",
      "properties": {
        "feature_type": "station",
        "ref": "THB255539",
        "name": "過溝子",
        "name_en": "Guogouzi",
        "line": "6906（和美）",
        "color": "#166534",
        "direction": 0
      },
      "geometry": {
        "type": "Point",
        "coordinates": [
          120.5391604,
          24.0878341
        ]
      }
    },
    {
      "type": "Feature",
      "properties": {
        "feature_type": "station",
        "ref": "THB253484",
        "name": "民生社區",
        "name_en": "Minsheng Community",
        "line": "6906（和美）",
        "color": "#166534",
        "direction": 0
      },
      "geometry": {
        "type": "Point",
        "coordinates": [
          120.535121,
          24.090974
        ]
      }
    },
    {
      "type": "Feature",
      "properties": {
        "feature_type": "station",
        "ref": "THB259151",
        "name": "詔安厝",
        "name_en": "Zhao-ancuo",
        "line": "6906（和美）",
        "color": "#166534",
        "direction": 0
      },
      "geometry": {
        "type": "Point",
        "coordinates": [
          120.5321267,
          24.0933186
        ]
      }
    },
    {
      "type": "Feature",
      "properties": {
        "feature_type": "station",
        "ref": "THB258534",
        "name": "新庄子",
        "name_en": "Xinzhuangzi",
        "line": "6906（和美）",
        "color": "#166534",
        "direction": 0
      },
      "geometry": {
        "type": "Point",
        "coordinates": [
          120.5287516,
          24.0959345
        ]
      }
    },
    {
      "type": "Feature",
      "properties": {
        "feature_type": "station",
        "ref": "THB255168",
        "name": "新東",
        "name_en": "Xindong",
        "line": "6906（和美）",
        "color": "#166534",
        "direction": 0
      },
      "geometry": {
        "type": "Point",
        "coordinates": [
          120.525305,
          24.098601
        ]
      }
    },
    {
      "type": "Feature",
      "properties": {
        "feature_type": "station",
        "ref": "THB257600",
        "name": "富王社區",
        "name_en": "Fuwang Community",
        "line": "6906（和美）",
        "color": "#166534",
        "direction": 0
      },
      "geometry": {
        "type": "Point",
        "coordinates": [
          120.5223901,
          24.1008122
        ]
      }
    },
    {
      "type": "Feature",
      "properties": {
        "feature_type": "station",
        "ref": "THB257222",
        "name": "鐵山里",
        "name_en": "Tieshan Village",
        "line": "6906（和美）",
        "color": "#166534",
        "direction": 0
      },
      "geometry": {
        "type": "Point",
        "coordinates": [
          120.519531,
          24.102341
        ]
      }
    },
    {
      "type": "Feature",
      "properties": {
        "feature_type": "station",
        "ref": "THB257712",
        "name": "嘉犁",
        "name_en": "Jiali",
        "line": "6906（和美）",
        "color": "#166534",
        "direction": 0
      },
      "geometry": {
        "type": "Point",
        "coordinates": [
          120.517486,
          24.102767
        ]
      }
    },
    {
      "type": "Feature",
      "properties": {
        "feature_type": "station",
        "ref": "THB256080",
        "name": "錦發工廠",
        "name_en": "Jinfa Factory",
        "line": "6906（和美）",
        "color": "#166534",
        "direction": 0
      },
      "geometry": {
        "type": "Point",
        "coordinates": [
          120.513373,
          24.1038365
        ]
      }
    },
    {
      "type": "Feature",
      "properties": {
        "feature_type": "station",
        "ref": "THB256066",
        "name": "樹子腳",
        "name_en": "Shuzijiao",
        "line": "6906（和美）",
        "color": "#166534",
        "direction": 0
      },
      "geometry": {
        "type": "Point",
        "coordinates": [
          120.510092,
          24.104608
        ]
      }
    },
    {
      "type": "Feature",
      "properties": {
        "feature_type": "station",
        "ref": "THB262651",
        "name": "蕭厝",
        "name_en": "Xiaocuo",
        "line": "6906（和美）",
        "color": "#166534",
        "direction": 0
      },
      "geometry": {
        "type": "Point",
        "coordinates": [
          120.50359,
          24.10653
        ]
      }
    },
    {
      "type": "Feature",
      "properties": {
        "feature_type": "station",
        "ref": "THB276627",
        "name": "和東國小",
        "name_en": "Hedong Elementary School",
        "line": "6906（和美）",
        "color": "#166534",
        "direction": 0
      },
      "geometry": {
        "type": "Point",
        "coordinates": [
          120.50119,
          24.10891
        ]
      }
    },
    {
      "type": "Feature",
      "properties": {
        "feature_type": "station",
        "ref": "THB262439",
        "name": "和美衛生所",
        "name_en": "Hemei Health Center",
        "line": "6906（和美）",
        "color": "#166534",
        "direction": 0
      },
      "geometry": {
        "type": "Point",
        "coordinates": [
          120.4997138,
          24.1107568
        ]
      }
    },
    {
      "type": "Feature",
      "properties": {
        "feature_type": "station",
        "ref": "THB260096",
        "name": "和美",
        "name_en": "Hemei",
        "line": "6906（和美）",
        "color": "#166534",
        "direction": 0
      },
      "geometry": {
        "type": "Point",
        "coordinates": [
          120.49885,
          24.11183
        ]
      }
    },
    {
      "type": "Feature",
      "properties": {
        "feature_type": "station",
        "ref": "THB257955",
        "name": "和北里",
        "name_en": "Hebei Village",
        "line": "6906（和美）",
        "color": "#166534",
        "direction": 0
      },
      "geometry": {
        "type": "Point",
        "coordinates": [
          120.49669,
          24.1144
        ]
      }
    },
    {
      "type": "Feature",
      "properties": {
        "feature_type": "station",
        "ref": "THB254927",
        "name": "順天醫院",
        "name_en": "Shuntian Hospital",
        "line": "6906（和美）",
        "color": "#166534",
        "direction": 0
      },
      "geometry": {
        "type": "Point",
        "coordinates": [
          120.49574,
          24.11559
        ]
      }
    },
    {
      "type": "Feature",
      "properties": {
        "feature_type": "station",
        "ref": "THB261541",
        "name": "耀億社區",
        "name_en": "Yaoyi Community",
        "line": "6906（和美）",
        "color": "#166534",
        "direction": 0
      },
      "geometry": {
        "type": "Point",
        "coordinates": [
          120.4933335,
          24.1185118
        ]
      }
    },
    {
      "type": "Feature",
      "properties": {
        "feature_type": "station",
        "ref": "THB276630",
        "name": "六和工廠",
        "name_en": "Liuhe Factory",
        "line": "6906（和美）",
        "color": "#166534",
        "direction": 0
      },
      "geometry": {
        "type": "Point",
        "coordinates": [
          120.4921091,
          24.1203492
        ]
      }
    },
    {
      "type": "Feature",
      "properties": {
        "feature_type": "station",
        "ref": "THB261317",
        "name": "月眉",
        "name_en": "Yuemei",
        "line": "6906（和美）",
        "color": "#166534",
        "direction": 0
      },
      "geometry": {
        "type": "Point",
        "coordinates": [
          120.4913454,
          24.12423
        ]
      }
    },
    {
      "type": "Feature",
      "properties": {
        "feature_type": "station",
        "ref": "THB262811",
        "name": "東進紡織",
        "name_en": "Dongjin Textile",
        "line": "6906（和美）",
        "color": "#166534",
        "direction": 0
      },
      "geometry": {
        "type": "Point",
        "coordinates": [
          120.4909888,
          24.126012
        ]
      }
    },
    {
      "type": "Feature",
      "properties": {
        "feature_type": "station",
        "ref": "THB260155",
        "name": "好修里",
        "name_en": "Hauxiu Village",
        "line": "6906（和美）",
        "color": "#166534",
        "direction": 0
      },
      "geometry": {
        "type": "Point",
        "coordinates": [
          120.4902718,
          24.1299022
        ]
      }
    },
    {
      "type": "Feature",
      "properties": {
        "feature_type": "station",
        "ref": "THB257568",
        "name": "頂好修里",
        "name_en": "Dinghaoxiu Village",
        "line": "6906（和美）",
        "color": "#166534",
        "direction": 0
      },
      "geometry": {
        "type": "Point",
        "coordinates": [
          120.4898996,
          24.1318487
        ]
      }
    },
    {
      "type": "Feature",
      "properties": {
        "feature_type": "station",
        "ref": "THB256827",
        "name": "紅瓦厝",
        "name_en": "Hongmaocuo",
        "line": "6906（和美）",
        "color": "#166534",
        "direction": 0
      },
      "geometry": {
        "type": "Point",
        "coordinates": [
          120.4889043,
          24.1369187
        ]
      }
    },
    {
      "type": "Feature",
      "properties": {
        "feature_type": "station",
        "ref": "THB262549",
        "name": "連美工廠",
        "name_en": "Lianmei Factory",
        "line": "6906（和美）",
        "color": "#166534",
        "direction": 0
      },
      "geometry": {
        "type": "Point",
        "coordinates": [
          120.487997,
          24.141537
        ]
      }
    },
    {
      "type": "Feature",
      "properties": {
        "feature_type": "station",
        "ref": "THB261324",
        "name": "加油站前",
        "name_en": "Gas Station",
        "line": "6906（和美）",
        "color": "#166534",
        "direction": 0
      },
      "geometry": {
        "type": "Point",
        "coordinates": [
          120.487701,
          24.143075
        ]
      }
    },
    {
      "type": "Feature",
      "properties": {
        "feature_type": "station",
        "ref": "THB281178",
        "name": "市場前",
        "name_en": "Market",
        "line": "6906（和美）",
        "color": "#166534",
        "direction": 0
      },
      "geometry": {
        "type": "Point",
        "coordinates": [
          120.4871358,
          24.1461312
        ]
      }
    },
    {
      "type": "Feature",
      "properties": {
        "feature_type": "station",
        "ref": "THB257435",
        "name": "幼稚園前",
        "name_en": "Kindergarten",
        "line": "6906（和美）",
        "color": "#166534",
        "direction": 0
      },
      "geometry": {
        "type": "Point",
        "coordinates": [
          120.484209,
          24.146991
        ]
      }
    },
    {
      "type": "Feature",
      "properties": {
        "feature_type": "station",
        "ref": "THB260696",
        "name": "泉州村",
        "name_en": "Quanzhou Village",
        "line": "6906（和美）",
        "color": "#166534",
        "direction": 0
      },
      "geometry": {
        "type": "Point",
        "coordinates": [
          120.482574,
          24.146984
        ]
      }
    },
    {
      "type": "Feature",
      "properties": {
        "feature_type": "station",
        "ref": "THB253100",
        "name": "水尾",
        "name_en": "Shuiwei",
        "line": "6906（和美）",
        "color": "#166534",
        "direction": 0
      },
      "geometry": {
        "type": "Point",
        "coordinates": [
          120.478318,
          24.14789
        ]
      }
    },
    {
      "type": "Feature",
      "properties": {
        "feature_type": "station",
        "ref": "THB253100",
        "name": "水尾",
        "name_en": "Shuiwei",
        "line": "6906（和美）",
        "color": "#166534",
        "direction": 1
      },
      "geometry": {
        "type": "Point",
        "coordinates": [
          120.478318,
          24.14789
        ]
      }
    },
    {
      "type": "Feature",
      "properties": {
        "feature_type": "station",
        "ref": "THB257322",
        "name": "泉州村",
        "name_en": "Quanzhou Village",
        "line": "6906（和美）",
        "color": "#166534",
        "direction": 1
      },
      "geometry": {
        "type": "Point",
        "coordinates": [
          120.482377,
          24.14692
        ]
      }
    },
    {
      "type": "Feature",
      "properties": {
        "feature_type": "station",
        "ref": "THB252934",
        "name": "幼稚園前",
        "name_en": "Kindergarten",
        "line": "6906（和美）",
        "color": "#166534",
        "direction": 1
      },
      "geometry": {
        "type": "Point",
        "coordinates": [
          120.484266,
          24.146903
        ]
      }
    },
    {
      "type": "Feature",
      "properties": {
        "feature_type": "station",
        "ref": "THB279600",
        "name": "市場前",
        "name_en": "Market",
        "line": "6906（和美）",
        "color": "#166534",
        "direction": 1
      },
      "geometry": {
        "type": "Point",
        "coordinates": [
          120.4869063,
          24.1466249
        ]
      }
    },
    {
      "type": "Feature",
      "properties": {
        "feature_type": "station",
        "ref": "THB276629",
        "name": "加油站前",
        "name_en": "Gas Station",
        "line": "6906（和美）",
        "color": "#166534",
        "direction": 1
      },
      "geometry": {
        "type": "Point",
        "coordinates": [
          120.487583,
          24.143162
        ]
      }
    },
    {
      "type": "Feature",
      "properties": {
        "feature_type": "station",
        "ref": "THB260411",
        "name": "連美工廠",
        "name_en": "Lianmei Factory",
        "line": "6906（和美）",
        "color": "#166534",
        "direction": 1
      },
      "geometry": {
        "type": "Point",
        "coordinates": [
          120.487825,
          24.141671
        ]
      }
    },
    {
      "type": "Feature",
      "properties": {
        "feature_type": "station",
        "ref": "THB256828",
        "name": "紅瓦厝",
        "name_en": "Hongmaocuo",
        "line": "6906（和美）",
        "color": "#166534",
        "direction": 1
      },
      "geometry": {
        "type": "Point",
        "coordinates": [
          120.4887249,
          24.1369024
        ]
      }
    },
    {
      "type": "Feature",
      "properties": {
        "feature_type": "station",
        "ref": "THB255445",
        "name": "頂好修里",
        "name_en": "Dinghaoxiu Village",
        "line": "6906（和美）",
        "color": "#166534",
        "direction": 1
      },
      "geometry": {
        "type": "Point",
        "coordinates": [
          120.4897078,
          24.1317047
        ]
      }
    },
    {
      "type": "Feature",
      "properties": {
        "feature_type": "station",
        "ref": "THB257882",
        "name": "好修里",
        "name_en": "Hauxiu Village",
        "line": "6906（和美）",
        "color": "#166534",
        "direction": 1
      },
      "geometry": {
        "type": "Point",
        "coordinates": [
          120.4901584,
          24.1292732
        ]
      }
    },
    {
      "type": "Feature",
      "properties": {
        "feature_type": "station",
        "ref": "THB254097",
        "name": "東進紡織",
        "name_en": "Dongjin Textile",
        "line": "6906（和美）",
        "color": "#166534",
        "direction": 1
      },
      "geometry": {
        "type": "Point",
        "coordinates": [
          120.4907508,
          24.12612
        ]
      }
    },
    {
      "type": "Feature",
      "properties": {
        "feature_type": "station",
        "ref": "THB253095",
        "name": "月眉",
        "name_en": "Yuemei",
        "line": "6906（和美）",
        "color": "#166534",
        "direction": 1
      },
      "geometry": {
        "type": "Point",
        "coordinates": [
          120.4911535,
          24.1239032
        ]
      }
    },
    {
      "type": "Feature",
      "properties": {
        "feature_type": "station",
        "ref": "THB276626",
        "name": "六和工廠",
        "name_en": "Liuhe Factory",
        "line": "6906（和美）",
        "color": "#166534",
        "direction": 1
      },
      "geometry": {
        "type": "Point",
        "coordinates": [
          120.49191,
          24.12058
        ]
      }
    },
    {
      "type": "Feature",
      "properties": {
        "feature_type": "station",
        "ref": "THB257841",
        "name": "耀億社區",
        "name_en": "Yaoyi Community",
        "line": "6906（和美）",
        "color": "#166534",
        "direction": 1
      },
      "geometry": {
        "type": "Point",
        "coordinates": [
          120.493377,
          24.118142
        ]
      }
    },
    {
      "type": "Feature",
      "properties": {
        "feature_type": "station",
        "ref": "THB258515",
        "name": "順天醫院",
        "name_en": "Shuntian Hospital",
        "line": "6906（和美）",
        "color": "#166534",
        "direction": 1
      },
      "geometry": {
        "type": "Point",
        "coordinates": [
          120.4956684,
          24.1155252
        ]
      }
    },
    {
      "type": "Feature",
      "properties": {
        "feature_type": "station",
        "ref": "THB253846",
        "name": "和北里",
        "name_en": "Hebei Village",
        "line": "6906（和美）",
        "color": "#166534",
        "direction": 1
      },
      "geometry": {
        "type": "Point",
        "coordinates": [
          120.4969146,
          24.1139516
        ]
      }
    },
    {
      "type": "Feature",
      "properties": {
        "feature_type": "station",
        "ref": "THB256708",
        "name": "和美",
        "name_en": "Hemei",
        "line": "6906（和美）",
        "color": "#166534",
        "direction": 1
      },
      "geometry": {
        "type": "Point",
        "coordinates": [
          120.4987085,
          24.1117823
        ]
      }
    },
    {
      "type": "Feature",
      "properties": {
        "feature_type": "station",
        "ref": "THB262440",
        "name": "和美衛生所",
        "name_en": "Hemei Health Center",
        "line": "6906（和美）",
        "color": "#166534",
        "direction": 1
      },
      "geometry": {
        "type": "Point",
        "coordinates": [
          120.4994467,
          24.1108674
        ]
      }
    },
    {
      "type": "Feature",
      "properties": {
        "feature_type": "station",
        "ref": "THB258821",
        "name": "和東國小",
        "name_en": "Hedong Elementary School",
        "line": "6906（和美）",
        "color": "#166534",
        "direction": 1
      },
      "geometry": {
        "type": "Point",
        "coordinates": [
          120.5013,
          24.10866
        ]
      }
    },
    {
      "type": "Feature",
      "properties": {
        "feature_type": "station",
        "ref": "THB258685",
        "name": "蕭厝",
        "name_en": "Xiaocuo",
        "line": "6906（和美）",
        "color": "#166534",
        "direction": 1
      },
      "geometry": {
        "type": "Point",
        "coordinates": [
          120.503001,
          24.106763
        ]
      }
    },
    {
      "type": "Feature",
      "properties": {
        "feature_type": "station",
        "ref": "THB257154",
        "name": "樹子腳",
        "name_en": "Shuzijiao",
        "line": "6906（和美）",
        "color": "#166534",
        "direction": 1
      },
      "geometry": {
        "type": "Point",
        "coordinates": [
          120.5100173,
          24.1043606
        ]
      }
    },
    {
      "type": "Feature",
      "properties": {
        "feature_type": "station",
        "ref": "THB262203",
        "name": "錦發工廠",
        "name_en": "Jinfa Factory",
        "line": "6906（和美）",
        "color": "#166534",
        "direction": 1
      },
      "geometry": {
        "type": "Point",
        "coordinates": [
          120.5138501,
          24.103476
        ]
      }
    },
    {
      "type": "Feature",
      "properties": {
        "feature_type": "station",
        "ref": "THB302836",
        "name": "嘉犁",
        "name_en": "Jiali",
        "line": "6906（和美）",
        "color": "#166534",
        "direction": 1
      },
      "geometry": {
        "type": "Point",
        "coordinates": [
          120.5165732,
          24.1028416
        ]
      }
    },
    {
      "type": "Feature",
      "properties": {
        "feature_type": "station",
        "ref": "THB261544",
        "name": "鐵山里",
        "name_en": "Tieshan Village",
        "line": "6906（和美）",
        "color": "#166534",
        "direction": 1
      },
      "geometry": {
        "type": "Point",
        "coordinates": [
          120.51948,
          24.10224
        ]
      }
    },
    {
      "type": "Feature",
      "properties": {
        "feature_type": "station",
        "ref": "THB262557",
        "name": "富王社區",
        "name_en": "Fuwang Community",
        "line": "6906（和美）",
        "color": "#166534",
        "direction": 1
      },
      "geometry": {
        "type": "Point",
        "coordinates": [
          120.5223,
          24.10071
        ]
      }
    },
    {
      "type": "Feature",
      "properties": {
        "feature_type": "station",
        "ref": "THB262006",
        "name": "新東",
        "name_en": "Xindong",
        "line": "6906（和美）",
        "color": "#166534",
        "direction": 1
      },
      "geometry": {
        "type": "Point",
        "coordinates": [
          120.525169,
          24.098497
        ]
      }
    },
    {
      "type": "Feature",
      "properties": {
        "feature_type": "station",
        "ref": "THB259183",
        "name": "新庄子",
        "name_en": "Xinzhuangzi",
        "line": "6906（和美）",
        "color": "#166534",
        "direction": 1
      },
      "geometry": {
        "type": "Point",
        "coordinates": [
          120.5286741,
          24.0956938
        ]
      }
    },
    {
      "type": "Feature",
      "properties": {
        "feature_type": "station",
        "ref": "THB255947",
        "name": "詔安厝",
        "name_en": "Zhao-ancuo",
        "line": "6906（和美）",
        "color": "#166534",
        "direction": 1
      },
      "geometry": {
        "type": "Point",
        "coordinates": [
          120.5316203,
          24.0934164
        ]
      }
    },
    {
      "type": "Feature",
      "properties": {
        "feature_type": "station",
        "ref": "THB257441",
        "name": "民生社區",
        "name_en": "Minsheng Community",
        "line": "6906（和美）",
        "color": "#166534",
        "direction": 1
      },
      "geometry": {
        "type": "Point",
        "coordinates": [
          120.534658,
          24.091043
        ]
      }
    },
    {
      "type": "Feature",
      "properties": {
        "feature_type": "station",
        "ref": "THB259248",
        "name": "過溝子",
        "name_en": "Guogouzi",
        "line": "6906（和美）",
        "color": "#166534",
        "direction": 1
      },
      "geometry": {
        "type": "Point",
        "coordinates": [
          120.53921,
          24.08743
        ]
      }
    },
    {
      "type": "Feature",
      "properties": {
        "feature_type": "station",
        "ref": "THB260040",
        "name": "民生國小",
        "name_en": "Minsheng Elementary School",
        "line": "6906（和美）",
        "color": "#166534",
        "direction": 1
      },
      "geometry": {
        "type": "Point",
        "coordinates": [
          120.542133,
          24.084434
        ]
      }
    },
    {
      "type": "Feature",
      "properties": {
        "feature_type": "station",
        "ref": "THB262723",
        "name": "市公所",
        "name_en": "City Office",
        "line": "6906（和美）",
        "color": "#166534",
        "direction": 1
      },
      "geometry": {
        "type": "Point",
        "coordinates": [
          120.542551,
          24.081482
        ]
      }
    },
    {
      "type": "Feature",
      "properties": {
        "feature_type": "station",
        "ref": "THB252556",
        "name": "中小企銀",
        "name_en": "Taiwan Business Bank",
        "line": "6906（和美）",
        "color": "#166534",
        "direction": 1
      },
      "geometry": {
        "type": "Point",
        "coordinates": [
          120.54128,
          24.08064
        ]
      }
    },
    {
      "type": "Feature",
      "properties": {
        "feature_type": "station",
        "ref": "THB262990",
        "name": "彰化",
        "name_en": "Changhua",
        "line": "6906（和美）",
        "color": "#166534",
        "direction": 1
      },
      "geometry": {
        "type": "Point",
        "coordinates": [
          120.5395161,
          24.0814331
        ]
      }
    }
  ]
}
