{
  "type": "FeatureCollection",
  "name": "508（經雙溪口）",
  "properties": {
    "id": "taoyuan_508_de0d39c54e",
    "name": "508（經雙溪口）",
    "name_en": "508 (via 雙溪口)",
    "ref": "508",
    "color": "#65a30d",
    "city_id": "Taoyuan",
    "source": "TDX Bus Shape / StopOfRoute",
    "via": "雙溪口",
    "official_map_url": "http://ebus.tycg.gov.tw/cms/api/route/5082/map/2385/image",
    "operator_id": "1",
    "operator": "桃園客運",
    "operator_en": "Taoyuan Bus Co., Ltd."
  },
  "features": [
    {
      "type": "Feature",
      "properties": {
        "feature_type": "route",
        "ref": "508",
        "name": "508（經雙溪口）",
        "name_en": "508 (via 雙溪口)",
        "color": "#65a30d",
        "direction": 0
      },
      "geometry": {
        "type": "LineString",
        "coordinates": [
          [
            121.22397,
            24.95303
          ],
          [
            121.22389,
            24.95293
          ],
          [
            121.22369,
            24.953
          ],
          [
            121.22379,
            24.95327
          ],
          [
            121.22211,
            24.95393
          ],
          [
            121.22264,
            24.955
          ],
          [
            121.22077,
            24.9557
          ],
          [
            121.21902,
            24.95501
          ],
          [
            121.2159,
            24.9556
          ],
          [
            121.21436,
            24.95652
          ],
          [
            121.21377,
            24.95691
          ],
          [
            121.21244,
            24.95811
          ],
          [
            121.21129,
            24.95923
          ],
          [
            121.21086,
            24.9596
          ],
          [
            121.21028,
            24.95993
          ],
          [
            121.20964,
            24.96017
          ],
          [
            121.20817,
            24.96057
          ],
          [
            121.20723,
            24.96092
          ],
          [
            121.20646,
            24.9613
          ],
          [
            121.20561,
            24.96187
          ],
          [
            121.20517,
            24.96239
          ],
          [
            121.2049,
            24.96285
          ],
          [
            121.20466,
            24.96335
          ],
          [
            121.20437,
            24.96462
          ],
          [
            121.20406,
            24.96598
          ],
          [
            121.20331,
            24.967
          ],
          [
            121.20293,
            24.96767
          ],
          [
            121.20196,
            24.97019
          ],
          [
            121.20178,
            24.97051
          ],
          [
            121.20153,
            24.9708
          ],
          [
            121.19871,
            24.97347
          ],
          [
            121.19538,
            24.97705
          ],
          [
            121.19525,
            24.97738
          ],
          [
            121.19499,
            24.97805
          ],
          [
            121.19479,
            24.97833
          ],
          [
            121.19341,
            24.97968
          ],
          [
            121.19136,
            24.98172
          ],
          [
            121.19055,
            24.98253
          ],
          [
            121.18993,
            24.98296
          ],
          [
            121.1869,
            24.98488
          ],
          [
            121.18391,
            24.98674
          ],
          [
            121.18085,
            24.9886
          ],
          [
            121.18005,
            24.98901
          ],
          [
            121.17916,
            24.98942
          ],
          [
            121.17946,
            24.99009
          ],
          [
            121.17965,
            24.99078
          ],
          [
            121.17981,
            24.99135
          ],
          [
            121.17944,
            24.99343
          ],
          [
            121.17954,
            24.99403
          ],
          [
            121.18012,
            24.99719
          ],
          [
            121.18074,
            24.99876
          ],
          [
            121.18128,
            25.00013
          ],
          [
            121.18191,
            25.00614
          ],
          [
            121.18217,
            25.00652
          ],
          [
            121.18297,
            25.00759
          ],
          [
            121.18341,
            25.00818
          ],
          [
            121.18409,
            25.01047
          ],
          [
            121.18449,
            25.01296
          ],
          [
            121.18462,
            25.01504
          ],
          [
            121.18516,
            25.01689
          ],
          [
            121.18514,
            25.01741
          ],
          [
            121.18473,
            25.0218
          ],
          [
            121.18418,
            25.02472
          ],
          [
            121.18398,
            25.02535
          ],
          [
            121.18312,
            25.02746
          ],
          [
            121.182,
            25.02872
          ],
          [
            121.17933,
            25.03058
          ],
          [
            121.17721,
            25.03247
          ],
          [
            121.17714,
            25.03266
          ],
          [
            121.17732,
            25.03312
          ],
          [
            121.17957,
            25.03541
          ],
          [
            121.18033,
            25.0362
          ],
          [
            121.18106,
            25.03705
          ],
          [
            121.18198,
            25.0381
          ],
          [
            121.18332,
            25.04007
          ],
          [
            121.18351,
            25.04035
          ],
          [
            121.18365,
            25.04082
          ],
          [
            121.1841,
            25.04325
          ],
          [
            121.18432,
            25.04423
          ],
          [
            121.18442,
            25.04455
          ],
          [
            121.18456,
            25.04474
          ],
          [
            121.18492,
            25.04506
          ],
          [
            121.18639,
            25.04638
          ],
          [
            121.18822,
            25.04773
          ],
          [
            121.18852,
            25.04808
          ],
          [
            121.191,
            25.05089
          ],
          [
            121.19162,
            25.05223
          ],
          [
            121.19294,
            25.05331
          ],
          [
            121.19415,
            25.05433
          ],
          [
            121.19514,
            25.05572
          ],
          [
            121.19637,
            25.057
          ],
          [
            121.19668,
            25.05723
          ],
          [
            121.19466,
            25.06336
          ],
          [
            121.19737,
            25.06407
          ],
          [
            121.19797,
            25.06411
          ],
          [
            121.19955,
            25.06337
          ]
        ]
      }
    },
    {
      "type": "Feature",
      "properties": {
        "feature_type": "station",
        "ref": "TAO64910",
        "name": "中壢總站",
        "name_en": "Zhongli Bus Terminal",
        "line": "508（經雙溪口）",
        "color": "#65a30d",
        "direction": 0
      },
      "geometry": {
        "type": "Point",
        "coordinates": [
          121.223906,
          24.953018
        ]
      }
    },
    {
      "type": "Feature",
      "properties": {
        "feature_type": "station",
        "ref": "TAO4157",
        "name": "第一銀行",
        "name_en": "First Bank",
        "line": "508（經雙溪口）",
        "color": "#65a30d",
        "direction": 0
      },
      "geometry": {
        "type": "Point",
        "coordinates": [
          121.222028,
          24.955308
        ]
      }
    },
    {
      "type": "Feature",
      "properties": {
        "feature_type": "station",
        "ref": "TAO64908",
        "name": "第一市場",
        "name_en": "First Market",
        "line": "508（經雙溪口）",
        "color": "#65a30d",
        "direction": 0
      },
      "geometry": {
        "type": "Point",
        "coordinates": [
          121.220106,
          24.955536
        ]
      }
    },
    {
      "type": "Feature",
      "properties": {
        "feature_type": "station",
        "ref": "TAO64243",
        "name": "舊社",
        "name_en": "Jiushe",
        "line": "508（經雙溪口）",
        "color": "#65a30d",
        "direction": 0
      },
      "geometry": {
        "type": "Point",
        "coordinates": [
          121.216369,
          24.955599
        ]
      }
    },
    {
      "type": "Feature",
      "properties": {
        "feature_type": "station",
        "ref": "TAO64242",
        "name": "新明路口",
        "name_en": "Xinming Road Intersection",
        "line": "508（經雙溪口）",
        "color": "#65a30d",
        "direction": 0
      },
      "geometry": {
        "type": "Point",
        "coordinates": [
          121.213702,
          24.957084
        ]
      }
    },
    {
      "type": "Feature",
      "properties": {
        "feature_type": "station",
        "ref": "TAO64241",
        "name": "新明國中",
        "name_en": "Xinming Junior High School",
        "line": "508（經雙溪口）",
        "color": "#65a30d",
        "direction": 0
      },
      "geometry": {
        "type": "Point",
        "coordinates": [
          121.212458,
          24.958271
        ]
      }
    },
    {
      "type": "Feature",
      "properties": {
        "feature_type": "station",
        "ref": "TAO64240",
        "name": "居安新村",
        "name_en": "Ju-an Village",
        "line": "508（經雙溪口）",
        "color": "#65a30d",
        "direction": 0
      },
      "geometry": {
        "type": "Point",
        "coordinates": [
          121.21075,
          24.9598
        ]
      }
    },
    {
      "type": "Feature",
      "properties": {
        "feature_type": "station",
        "ref": "TAO64239",
        "name": "中壢高中(志廣路)",
        "name_en": "Zhongli Senior High School(Zhihguan Rd.)",
        "line": "508（經雙溪口）",
        "color": "#65a30d",
        "direction": 0
      },
      "geometry": {
        "type": "Point",
        "coordinates": [
          121.207919,
          24.960787
        ]
      }
    },
    {
      "type": "Feature",
      "properties": {
        "feature_type": "station",
        "ref": "TAO64238",
        "name": "天祥醫院(志廣路)",
        "name_en": "Armfulcare Hospital(Zhiguang Rd.)",
        "line": "508（經雙溪口）",
        "color": "#65a30d",
        "direction": 0
      },
      "geometry": {
        "type": "Point",
        "coordinates": [
          121.206569,
          24.961334
        ]
      }
    },
    {
      "type": "Feature",
      "properties": {
        "feature_type": "station",
        "ref": "TAO64237",
        "name": "三民",
        "name_en": "Sanmin",
        "line": "508（經雙溪口）",
        "color": "#65a30d",
        "direction": 0
      },
      "geometry": {
        "type": "Point",
        "coordinates": [
          121.204399,
          24.964546
        ]
      }
    },
    {
      "type": "Feature",
      "properties": {
        "feature_type": "station",
        "ref": "TAO64236",
        "name": "中央大學",
        "name_en": "National Central University",
        "line": "508（經雙溪口）",
        "color": "#65a30d",
        "direction": 0
      },
      "geometry": {
        "type": "Point",
        "coordinates": [
          121.202542,
          24.968857
        ]
      }
    },
    {
      "type": "Feature",
      "properties": {
        "feature_type": "station",
        "ref": "TAO64235",
        "name": "潤泰公司",
        "name_en": "Runtai Company",
        "line": "508（經雙溪口）",
        "color": "#65a30d",
        "direction": 0
      },
      "geometry": {
        "type": "Point",
        "coordinates": [
          121.201287,
          24.971127
        ]
      }
    },
    {
      "type": "Feature",
      "properties": {
        "feature_type": "station",
        "ref": "TAO64234",
        "name": "三座厝",
        "name_en": "Sanzuocuo",
        "line": "508（經雙溪口）",
        "color": "#65a30d",
        "direction": 0
      },
      "geometry": {
        "type": "Point",
        "coordinates": [
          121.198771,
          24.973449
        ]
      }
    },
    {
      "type": "Feature",
      "properties": {
        "feature_type": "station",
        "ref": "TAO64233",
        "name": "三民里",
        "name_en": "Sanmin Village",
        "line": "508（經雙溪口）",
        "color": "#65a30d",
        "direction": 0
      },
      "geometry": {
        "type": "Point",
        "coordinates": [
          121.196007,
          24.976397
        ]
      }
    },
    {
      "type": "Feature",
      "properties": {
        "feature_type": "station",
        "ref": "TAO64232",
        "name": "崎頂",
        "name_en": "Qiding",
        "line": "508（經雙溪口）",
        "color": "#65a30d",
        "direction": 0
      },
      "geometry": {
        "type": "Point",
        "coordinates": [
          121.193326,
          24.979865
        ]
      }
    },
    {
      "type": "Feature",
      "properties": {
        "feature_type": "station",
        "ref": "TAO64231",
        "name": "錩新公司",
        "name_en": "Changxin Company",
        "line": "508（經雙溪口）",
        "color": "#65a30d",
        "direction": 0
      },
      "geometry": {
        "type": "Point",
        "coordinates": [
          121.19263,
          24.98057
        ]
      }
    },
    {
      "type": "Feature",
      "properties": {
        "feature_type": "station",
        "ref": "TAO64230",
        "name": "三宏",
        "name_en": "Sanhong",
        "line": "508（經雙溪口）",
        "color": "#65a30d",
        "direction": 0
      },
      "geometry": {
        "type": "Point",
        "coordinates": [
          121.189864,
          24.983085
        ]
      }
    },
    {
      "type": "Feature",
      "properties": {
        "feature_type": "station",
        "ref": "TAO64229",
        "name": "水圳頭",
        "name_en": "Shuichoutou",
        "line": "508（經雙溪口）",
        "color": "#65a30d",
        "direction": 0
      },
      "geometry": {
        "type": "Point",
        "coordinates": [
          121.187805,
          24.984352
        ]
      }
    },
    {
      "type": "Feature",
      "properties": {
        "feature_type": "station",
        "ref": "TAO64228",
        "name": "內厝里",
        "name_en": "Neicuo Village",
        "line": "508（經雙溪口）",
        "color": "#65a30d",
        "direction": 0
      },
      "geometry": {
        "type": "Point",
        "coordinates": [
          121.186268,
          24.985314
        ]
      }
    },
    {
      "type": "Feature",
      "properties": {
        "feature_type": "station",
        "ref": "TAO64227",
        "name": "大崙農會",
        "name_en": "Dalun Farmer Assc.",
        "line": "508（經雙溪口）",
        "color": "#65a30d",
        "direction": 0
      },
      "geometry": {
        "type": "Point",
        "coordinates": [
          121.183287,
          24.987217
        ]
      }
    },
    {
      "type": "Feature",
      "properties": {
        "feature_type": "station",
        "ref": "TAO64226",
        "name": "大崙",
        "name_en": "Dalun",
        "line": "508（經雙溪口）",
        "color": "#65a30d",
        "direction": 0
      },
      "geometry": {
        "type": "Point",
        "coordinates": [
          121.179625,
          24.989265
        ]
      }
    },
    {
      "type": "Feature",
      "properties": {
        "feature_type": "station",
        "ref": "TAO62724",
        "name": "大崙國中",
        "name_en": "Dalun Junior High School",
        "line": "508（經雙溪口）",
        "color": "#65a30d",
        "direction": 0
      },
      "geometry": {
        "type": "Point",
        "coordinates": [
          121.179763,
          24.990977
        ]
      }
    },
    {
      "type": "Feature",
      "properties": {
        "feature_type": "station",
        "ref": "TAO62723",
        "name": "月眉活動中心",
        "name_en": "Yuemei Activity Center",
        "line": "508（經雙溪口）",
        "color": "#65a30d",
        "direction": 0
      },
      "geometry": {
        "type": "Point",
        "coordinates": [
          121.179518,
          24.993624
        ]
      }
    },
    {
      "type": "Feature",
      "properties": {
        "feature_type": "station",
        "ref": "TAO44305",
        "name": "山東路口",
        "name_en": "Shandong Road Intersection",
        "line": "508（經雙溪口）",
        "color": "#65a30d",
        "direction": 0
      },
      "geometry": {
        "type": "Point",
        "coordinates": [
          121.180304,
          24.997537
        ]
      }
    },
    {
      "type": "Feature",
      "properties": {
        "feature_type": "station",
        "ref": "TAO62722",
        "name": "下鳥仔厝",
        "name_en": "Xianiaozicuo",
        "line": "508（經雙溪口）",
        "color": "#65a30d",
        "direction": 0
      },
      "geometry": {
        "type": "Point",
        "coordinates": [
          121.18085,
          24.99898
        ]
      }
    },
    {
      "type": "Feature",
      "properties": {
        "feature_type": "station",
        "ref": "TAO62721",
        "name": "鳥仔厝",
        "name_en": "Niaozicuo",
        "line": "508（經雙溪口）",
        "color": "#65a30d",
        "direction": 0
      },
      "geometry": {
        "type": "Point",
        "coordinates": [
          121.181499,
          25.001626
        ]
      }
    },
    {
      "type": "Feature",
      "properties": {
        "feature_type": "station",
        "ref": "TAO62720",
        "name": "雙圳口",
        "name_en": "Shuangchoukou",
        "line": "508（經雙溪口）",
        "color": "#65a30d",
        "direction": 0
      },
      "geometry": {
        "type": "Point",
        "coordinates": [
          121.18179,
          25.0048
        ]
      }
    },
    {
      "type": "Feature",
      "properties": {
        "feature_type": "station",
        "ref": "TAO62719",
        "name": "黃厝",
        "name_en": "Huangcuo",
        "line": "508（經雙溪口）",
        "color": "#65a30d",
        "direction": 0
      },
      "geometry": {
        "type": "Point",
        "coordinates": [
          121.183159,
          25.007808
        ]
      }
    },
    {
      "type": "Feature",
      "properties": {
        "feature_type": "station",
        "ref": "TAO62718",
        "name": "月眉",
        "name_en": "Yuemei",
        "line": "508（經雙溪口）",
        "color": "#65a30d",
        "direction": 0
      },
      "geometry": {
        "type": "Point",
        "coordinates": [
          121.184156,
          25.010749
        ]
      }
    },
    {
      "type": "Feature",
      "properties": {
        "feature_type": "station",
        "ref": "TAO62717",
        "name": "詹厝",
        "name_en": "Zhancuo",
        "line": "508（經雙溪口）",
        "color": "#65a30d",
        "direction": 0
      },
      "geometry": {
        "type": "Point",
        "coordinates": [
          121.184651,
          25.015067
        ]
      }
    },
    {
      "type": "Feature",
      "properties": {
        "feature_type": "station",
        "ref": "TAO62716",
        "name": "紅崁",
        "name_en": "Gongkan",
        "line": "508（經雙溪口）",
        "color": "#65a30d",
        "direction": 0
      },
      "geometry": {
        "type": "Point",
        "coordinates": [
          121.1851,
          25.01794
        ]
      }
    },
    {
      "type": "Feature",
      "properties": {
        "feature_type": "station",
        "ref": "TAO62715",
        "name": "下月眉",
        "name_en": "Xiayuemei",
        "line": "508（經雙溪口）",
        "color": "#65a30d",
        "direction": 0
      },
      "geometry": {
        "type": "Point",
        "coordinates": [
          121.18487,
          25.02053
        ]
      }
    },
    {
      "type": "Feature",
      "properties": {
        "feature_type": "station",
        "ref": "TAO62714",
        "name": "邱厝",
        "name_en": "Qiucuo",
        "line": "508（經雙溪口）",
        "color": "#65a30d",
        "direction": 0
      },
      "geometry": {
        "type": "Point",
        "coordinates": [
          121.18473,
          25.021821
        ]
      }
    },
    {
      "type": "Feature",
      "properties": {
        "feature_type": "station",
        "ref": "TAO62713",
        "name": "郭厝",
        "name_en": "Guocuo",
        "line": "508（經雙溪口）",
        "color": "#65a30d",
        "direction": 0
      },
      "geometry": {
        "type": "Point",
        "coordinates": [
          121.184169,
          25.024777
        ]
      }
    },
    {
      "type": "Feature",
      "properties": {
        "feature_type": "station",
        "ref": "TAO62712",
        "name": "雙叉港",
        "name_en": "Shuangcha Port",
        "line": "508（經雙溪口）",
        "color": "#65a30d",
        "direction": 0
      },
      "geometry": {
        "type": "Point",
        "coordinates": [
          121.18343,
          25.02679
        ]
      }
    },
    {
      "type": "Feature",
      "properties": {
        "feature_type": "station",
        "ref": "TAO62711",
        "name": "崎頂路口",
        "name_en": "Qiding Road Intersection",
        "line": "508（經雙溪口）",
        "color": "#65a30d",
        "direction": 0
      },
      "geometry": {
        "type": "Point",
        "coordinates": [
          121.181823,
          25.028903
        ]
      }
    },
    {
      "type": "Feature",
      "properties": {
        "feature_type": "station",
        "ref": "TAO62710",
        "name": "紅土厝",
        "name_en": "Gongtucuo",
        "line": "508（經雙溪口）",
        "color": "#65a30d",
        "direction": 0
      },
      "geometry": {
        "type": "Point",
        "coordinates": [
          121.179446,
          25.030507
        ]
      }
    },
    {
      "type": "Feature",
      "properties": {
        "feature_type": "station",
        "ref": "TAO62709",
        "name": "劉厝",
        "name_en": "Liucuo",
        "line": "508（經雙溪口）",
        "color": "#65a30d",
        "direction": 0
      },
      "geometry": {
        "type": "Point",
        "coordinates": [
          121.177662,
          25.033416
        ]
      }
    },
    {
      "type": "Feature",
      "properties": {
        "feature_type": "station",
        "ref": "TAO62708",
        "name": "合隆公司",
        "name_en": "Helong Company",
        "line": "508（經雙溪口）",
        "color": "#65a30d",
        "direction": 0
      },
      "geometry": {
        "type": "Point",
        "coordinates": [
          121.180809,
          25.036589
        ]
      }
    },
    {
      "type": "Feature",
      "properties": {
        "feature_type": "station",
        "ref": "TAO62707",
        "name": "雙溪口",
        "name_en": "Shuangxikou",
        "line": "508（經雙溪口）",
        "color": "#65a30d",
        "direction": 0
      },
      "geometry": {
        "type": "Point",
        "coordinates": [
          121.182593,
          25.038862
        ]
      }
    },
    {
      "type": "Feature",
      "properties": {
        "feature_type": "station",
        "ref": "TAO62706",
        "name": "王厝",
        "name_en": "Wangcuo",
        "line": "508（經雙溪口）",
        "color": "#65a30d",
        "direction": 0
      },
      "geometry": {
        "type": "Point",
        "coordinates": [
          121.183823,
          25.04154
        ]
      }
    },
    {
      "type": "Feature",
      "properties": {
        "feature_type": "station",
        "ref": "TAO62705",
        "name": "溪洲",
        "name_en": "Xizhou",
        "line": "508（經雙溪口）",
        "color": "#65a30d",
        "direction": 0
      },
      "geometry": {
        "type": "Point",
        "coordinates": [
          121.184496,
          25.04449
        ]
      }
    },
    {
      "type": "Feature",
      "properties": {
        "feature_type": "station",
        "ref": "TAO62704",
        "name": "溪海國小",
        "name_en": "Shihai Primary School",
        "line": "508（經雙溪口）",
        "color": "#65a30d",
        "direction": 0
      },
      "geometry": {
        "type": "Point",
        "coordinates": [
          121.18699,
          25.04677
        ]
      }
    },
    {
      "type": "Feature",
      "properties": {
        "feature_type": "station",
        "ref": "TAO14354",
        "name": "崙頂",
        "name_en": "Lunding",
        "line": "508（經雙溪口）",
        "color": "#65a30d",
        "direction": 0
      },
      "geometry": {
        "type": "Point",
        "coordinates": [
          121.188513,
          25.047959
        ]
      }
    },
    {
      "type": "Feature",
      "properties": {
        "feature_type": "station",
        "ref": "TAO62837",
        "name": "崙後坡",
        "name_en": "Lunhoupo",
        "line": "508（經雙溪口）",
        "color": "#65a30d",
        "direction": 0
      },
      "geometry": {
        "type": "Point",
        "coordinates": [
          121.191188,
          25.051046
        ]
      }
    },
    {
      "type": "Feature",
      "properties": {
        "feature_type": "station",
        "ref": "TAO62836",
        "name": "崙後",
        "name_en": "Lunhou",
        "line": "508（經雙溪口）",
        "color": "#65a30d",
        "direction": 0
      },
      "geometry": {
        "type": "Point",
        "coordinates": [
          121.193124,
          25.053319
        ]
      }
    },
    {
      "type": "Feature",
      "properties": {
        "feature_type": "station",
        "ref": "TAO62835",
        "name": "淨蓮寺",
        "name_en": "Jinglian Temple",
        "line": "508（經雙溪口）",
        "color": "#65a30d",
        "direction": 0
      },
      "geometry": {
        "type": "Point",
        "coordinates": [
          121.19638,
          25.05694
        ]
      }
    },
    {
      "type": "Feature",
      "properties": {
        "feature_type": "station",
        "ref": "TAO62834",
        "name": "黃金城社區",
        "name_en": "Huangjincheng Community",
        "line": "508（經雙溪口）",
        "color": "#65a30d",
        "direction": 0
      },
      "geometry": {
        "type": "Point",
        "coordinates": [
          121.196066,
          25.059284
        ]
      }
    },
    {
      "type": "Feature",
      "properties": {
        "feature_type": "station",
        "ref": "TAO62833",
        "name": "敏盛大園分院",
        "name_en": "Da-Yuan Min-Sheng Hospital",
        "line": "508（經雙溪口）",
        "color": "#65a30d",
        "direction": 0
      },
      "geometry": {
        "type": "Point",
        "coordinates": [
          121.195311,
          25.061597
        ]
      }
    },
    {
      "type": "Feature",
      "properties": {
        "feature_type": "station",
        "ref": "TAO2080",
        "name": "大園區公所",
        "name_en": "Dayuan District Office",
        "line": "508（經雙溪口）",
        "color": "#65a30d",
        "direction": 0
      },
      "geometry": {
        "type": "Point",
        "coordinates": [
          121.195629,
          25.063538
        ]
      }
    },
    {
      "type": "Feature",
      "properties": {
        "feature_type": "station",
        "ref": "TAO64548",
        "name": "大園車站",
        "name_en": "Dayuan Station",
        "line": "508（經雙溪口）",
        "color": "#65a30d",
        "direction": 0
      },
      "geometry": {
        "type": "Point",
        "coordinates": [
          121.199377,
          25.063367
        ]
      }
    },
    {
      "type": "Feature",
      "properties": {
        "feature_type": "station",
        "ref": "TAO62832",
        "name": "大園車站",
        "name_en": "Dayuan Station",
        "line": "508（經雙溪口）",
        "color": "#65a30d",
        "direction": 1
      },
      "geometry": {
        "type": "Point",
        "coordinates": [
          121.198926,
          25.063727
        ]
      }
    },
    {
      "type": "Feature",
      "properties": {
        "feature_type": "station",
        "ref": "TAO63642",
        "name": "大園舊站",
        "name_en": "Dayuan Old Station",
        "line": "508（經雙溪口）",
        "color": "#65a30d",
        "direction": 1
      },
      "geometry": {
        "type": "Point",
        "coordinates": [
          121.196762,
          25.063996
        ]
      }
    },
    {
      "type": "Feature",
      "properties": {
        "feature_type": "station",
        "ref": "TAO2346",
        "name": "大園區公所",
        "name_en": "Dayuan District Office",
        "line": "508（經雙溪口）",
        "color": "#65a30d",
        "direction": 1
      },
      "geometry": {
        "type": "Point",
        "coordinates": [
          121.195435,
          25.063603
        ]
      }
    },
    {
      "type": "Feature",
      "properties": {
        "feature_type": "station",
        "ref": "TAO62831",
        "name": "敏盛大園分院",
        "name_en": "Da-Yuan Min-Sheng Hospital",
        "line": "508（經雙溪口）",
        "color": "#65a30d",
        "direction": 1
      },
      "geometry": {
        "type": "Point",
        "coordinates": [
          121.195251,
          25.061504
        ]
      }
    },
    {
      "type": "Feature",
      "properties": {
        "feature_type": "station",
        "ref": "TAO62830",
        "name": "黃金城社區",
        "name_en": "Huangjincheng Community",
        "line": "508（經雙溪口）",
        "color": "#65a30d",
        "direction": 1
      },
      "geometry": {
        "type": "Point",
        "coordinates": [
          121.195967,
          25.059172
        ]
      }
    },
    {
      "type": "Feature",
      "properties": {
        "feature_type": "station",
        "ref": "TAO62829",
        "name": "淨蓮寺",
        "name_en": "Jinglian Temple",
        "line": "508（經雙溪口）",
        "color": "#65a30d",
        "direction": 1
      },
      "geometry": {
        "type": "Point",
        "coordinates": [
          121.1963,
          25.05698
        ]
      }
    },
    {
      "type": "Feature",
      "properties": {
        "feature_type": "station",
        "ref": "TAO62828",
        "name": "崙後",
        "name_en": "Lunhou",
        "line": "508（經雙溪口）",
        "color": "#65a30d",
        "direction": 1
      },
      "geometry": {
        "type": "Point",
        "coordinates": [
          121.19302,
          25.05344
        ]
      }
    },
    {
      "type": "Feature",
      "properties": {
        "feature_type": "station",
        "ref": "TAO62827",
        "name": "崙後坡",
        "name_en": "Lunhoupo",
        "line": "508（經雙溪口）",
        "color": "#65a30d",
        "direction": 1
      },
      "geometry": {
        "type": "Point",
        "coordinates": [
          121.19105,
          25.05111
        ]
      }
    },
    {
      "type": "Feature",
      "properties": {
        "feature_type": "station",
        "ref": "TAO14391",
        "name": "崙頂",
        "name_en": "Lunding",
        "line": "508（經雙溪口）",
        "color": "#65a30d",
        "direction": 1
      },
      "geometry": {
        "type": "Point",
        "coordinates": [
          121.188544,
          25.048212
        ]
      }
    },
    {
      "type": "Feature",
      "properties": {
        "feature_type": "station",
        "ref": "TAO62743",
        "name": "溪海國小",
        "name_en": "Shihai Primary School",
        "line": "508（經雙溪口）",
        "color": "#65a30d",
        "direction": 1
      },
      "geometry": {
        "type": "Point",
        "coordinates": [
          121.186038,
          25.046106
        ]
      }
    },
    {
      "type": "Feature",
      "properties": {
        "feature_type": "station",
        "ref": "TAO62742",
        "name": "溪洲",
        "name_en": "Xizhou",
        "line": "508（經雙溪口）",
        "color": "#65a30d",
        "direction": 1
      },
      "geometry": {
        "type": "Point",
        "coordinates": [
          121.18465,
          25.04482
        ]
      }
    },
    {
      "type": "Feature",
      "properties": {
        "feature_type": "station",
        "ref": "TAO62741",
        "name": "王厝",
        "name_en": "Wangcuo",
        "line": "508（經雙溪口）",
        "color": "#65a30d",
        "direction": 1
      },
      "geometry": {
        "type": "Point",
        "coordinates": [
          121.183716,
          25.041525
        ]
      }
    },
    {
      "type": "Feature",
      "properties": {
        "feature_type": "station",
        "ref": "TAO62740",
        "name": "雙溪口",
        "name_en": "Shuangxikou",
        "line": "508（經雙溪口）",
        "color": "#65a30d",
        "direction": 1
      },
      "geometry": {
        "type": "Point",
        "coordinates": [
          121.1825,
          25.0389
        ]
      }
    },
    {
      "type": "Feature",
      "properties": {
        "feature_type": "station",
        "ref": "TAO62739",
        "name": "合隆公司",
        "name_en": "Helong Company",
        "line": "508（經雙溪口）",
        "color": "#65a30d",
        "direction": 1
      },
      "geometry": {
        "type": "Point",
        "coordinates": [
          121.18065,
          25.03672
        ]
      }
    },
    {
      "type": "Feature",
      "properties": {
        "feature_type": "station",
        "ref": "TAO62738",
        "name": "劉厝",
        "name_en": "Liucuo",
        "line": "508（經雙溪口）",
        "color": "#65a30d",
        "direction": 1
      },
      "geometry": {
        "type": "Point",
        "coordinates": [
          121.177723,
          25.033561
        ]
      }
    },
    {
      "type": "Feature",
      "properties": {
        "feature_type": "station",
        "ref": "TAO62737",
        "name": "紅土厝",
        "name_en": "Gongtucuo",
        "line": "508（經雙溪口）",
        "color": "#65a30d",
        "direction": 1
      },
      "geometry": {
        "type": "Point",
        "coordinates": [
          121.179301,
          25.030507
        ]
      }
    },
    {
      "type": "Feature",
      "properties": {
        "feature_type": "station",
        "ref": "TAO62736",
        "name": "崎頂路口",
        "name_en": "Qiding Road Intersection",
        "line": "508（經雙溪口）",
        "color": "#65a30d",
        "direction": 1
      },
      "geometry": {
        "type": "Point",
        "coordinates": [
          121.181811,
          25.028731
        ]
      }
    },
    {
      "type": "Feature",
      "properties": {
        "feature_type": "station",
        "ref": "TAO62735",
        "name": "雙叉港",
        "name_en": "Shuangcha Port",
        "line": "508（經雙溪口）",
        "color": "#65a30d",
        "direction": 1
      },
      "geometry": {
        "type": "Point",
        "coordinates": [
          121.18327,
          25.02686
        ]
      }
    },
    {
      "type": "Feature",
      "properties": {
        "feature_type": "station",
        "ref": "TAO62734",
        "name": "郭厝",
        "name_en": "Guocuo",
        "line": "508（經雙溪口）",
        "color": "#65a30d",
        "direction": 1
      },
      "geometry": {
        "type": "Point",
        "coordinates": [
          121.184121,
          25.024691
        ]
      }
    },
    {
      "type": "Feature",
      "properties": {
        "feature_type": "station",
        "ref": "TAO62733",
        "name": "邱厝",
        "name_en": "Qiucuo",
        "line": "508（經雙溪口）",
        "color": "#65a30d",
        "direction": 1
      },
      "geometry": {
        "type": "Point",
        "coordinates": [
          121.184661,
          25.021781
        ]
      }
    },
    {
      "type": "Feature",
      "properties": {
        "feature_type": "station",
        "ref": "TAO62732",
        "name": "下月眉",
        "name_en": "Xiayuemei",
        "line": "508（經雙溪口）",
        "color": "#65a30d",
        "direction": 1
      },
      "geometry": {
        "type": "Point",
        "coordinates": [
          121.184768,
          25.020497
        ]
      }
    },
    {
      "type": "Feature",
      "properties": {
        "feature_type": "station",
        "ref": "TAO62731",
        "name": "紅崁",
        "name_en": "Gongkan",
        "line": "508（經雙溪口）",
        "color": "#65a30d",
        "direction": 1
      },
      "geometry": {
        "type": "Point",
        "coordinates": [
          121.18504,
          25.01794
        ]
      }
    },
    {
      "type": "Feature",
      "properties": {
        "feature_type": "station",
        "ref": "TAO62730",
        "name": "詹厝",
        "name_en": "Zhancuo",
        "line": "508（經雙溪口）",
        "color": "#65a30d",
        "direction": 1
      },
      "geometry": {
        "type": "Point",
        "coordinates": [
          121.184571,
          25.014998
        ]
      }
    },
    {
      "type": "Feature",
      "properties": {
        "feature_type": "station",
        "ref": "TAO62729",
        "name": "月眉",
        "name_en": "Yuemei",
        "line": "508（經雙溪口）",
        "color": "#65a30d",
        "direction": 1
      },
      "geometry": {
        "type": "Point",
        "coordinates": [
          121.184137,
          25.010997
        ]
      }
    },
    {
      "type": "Feature",
      "properties": {
        "feature_type": "station",
        "ref": "TAO62728",
        "name": "黃厝",
        "name_en": "Huangcuo",
        "line": "508（經雙溪口）",
        "color": "#65a30d",
        "direction": 1
      },
      "geometry": {
        "type": "Point",
        "coordinates": [
          121.183188,
          25.007951
        ]
      }
    },
    {
      "type": "Feature",
      "properties": {
        "feature_type": "station",
        "ref": "TAO62727",
        "name": "雙圳口",
        "name_en": "Shuangchoukou",
        "line": "508（經雙溪口）",
        "color": "#65a30d",
        "direction": 1
      },
      "geometry": {
        "type": "Point",
        "coordinates": [
          121.18166,
          25.0044
        ]
      }
    },
    {
      "type": "Feature",
      "properties": {
        "feature_type": "station",
        "ref": "TAO62726",
        "name": "鳥仔厝",
        "name_en": "Niaozicuo",
        "line": "508（經雙溪口）",
        "color": "#65a30d",
        "direction": 1
      },
      "geometry": {
        "type": "Point",
        "coordinates": [
          121.181325,
          25.001617
        ]
      }
    },
    {
      "type": "Feature",
      "properties": {
        "feature_type": "station",
        "ref": "TAO62725",
        "name": "下鳥仔厝",
        "name_en": "Xianiaozicuo",
        "line": "508（經雙溪口）",
        "color": "#65a30d",
        "direction": 1
      },
      "geometry": {
        "type": "Point",
        "coordinates": [
          121.180703,
          24.998883
        ]
      }
    },
    {
      "type": "Feature",
      "properties": {
        "feature_type": "station",
        "ref": "TAO44328",
        "name": "山東路口",
        "name_en": "Shandong Road Intersection",
        "line": "508（經雙溪口）",
        "color": "#65a30d",
        "direction": 1
      },
      "geometry": {
        "type": "Point",
        "coordinates": [
          121.180192,
          24.997576
        ]
      }
    },
    {
      "type": "Feature",
      "properties": {
        "feature_type": "station",
        "ref": "TAO44329",
        "name": "月眉活動中心",
        "name_en": "Yuemei Activity Center",
        "line": "508（經雙溪口）",
        "color": "#65a30d",
        "direction": 1
      },
      "geometry": {
        "type": "Point",
        "coordinates": [
          121.179368,
          24.993521
        ]
      }
    },
    {
      "type": "Feature",
      "properties": {
        "feature_type": "station",
        "ref": "TAO4438",
        "name": "大崙國中",
        "name_en": "Dalun Junior High School",
        "line": "508（經雙溪口）",
        "color": "#65a30d",
        "direction": 1
      },
      "geometry": {
        "type": "Point",
        "coordinates": [
          121.179659,
          24.991051
        ]
      }
    },
    {
      "type": "Feature",
      "properties": {
        "feature_type": "station",
        "ref": "TAO64146",
        "name": "大崙",
        "name_en": "Dalun",
        "line": "508（經雙溪口）",
        "color": "#65a30d",
        "direction": 1
      },
      "geometry": {
        "type": "Point",
        "coordinates": [
          121.179658,
          24.989005
        ]
      }
    },
    {
      "type": "Feature",
      "properties": {
        "feature_type": "station",
        "ref": "TAO64145",
        "name": "大崙農會",
        "name_en": "Dalun Farmer Assc.",
        "line": "508（經雙溪口）",
        "color": "#65a30d",
        "direction": 1
      },
      "geometry": {
        "type": "Point",
        "coordinates": [
          121.183277,
          24.987002
        ]
      }
    },
    {
      "type": "Feature",
      "properties": {
        "feature_type": "station",
        "ref": "TAO64144",
        "name": "內厝里",
        "name_en": "Neicuo Village",
        "line": "508（經雙溪口）",
        "color": "#65a30d",
        "direction": 1
      },
      "geometry": {
        "type": "Point",
        "coordinates": [
          121.186057,
          24.985217
        ]
      }
    },
    {
      "type": "Feature",
      "properties": {
        "feature_type": "station",
        "ref": "TAO64143",
        "name": "水圳頭",
        "name_en": "Shuichoutou",
        "line": "508（經雙溪口）",
        "color": "#65a30d",
        "direction": 1
      },
      "geometry": {
        "type": "Point",
        "coordinates": [
          121.187509,
          24.984269
        ]
      }
    },
    {
      "type": "Feature",
      "properties": {
        "feature_type": "station",
        "ref": "TAO64142",
        "name": "三宏",
        "name_en": "Sanhong",
        "line": "508（經雙溪口）",
        "color": "#65a30d",
        "direction": 1
      },
      "geometry": {
        "type": "Point",
        "coordinates": [
          121.189757,
          24.982923
        ]
      }
    },
    {
      "type": "Feature",
      "properties": {
        "feature_type": "station",
        "ref": "TAO64141",
        "name": "錩新公司",
        "name_en": "Changxin Company",
        "line": "508（經雙溪口）",
        "color": "#65a30d",
        "direction": 1
      },
      "geometry": {
        "type": "Point",
        "coordinates": [
          121.192348,
          24.980539
        ]
      }
    },
    {
      "type": "Feature",
      "properties": {
        "feature_type": "station",
        "ref": "TAO64140",
        "name": "崎頂",
        "name_en": "Qiding",
        "line": "508（經雙溪口）",
        "color": "#65a30d",
        "direction": 1
      },
      "geometry": {
        "type": "Point",
        "coordinates": [
          121.193677,
          24.979249
        ]
      }
    },
    {
      "type": "Feature",
      "properties": {
        "feature_type": "station",
        "ref": "TAO64139",
        "name": "三民里",
        "name_en": "Sanmin Village",
        "line": "508（經雙溪口）",
        "color": "#65a30d",
        "direction": 1
      },
      "geometry": {
        "type": "Point",
        "coordinates": [
          121.195979,
          24.976087
        ]
      }
    },
    {
      "type": "Feature",
      "properties": {
        "feature_type": "station",
        "ref": "TAO64138",
        "name": "三座厝",
        "name_en": "Sanzuocuo",
        "line": "508（經雙溪口）",
        "color": "#65a30d",
        "direction": 1
      },
      "geometry": {
        "type": "Point",
        "coordinates": [
          121.198653,
          24.973266
        ]
      }
    },
    {
      "type": "Feature",
      "properties": {
        "feature_type": "station",
        "ref": "TAO64137",
        "name": "潤泰公司",
        "name_en": "Runtai Company",
        "line": "508（經雙溪口）",
        "color": "#65a30d",
        "direction": 1
      },
      "geometry": {
        "type": "Point",
        "coordinates": [
          121.201034,
          24.971132
        ]
      }
    },
    {
      "type": "Feature",
      "properties": {
        "feature_type": "station",
        "ref": "TAO64136",
        "name": "中央大學",
        "name_en": "National Central University",
        "line": "508（經雙溪口）",
        "color": "#65a30d",
        "direction": 1
      },
      "geometry": {
        "type": "Point",
        "coordinates": [
          121.202339,
          24.968733
        ]
      }
    },
    {
      "type": "Feature",
      "properties": {
        "feature_type": "station",
        "ref": "TAO64135",
        "name": "三民",
        "name_en": "Sanmin",
        "line": "508（經雙溪口）",
        "color": "#65a30d",
        "direction": 1
      },
      "geometry": {
        "type": "Point",
        "coordinates": [
          121.204117,
          24.964737
        ]
      }
    },
    {
      "type": "Feature",
      "properties": {
        "feature_type": "station",
        "ref": "TAO64134",
        "name": "天祥醫院(志廣路)",
        "name_en": "Armfulcare Hospital(Zhiguang Rd.)",
        "line": "508（經雙溪口）",
        "color": "#65a30d",
        "direction": 1
      },
      "geometry": {
        "type": "Point",
        "coordinates": [
          121.206029,
          24.961247
        ]
      }
    },
    {
      "type": "Feature",
      "properties": {
        "feature_type": "station",
        "ref": "TAO64133",
        "name": "中壢高中(志廣路)",
        "name_en": "Zhongli Senior High School(Zhihguan Rd.)",
        "line": "508（經雙溪口）",
        "color": "#65a30d",
        "direction": 1
      },
      "geometry": {
        "type": "Point",
        "coordinates": [
          121.207829,
          24.960516
        ]
      }
    },
    {
      "type": "Feature",
      "properties": {
        "feature_type": "station",
        "ref": "TAO64132",
        "name": "居安新村",
        "name_en": "Ju-an Village",
        "line": "508（經雙溪口）",
        "color": "#65a30d",
        "direction": 1
      },
      "geometry": {
        "type": "Point",
        "coordinates": [
          121.210668,
          24.959601
        ]
      }
    },
    {
      "type": "Feature",
      "properties": {
        "feature_type": "station",
        "ref": "TAO64131",
        "name": "新明國中",
        "name_en": "Xinming Junior High School",
        "line": "508（經雙溪口）",
        "color": "#65a30d",
        "direction": 1
      },
      "geometry": {
        "type": "Point",
        "coordinates": [
          121.212339,
          24.958113
        ]
      }
    },
    {
      "type": "Feature",
      "properties": {
        "feature_type": "station",
        "ref": "TAO64130",
        "name": "新明路口",
        "name_en": "Xinming Road Intersection",
        "line": "508（經雙溪口）",
        "color": "#65a30d",
        "direction": 1
      },
      "geometry": {
        "type": "Point",
        "coordinates": [
          121.21367,
          24.956904
        ]
      }
    },
    {
      "type": "Feature",
      "properties": {
        "feature_type": "station",
        "ref": "TAO64129",
        "name": "舊社",
        "name_en": "Jiushe",
        "line": "508（經雙溪口）",
        "color": "#65a30d",
        "direction": 1
      },
      "geometry": {
        "type": "Point",
        "coordinates": [
          121.216247,
          24.955385
        ]
      }
    },
    {
      "type": "Feature",
      "properties": {
        "feature_type": "station",
        "ref": "TAO4058",
        "name": "河川教育中心",
        "name_en": "River Education Center",
        "line": "508（經雙溪口）",
        "color": "#65a30d",
        "direction": 1
      },
      "geometry": {
        "type": "Point",
        "coordinates": [
          121.219116,
          24.954915
        ]
      }
    },
    {
      "type": "Feature",
      "properties": {
        "feature_type": "station",
        "ref": "TAO64880",
        "name": "第一銀行",
        "name_en": "First Bank",
        "line": "508（經雙溪口）",
        "color": "#65a30d",
        "direction": 1
      },
      "geometry": {
        "type": "Point",
        "coordinates": [
          121.221976,
          24.955072
        ]
      }
    },
    {
      "type": "Feature",
      "properties": {
        "feature_type": "station",
        "ref": "TAO9706",
        "name": "中正復興路口",
        "name_en": "Jhongjheng Fusing Rd. Intersection",
        "line": "508（經雙溪口）",
        "color": "#65a30d",
        "direction": 1
      },
      "geometry": {
        "type": "Point",
        "coordinates": [
          121.224079,
          24.954256
        ]
      }
    },
    {
      "type": "Feature",
      "properties": {
        "feature_type": "station",
        "ref": "TAO64910",
        "name": "中壢總站",
        "name_en": "Zhongli Bus Terminal",
        "line": "508（經雙溪口）",
        "color": "#65a30d",
        "direction": 1
      },
      "geometry": {
        "type": "Point",
        "coordinates": [
          121.223906,
          24.953018
        ]
      }
    }
  ]
}
