{
  "type": "FeatureCollection",
  "name": "507（經桃園）",
  "properties": {
    "id": "taoyuan_507_a3c3e80736",
    "name": "507（經桃園）",
    "name_en": "507 (via 桃園)",
    "ref": "507",
    "color": "#65a30d",
    "city_id": "Taoyuan",
    "source": "TDX Bus Shape / StopOfRoute",
    "via": "桃園",
    "official_map_url": "http://ebus.tycg.gov.tw/cms/api/route/5073/map/2331/image",
    "operator_id": "1",
    "operator": "桃園客運",
    "operator_en": "Taoyuan Bus Co., Ltd."
  },
  "features": [
    {
      "type": "Feature",
      "properties": {
        "feature_type": "route",
        "ref": "507",
        "name": "507（經桃園）",
        "name_en": "507 (via 桃園)",
        "color": "#65a30d",
        "direction": 0
      },
      "geometry": {
        "type": "LineString",
        "coordinates": [
          [
            121.31399,
            24.99077
          ],
          [
            121.31475,
            24.99101
          ],
          [
            121.315,
            24.99104
          ],
          [
            121.31428,
            24.9918
          ],
          [
            121.31328,
            24.99304
          ],
          [
            121.31323,
            24.99349
          ],
          [
            121.31298,
            24.99433
          ],
          [
            121.31277,
            24.99516
          ],
          [
            121.31126,
            24.99848
          ],
          [
            121.30974,
            25.00181
          ],
          [
            121.30803,
            25.00847
          ],
          [
            121.30815,
            25.01129
          ],
          [
            121.30941,
            25.01189
          ],
          [
            121.3096,
            25.01221
          ],
          [
            121.30959,
            25.0125
          ],
          [
            121.30972,
            25.01264
          ],
          [
            121.30941,
            25.01407
          ],
          [
            121.30897,
            25.01668
          ],
          [
            121.30858,
            25.01929
          ],
          [
            121.30849,
            25.01985
          ],
          [
            121.30805,
            25.0211
          ],
          [
            121.29937,
            25.04216
          ],
          [
            121.29895,
            25.04269
          ],
          [
            121.29399,
            25.04726
          ],
          [
            121.29363,
            25.04853
          ],
          [
            121.29312,
            25.04936
          ],
          [
            121.29271,
            25.04977
          ],
          [
            121.29198,
            25.05002
          ],
          [
            121.2922,
            25.05064
          ],
          [
            121.29238,
            25.05127
          ],
          [
            121.29238,
            25.05154
          ],
          [
            121.29238,
            25.05177
          ],
          [
            121.29234,
            25.05203
          ],
          [
            121.28884,
            25.0586
          ],
          [
            121.28881,
            25.05897
          ],
          [
            121.28885,
            25.06015
          ],
          [
            121.28892,
            25.06133
          ],
          [
            121.2889,
            25.0616
          ],
          [
            121.28883,
            25.06187
          ],
          [
            121.28828,
            25.06321
          ],
          [
            121.28766,
            25.06455
          ],
          [
            121.28676,
            25.06643
          ],
          [
            121.28585,
            25.0683
          ],
          [
            121.28553,
            25.0695
          ],
          [
            121.28552,
            25.07112
          ],
          [
            121.28543,
            25.07471
          ],
          [
            121.28547,
            25.0765
          ],
          [
            121.28557,
            25.07829
          ],
          [
            121.28574,
            25.07923
          ],
          [
            121.28592,
            25.08017
          ],
          [
            121.28596,
            25.08122
          ],
          [
            121.28594,
            25.08228
          ],
          [
            121.2859,
            25.08367
          ],
          [
            121.28632,
            25.08547
          ],
          [
            121.28744,
            25.08526
          ],
          [
            121.29018,
            25.08526
          ],
          [
            121.29376,
            25.08514
          ],
          [
            121.29438,
            25.08508
          ],
          [
            121.29474,
            25.08469
          ],
          [
            121.29516,
            25.08427
          ],
          [
            121.29608,
            25.08409
          ],
          [
            121.2967,
            25.08391
          ],
          [
            121.29703,
            25.08378
          ],
          [
            121.29802,
            25.08355
          ],
          [
            121.29927,
            25.08326
          ],
          [
            121.29964,
            25.08339
          ],
          [
            121.30163,
            25.08362
          ],
          [
            121.30228,
            25.08363
          ],
          [
            121.30295,
            25.08351
          ],
          [
            121.30361,
            25.08335
          ],
          [
            121.30377,
            25.08329
          ],
          [
            121.30424,
            25.08282
          ],
          [
            121.3049,
            25.08258
          ],
          [
            121.30558,
            25.0824
          ],
          [
            121.30694,
            25.08212
          ],
          [
            121.31093,
            25.08084
          ],
          [
            121.31293,
            25.08021
          ],
          [
            121.31495,
            25.07958
          ],
          [
            121.31684,
            25.07858
          ]
        ]
      }
    },
    {
      "type": "Feature",
      "properties": {
        "feature_type": "route",
        "ref": "507",
        "name": "507（經桃園）",
        "name_en": "507 (via 桃園)",
        "color": "#65a30d",
        "direction": 1
      },
      "geometry": {
        "type": "LineString",
        "coordinates": [
          [
            121.3122,
            24.99267
          ],
          [
            121.31303,
            24.99052
          ]
        ]
      }
    },
    {
      "type": "Feature",
      "properties": {
        "feature_type": "station",
        "ref": "TAO64667",
        "name": "今日飯店",
        "name_en": "Hotel Today",
        "line": "507（經桃園）",
        "color": "#65a30d",
        "direction": 0
      },
      "geometry": {
        "type": "Point",
        "coordinates": [
          121.314177,
          24.990751
        ]
      }
    },
    {
      "type": "Feature",
      "properties": {
        "feature_type": "station",
        "ref": "TAO4850",
        "name": "民生成功路口",
        "name_en": "Minsheng and ChengGung Rd. Intersection",
        "line": "507（經桃園）",
        "color": "#65a30d",
        "direction": 0
      },
      "geometry": {
        "type": "Point",
        "coordinates": [
          121.313695,
          24.992577
        ]
      }
    },
    {
      "type": "Feature",
      "properties": {
        "feature_type": "station",
        "ref": "TAO64664",
        "name": "關帝廟",
        "name_en": "Guandi Temple",
        "line": "507（經桃園）",
        "color": "#65a30d",
        "direction": 0
      },
      "geometry": {
        "type": "Point",
        "coordinates": [
          121.313063,
          24.994145
        ]
      }
    },
    {
      "type": "Feature",
      "properties": {
        "feature_type": "station",
        "ref": "TAO64663",
        "name": "鴻福寺",
        "name_en": "Hong Fu temple",
        "line": "507（經桃園）",
        "color": "#65a30d",
        "direction": 0
      },
      "geometry": {
        "type": "Point",
        "coordinates": [
          121.312559,
          24.995752
        ]
      }
    },
    {
      "type": "Feature",
      "properties": {
        "feature_type": "station",
        "ref": "TAO64662",
        "name": "北門口",
        "name_en": "Beimen Station",
        "line": "507（經桃園）",
        "color": "#65a30d",
        "direction": 0
      },
      "geometry": {
        "type": "Point",
        "coordinates": [
          121.310979,
          24.999195
        ]
      }
    },
    {
      "type": "Feature",
      "properties": {
        "feature_type": "station",
        "ref": "TAO64661",
        "name": "北門新村",
        "name_en": "Beimen Village",
        "line": "507（經桃園）",
        "color": "#65a30d",
        "direction": 0
      },
      "geometry": {
        "type": "Point",
        "coordinates": [
          121.310089,
          25.001223
        ]
      }
    },
    {
      "type": "Feature",
      "properties": {
        "feature_type": "station",
        "ref": "TAO62936",
        "name": "臺灣菸酒公司",
        "name_en": "Taiwan Tobacco & Liquor Corporation",
        "line": "507（經桃園）",
        "color": "#65a30d",
        "direction": 0
      },
      "geometry": {
        "type": "Point",
        "coordinates": [
          121.309309,
          25.003714
        ]
      }
    },
    {
      "type": "Feature",
      "properties": {
        "feature_type": "station",
        "ref": "TAO64659",
        "name": "北門國小",
        "name_en": "Beimen Elementary School",
        "line": "507（經桃園）",
        "color": "#65a30d",
        "direction": 0
      },
      "geometry": {
        "type": "Point",
        "coordinates": [
          121.308741,
          25.006016
        ]
      }
    },
    {
      "type": "Feature",
      "properties": {
        "feature_type": "station",
        "ref": "TAO64658",
        "name": "文昌國中",
        "name_en": "Wunchang Junior High School",
        "line": "507（經桃園）",
        "color": "#65a30d",
        "direction": 0
      },
      "geometry": {
        "type": "Point",
        "coordinates": [
          121.308149,
          25.008988
        ]
      }
    },
    {
      "type": "Feature",
      "properties": {
        "feature_type": "station",
        "ref": "TAO64657",
        "name": "瓦斯公司",
        "name_en": "Gas Corporation",
        "line": "507（經桃園）",
        "color": "#65a30d",
        "direction": 0
      },
      "geometry": {
        "type": "Point",
        "coordinates": [
          121.309569,
          25.013629
        ]
      }
    },
    {
      "type": "Feature",
      "properties": {
        "feature_type": "station",
        "ref": "TAO64656",
        "name": "大興路口",
        "name_en": "Daxing Road Intersection",
        "line": "507（經桃園）",
        "color": "#65a30d",
        "direction": 0
      },
      "geometry": {
        "type": "Point",
        "coordinates": [
          121.309302,
          25.015096
        ]
      }
    },
    {
      "type": "Feature",
      "properties": {
        "feature_type": "station",
        "ref": "TAO64655",
        "name": "永吉新村",
        "name_en": "Yongji Village",
        "line": "507（經桃園）",
        "color": "#65a30d",
        "direction": 0
      },
      "geometry": {
        "type": "Point",
        "coordinates": [
          121.309057,
          25.016476
        ]
      }
    },
    {
      "type": "Feature",
      "properties": {
        "feature_type": "station",
        "ref": "TAO5134",
        "name": "新埔國宅",
        "name_en": "Xinpu Public Housing",
        "line": "507（經桃園）",
        "color": "#65a30d",
        "direction": 0
      },
      "geometry": {
        "type": "Point",
        "coordinates": [
          121.308484,
          25.020138
        ]
      }
    },
    {
      "type": "Feature",
      "properties": {
        "feature_type": "station",
        "ref": "TAO64652",
        "name": "春日健行路口",
        "name_en": "Chunri Jianxing Road Intersection",
        "line": "507（經桃園）",
        "color": "#65a30d",
        "direction": 0
      },
      "geometry": {
        "type": "Point",
        "coordinates": [
          121.307464,
          25.022705
        ]
      }
    },
    {
      "type": "Feature",
      "properties": {
        "feature_type": "station",
        "ref": "TAO64651",
        "name": "鹽庫西街口",
        "name_en": "Yanku West Street Intersection",
        "line": "507（經桃園）",
        "color": "#65a30d",
        "direction": 0
      },
      "geometry": {
        "type": "Point",
        "coordinates": [
          121.306647,
          25.024708
        ]
      }
    },
    {
      "type": "Feature",
      "properties": {
        "feature_type": "station",
        "ref": "TAO64650",
        "name": "水汴頭",
        "name_en": "Shuibiantou",
        "line": "507（經桃園）",
        "color": "#65a30d",
        "direction": 0
      },
      "geometry": {
        "type": "Point",
        "coordinates": [
          121.305846,
          25.026785
        ]
      }
    },
    {
      "type": "Feature",
      "properties": {
        "feature_type": "station",
        "ref": "TAO64649",
        "name": "許厝",
        "name_en": "Xucuo",
        "line": "507（經桃園）",
        "color": "#65a30d",
        "direction": 0
      },
      "geometry": {
        "type": "Point",
        "coordinates": [
          121.304914,
          25.028964
        ]
      }
    },
    {
      "type": "Feature",
      "properties": {
        "feature_type": "station",
        "ref": "TAO64648",
        "name": "煉油廠",
        "name_en": "Refinery",
        "line": "507（經桃園）",
        "color": "#65a30d",
        "direction": 0
      },
      "geometry": {
        "type": "Point",
        "coordinates": [
          121.304259,
          25.030656
        ]
      }
    },
    {
      "type": "Feature",
      "properties": {
        "feature_type": "station",
        "ref": "TAO64647",
        "name": "民生北路一段54巷口",
        "name_en": "Lane 54, Section 1, Minsheng North Road",
        "line": "507（經桃園）",
        "color": "#65a30d",
        "direction": 0
      },
      "geometry": {
        "type": "Point",
        "coordinates": [
          121.303061,
          25.033461
        ]
      }
    },
    {
      "type": "Feature",
      "properties": {
        "feature_type": "station",
        "ref": "TAO64646",
        "name": "甘蔗園橋",
        "name_en": "Ganzheyuan Bridge",
        "line": "507（經桃園）",
        "color": "#65a30d",
        "direction": 0
      },
      "geometry": {
        "type": "Point",
        "coordinates": [
          121.302283,
          25.035334
        ]
      }
    },
    {
      "type": "Feature",
      "properties": {
        "feature_type": "station",
        "ref": "TAO64645",
        "name": "力捷公司",
        "name_en": "Lijie Company",
        "line": "507（經桃園）",
        "color": "#65a30d",
        "direction": 0
      },
      "geometry": {
        "type": "Point",
        "coordinates": [
          121.301772,
          25.036574
        ]
      }
    },
    {
      "type": "Feature",
      "properties": {
        "feature_type": "station",
        "ref": "TAO4019",
        "name": "南上里",
        "name_en": "Nanshang Village",
        "line": "507（經桃園）",
        "color": "#65a30d",
        "direction": 0
      },
      "geometry": {
        "type": "Point",
        "coordinates": [
          121.301152,
          25.038138
        ]
      }
    },
    {
      "type": "Feature",
      "properties": {
        "feature_type": "station",
        "ref": "TAO64643",
        "name": "甘蔗園",
        "name_en": "Sugarcane Farm",
        "line": "507（經桃園）",
        "color": "#65a30d",
        "direction": 0
      },
      "geometry": {
        "type": "Point",
        "coordinates": [
          121.300298,
          25.040214
        ]
      }
    },
    {
      "type": "Feature",
      "properties": {
        "feature_type": "station",
        "ref": "TAO64642",
        "name": "頂南崁",
        "name_en": "Dingnankan",
        "line": "507（經桃園）",
        "color": "#65a30d",
        "direction": 0
      },
      "geometry": {
        "type": "Point",
        "coordinates": [
          121.298138,
          25.043576
        ]
      }
    },
    {
      "type": "Feature",
      "properties": {
        "feature_type": "station",
        "ref": "TAO64641",
        "name": "大同公司",
        "name_en": "Datung Company",
        "line": "507（經桃園）",
        "color": "#65a30d",
        "direction": 0
      },
      "geometry": {
        "type": "Point",
        "coordinates": [
          121.296498,
          25.045057
        ]
      }
    },
    {
      "type": "Feature",
      "properties": {
        "feature_type": "station",
        "ref": "TAO64599",
        "name": "蘆竹區公所",
        "name_en": "Luzhu District Office",
        "line": "507（經桃園）",
        "color": "#65a30d",
        "direction": 0
      },
      "geometry": {
        "type": "Point",
        "coordinates": [
          121.294729,
          25.046754
        ]
      }
    },
    {
      "type": "Feature",
      "properties": {
        "feature_type": "station",
        "ref": "TAO64598",
        "name": "南崁市場",
        "name_en": "Nankan market",
        "line": "507（經桃園）",
        "color": "#65a30d",
        "direction": 0
      },
      "geometry": {
        "type": "Point",
        "coordinates": [
          121.293928,
          25.047822
        ]
      }
    },
    {
      "type": "Feature",
      "properties": {
        "feature_type": "station",
        "ref": "TAO64597",
        "name": "南山路口",
        "name_en": "Nanshan Road Intersection",
        "line": "507（經桃園）",
        "color": "#65a30d",
        "direction": 0
      },
      "geometry": {
        "type": "Point",
        "coordinates": [
          121.292122,
          25.050296
        ]
      }
    },
    {
      "type": "Feature",
      "properties": {
        "feature_type": "station",
        "ref": "TAO9263",
        "name": "電通市",
        "name_en": "Diantongshi Community",
        "line": "507（經桃園）",
        "color": "#65a30d",
        "direction": 0
      },
      "geometry": {
        "type": "Point",
        "coordinates": [
          121.292436,
          25.051272
        ]
      }
    },
    {
      "type": "Feature",
      "properties": {
        "feature_type": "station",
        "ref": "TAO1882",
        "name": "蘆竹郵局",
        "name_en": "Luzhu Post Office",
        "line": "507（經桃園）",
        "color": "#65a30d",
        "direction": 0
      },
      "geometry": {
        "type": "Point",
        "coordinates": [
          121.290937,
          25.054768
        ]
      }
    },
    {
      "type": "Feature",
      "properties": {
        "feature_type": "station",
        "ref": "TAO64499",
        "name": "南山六福",
        "name_en": "Nanshan Liufu",
        "line": "507（經桃園）",
        "color": "#65a30d",
        "direction": 0
      },
      "geometry": {
        "type": "Point",
        "coordinates": [
          121.289749,
          25.057066
        ]
      }
    },
    {
      "type": "Feature",
      "properties": {
        "feature_type": "station",
        "ref": "TAO3436",
        "name": "南山長榮路口",
        "name_en": "Nanshan Changrong Rd. Intersection",
        "line": "507（經桃園）",
        "color": "#65a30d",
        "direction": 0
      },
      "geometry": {
        "type": "Point",
        "coordinates": [
          121.289079,
          25.058373
        ]
      }
    },
    {
      "type": "Feature",
      "properties": {
        "feature_type": "station",
        "ref": "TAO64497",
        "name": "埔尾",
        "name_en": "Puwei",
        "line": "507（經桃園）",
        "color": "#65a30d",
        "direction": 0
      },
      "geometry": {
        "type": "Point",
        "coordinates": [
          121.288729,
          25.062502
        ]
      }
    },
    {
      "type": "Feature",
      "properties": {
        "feature_type": "station",
        "ref": "TAO64496",
        "name": "水泥公司",
        "name_en": "Cement Company",
        "line": "507（經桃園）",
        "color": "#65a30d",
        "direction": 0
      },
      "geometry": {
        "type": "Point",
        "coordinates": [
          121.287169,
          25.065763
        ]
      }
    },
    {
      "type": "Feature",
      "properties": {
        "feature_type": "station",
        "ref": "TAO64495",
        "name": "中崙公司",
        "name_en": "Zhonglun Company",
        "line": "507（經桃園）",
        "color": "#65a30d",
        "direction": 0
      },
      "geometry": {
        "type": "Point",
        "coordinates": [
          121.286043,
          25.068158
        ]
      }
    },
    {
      "type": "Feature",
      "properties": {
        "feature_type": "station",
        "ref": "TAO64494",
        "name": "公埔",
        "name_en": "Gongpu",
        "line": "507（經桃園）",
        "color": "#65a30d",
        "direction": 0
      },
      "geometry": {
        "type": "Point",
        "coordinates": [
          121.285528,
          25.070862
        ]
      }
    },
    {
      "type": "Feature",
      "properties": {
        "feature_type": "station",
        "ref": "TAO64493",
        "name": "佑新公司",
        "name_en": "Youxin Company",
        "line": "507（經桃園）",
        "color": "#65a30d",
        "direction": 0
      },
      "geometry": {
        "type": "Point",
        "coordinates": [
          121.285518,
          25.073968
        ]
      }
    },
    {
      "type": "Feature",
      "properties": {
        "feature_type": "station",
        "ref": "TAO64492",
        "name": "群鹿公司",
        "name_en": "Qunlu Company",
        "line": "507（經桃園）",
        "color": "#65a30d",
        "direction": 0
      },
      "geometry": {
        "type": "Point",
        "coordinates": [
          121.285515,
          25.076272
        ]
      }
    },
    {
      "type": "Feature",
      "properties": {
        "feature_type": "station",
        "ref": "TAO8240",
        "name": "山鼻",
        "name_en": "Shanbi",
        "line": "507（經桃園）",
        "color": "#65a30d",
        "direction": 0
      },
      "geometry": {
        "type": "Point",
        "coordinates": [
          121.285763,
          25.078973
        ]
      }
    },
    {
      "type": "Feature",
      "properties": {
        "feature_type": "station",
        "ref": "TAO62860",
        "name": "捷運山鼻站",
        "name_en": "MRT Shanbi Station",
        "line": "507（經桃園）",
        "color": "#65a30d",
        "direction": 0
      },
      "geometry": {
        "type": "Point",
        "coordinates": [
          121.286029,
          25.080925
        ]
      }
    },
    {
      "type": "Feature",
      "properties": {
        "feature_type": "station",
        "ref": "TAO64490",
        "name": "大利新村",
        "name_en": "Dali Village",
        "line": "507（經桃園）",
        "color": "#65a30d",
        "direction": 0
      },
      "geometry": {
        "type": "Point",
        "coordinates": [
          121.286024,
          25.081889
        ]
      }
    },
    {
      "type": "Feature",
      "properties": {
        "feature_type": "station",
        "ref": "TAO64489",
        "name": "山腳",
        "name_en": "Shanjiao",
        "line": "507（經桃園）",
        "color": "#65a30d",
        "direction": 0
      },
      "geometry": {
        "type": "Point",
        "coordinates": [
          121.286151,
          25.084522
        ]
      }
    },
    {
      "type": "Feature",
      "properties": {
        "feature_type": "station",
        "ref": "TAO62935",
        "name": "源昇公司",
        "name_en": "Yuansheng Company",
        "line": "507（經桃園）",
        "color": "#65a30d",
        "direction": 0
      },
      "geometry": {
        "type": "Point",
        "coordinates": [
          121.290213,
          25.085179
        ]
      }
    },
    {
      "type": "Feature",
      "properties": {
        "feature_type": "station",
        "ref": "TAO62934",
        "name": "公溝",
        "name_en": "Gonggou",
        "line": "507（經桃園）",
        "color": "#65a30d",
        "direction": 0
      },
      "geometry": {
        "type": "Point",
        "coordinates": [
          121.293288,
          25.085047
        ]
      }
    },
    {
      "type": "Feature",
      "properties": {
        "feature_type": "station",
        "ref": "TAO62933",
        "name": "聯邦公司",
        "name_en": "Lianbang Company",
        "line": "507（經桃園）",
        "color": "#65a30d",
        "direction": 0
      },
      "geometry": {
        "type": "Point",
        "coordinates": [
          121.294821,
          25.084468
        ]
      }
    },
    {
      "type": "Feature",
      "properties": {
        "feature_type": "station",
        "ref": "TAO62932",
        "name": "家畜市場",
        "name_en": "Jiachu Market",
        "line": "507（經桃園）",
        "color": "#65a30d",
        "direction": 0
      },
      "geometry": {
        "type": "Point",
        "coordinates": [
          121.297347,
          25.083532
        ]
      }
    },
    {
      "type": "Feature",
      "properties": {
        "feature_type": "station",
        "ref": "TAO62931",
        "name": "下外社",
        "name_en": "Xiawaishe",
        "line": "507（經桃園）",
        "color": "#65a30d",
        "direction": 0
      },
      "geometry": {
        "type": "Point",
        "coordinates": [
          121.301519,
          25.083491
        ]
      }
    },
    {
      "type": "Feature",
      "properties": {
        "feature_type": "station",
        "ref": "TAO62930",
        "name": "外社",
        "name_en": "Waishe",
        "line": "507（經桃園）",
        "color": "#65a30d",
        "direction": 0
      },
      "geometry": {
        "type": "Point",
        "coordinates": [
          121.303709,
          25.083241
        ]
      }
    },
    {
      "type": "Feature",
      "properties": {
        "feature_type": "station",
        "ref": "TAO62929",
        "name": "外社國小",
        "name_en": "Waishe Elementary School",
        "line": "507（經桃園）",
        "color": "#65a30d",
        "direction": 0
      },
      "geometry": {
        "type": "Point",
        "coordinates": [
          121.306564,
          25.082141
        ]
      }
    },
    {
      "type": "Feature",
      "properties": {
        "feature_type": "station",
        "ref": "TAO62928",
        "name": "草仔崎",
        "name_en": "Caoziqi",
        "line": "507（經桃園）",
        "color": "#65a30d",
        "direction": 0
      },
      "geometry": {
        "type": "Point",
        "coordinates": [
          121.310613,
          25.080874
        ]
      }
    },
    {
      "type": "Feature",
      "properties": {
        "feature_type": "station",
        "ref": "TAO62927",
        "name": "偉辰公司",
        "name_en": "Weichen Company",
        "line": "507（經桃園）",
        "color": "#65a30d",
        "direction": 0
      },
      "geometry": {
        "type": "Point",
        "coordinates": [
          121.315504,
          25.079224
        ]
      }
    },
    {
      "type": "Feature",
      "properties": {
        "feature_type": "station",
        "ref": "TAO62926",
        "name": "頂社",
        "name_en": "Dingshe",
        "line": "507（經桃園）",
        "color": "#65a30d",
        "direction": 0
      },
      "geometry": {
        "type": "Point",
        "coordinates": [
          121.316548,
          25.078629
        ]
      }
    },
    {
      "type": "Feature",
      "properties": {
        "feature_type": "station",
        "ref": "TAO62889",
        "name": "頂社",
        "name_en": "Dingshe",
        "line": "507（經桃園）",
        "color": "#65a30d",
        "direction": 1
      },
      "geometry": {
        "type": "Point",
        "coordinates": [
          121.316549,
          25.078808
        ]
      }
    },
    {
      "type": "Feature",
      "properties": {
        "feature_type": "station",
        "ref": "TAO62888",
        "name": "偉辰公司",
        "name_en": "Weichen Company",
        "line": "507（經桃園）",
        "color": "#65a30d",
        "direction": 1
      },
      "geometry": {
        "type": "Point",
        "coordinates": [
          121.315458,
          25.079464
        ]
      }
    },
    {
      "type": "Feature",
      "properties": {
        "feature_type": "station",
        "ref": "TAO62887",
        "name": "草仔崎",
        "name_en": "Caoziqi",
        "line": "507（經桃園）",
        "color": "#65a30d",
        "direction": 1
      },
      "geometry": {
        "type": "Point",
        "coordinates": [
          121.310684,
          25.081015
        ]
      }
    },
    {
      "type": "Feature",
      "properties": {
        "feature_type": "station",
        "ref": "TAO62886",
        "name": "外社國小",
        "name_en": "Waishe Elementary School",
        "line": "507（經桃園）",
        "color": "#65a30d",
        "direction": 1
      },
      "geometry": {
        "type": "Point",
        "coordinates": [
          121.306662,
          25.082263
        ]
      }
    },
    {
      "type": "Feature",
      "properties": {
        "feature_type": "station",
        "ref": "TAO62885",
        "name": "外社",
        "name_en": "Waishe",
        "line": "507（經桃園）",
        "color": "#65a30d",
        "direction": 1
      },
      "geometry": {
        "type": "Point",
        "coordinates": [
          121.303914,
          25.083324
        ]
      }
    },
    {
      "type": "Feature",
      "properties": {
        "feature_type": "station",
        "ref": "TAO62884",
        "name": "下外社",
        "name_en": "Xiawaishe",
        "line": "507（經桃園）",
        "color": "#65a30d",
        "direction": 1
      },
      "geometry": {
        "type": "Point",
        "coordinates": [
          121.301511,
          25.083647
        ]
      }
    },
    {
      "type": "Feature",
      "properties": {
        "feature_type": "station",
        "ref": "TAO62883",
        "name": "家畜市場",
        "name_en": "Jiachu Market",
        "line": "507（經桃園）",
        "color": "#65a30d",
        "direction": 1
      },
      "geometry": {
        "type": "Point",
        "coordinates": [
          121.297237,
          25.083688
        ]
      }
    },
    {
      "type": "Feature",
      "properties": {
        "feature_type": "station",
        "ref": "TAO62882",
        "name": "聯邦公司",
        "name_en": "Lianbang Company",
        "line": "507（經桃園）",
        "color": "#65a30d",
        "direction": 1
      },
      "geometry": {
        "type": "Point",
        "coordinates": [
          121.294897,
          25.084595
        ]
      }
    },
    {
      "type": "Feature",
      "properties": {
        "feature_type": "station",
        "ref": "TAO62881",
        "name": "公溝",
        "name_en": "Gonggou",
        "line": "507（經桃園）",
        "color": "#65a30d",
        "direction": 1
      },
      "geometry": {
        "type": "Point",
        "coordinates": [
          121.292784,
          25.085227
        ]
      }
    },
    {
      "type": "Feature",
      "properties": {
        "feature_type": "station",
        "ref": "TAO62880",
        "name": "源昇公司",
        "name_en": "Yuansheng Company",
        "line": "507（經桃園）",
        "color": "#65a30d",
        "direction": 1
      },
      "geometry": {
        "type": "Point",
        "coordinates": [
          121.290282,
          25.085312
        ]
      }
    },
    {
      "type": "Feature",
      "properties": {
        "feature_type": "station",
        "ref": "TAO64454",
        "name": "山腳",
        "name_en": "Shanjiao",
        "line": "507（經桃園）",
        "color": "#65a30d",
        "direction": 1
      },
      "geometry": {
        "type": "Point",
        "coordinates": [
          121.286147,
          25.085081
        ]
      }
    },
    {
      "type": "Feature",
      "properties": {
        "feature_type": "station",
        "ref": "TAO64453",
        "name": "大利新村",
        "name_en": "Dali Village",
        "line": "507（經桃園）",
        "color": "#65a30d",
        "direction": 1
      },
      "geometry": {
        "type": "Point",
        "coordinates": [
          121.285699,
          25.081985
        ]
      }
    },
    {
      "type": "Feature",
      "properties": {
        "feature_type": "station",
        "ref": "TAO2992",
        "name": "捷運山鼻站",
        "name_en": "MRT Shanbi Station",
        "line": "507（經桃園）",
        "color": "#65a30d",
        "direction": 1
      },
      "geometry": {
        "type": "Point",
        "coordinates": [
          121.285698,
          25.080884
        ]
      }
    },
    {
      "type": "Feature",
      "properties": {
        "feature_type": "station",
        "ref": "TAO8241",
        "name": "山鼻",
        "name_en": "Shanbi",
        "line": "507（經桃園）",
        "color": "#65a30d",
        "direction": 1
      },
      "geometry": {
        "type": "Point",
        "coordinates": [
          121.285379,
          25.078486
        ]
      }
    },
    {
      "type": "Feature",
      "properties": {
        "feature_type": "station",
        "ref": "TAO64451",
        "name": "群鹿公司",
        "name_en": "Qunlu Company",
        "line": "507（經桃園）",
        "color": "#65a30d",
        "direction": 1
      },
      "geometry": {
        "type": "Point",
        "coordinates": [
          121.285231,
          25.076403
        ]
      }
    },
    {
      "type": "Feature",
      "properties": {
        "feature_type": "station",
        "ref": "TAO64450",
        "name": "佑新公司",
        "name_en": "Youxin Company",
        "line": "507（經桃園）",
        "color": "#65a30d",
        "direction": 1
      },
      "geometry": {
        "type": "Point",
        "coordinates": [
          121.285185,
          25.073969
        ]
      }
    },
    {
      "type": "Feature",
      "properties": {
        "feature_type": "station",
        "ref": "TAO64449",
        "name": "公埔",
        "name_en": "Gongpu",
        "line": "507（經桃園）",
        "color": "#65a30d",
        "direction": 1
      },
      "geometry": {
        "type": "Point",
        "coordinates": [
          121.285263,
          25.071534
        ]
      }
    },
    {
      "type": "Feature",
      "properties": {
        "feature_type": "station",
        "ref": "TAO64448",
        "name": "中崙公司",
        "name_en": "Zhonglun Company",
        "line": "507（經桃園）",
        "color": "#65a30d",
        "direction": 1
      },
      "geometry": {
        "type": "Point",
        "coordinates": [
          121.285871,
          25.067832
        ]
      }
    },
    {
      "type": "Feature",
      "properties": {
        "feature_type": "station",
        "ref": "TAO64447",
        "name": "水泥公司",
        "name_en": "Cement Company",
        "line": "507（經桃園）",
        "color": "#65a30d",
        "direction": 1
      },
      "geometry": {
        "type": "Point",
        "coordinates": [
          121.286827,
          25.065699
        ]
      }
    },
    {
      "type": "Feature",
      "properties": {
        "feature_type": "station",
        "ref": "TAO64446",
        "name": "埔尾",
        "name_en": "Puwei",
        "line": "507（經桃園）",
        "color": "#65a30d",
        "direction": 1
      },
      "geometry": {
        "type": "Point",
        "coordinates": [
          121.287989,
          25.063315
        ]
      }
    },
    {
      "type": "Feature",
      "properties": {
        "feature_type": "station",
        "ref": "TAO64445",
        "name": "內厝橋",
        "name_en": "Neicuo Bridge",
        "line": "507（經桃園）",
        "color": "#65a30d",
        "direction": 1
      },
      "geometry": {
        "type": "Point",
        "coordinates": [
          121.288671,
          25.060868
        ]
      }
    },
    {
      "type": "Feature",
      "properties": {
        "feature_type": "station",
        "ref": "TAO3444",
        "name": "南山長榮路口",
        "name_en": "Nanshan Changrong Rd. Intersection",
        "line": "507（經桃園）",
        "color": "#65a30d",
        "direction": 1
      },
      "geometry": {
        "type": "Point",
        "coordinates": [
          121.288947,
          25.057868
        ]
      }
    },
    {
      "type": "Feature",
      "properties": {
        "feature_type": "station",
        "ref": "TAO64444",
        "name": "南山六福",
        "name_en": "Nanshan Liufu",
        "line": "507（經桃園）",
        "color": "#65a30d",
        "direction": 1
      },
      "geometry": {
        "type": "Point",
        "coordinates": [
          121.290139,
          25.055654
        ]
      }
    },
    {
      "type": "Feature",
      "properties": {
        "feature_type": "station",
        "ref": "TAO10872",
        "name": "蘆竹郵局",
        "name_en": "Luzhu Post Office",
        "line": "507（經桃園）",
        "color": "#65a30d",
        "direction": 1
      },
      "geometry": {
        "type": "Point",
        "coordinates": [
          121.290935,
          25.054254
        ]
      }
    },
    {
      "type": "Feature",
      "properties": {
        "feature_type": "station",
        "ref": "TAO10871",
        "name": "電通市",
        "name_en": "Diantongshi Community",
        "line": "507（經桃園）",
        "color": "#65a30d",
        "direction": 1
      },
      "geometry": {
        "type": "Point",
        "coordinates": [
          121.292097,
          25.051845
        ]
      }
    },
    {
      "type": "Feature",
      "properties": {
        "feature_type": "station",
        "ref": "TAO64504",
        "name": "南山路口",
        "name_en": "Nanshan Road Intersection",
        "line": "507（經桃園）",
        "color": "#65a30d",
        "direction": 1
      },
      "geometry": {
        "type": "Point",
        "coordinates": [
          121.292918,
          25.049492
        ]
      }
    },
    {
      "type": "Feature",
      "properties": {
        "feature_type": "station",
        "ref": "TAO64627",
        "name": "南崁市場",
        "name_en": "Nankan market",
        "line": "507（經桃園）",
        "color": "#65a30d",
        "direction": 1
      },
      "geometry": {
        "type": "Point",
        "coordinates": [
          121.293659,
          25.048056
        ]
      }
    },
    {
      "type": "Feature",
      "properties": {
        "feature_type": "station",
        "ref": "TAO64626",
        "name": "蘆竹區公所",
        "name_en": "Luzhu District Office",
        "line": "507（經桃園）",
        "color": "#65a30d",
        "direction": 1
      },
      "geometry": {
        "type": "Point",
        "coordinates": [
          121.294793,
          25.046364
        ]
      }
    },
    {
      "type": "Feature",
      "properties": {
        "feature_type": "station",
        "ref": "TAO64625",
        "name": "大同公司",
        "name_en": "Datung Company",
        "line": "507（經桃園）",
        "color": "#65a30d",
        "direction": 1
      },
      "geometry": {
        "type": "Point",
        "coordinates": [
          121.296378,
          25.044902
        ]
      }
    },
    {
      "type": "Feature",
      "properties": {
        "feature_type": "station",
        "ref": "TAO64624",
        "name": "頂南崁",
        "name_en": "Dingnankan",
        "line": "507（經桃園）",
        "color": "#65a30d",
        "direction": 1
      },
      "geometry": {
        "type": "Point",
        "coordinates": [
          121.297995,
          25.043413
        ]
      }
    },
    {
      "type": "Feature",
      "properties": {
        "feature_type": "station",
        "ref": "TAO64623",
        "name": "甘蔗園",
        "name_en": "Sugarcane Farm",
        "line": "507（經桃園）",
        "color": "#65a30d",
        "direction": 1
      },
      "geometry": {
        "type": "Point",
        "coordinates": [
          121.300169,
          25.039947
        ]
      }
    },
    {
      "type": "Feature",
      "properties": {
        "feature_type": "station",
        "ref": "TAO4020",
        "name": "南上里",
        "name_en": "Nanshang Village",
        "line": "507（經桃園）",
        "color": "#65a30d",
        "direction": 1
      },
      "geometry": {
        "type": "Point",
        "coordinates": [
          121.300992,
          25.037963
        ]
      }
    },
    {
      "type": "Feature",
      "properties": {
        "feature_type": "station",
        "ref": "TAO64621",
        "name": "力捷公司",
        "name_en": "Lijie Company",
        "line": "507（經桃園）",
        "color": "#65a30d",
        "direction": 1
      },
      "geometry": {
        "type": "Point",
        "coordinates": [
          121.301518,
          25.036653
        ]
      }
    },
    {
      "type": "Feature",
      "properties": {
        "feature_type": "station",
        "ref": "TAO64620",
        "name": "甘蔗園橋",
        "name_en": "Ganzheyuan Bridge",
        "line": "507（經桃園）",
        "color": "#65a30d",
        "direction": 1
      },
      "geometry": {
        "type": "Point",
        "coordinates": [
          121.302076,
          25.035316
        ]
      }
    },
    {
      "type": "Feature",
      "properties": {
        "feature_type": "station",
        "ref": "TAO64619",
        "name": "民生北路一段54巷口",
        "name_en": "Lane 54, Section 1, Minsheng North Road",
        "line": "507（經桃園）",
        "color": "#65a30d",
        "direction": 1
      },
      "geometry": {
        "type": "Point",
        "coordinates": [
          121.302724,
          25.033716
        ]
      }
    },
    {
      "type": "Feature",
      "properties": {
        "feature_type": "station",
        "ref": "TAO64618",
        "name": "煉油廠",
        "name_en": "Refinery",
        "line": "507（經桃園）",
        "color": "#65a30d",
        "direction": 1
      },
      "geometry": {
        "type": "Point",
        "coordinates": [
          121.303815,
          25.030938
        ]
      }
    },
    {
      "type": "Feature",
      "properties": {
        "feature_type": "station",
        "ref": "TAO64617",
        "name": "許厝",
        "name_en": "Xucuo",
        "line": "507（經桃園）",
        "color": "#65a30d",
        "direction": 1
      },
      "geometry": {
        "type": "Point",
        "coordinates": [
          121.304555,
          25.029108
        ]
      }
    },
    {
      "type": "Feature",
      "properties": {
        "feature_type": "station",
        "ref": "TAO64616",
        "name": "水汴頭",
        "name_en": "Shuibiantou",
        "line": "507（經桃園）",
        "color": "#65a30d",
        "direction": 1
      },
      "geometry": {
        "type": "Point",
        "coordinates": [
          121.305556,
          25.026746
        ]
      }
    },
    {
      "type": "Feature",
      "properties": {
        "feature_type": "station",
        "ref": "TAO64615",
        "name": "鹽庫西街口",
        "name_en": "Yanku West Street Intersection",
        "line": "507（經桃園）",
        "color": "#65a30d",
        "direction": 1
      },
      "geometry": {
        "type": "Point",
        "coordinates": [
          121.306334,
          25.024789
        ]
      }
    },
    {
      "type": "Feature",
      "properties": {
        "feature_type": "station",
        "ref": "TAO64614",
        "name": "春日健行路口",
        "name_en": "Chunri Jianxing Road Intersection",
        "line": "507（經桃園）",
        "color": "#65a30d",
        "direction": 1
      },
      "geometry": {
        "type": "Point",
        "coordinates": [
          121.307471,
          25.021966
        ]
      }
    },
    {
      "type": "Feature",
      "properties": {
        "feature_type": "station",
        "ref": "TAO64613",
        "name": "新埔國宅",
        "name_en": "Xinpu Residence",
        "line": "507（經桃園）",
        "color": "#65a30d",
        "direction": 1
      },
      "geometry": {
        "type": "Point",
        "coordinates": [
          121.308149,
          25.020207
        ]
      }
    },
    {
      "type": "Feature",
      "properties": {
        "feature_type": "station",
        "ref": "TAO64611",
        "name": "永吉新村",
        "name_en": "Yongji Village",
        "line": "507（經桃園）",
        "color": "#65a30d",
        "direction": 1
      },
      "geometry": {
        "type": "Point",
        "coordinates": [
          121.308774,
          25.016617
        ]
      }
    },
    {
      "type": "Feature",
      "properties": {
        "feature_type": "station",
        "ref": "TAO64610",
        "name": "大興路口",
        "name_en": "Daxing Road Intersection",
        "line": "507（經桃園）",
        "color": "#65a30d",
        "direction": 1
      },
      "geometry": {
        "type": "Point",
        "coordinates": [
          121.309058,
          25.014982
        ]
      }
    },
    {
      "type": "Feature",
      "properties": {
        "feature_type": "station",
        "ref": "TAO64609",
        "name": "瓦斯公司",
        "name_en": "Gas Corporation",
        "line": "507（經桃園）",
        "color": "#65a30d",
        "direction": 1
      },
      "geometry": {
        "type": "Point",
        "coordinates": [
          121.309361,
          25.013368
        ]
      }
    },
    {
      "type": "Feature",
      "properties": {
        "feature_type": "station",
        "ref": "TAO64608",
        "name": "文昌國中",
        "name_en": "Wunchang Junior High School",
        "line": "507（經桃園）",
        "color": "#65a30d",
        "direction": 1
      },
      "geometry": {
        "type": "Point",
        "coordinates": [
          121.308012,
          25.009578
        ]
      }
    },
    {
      "type": "Feature",
      "properties": {
        "feature_type": "station",
        "ref": "TAO64607",
        "name": "北門國小",
        "name_en": "Beimen Elementary School",
        "line": "507（經桃園）",
        "color": "#65a30d",
        "direction": 1
      },
      "geometry": {
        "type": "Point",
        "coordinates": [
          121.308591,
          25.005988
        ]
      }
    },
    {
      "type": "Feature",
      "properties": {
        "feature_type": "station",
        "ref": "TAO62879",
        "name": "臺灣菸酒公司",
        "name_en": "Taiwan Tobacco & Liquor Corporation",
        "line": "507（經桃園）",
        "color": "#65a30d",
        "direction": 1
      },
      "geometry": {
        "type": "Point",
        "coordinates": [
          121.309371,
          25.002758
        ]
      }
    },
    {
      "type": "Feature",
      "properties": {
        "feature_type": "station",
        "ref": "TAO64605",
        "name": "北門新村",
        "name_en": "Beimen Village",
        "line": "507（經桃園）",
        "color": "#65a30d",
        "direction": 1
      },
      "geometry": {
        "type": "Point",
        "coordinates": [
          121.310058,
          25.000792
        ]
      }
    },
    {
      "type": "Feature",
      "properties": {
        "feature_type": "station",
        "ref": "TAO64604",
        "name": "北門口",
        "name_en": "Beimen Station",
        "line": "507（經桃園）",
        "color": "#65a30d",
        "direction": 1
      },
      "geometry": {
        "type": "Point",
        "coordinates": [
          121.310988,
          24.998878
        ]
      }
    },
    {
      "type": "Feature",
      "properties": {
        "feature_type": "station",
        "ref": "TAO64603",
        "name": "鴻福寺",
        "name_en": "Hong Fu temple",
        "line": "507（經桃園）",
        "color": "#65a30d",
        "direction": 1
      },
      "geometry": {
        "type": "Point",
        "coordinates": [
          121.312107,
          24.996275
        ]
      }
    },
    {
      "type": "Feature",
      "properties": {
        "feature_type": "station",
        "ref": "TAO64258",
        "name": "關帝廟",
        "name_en": "Guandi Temple",
        "line": "507（經桃園）",
        "color": "#65a30d",
        "direction": 1
      },
      "geometry": {
        "type": "Point",
        "coordinates": [
          121.312918,
          24.994081
        ]
      }
    },
    {
      "type": "Feature",
      "properties": {
        "feature_type": "station",
        "ref": "TAO64601",
        "name": "成功路",
        "name_en": "Chenggong Rd.",
        "line": "507（經桃園）",
        "color": "#65a30d",
        "direction": 1
      },
      "geometry": {
        "type": "Point",
        "coordinates": [
          121.312939,
          24.993006
        ]
      }
    },
    {
      "type": "Feature",
      "properties": {
        "feature_type": "station",
        "ref": "TAO3452",
        "name": "復興中正路口(桃園火車站)",
        "name_en": "Fuxing and Zhongzheng Rd. Int.(Taoyuan Station)",
        "line": "507（經桃園）",
        "color": "#65a30d",
        "direction": 1
      },
      "geometry": {
        "type": "Point",
        "coordinates": [
          121.313636,
          24.990577
        ]
      }
    }
  ]
}
