{
  "type": "FeatureCollection",
  "name": "511（經大溪）",
  "properties": {
    "id": "taoyuan_511_08fb9cffed",
    "name": "511（經大溪）",
    "name_en": "511 (via 大溪)",
    "ref": "511",
    "color": "#65a30d",
    "city_id": "Taoyuan",
    "source": "TDX Bus Shape / StopOfRoute",
    "via": "大溪",
    "official_map_url": "http://ebus.tycg.gov.tw/cms/api/route/5110/map/160/image",
    "operator_id": "1",
    "operator": "桃園客運",
    "operator_en": "Taoyuan Bus Co., Ltd."
  },
  "features": [
    {
      "type": "Feature",
      "properties": {
        "feature_type": "route",
        "ref": "511",
        "name": "511（經大溪）",
        "name_en": "511 (via 大溪)",
        "color": "#65a30d",
        "direction": 0
      },
      "geometry": {
        "type": "LineString",
        "coordinates": [
          [
            121.28804,
            24.88116
          ],
          [
            121.28794,
            24.88105
          ],
          [
            121.28773,
            24.88101
          ],
          [
            121.28771,
            24.88128
          ],
          [
            121.28811,
            24.88126
          ],
          [
            121.28872,
            24.8809
          ],
          [
            121.28843,
            24.87906
          ],
          [
            121.28778,
            24.87774
          ],
          [
            121.28754,
            24.87709
          ],
          [
            121.28728,
            24.87654
          ],
          [
            121.28663,
            24.87583
          ],
          [
            121.28627,
            24.87334
          ],
          [
            121.28561,
            24.8708
          ],
          [
            121.28418,
            24.86756
          ],
          [
            121.28413,
            24.86617
          ],
          [
            121.28402,
            24.86556
          ],
          [
            121.28334,
            24.86315
          ],
          [
            121.28304,
            24.86235
          ],
          [
            121.2815,
            24.85947
          ],
          [
            121.28055,
            24.85629
          ],
          [
            121.27922,
            24.85411
          ],
          [
            121.27877,
            24.85349
          ],
          [
            121.2783,
            24.85299
          ],
          [
            121.27785,
            24.85249
          ],
          [
            121.27743,
            24.85207
          ],
          [
            121.27574,
            24.85027
          ],
          [
            121.27522,
            24.84938
          ],
          [
            121.27476,
            24.84874
          ],
          [
            121.27426,
            24.8481
          ],
          [
            121.27376,
            24.84747
          ],
          [
            121.27339,
            24.84699
          ],
          [
            121.27302,
            24.84653
          ],
          [
            121.27273,
            24.84616
          ],
          [
            121.27262,
            24.84596
          ],
          [
            121.27221,
            24.84225
          ],
          [
            121.27228,
            24.84132
          ],
          [
            121.27231,
            24.84041
          ],
          [
            121.27219,
            24.83927
          ],
          [
            121.2722,
            24.83861
          ],
          [
            121.27224,
            24.83805
          ],
          [
            121.27223,
            24.8377
          ],
          [
            121.27214,
            24.83738
          ],
          [
            121.27198,
            24.83674
          ],
          [
            121.2719,
            24.83643
          ],
          [
            121.27176,
            24.83612
          ],
          [
            121.27165,
            24.83582
          ],
          [
            121.27157,
            24.83557
          ],
          [
            121.27156,
            24.83484
          ],
          [
            121.27155,
            24.83409
          ],
          [
            121.27149,
            24.83321
          ],
          [
            121.27147,
            24.83275
          ],
          [
            121.2714,
            24.83235
          ],
          [
            121.27104,
            24.8314
          ],
          [
            121.27089,
            24.83117
          ],
          [
            121.27067,
            24.83093
          ],
          [
            121.26991,
            24.83028
          ],
          [
            121.26956,
            24.82991
          ],
          [
            121.26938,
            24.82973
          ],
          [
            121.26919,
            24.82957
          ],
          [
            121.26877,
            24.82924
          ],
          [
            121.26838,
            24.82888
          ],
          [
            121.26798,
            24.82849
          ],
          [
            121.26793,
            24.82839
          ],
          [
            121.26765,
            24.82813
          ],
          [
            121.26726,
            24.82785
          ],
          [
            121.2668,
            24.82753
          ],
          [
            121.26605,
            24.82679
          ],
          [
            121.26552,
            24.82633
          ],
          [
            121.26494,
            24.82591
          ],
          [
            121.26445,
            24.82559
          ],
          [
            121.26388,
            24.82528
          ],
          [
            121.2633,
            24.82495
          ],
          [
            121.262,
            24.82421
          ],
          [
            121.26151,
            24.82383
          ],
          [
            121.26099,
            24.82347
          ],
          [
            121.26034,
            24.82319
          ],
          [
            121.25968,
            24.82292
          ],
          [
            121.25863,
            24.82258
          ],
          [
            121.25816,
            24.82232
          ],
          [
            121.25796,
            24.82219
          ],
          [
            121.25757,
            24.82218
          ]
        ]
      }
    },
    {
      "type": "Feature",
      "properties": {
        "feature_type": "station",
        "ref": "TAO35410",
        "name": "大溪總站",
        "name_en": "Daxi Bus Terminal",
        "line": "511（經大溪）",
        "color": "#65a30d",
        "direction": 0
      },
      "geometry": {
        "type": "Point",
        "coordinates": [
          121.287885,
          24.881172
        ]
      }
    },
    {
      "type": "Feature",
      "properties": {
        "feature_type": "station",
        "ref": "TAO65090",
        "name": "天主堂",
        "name_en": "tianzhutang",
        "line": "511（經大溪）",
        "color": "#65a30d",
        "direction": 0
      },
      "geometry": {
        "type": "Point",
        "coordinates": [
          121.287427,
          24.877218
        ]
      }
    },
    {
      "type": "Feature",
      "properties": {
        "feature_type": "station",
        "ref": "TAO65089",
        "name": "三板橋",
        "name_en": "Sanban Bridge",
        "line": "511（經大溪）",
        "color": "#65a30d",
        "direction": 0
      },
      "geometry": {
        "type": "Point",
        "coordinates": [
          121.286512,
          24.875229
        ]
      }
    },
    {
      "type": "Feature",
      "properties": {
        "feature_type": "station",
        "ref": "TAO65088",
        "name": "工作站",
        "name_en": "Works Station",
        "line": "511（經大溪）",
        "color": "#65a30d",
        "direction": 0
      },
      "geometry": {
        "type": "Point",
        "coordinates": [
          121.286055,
          24.872977
        ]
      }
    },
    {
      "type": "Feature",
      "properties": {
        "feature_type": "station",
        "ref": "TAO9543",
        "name": "大溪高中",
        "name_en": "Daxi Senior High School",
        "line": "511（經大溪）",
        "color": "#65a30d",
        "direction": 0
      },
      "geometry": {
        "type": "Point",
        "coordinates": [
          121.284896,
          24.869445
        ]
      }
    },
    {
      "type": "Feature",
      "properties": {
        "feature_type": "station",
        "ref": "TAO65086",
        "name": "至善高中",
        "name_en": "Jhih shan Senior High School",
        "line": "511（經大溪）",
        "color": "#65a30d",
        "direction": 0
      },
      "geometry": {
        "type": "Point",
        "coordinates": [
          121.284092,
          24.866742
        ]
      }
    },
    {
      "type": "Feature",
      "properties": {
        "feature_type": "station",
        "ref": "TAO62254",
        "name": "頂田心",
        "name_en": "Dingtianxin",
        "line": "511（經大溪）",
        "color": "#65a30d",
        "direction": 0
      },
      "geometry": {
        "type": "Point",
        "coordinates": [
          121.283697,
          24.864717
        ]
      }
    },
    {
      "type": "Feature",
      "properties": {
        "feature_type": "station",
        "ref": "TAO62253",
        "name": "益興",
        "name_en": "Yixing",
        "line": "511（經大溪）",
        "color": "#65a30d",
        "direction": 0
      },
      "geometry": {
        "type": "Point",
        "coordinates": [
          121.282637,
          24.861664
        ]
      }
    },
    {
      "type": "Feature",
      "properties": {
        "feature_type": "station",
        "ref": "TAO62252",
        "name": "內柵",
        "name_en": "Neizha",
        "line": "511（經大溪）",
        "color": "#65a30d",
        "direction": 0
      },
      "geometry": {
        "type": "Point",
        "coordinates": [
          121.281242,
          24.858882
        ]
      }
    },
    {
      "type": "Feature",
      "properties": {
        "feature_type": "station",
        "ref": "TAO62251",
        "name": "內柵廟",
        "name_en": "Neizha Temple",
        "line": "511（經大溪）",
        "color": "#65a30d",
        "direction": 0
      },
      "geometry": {
        "type": "Point",
        "coordinates": [
          121.280718,
          24.857197
        ]
      }
    },
    {
      "type": "Feature",
      "properties": {
        "feature_type": "station",
        "ref": "TAO62250",
        "name": "頂埔尾",
        "name_en": "Dingpuwei",
        "line": "511（經大溪）",
        "color": "#65a30d",
        "direction": 0
      },
      "geometry": {
        "type": "Point",
        "coordinates": [
          121.27935,
          24.85443
        ]
      }
    },
    {
      "type": "Feature",
      "properties": {
        "feature_type": "station",
        "ref": "TAO62249",
        "name": "埔尾水頭",
        "name_en": "Puweishuitou",
        "line": "511（經大溪）",
        "color": "#65a30d",
        "direction": 0
      },
      "geometry": {
        "type": "Point",
        "coordinates": [
          121.27564,
          24.85023
        ]
      }
    },
    {
      "type": "Feature",
      "properties": {
        "feature_type": "station",
        "ref": "TAO6560",
        "name": "水頭",
        "name_en": "Shuitou",
        "line": "511（經大溪）",
        "color": "#65a30d",
        "direction": 0
      },
      "geometry": {
        "type": "Point",
        "coordinates": [
          121.273621,
          24.84735
        ]
      }
    },
    {
      "type": "Feature",
      "properties": {
        "feature_type": "station",
        "ref": "TAO62247",
        "name": "華聲",
        "name_en": "Huasheng",
        "line": "511（經大溪）",
        "color": "#65a30d",
        "direction": 0
      },
      "geometry": {
        "type": "Point",
        "coordinates": [
          121.27232,
          24.844
        ]
      }
    },
    {
      "type": "Feature",
      "properties": {
        "feature_type": "station",
        "ref": "TAO62246",
        "name": "石門新村",
        "name_en": "Shimen Village",
        "line": "511（經大溪）",
        "color": "#65a30d",
        "direction": 0
      },
      "geometry": {
        "type": "Point",
        "coordinates": [
          121.27218,
          24.84265
        ]
      }
    },
    {
      "type": "Feature",
      "properties": {
        "feature_type": "station",
        "ref": "TAO62245",
        "name": "崁頭",
        "name_en": "Kantou",
        "line": "511（經大溪）",
        "color": "#65a30d",
        "direction": 0
      },
      "geometry": {
        "type": "Point",
        "coordinates": [
          121.27222,
          24.8411
        ]
      }
    },
    {
      "type": "Feature",
      "properties": {
        "feature_type": "station",
        "ref": "TAO62244",
        "name": "崁頂",
        "name_en": "Kanding",
        "line": "511（經大溪）",
        "color": "#65a30d",
        "direction": 0
      },
      "geometry": {
        "type": "Point",
        "coordinates": [
          121.27216,
          24.8387
        ]
      }
    },
    {
      "type": "Feature",
      "properties": {
        "feature_type": "station",
        "ref": "TAO62243",
        "name": "葫蘆坑",
        "name_en": "Hulukeng",
        "line": "511（經大溪）",
        "color": "#65a30d",
        "direction": 0
      },
      "geometry": {
        "type": "Point",
        "coordinates": [
          121.27143,
          24.83329
        ]
      }
    },
    {
      "type": "Feature",
      "properties": {
        "feature_type": "station",
        "ref": "TAO62242",
        "name": "新溪洲",
        "name_en": "Xinxizhou",
        "line": "511（經大溪）",
        "color": "#65a30d",
        "direction": 0
      },
      "geometry": {
        "type": "Point",
        "coordinates": [
          121.26902,
          24.82951
        ]
      }
    },
    {
      "type": "Feature",
      "properties": {
        "feature_type": "station",
        "ref": "TAO62241",
        "name": "溪洲",
        "name_en": "Xizhou",
        "line": "511（經大溪）",
        "color": "#65a30d",
        "direction": 0
      },
      "geometry": {
        "type": "Point",
        "coordinates": [
          121.26754,
          24.82813
        ]
      }
    },
    {
      "type": "Feature",
      "properties": {
        "feature_type": "station",
        "ref": "TAO62240",
        "name": "新村",
        "name_en": "Xincun",
        "line": "511（經大溪）",
        "color": "#65a30d",
        "direction": 0
      },
      "geometry": {
        "type": "Point",
        "coordinates": [
          121.264275,
          24.82558
        ]
      }
    },
    {
      "type": "Feature",
      "properties": {
        "feature_type": "station",
        "ref": "TAO62239",
        "name": "山腳",
        "name_en": "Shanjiao",
        "line": "511（經大溪）",
        "color": "#65a30d",
        "direction": 0
      },
      "geometry": {
        "type": "Point",
        "coordinates": [
          121.260277,
          24.823207
        ]
      }
    },
    {
      "type": "Feature",
      "properties": {
        "feature_type": "station",
        "ref": "TAO62238",
        "name": "坪林",
        "name_en": "Pinglin",
        "line": "511（經大溪）",
        "color": "#65a30d",
        "direction": 0
      },
      "geometry": {
        "type": "Point",
        "coordinates": [
          121.257618,
          24.822277
        ]
      }
    },
    {
      "type": "Feature",
      "properties": {
        "feature_type": "station",
        "ref": "TAO62237",
        "name": "坪林",
        "name_en": "Pinglin",
        "line": "511（經大溪）",
        "color": "#65a30d",
        "direction": 1
      },
      "geometry": {
        "type": "Point",
        "coordinates": [
          121.257485,
          24.821774
        ]
      }
    },
    {
      "type": "Feature",
      "properties": {
        "feature_type": "station",
        "ref": "TAO62236",
        "name": "山腳",
        "name_en": "Shanjiao",
        "line": "511（經大溪）",
        "color": "#65a30d",
        "direction": 1
      },
      "geometry": {
        "type": "Point",
        "coordinates": [
          121.260105,
          24.822988
        ]
      }
    },
    {
      "type": "Feature",
      "properties": {
        "feature_type": "station",
        "ref": "TAO62235",
        "name": "新村",
        "name_en": "Xincun",
        "line": "511（經大溪）",
        "color": "#65a30d",
        "direction": 1
      },
      "geometry": {
        "type": "Point",
        "coordinates": [
          121.264458,
          24.825539
        ]
      }
    },
    {
      "type": "Feature",
      "properties": {
        "feature_type": "station",
        "ref": "TAO62234",
        "name": "溪洲",
        "name_en": "Xizhou",
        "line": "511（經大溪）",
        "color": "#65a30d",
        "direction": 1
      },
      "geometry": {
        "type": "Point",
        "coordinates": [
          121.26762,
          24.82803
        ]
      }
    },
    {
      "type": "Feature",
      "properties": {
        "feature_type": "station",
        "ref": "TAO62233",
        "name": "新溪洲",
        "name_en": "Xinxizhou",
        "line": "511（經大溪）",
        "color": "#65a30d",
        "direction": 1
      },
      "geometry": {
        "type": "Point",
        "coordinates": [
          121.26868,
          24.82903
        ]
      }
    },
    {
      "type": "Feature",
      "properties": {
        "feature_type": "station",
        "ref": "TAO62232",
        "name": "葫蘆坑",
        "name_en": "Hulukeng",
        "line": "511（經大溪）",
        "color": "#65a30d",
        "direction": 1
      },
      "geometry": {
        "type": "Point",
        "coordinates": [
          121.27161,
          24.83348
        ]
      }
    },
    {
      "type": "Feature",
      "properties": {
        "feature_type": "station",
        "ref": "TAO62231",
        "name": "崁頂",
        "name_en": "Kanding",
        "line": "511（經大溪）",
        "color": "#65a30d",
        "direction": 1
      },
      "geometry": {
        "type": "Point",
        "coordinates": [
          121.27228,
          24.83894
        ]
      }
    },
    {
      "type": "Feature",
      "properties": {
        "feature_type": "station",
        "ref": "TAO62230",
        "name": "崁頭",
        "name_en": "Kantou",
        "line": "511（經大溪）",
        "color": "#65a30d",
        "direction": 1
      },
      "geometry": {
        "type": "Point",
        "coordinates": [
          121.27232,
          24.84137
        ]
      }
    },
    {
      "type": "Feature",
      "properties": {
        "feature_type": "station",
        "ref": "TAO62229",
        "name": "石門新村",
        "name_en": "Shimen Village",
        "line": "511（經大溪）",
        "color": "#65a30d",
        "direction": 1
      },
      "geometry": {
        "type": "Point",
        "coordinates": [
          121.272277,
          24.842823
        ]
      }
    },
    {
      "type": "Feature",
      "properties": {
        "feature_type": "station",
        "ref": "TAO62228",
        "name": "華聲",
        "name_en": "Huasheng",
        "line": "511（經大溪）",
        "color": "#65a30d",
        "direction": 1
      },
      "geometry": {
        "type": "Point",
        "coordinates": [
          121.2725,
          24.84433
        ]
      }
    },
    {
      "type": "Feature",
      "properties": {
        "feature_type": "station",
        "ref": "TAO6561",
        "name": "水頭",
        "name_en": "Shuitou",
        "line": "511（經大溪）",
        "color": "#65a30d",
        "direction": 1
      },
      "geometry": {
        "type": "Point",
        "coordinates": [
          121.273686,
          24.847331
        ]
      }
    },
    {
      "type": "Feature",
      "properties": {
        "feature_type": "station",
        "ref": "TAO62226",
        "name": "埔尾水頭",
        "name_en": "Puweishuitou",
        "line": "511（經大溪）",
        "color": "#65a30d",
        "direction": 1
      },
      "geometry": {
        "type": "Point",
        "coordinates": [
          121.275774,
          24.850143
        ]
      }
    },
    {
      "type": "Feature",
      "properties": {
        "feature_type": "station",
        "ref": "TAO62225",
        "name": "頂埔尾",
        "name_en": "Dingpuwei",
        "line": "511（經大溪）",
        "color": "#65a30d",
        "direction": 1
      },
      "geometry": {
        "type": "Point",
        "coordinates": [
          121.27934,
          24.85426
        ]
      }
    },
    {
      "type": "Feature",
      "properties": {
        "feature_type": "station",
        "ref": "TAO62224",
        "name": "內柵廟",
        "name_en": "Neizha Temple",
        "line": "511（經大溪）",
        "color": "#65a30d",
        "direction": 1
      },
      "geometry": {
        "type": "Point",
        "coordinates": [
          121.280891,
          24.857299
        ]
      }
    },
    {
      "type": "Feature",
      "properties": {
        "feature_type": "station",
        "ref": "TAO62223",
        "name": "內柵",
        "name_en": "Neizha",
        "line": "511（經大溪）",
        "color": "#65a30d",
        "direction": 1
      },
      "geometry": {
        "type": "Point",
        "coordinates": [
          121.281389,
          24.858878
        ]
      }
    },
    {
      "type": "Feature",
      "properties": {
        "feature_type": "station",
        "ref": "TAO62222",
        "name": "益興",
        "name_en": "Yixing",
        "line": "511（經大溪）",
        "color": "#65a30d",
        "direction": 1
      },
      "geometry": {
        "type": "Point",
        "coordinates": [
          121.28271,
          24.861597
        ]
      }
    },
    {
      "type": "Feature",
      "properties": {
        "feature_type": "station",
        "ref": "TAO9538",
        "name": "頂田心",
        "name_en": "Dingtianxin",
        "line": "511（經大溪）",
        "color": "#65a30d",
        "direction": 1
      },
      "geometry": {
        "type": "Point",
        "coordinates": [
          121.283806,
          24.864432
        ]
      }
    },
    {
      "type": "Feature",
      "properties": {
        "feature_type": "station",
        "ref": "TAO65085",
        "name": "至善高中",
        "name_en": "Jhih shan Senior High School",
        "line": "511（經大溪）",
        "color": "#65a30d",
        "direction": 1
      },
      "geometry": {
        "type": "Point",
        "coordinates": [
          121.284201,
          24.866803
        ]
      }
    },
    {
      "type": "Feature",
      "properties": {
        "feature_type": "station",
        "ref": "TAO9542",
        "name": "大溪高中",
        "name_en": "Daxi Senior High School",
        "line": "511（經大溪）",
        "color": "#65a30d",
        "direction": 1
      },
      "geometry": {
        "type": "Point",
        "coordinates": [
          121.284885,
          24.86905
        ]
      }
    },
    {
      "type": "Feature",
      "properties": {
        "feature_type": "station",
        "ref": "TAO65083",
        "name": "工作站",
        "name_en": "Works Station",
        "line": "511（經大溪）",
        "color": "#65a30d",
        "direction": 1
      },
      "geometry": {
        "type": "Point",
        "coordinates": [
          121.286184,
          24.872847
        ]
      }
    },
    {
      "type": "Feature",
      "properties": {
        "feature_type": "station",
        "ref": "TAO65082",
        "name": "三板橋",
        "name_en": "Sanban Bridge",
        "line": "511（經大溪）",
        "color": "#65a30d",
        "direction": 1
      },
      "geometry": {
        "type": "Point",
        "coordinates": [
          121.286644,
          24.875276
        ]
      }
    },
    {
      "type": "Feature",
      "properties": {
        "feature_type": "station",
        "ref": "TAO65081",
        "name": "天主堂",
        "name_en": "tianzhutang",
        "line": "511（經大溪）",
        "color": "#65a30d",
        "direction": 1
      },
      "geometry": {
        "type": "Point",
        "coordinates": [
          121.287593,
          24.877054
        ]
      }
    },
    {
      "type": "Feature",
      "properties": {
        "feature_type": "station",
        "ref": "TAO35410",
        "name": "大溪總站",
        "name_en": "Daxi Bus Terminal",
        "line": "511（經大溪）",
        "color": "#65a30d",
        "direction": 1
      },
      "geometry": {
        "type": "Point",
        "coordinates": [
          121.287885,
          24.881172
        ]
      }
    }
  ]
}
