{
  "type": "FeatureCollection",
  "name": "238",
  "properties": {
    "id": "taichung_238",
    "name": "238",
    "name_en": "238",
    "ref": "238",
    "color": "#65a30d",
    "city_id": "Taichung",
    "source": "TDX Bus Shape / StopOfRoute",
    "official_map_url": "https://citybus.taichung.gov.tw/ebus/strapi/uploads/238_0bbb57b570.jpeg",
    "operator_id": "6",
    "operator": "豐原客運",
    "operator_en": "Fengyuan Bus Co., Ltd."
  },
  "features": [
    {
      "type": "Feature",
      "properties": {
        "feature_type": "route",
        "ref": "238",
        "name": "238",
        "name_en": "238",
        "color": "#65a30d",
        "direction": 0
      },
      "geometry": {
        "type": "LineString",
        "coordinates": [
          [
            120.72453,
            24.25425
          ],
          [
            120.7244,
            24.25374
          ],
          [
            120.72358,
            24.25219
          ],
          [
            120.72243,
            24.25214
          ],
          [
            120.72109,
            24.25181
          ],
          [
            120.7192,
            24.25169
          ],
          [
            120.71876,
            24.25172
          ],
          [
            120.71851,
            24.25175
          ],
          [
            120.71813,
            24.25181
          ],
          [
            120.71755,
            24.2519
          ],
          [
            120.71654,
            24.25181
          ],
          [
            120.71599,
            24.25156
          ],
          [
            120.71553,
            24.25139
          ],
          [
            120.71441,
            24.25105
          ],
          [
            120.71358,
            24.25093
          ],
          [
            120.71305,
            24.25086
          ],
          [
            120.71223,
            24.25075
          ],
          [
            120.71155,
            24.25065
          ],
          [
            120.71066,
            24.25056
          ],
          [
            120.70906,
            24.25034
          ],
          [
            120.70871,
            24.25032
          ],
          [
            120.70611,
            24.25
          ],
          [
            120.70406,
            24.24971
          ],
          [
            120.7031,
            24.24962
          ],
          [
            120.70177,
            24.24938
          ],
          [
            120.70023,
            24.24915
          ],
          [
            120.69808,
            24.24884
          ],
          [
            120.69621,
            24.24852
          ],
          [
            120.695,
            24.2485
          ],
          [
            120.69383,
            24.24864
          ],
          [
            120.69296,
            24.24854
          ],
          [
            120.69198,
            24.24833
          ],
          [
            120.68966,
            24.24779
          ],
          [
            120.68731,
            24.2472
          ],
          [
            120.68637,
            24.24698
          ],
          [
            120.685,
            24.24659
          ],
          [
            120.68474,
            24.24656
          ],
          [
            120.68348,
            24.24672
          ],
          [
            120.68305,
            24.24666
          ],
          [
            120.68231,
            24.24698
          ],
          [
            120.68059,
            24.24787
          ],
          [
            120.67996,
            24.24869
          ],
          [
            120.67721,
            24.25048
          ],
          [
            120.67488,
            24.2519
          ],
          [
            120.67365,
            24.25325
          ],
          [
            120.67226,
            24.25521
          ],
          [
            120.67174,
            24.25598
          ],
          [
            120.67116,
            24.2563
          ],
          [
            120.66995,
            24.25688
          ],
          [
            120.66928,
            24.25711
          ],
          [
            120.66835,
            24.25734
          ],
          [
            120.66645,
            24.25773
          ],
          [
            120.66501,
            24.25807
          ],
          [
            120.66379,
            24.25832
          ],
          [
            120.66309,
            24.25815
          ],
          [
            120.65976,
            24.25733
          ],
          [
            120.65910811541227,
            24.256939271443695
          ],
          [
            120.65908839314254,
            24.25692967431595
          ],
          [
            120.65906743099823,
            24.256923722805123
          ],
          [
            120.65904563207904,
            24.25692142996217
          ],
          [
            120.6590237470847,
            24.25692287474681
          ],
          [
            120.6590025296792,
            24.256928007404305
          ],
          [
            120.65898239641572,
            24.256936823292136
          ],
          [
            120.65599,
            24.25857
          ],
          [
            120.65572,
            24.25872
          ],
          [
            120.65291,
            24.25857
          ],
          [
            120.65192,
            24.2585
          ],
          [
            120.64923,
            24.25825
          ],
          [
            120.64844,
            24.25822
          ],
          [
            120.64827195856692,
            24.258263722852057
          ],
          [
            120.64825386455266,
            24.258266554064125
          ],
          [
            120.6482356866797,
            24.25826571816764
          ],
          [
            120.6482181355495,
            24.2582612937619
          ],
          [
            120.64820204133899,
            24.25825349012344
          ],
          [
            120.64818816531215,
            24.25824267636814
          ],
          [
            120.64817703087962,
            24.258229159805897
          ],
          [
            120.64789,
            24.25779
          ],
          [
            120.64743,
            24.25737
          ],
          [
            120.64634,
            24.25628
          ],
          [
            120.6448,
            24.25438
          ],
          [
            120.6435,
            24.25291
          ],
          [
            120.64271,
            24.25204
          ],
          [
            120.64184,
            24.2509
          ],
          [
            120.64079,
            24.24966
          ],
          [
            120.63925,
            24.24779
          ],
          [
            120.63879,
            24.24721
          ],
          [
            120.63815,
            24.24667
          ],
          [
            120.63813,
            24.24645
          ],
          [
            120.63789,
            24.24615
          ],
          [
            120.63693,
            24.24502
          ],
          [
            120.63519,
            24.24379
          ],
          [
            120.63368,
            24.24235
          ],
          [
            120.63269,
            24.24206
          ],
          [
            120.63149,
            24.2413
          ],
          [
            120.63061,
            24.24076
          ],
          [
            120.62965,
            24.24167
          ],
          [
            120.62922,
            24.242
          ],
          [
            120.62869,
            24.24225
          ],
          [
            120.62809,
            24.24243
          ],
          [
            120.62605,
            24.24245
          ],
          [
            120.62117,
            24.2424
          ],
          [
            120.62046,
            24.24248
          ],
          [
            120.61015,
            24.24571
          ],
          [
            120.60478,
            24.24806
          ],
          [
            120.60348,
            24.2486
          ],
          [
            120.60122,
            24.24965
          ],
          [
            120.60083,
            24.24983
          ],
          [
            120.60039,
            24.24999
          ],
          [
            120.60007,
            24.25006
          ],
          [
            120.59967,
            24.2501
          ],
          [
            120.59926,
            24.25013
          ],
          [
            120.59804647009429,
            24.250102051685314
          ],
          [
            120.59802185327335,
            24.25010384920261
          ],
          [
            120.59799819940739,
            24.25011029540227
          ],
          [
            120.59797651777045,
            24.250121109051122
          ],
          [
            120.59795775265661,
            24.250135819185463
          ],
          [
            120.59794272133738,
            24.250153785139084
          ],
          [
            120.59793199123439,
            24.250174450884128
          ],
          [
            120.59774,
            24.25067
          ],
          [
            120.59773,
            24.25083
          ],
          [
            120.59775,
            24.25094
          ],
          [
            120.5978,
            24.25106
          ],
          [
            120.59826,
            24.25208
          ],
          [
            120.59894,
            24.25346
          ],
          [
            120.59883,
            24.25349
          ],
          [
            120.59792,
            24.25169
          ],
          [
            120.5975,
            24.25077
          ],
          [
            120.59732826965,
            24.25022837357173
          ],
          [
            120.59731857661909,
            24.250206681430907
          ],
          [
            120.59730418226361,
            24.250187560679688
          ],
          [
            120.59728568466362,
            24.250171691907948
          ],
          [
            120.59726393185932,
            24.25015980263475
          ],
          [
            120.59723992112892,
            24.250152437935235
          ],
          [
            120.59721475377316,
            24.250149935451358
          ],
          [
            120.57935,
            24.25014
          ],
          [
            120.57834,
            24.24998
          ],
          [
            120.57775,
            24.24978
          ],
          [
            120.57693,
            24.24945
          ],
          [
            120.57586,
            24.24869
          ],
          [
            120.57535,
            24.24816
          ],
          [
            120.57457,
            24.24708
          ],
          [
            120.57283,
            24.2445
          ],
          [
            120.57136,
            24.24235
          ],
          [
            120.56981,
            24.24
          ],
          [
            120.56949,
            24.23936
          ],
          [
            120.56937,
            24.23869
          ],
          [
            120.56938838154848,
            24.237238744963566
          ],
          [
            120.56938567859548,
            24.237214377418145
          ],
          [
            120.56937709134935,
            24.23719117857378
          ],
          [
            120.56936305716732,
            24.237170339117338
          ],
          [
            120.56934429100887,
            24.237152920697202
          ],
          [
            120.56932174889998,
            24.237139810679974
          ],
          [
            120.56929675617992,
            24.23713171430085
          ],
          [
            120.5681,
            24.23688
          ],
          [
            120.56743,
            24.23688
          ],
          [
            120.56517,
            24.23727
          ],
          [
            120.56002665411502,
            24.23806423189175
          ],
          [
            120.5599979942035,
            24.23806544689956
          ],
          [
            120.55996998912717,
            24.238060325430766
          ],
          [
            120.55994413829887,
            24.238049187135356
          ],
          [
            120.55992194995302,
            24.238032681863316
          ],
          [
            120.55990471864104,
            24.23801177259421
          ],
          [
            120.55989338708947,
            24.237987482380895
          ],
          [
            120.5589,
            24.23487
          ],
          [
            120.5623981885493,
            24.233583996528616
          ],
          [
            120.56242480085281,
            24.2335773291092
          ],
          [
            120.56245208470384,
            24.233576484940905
          ],
          [
            120.56247885191152,
            24.233581410573777
          ],
          [
            120.56250367501107,
            24.233591843329393
          ],
          [
            120.56252523021467,
            24.23360722684072
          ],
          [
            120.5625425673388,
            24.23362703196704
          ],
          [
            120.56405,
            24.23582
          ],
          [
            120.56468590178937,
            24.239644598049374
          ],
          [
            120.5646869212382,
            24.239668798997656
          ],
          [
            120.5646820360766,
            24.239692713734513
          ],
          [
            120.56467147314864,
            24.239715028645215
          ],
          [
            120.5646557631069,
            24.23973462268975
          ],
          [
            120.56463569518087,
            24.23975051151698
          ],
          [
            120.56461254152748,
            24.239761801238156
          ],
          [
            120.55196,
            24.24433
          ],
          [
            120.54225,
            24.24788
          ],
          [
            120.53052,
            24.25218
          ],
          [
            120.52828,
            24.25299
          ],
          [
            120.53006,
            24.25825
          ],
          [
            120.53021,
            24.25984
          ],
          [
            120.53030645172726,
            24.260873639811972
          ],
          [
            120.53031519212084,
            24.260906353217802
          ],
          [
            120.53033438770703,
            24.260934983047132
          ],
          [
            120.53036220345766,
            24.260956847855045
          ],
          [
            120.53039597160726,
            24.26096985062176
          ],
          [
            120.53043245350506,
            24.260972744272095
          ],
          [
            120.53046841686596,
            24.260965153160768
          ],
          [
            120.53599933367276,
            24.258936116934716
          ],
          [
            120.53602969696604,
            24.25892900521726
          ],
          [
            120.53606074454122,
            24.258929427444883
          ],
          [
            120.53609060177624,
            24.258937256300047
          ],
          [
            120.53611720953319,
            24.25895195185693
          ],
          [
            120.53613873277814,
            24.258972500619876
          ],
          [
            120.53615378819059,
            24.25899772523003
          ],
          [
            120.5374,
            24.26194
          ]
        ]
      }
    },
    {
      "type": "Feature",
      "properties": {
        "feature_type": "route",
        "ref": "238",
        "name": "238",
        "name_en": "238",
        "color": "#65a30d",
        "direction": 1
      },
      "geometry": {
        "type": "LineString",
        "coordinates": [
          [
            120.53715,
            24.2617
          ],
          [
            120.53605,
            24.25906
          ],
          [
            120.53049653779406,
            24.261095891227995
          ],
          [
            120.53046081593126,
            24.261103457430185
          ],
          [
            120.53042456574906,
            24.26110067669234
          ],
          [
            120.53039095178022,
            24.26108791025011
          ],
          [
            120.53036315553395,
            24.26106636642714
          ],
          [
            120.53034380788115,
            24.261038084312318
          ],
          [
            120.53033473209973,
            24.26100566742935
          ],
          [
            120.53004,
            24.25824
          ],
          [
            120.52979,
            24.25739
          ],
          [
            120.52826,
            24.25282
          ],
          [
            120.53051,
            24.25203
          ],
          [
            120.53642,
            24.24986
          ],
          [
            120.53955,
            24.24871
          ],
          [
            120.54326,
            24.24736
          ],
          [
            120.55116,
            24.24446
          ],
          [
            120.55356,
            24.24358
          ],
          [
            120.56064,
            24.241
          ],
          [
            120.56461392944784,
            24.23950266472044
          ],
          [
            120.5646367356399,
            24.239491164649905
          ],
          [
            120.5646564465973,
            24.239475162896806
          ],
          [
            120.5646718154451,
            24.239455554320855
          ],
          [
            120.56468208101124,
            24.23943331007492
          ],
          [
            120.56468673487359,
            24.239409531848526
          ],
          [
            120.5646855664714,
            24.239385513129992
          ],
          [
            120.56406,
            24.23575
          ],
          [
            120.56249,
            24.2335
          ],
          [
            120.56125,
            24.23397
          ],
          [
            120.56028,
            24.23435
          ],
          [
            120.55917,
            24.2347
          ],
          [
            120.55889,
            24.23473
          ],
          [
            120.55994,
            24.23796
          ],
          [
            120.56587,
            24.2371
          ],
          [
            120.56762,
            24.23679
          ],
          [
            120.56814,
            24.23682
          ],
          [
            120.56947904189532,
            24.2370766410722
          ],
          [
            120.56950507596042,
            24.237084661253462
          ],
          [
            120.56952852310634,
            24.237098076222207
          ],
          [
            120.56954793959537,
            24.237116121971425
          ],
          [
            120.56956226511669,
            24.237137813044782
          ],
          [
            120.5695707173711,
            24.237161964919217
          ],
          [
            120.56957283605139,
            24.237187228023927
          ],
          [
            120.56953,
            24.23816
          ],
          [
            120.56958,
            24.23881
          ],
          [
            120.56969,
            24.23926
          ],
          [
            120.57004,
            24.23997
          ],
          [
            120.5719,
            24.24283
          ],
          [
            120.57532,
            24.24781
          ],
          [
            120.57588,
            24.24839
          ],
          [
            120.57651,
            24.24894
          ],
          [
            120.57703,
            24.24925
          ],
          [
            120.57753,
            24.24947
          ],
          [
            120.57829,
            24.24975
          ],
          [
            120.57928,
            24.24993
          ],
          [
            120.59057,
            24.24999
          ],
          [
            120.5974728954409,
            24.24999
          ],
          [
            120.59750260168146,
            24.24999348253892
          ],
          [
            120.59753040197036,
            24.25000370671606
          ],
          [
            120.59755451264175,
            24.25002001654848
          ],
          [
            120.59757338675554,
            24.250041365597717
          ],
          [
            120.59758581334908,
            24.250066384109314
          ],
          [
            120.59759099684547,
            24.250093502495243
          ],
          [
            120.59762,
            24.25066
          ],
          [
            120.59768,
            24.25086
          ],
          [
            120.59776,
            24.25103
          ],
          [
            120.59784,
            24.25117
          ],
          [
            120.59817,
            24.25186
          ],
          [
            120.59821,
            24.25198
          ],
          [
            120.59894,
            24.25347
          ],
          [
            120.5988866915801,
            24.253487692378858
          ],
          [
            120.59887982668666,
            24.253489153766864
          ],
          [
            120.59887284532617,
            24.25348905326776
          ],
          [
            120.5988660942922,
            24.253487417244454
          ],
          [
            120.59885996823327,
            24.253484341334755
          ],
          [
            120.59885482526337,
            24.253480005348635
          ],
          [
            120.59885092977528,
            24.253474596097057
          ],
          [
            120.59839,
            24.25263
          ],
          [
            120.59829,
            24.25239
          ],
          [
            120.59791,
            24.25166
          ],
          [
            120.59767,
            24.25117
          ],
          [
            120.59757,
            24.25094
          ],
          [
            120.59754,
            24.25081
          ],
          [
            120.59742550565154,
            24.2501197465903
          ],
          [
            120.5974252806414,
            24.250090060174795
          ],
          [
            120.59743423186244,
            24.25006142164703
          ],
          [
            120.59745164499681,
            24.250036280452
          ],
          [
            120.59747609596141,
            24.250016692690075
          ],
          [
            120.5975055851044,
            24.250004260290044
          ],
          [
            120.59753770074023,
            24.25
          ],
          [
            120.59773,
            24.25
          ],
          [
            120.59797,
            24.25001
          ],
          [
            120.59831,
            24.25001
          ],
          [
            120.59877,
            24.25003
          ],
          [
            120.59913,
            24.25003
          ],
          [
            120.59942,
            24.25003
          ],
          [
            120.59965,
            24.25002
          ],
          [
            120.59986,
            24.25
          ],
          [
            120.60015,
            24.24995
          ],
          [
            120.60041,
            24.24987
          ],
          [
            120.60077,
            24.24975
          ],
          [
            120.60156,
            24.249389999999998
          ],
          [
            120.60509,
            24.24778
          ],
          [
            120.60805,
            24.2465
          ],
          [
            120.61016,
            24.24553
          ],
          [
            120.6154,
            24.24383
          ],
          [
            120.61688,
            24.24337
          ],
          [
            120.61806,
            24.24302
          ],
          [
            120.61909,
            24.24273
          ],
          [
            120.62025,
            24.24239
          ],
          [
            120.62099,
            24.24222
          ],
          [
            120.62439,
            24.24226
          ],
          [
            120.62691,
            24.24226
          ],
          [
            120.62793,
            24.24225
          ],
          [
            120.6286,
            24.2421
          ],
          [
            120.62919,
            24.24179
          ],
          [
            120.62958,
            24.2415
          ],
          [
            120.63047,
            24.24062
          ],
          [
            120.63132,
            24.24115
          ],
          [
            120.63253,
            24.24189
          ],
          [
            120.63363,
            24.24227
          ],
          [
            120.63522,
            24.24374
          ],
          [
            120.63572,
            24.24407
          ],
          [
            120.63694,
            24.24499
          ],
          [
            120.63763,
            24.2458
          ],
          [
            120.63812,
            24.2464
          ],
          [
            120.63816,
            24.24661
          ],
          [
            120.63881,
            24.24725
          ],
          [
            120.63956,
            24.24814
          ],
          [
            120.64074,
            24.24954
          ],
          [
            120.64235,
            24.2515
          ],
          [
            120.64282,
            24.25214
          ],
          [
            120.64489,
            24.25439
          ],
          [
            120.64636,
            24.25621
          ],
          [
            120.64697,
            24.25691
          ],
          [
            120.64752,
            24.25742
          ],
          [
            120.6478,
            24.25762
          ],
          [
            120.64821,
            24.2582
          ],
          [
            120.64855,
            24.25817
          ],
          [
            120.6496,
            24.25823
          ],
          [
            120.65167,
            24.2584
          ],
          [
            120.65289,
            24.25852
          ],
          [
            120.65575,
            24.25866
          ],
          [
            120.65898740482587,
            24.256895387724533
          ],
          [
            120.65900691233134,
            24.25688679581186
          ],
          [
            120.6590274383908,
            24.25688166958349
          ],
          [
            120.65904863266921,
            24.256880003134416
          ],
          [
            120.65906980915976,
            24.256881850403506
          ],
          [
            120.6590902824313,
            24.25688715159918
          ],
          [
            120.65910970518549,
            24.256895911382593
          ],
          [
            120.6598,
            24.25728
          ],
          [
            120.66336,
            24.25818
          ],
          [
            120.66375,
            24.2583
          ],
          [
            120.66622,
            24.25776
          ],
          [
            120.66794,
            24.25739
          ],
          [
            120.66906,
            24.25712
          ],
          [
            120.66947,
            24.25701
          ],
          [
            120.67105,
            24.25633
          ],
          [
            120.67164,
            24.256
          ],
          [
            120.67183,
            24.25582
          ],
          [
            120.67355,
            24.25329
          ],
          [
            120.67396,
            24.25281
          ],
          [
            120.67459,
            24.2521
          ],
          [
            120.67494,
            24.25179
          ],
          [
            120.67504,
            24.25167
          ],
          [
            120.67583,
            24.25119
          ],
          [
            120.67663,
            24.25071
          ],
          [
            120.67846,
            24.24953
          ],
          [
            120.67951,
            24.24886
          ],
          [
            120.6799,
            24.24857
          ],
          [
            120.68044,
            24.24785
          ],
          [
            120.68099,
            24.24753
          ],
          [
            120.68147,
            24.24726
          ],
          [
            120.68232,
            24.24683
          ],
          [
            120.68272,
            24.24666
          ],
          [
            120.68312,
            24.24653
          ],
          [
            120.68352,
            24.24656
          ],
          [
            120.68424,
            24.24646
          ],
          [
            120.68496,
            24.24642
          ],
          [
            120.68529,
            24.24651
          ],
          [
            120.68671,
            24.2469
          ],
          [
            120.68796,
            24.24718
          ],
          [
            120.68993,
            24.24767
          ],
          [
            120.69163,
            24.24807
          ],
          [
            120.69272,
            24.24833
          ],
          [
            120.69354,
            24.24846
          ],
          [
            120.694,
            24.24847
          ],
          [
            120.69528,
            24.24828
          ],
          [
            120.6961,
            24.24832
          ],
          [
            120.69649,
            24.2484
          ],
          [
            120.69772,
            24.24861
          ],
          [
            120.70018,
            24.24896
          ],
          [
            120.70322,
            24.24946
          ],
          [
            120.70488,
            24.24975
          ],
          [
            120.70728,
            24.25006
          ],
          [
            120.70878,
            24.25025
          ],
          [
            120.70905,
            24.25029
          ],
          [
            120.71139,
            24.25062
          ],
          [
            120.71218,
            24.25073
          ],
          [
            120.7128,
            24.2508
          ],
          [
            120.7139,
            24.25095
          ],
          [
            120.71441,
            24.25101
          ],
          [
            120.71572,
            24.25142
          ],
          [
            120.71621,
            24.25161
          ],
          [
            120.71656,
            24.25181
          ],
          [
            120.71754,
            24.25188
          ],
          [
            120.71829,
            24.25176
          ],
          [
            120.71879,
            24.2517
          ],
          [
            120.72065,
            24.25176
          ],
          [
            120.72108,
            24.2518
          ],
          [
            120.72214,
            24.25206
          ],
          [
            120.72247,
            24.25214
          ],
          [
            120.7236,
            24.25219
          ],
          [
            120.72483062090781,
            24.254422789755598
          ],
          [
            120.72484094470227,
            24.254450405289802
          ],
          [
            120.72484285406915,
            24.254479854225927
          ],
          [
            120.72483605759967,
            24.254508687752814
          ],
          [
            120.7248210572149,
            24.254534776507064
          ],
          [
            120.72479896069706,
            24.254556193827447
          ],
          [
            120.72477167651974,
            24.25457124917103
          ],
          [
            120.72462647505323,
            24.254627712918147
          ],
          [
            120.72460142829864,
            24.25463422008283
          ],
          [
            120.72457565518599,
            24.254634623245195
          ],
          [
            120.72455061964256,
            24.254628988110085
          ],
          [
            120.72452797178764,
            24.254617686095237
          ],
          [
            120.72450920436533,
            24.254601462128438
          ],
          [
            120.72449544361986,
            24.254581162883742
          ],
          [
            120.72434,
            24.25427
          ]
        ]
      }
    },
    {
      "type": "Feature",
      "properties": {
        "feature_type": "station",
        "ref": "TXG20103",
        "name": "豐原轉運中心(第3月台)",
        "name_en": "Fengyuan Transfer Center(Platform 3)",
        "line": "238",
        "color": "#65a30d",
        "direction": 0,
        "station_id": "10843"
      },
      "geometry": {
        "type": "Point",
        "coordinates": [
          120.724289,
          24.254261
        ]
      }
    },
    {
      "type": "Feature",
      "properties": {
        "feature_type": "station",
        "ref": "TXG6397",
        "name": "媽祖廟",
        "name_en": "Mazu Temple",
        "line": "238",
        "color": "#65a30d",
        "direction": 0,
        "station_id": "1288"
      },
      "geometry": {
        "type": "Point",
        "coordinates": [
          120.71840561888,
          24.25174170853
        ]
      }
    },
    {
      "type": "Feature",
      "properties": {
        "feature_type": "station",
        "ref": "TXG6698",
        "name": "臺灣企銀(豐原郵局)",
        "name_en": "Taiwan Business Bank(Fengyuan Post Office)",
        "line": "238",
        "color": "#65a30d",
        "direction": 0,
        "station_id": "840"
      },
      "geometry": {
        "type": "Point",
        "coordinates": [
          120.716088,
          24.251568
        ]
      }
    },
    {
      "type": "Feature",
      "properties": {
        "feature_type": "station",
        "ref": "TXG6406",
        "name": "慈龍寺",
        "name_en": "Cilong Temple",
        "line": "238",
        "color": "#65a30d",
        "direction": 0,
        "station_id": "1503"
      },
      "geometry": {
        "type": "Point",
        "coordinates": [
          120.712189,
          24.250819
        ]
      }
    },
    {
      "type": "Feature",
      "properties": {
        "feature_type": "station",
        "ref": "TXG11057",
        "name": "中正圓環西路口",
        "name_en": "Zhongzheng-Yuanhuan W. Intersection",
        "line": "238",
        "color": "#65a30d",
        "direction": 0,
        "station_id": "1652"
      },
      "geometry": {
        "type": "Point",
        "coordinates": [
          120.710851,
          24.250609
        ]
      }
    },
    {
      "type": "Feature",
      "properties": {
        "feature_type": "station",
        "ref": "TXG5072",
        "name": "三光新村",
        "name_en": "Sanguang Community",
        "line": "238",
        "color": "#65a30d",
        "direction": 0,
        "station_id": "1646"
      },
      "geometry": {
        "type": "Point",
        "coordinates": [
          120.706987,
          24.250194
        ]
      }
    },
    {
      "type": "Feature",
      "properties": {
        "feature_type": "station",
        "ref": "TXG5856",
        "name": "忠勤新村(豐原運動中心)",
        "name_en": "Zhongqin Community(Fengyuan Sport Center)",
        "line": "238",
        "color": "#65a30d",
        "direction": 0,
        "station_id": "1500"
      },
      "geometry": {
        "type": "Point",
        "coordinates": [
          120.703987,
          24.249552
        ]
      }
    },
    {
      "type": "Feature",
      "properties": {
        "feature_type": "station",
        "ref": "TXG5943",
        "name": "社皮鐵路巷",
        "name_en": "Shepi Railway Lane",
        "line": "238",
        "color": "#65a30d",
        "direction": 0,
        "station_id": "1498"
      },
      "geometry": {
        "type": "Point",
        "coordinates": [
          120.702115,
          24.249298
        ]
      }
    },
    {
      "type": "Feature",
      "properties": {
        "feature_type": "station",
        "ref": "TXG13892",
        "name": "臺豐社區",
        "name_en": "Taifeng Community",
        "line": "238",
        "color": "#65a30d",
        "direction": 0,
        "station_id": "1497"
      },
      "geometry": {
        "type": "Point",
        "coordinates": [
          120.700264,
          24.248994
        ]
      }
    },
    {
      "type": "Feature",
      "properties": {
        "feature_type": "station",
        "ref": "TXG5237",
        "name": "岸裡國小",
        "name_en": "Anli Elementary School",
        "line": "238",
        "color": "#65a30d",
        "direction": 0,
        "station_id": "837"
      },
      "geometry": {
        "type": "Point",
        "coordinates": [
          120.697252,
          24.248723
        ]
      }
    },
    {
      "type": "Feature",
      "properties": {
        "feature_type": "station",
        "ref": "TXG6203",
        "name": "望寮",
        "name_en": "Wangliao",
        "line": "238",
        "color": "#65a30d",
        "direction": 0,
        "station_id": "1493"
      },
      "geometry": {
        "type": "Point",
        "coordinates": [
          120.693494,
          24.248422
        ]
      }
    },
    {
      "type": "Feature",
      "properties": {
        "feature_type": "station",
        "ref": "TXG17411",
        "name": "紅瓦厝口",
        "name_en": "Hongwacuokuo",
        "line": "238",
        "color": "#65a30d",
        "direction": 0,
        "station_id": "1660"
      },
      "geometry": {
        "type": "Point",
        "coordinates": [
          120.690811,
          24.248067
        ]
      }
    },
    {
      "type": "Feature",
      "properties": {
        "feature_type": "station",
        "ref": "TXG5941",
        "name": "社口",
        "name_en": "Shekou",
        "line": "238",
        "color": "#65a30d",
        "direction": 0,
        "station_id": "1656"
      },
      "geometry": {
        "type": "Point",
        "coordinates": [
          120.685269,
          24.24669
        ]
      }
    },
    {
      "type": "Feature",
      "properties": {
        "feature_type": "station",
        "ref": "TXG6140",
        "name": "神岡高工",
        "name_en": "Taichung Municipal Shengang Industrial High School",
        "line": "238",
        "color": "#65a30d",
        "direction": 0,
        "station_id": "1668"
      },
      "geometry": {
        "type": "Point",
        "coordinates": [
          120.681602,
          24.247363
        ]
      }
    },
    {
      "type": "Feature",
      "properties": {
        "feature_type": "station",
        "ref": "TXG6553",
        "name": "福隆新村",
        "name_en": "Fulong Community",
        "line": "238",
        "color": "#65a30d",
        "direction": 0,
        "station_id": "1675"
      },
      "geometry": {
        "type": "Point",
        "coordinates": [
          120.679418,
          24.249112
        ]
      }
    },
    {
      "type": "Feature",
      "properties": {
        "feature_type": "station",
        "ref": "TXG6552",
        "name": "福華公司",
        "name_en": "Fuhua Company",
        "line": "238",
        "color": "#65a30d",
        "direction": 0,
        "station_id": "1673"
      },
      "geometry": {
        "type": "Point",
        "coordinates": [
          120.676081,
          24.25123
        ]
      }
    },
    {
      "type": "Feature",
      "properties": {
        "feature_type": "station",
        "ref": "TXG13889",
        "name": "電信局",
        "name_en": "Telecom Company",
        "line": "238",
        "color": "#65a30d",
        "direction": 0,
        "station_id": "1294"
      },
      "geometry": {
        "type": "Point",
        "coordinates": [
          120.673941,
          24.252929
        ]
      }
    },
    {
      "type": "Feature",
      "properties": {
        "feature_type": "station",
        "ref": "TXG6474",
        "name": "中山溝心路口",
        "name_en": "Zhongshan-Guoxin Intersection",
        "line": "238",
        "color": "#65a30d",
        "direction": 0,
        "station_id": "1648"
      },
      "geometry": {
        "type": "Point",
        "coordinates": [
          120.672218,
          24.255354
        ]
      }
    },
    {
      "type": "Feature",
      "properties": {
        "feature_type": "station",
        "ref": "TXG5526",
        "name": "北庄",
        "name_en": "Beizhuang",
        "line": "238",
        "color": "#65a30d",
        "direction": 0,
        "station_id": "833"
      },
      "geometry": {
        "type": "Point",
        "coordinates": [
          120.668331,
          24.257336
        ]
      }
    },
    {
      "type": "Feature",
      "properties": {
        "feature_type": "station",
        "ref": "TXG6265",
        "name": "庄頭",
        "name_en": "Zhuangtou",
        "line": "238",
        "color": "#65a30d",
        "direction": 0,
        "station_id": "831"
      },
      "geometry": {
        "type": "Point",
        "coordinates": [
          120.663024,
          24.258155
        ]
      }
    },
    {
      "type": "Feature",
      "properties": {
        "feature_type": "station",
        "ref": "TXG6141",
        "name": "神岡區公所",
        "name_en": "Shengang District Office",
        "line": "238",
        "color": "#65a30d",
        "direction": 0,
        "station_id": "1665"
      },
      "geometry": {
        "type": "Point",
        "coordinates": [
          120.6612,
          24.257686
        ]
      }
    },
    {
      "type": "Feature",
      "properties": {
        "feature_type": "station",
        "ref": "TXG6139",
        "name": "神岡",
        "name_en": "Shengang",
        "line": "238",
        "color": "#65a30d",
        "direction": 0,
        "station_id": "1662"
      },
      "geometry": {
        "type": "Point",
        "coordinates": [
          120.659246,
          24.257039
        ]
      }
    },
    {
      "type": "Feature",
      "properties": {
        "feature_type": "station",
        "ref": "TXG13874",
        "name": "中正中山路口",
        "name_en": "Zhongzheng-Zhongshan Intersection",
        "line": "238",
        "color": "#65a30d",
        "direction": 0,
        "station_id": "1649"
      },
      "geometry": {
        "type": "Point",
        "coordinates": [
          120.656148,
          24.258493
        ]
      }
    },
    {
      "type": "Feature",
      "properties": {
        "feature_type": "station",
        "ref": "TXG6551",
        "name": "福連公司",
        "name_en": "Fulian Company",
        "line": "238",
        "color": "#65a30d",
        "direction": 0,
        "station_id": "6046"
      },
      "geometry": {
        "type": "Point",
        "coordinates": [
          120.653194,
          24.258588
        ]
      }
    },
    {
      "type": "Feature",
      "properties": {
        "feature_type": "station",
        "ref": "TXG5286",
        "name": "山皮",
        "name_en": "Shanpi",
        "line": "238",
        "color": "#65a30d",
        "direction": 0,
        "station_id": "5375"
      },
      "geometry": {
        "type": "Point",
        "coordinates": [
          120.648978,
          24.258197
        ]
      }
    },
    {
      "type": "Feature",
      "properties": {
        "feature_type": "station",
        "ref": "TXG5810",
        "name": "車站前(和平路)",
        "name_en": "Front Station(Heping Road)",
        "line": "238",
        "color": "#65a30d",
        "direction": 0,
        "station_id": "5642"
      },
      "geometry": {
        "type": "Point",
        "coordinates": [
          120.644058,
          24.253519
        ]
      }
    },
    {
      "type": "Feature",
      "properties": {
        "feature_type": "station",
        "ref": "TXG5104",
        "name": "下山皮",
        "name_en": "Xiashanpi",
        "line": "238",
        "color": "#65a30d",
        "direction": 0,
        "station_id": "5231"
      },
      "geometry": {
        "type": "Point",
        "coordinates": [
          120.637964,
          24.246241
        ]
      }
    },
    {
      "type": "Feature",
      "properties": {
        "feature_type": "station",
        "ref": "TXG18180",
        "name": "和平清陽一路口",
        "name_en": "Heping-Qingyang 1Intersection",
        "line": "238",
        "color": "#65a30d",
        "direction": 0,
        "station_id": "3202"
      },
      "geometry": {
        "type": "Point",
        "coordinates": [
          120.634561,
          24.243186
        ]
      }
    },
    {
      "type": "Feature",
      "properties": {
        "feature_type": "station",
        "ref": "TXG12263",
        "name": "埔仔墘",
        "name_en": "PuZiQian",
        "line": "238",
        "color": "#65a30d",
        "direction": 0,
        "station_id": "819"
      },
      "geometry": {
        "type": "Point",
        "coordinates": [
          120.630897,
          24.240929
        ]
      }
    },
    {
      "type": "Feature",
      "properties": {
        "feature_type": "station",
        "ref": "TXG3203",
        "name": "福樂新城",
        "name_en": "Fule Community",
        "line": "238",
        "color": "#65a30d",
        "direction": 0,
        "station_id": "31"
      },
      "geometry": {
        "type": "Point",
        "coordinates": [
          120.626592,
          24.242428
        ]
      }
    },
    {
      "type": "Feature",
      "properties": {
        "feature_type": "station",
        "ref": "TXG21220",
        "name": "中清文化路口",
        "name_en": "Zhongqing-Wenhua Intersection",
        "line": "238",
        "color": "#65a30d",
        "direction": 0,
        "station_id": "4758"
      },
      "geometry": {
        "type": "Point",
        "coordinates": [
          120.623891,
          24.24245
        ]
      }
    },
    {
      "type": "Feature",
      "properties": {
        "feature_type": "station",
        "ref": "TXG7425",
        "name": "中清信義路口",
        "name_en": "Zhongqing-Xinyi Intersection",
        "line": "238",
        "color": "#65a30d",
        "direction": 0,
        "station_id": "2748"
      },
      "geometry": {
        "type": "Point",
        "coordinates": [
          120.62029336348,
          24.242529526248
        ]
      }
    },
    {
      "type": "Feature",
      "properties": {
        "feature_type": "station",
        "ref": "TXG17848",
        "name": "中清清泉路口",
        "name_en": "Zhongqing-Qingquan Intersection",
        "line": "238",
        "color": "#65a30d",
        "direction": 0,
        "station_id": "2813"
      },
      "geometry": {
        "type": "Point",
        "coordinates": [
          120.6167,
          24.24363
        ]
      }
    },
    {
      "type": "Feature",
      "properties": {
        "feature_type": "station",
        "ref": "TXG6230",
        "name": "清泉里",
        "name_en": "Qingquan Village",
        "line": "238",
        "color": "#65a30d",
        "direction": 0,
        "station_id": "4279"
      },
      "geometry": {
        "type": "Point",
        "coordinates": [
          120.6147438384,
          24.244218185159
        ]
      }
    },
    {
      "type": "Feature",
      "properties": {
        "feature_type": "station",
        "ref": "TXG19045",
        "name": "清泉派出所",
        "name_en": "Qingquan Police Station",
        "line": "238",
        "color": "#65a30d",
        "direction": 0,
        "station_id": "3782"
      },
      "geometry": {
        "type": "Point",
        "coordinates": [
          120.610619,
          24.245605
        ]
      }
    },
    {
      "type": "Feature",
      "properties": {
        "feature_type": "station",
        "ref": "TXG3221",
        "name": "公明里",
        "name_en": "Gongming Village",
        "line": "238",
        "color": "#65a30d",
        "direction": 0,
        "station_id": "4281"
      },
      "geometry": {
        "type": "Point",
        "coordinates": [
          120.6085,
          24.246466
        ]
      }
    },
    {
      "type": "Feature",
      "properties": {
        "feature_type": "station",
        "ref": "TXG3220",
        "name": "樂群二村",
        "name_en": "Lequn 2nd Village",
        "line": "238",
        "color": "#65a30d",
        "direction": 0,
        "station_id": "1385"
      },
      "geometry": {
        "type": "Point",
        "coordinates": [
          120.605679,
          24.247684
        ]
      }
    },
    {
      "type": "Feature",
      "properties": {
        "feature_type": "station",
        "ref": "TXG3219",
        "name": "中清仁愛巷口",
        "name_en": "Zongqing-Renai Intersection",
        "line": "238",
        "color": "#65a30d",
        "direction": 0,
        "station_id": "8"
      },
      "geometry": {
        "type": "Point",
        "coordinates": [
          120.60176030085,
          24.249455396169
        ]
      }
    },
    {
      "type": "Feature",
      "properties": {
        "feature_type": "station",
        "ref": "TXG14199",
        "name": "公明國中",
        "name_en": "Gong-Ming Junior High School",
        "line": "238",
        "color": "#65a30d",
        "direction": 0,
        "station_id": "2727"
      },
      "geometry": {
        "type": "Point",
        "coordinates": [
          120.601014,
          24.249814
        ]
      }
    },
    {
      "type": "Feature",
      "properties": {
        "feature_type": "station",
        "ref": "TXG25054",
        "name": "臺中國際機場2月台",
        "name_en": "Taichung Airport (Platform 2)",
        "line": "238",
        "color": "#65a30d",
        "direction": 0,
        "station_id": "2758"
      },
      "geometry": {
        "type": "Point",
        "coordinates": [
          120.599147,
          24.253013
        ]
      }
    },
    {
      "type": "Feature",
      "properties": {
        "feature_type": "station",
        "ref": "TXG5767",
        "name": "西勢寮",
        "name_en": "Xishiliao",
        "line": "238",
        "color": "#65a30d",
        "direction": 0,
        "station_id": "5614"
      },
      "geometry": {
        "type": "Point",
        "coordinates": [
          120.596261,
          24.250188
        ]
      }
    },
    {
      "type": "Feature",
      "properties": {
        "feature_type": "station",
        "ref": "TXG6238",
        "name": "犁分",
        "name_en": "Lifen",
        "line": "238",
        "color": "#65a30d",
        "direction": 0,
        "station_id": "2377"
      },
      "geometry": {
        "type": "Point",
        "coordinates": [
          120.570987,
          24.241843
        ]
      }
    },
    {
      "type": "Feature",
      "properties": {
        "feature_type": "station",
        "ref": "TXG18136",
        "name": "中山臺灣大道口",
        "name_en": "Zhongshan-Taiwan Boulevard Intersection",
        "line": "238",
        "color": "#65a30d",
        "direction": 0,
        "station_id": "3168"
      },
      "geometry": {
        "type": "Point",
        "coordinates": [
          120.569192,
          24.236981
        ]
      }
    },
    {
      "type": "Feature",
      "properties": {
        "feature_type": "station",
        "ref": "TXG17585",
        "name": "沙鹿高工(中山路)",
        "name_en": "Sha-Lu Ind. Voc. Senior High School(Zhongshan Road",
        "line": "238",
        "color": "#65a30d",
        "direction": 0,
        "station_id": "2162"
      },
      "geometry": {
        "type": "Point",
        "coordinates": [
          120.56487,
          24.23727
        ]
      }
    },
    {
      "type": "Feature",
      "properties": {
        "feature_type": "station",
        "ref": "TXG6041",
        "name": "洛泉里",
        "name_en": "Luoquan Village",
        "line": "238",
        "color": "#65a30d",
        "direction": 0,
        "station_id": "3430"
      },
      "geometry": {
        "type": "Point",
        "coordinates": [
          120.562427,
          24.237563
        ]
      }
    },
    {
      "type": "Feature",
      "properties": {
        "feature_type": "station",
        "ref": "TXG14111",
        "name": "沙鹿市場",
        "name_en": "Shalu Market",
        "line": "238",
        "color": "#65a30d",
        "direction": 0,
        "station_id": "1887"
      },
      "geometry": {
        "type": "Point",
        "coordinates": [
          120.55963,
          24.237319
        ]
      }
    },
    {
      "type": "Feature",
      "properties": {
        "feature_type": "station",
        "ref": "TXG15438",
        "name": "沙鹿車站",
        "name_en": "Shalu Station",
        "line": "238",
        "color": "#65a30d",
        "direction": 0,
        "station_id": "2122"
      },
      "geometry": {
        "type": "Point",
        "coordinates": [
          120.559362,
          24.236108
        ]
      }
    },
    {
      "type": "Feature",
      "properties": {
        "feature_type": "station",
        "ref": "TXG14387",
        "name": "鎮南沙田路口",
        "name_en": "Zhennan-Shatian Intersection",
        "line": "238",
        "color": "#65a30d",
        "direction": 0,
        "station_id": "7276"
      },
      "geometry": {
        "type": "Point",
        "coordinates": [
          120.559542,
          24.234479
        ]
      }
    },
    {
      "type": "Feature",
      "properties": {
        "feature_type": "station",
        "ref": "TXG15441",
        "name": "沙鹿國中(光華路)",
        "name_en": "Sha-Lu Junior High School(Guanghua Road)",
        "line": "238",
        "color": "#65a30d",
        "direction": 0,
        "station_id": "2125"
      },
      "geometry": {
        "type": "Point",
        "coordinates": [
          120.563136,
          24.234349
        ]
      }
    },
    {
      "type": "Feature",
      "properties": {
        "feature_type": "station",
        "ref": "TXG5847",
        "name": "居仁里",
        "name_en": "Juren Village",
        "line": "238",
        "color": "#65a30d",
        "direction": 0,
        "station_id": "1357"
      },
      "geometry": {
        "type": "Point",
        "coordinates": [
          120.563163,
          24.239921
        ]
      }
    },
    {
      "type": "Feature",
      "properties": {
        "feature_type": "station",
        "ref": "TXG21246",
        "name": "臺灣大道中山路口",
        "name_en": "Taiwan Blvd.- Jhongshan Road Intersection",
        "line": "238",
        "color": "#65a30d",
        "direction": 0,
        "station_id": "3432"
      },
      "geometry": {
        "type": "Point",
        "coordinates": [
          120.561323,
          24.240951
        ]
      }
    },
    {
      "type": "Feature",
      "properties": {
        "feature_type": "station",
        "ref": "TXG5340",
        "name": "中港國小",
        "name_en": "Zhonggang Elementary School",
        "line": "238",
        "color": "#65a30d",
        "direction": 0,
        "station_id": "1338"
      },
      "geometry": {
        "type": "Point",
        "coordinates": [
          120.55644042029,
          24.242705582397
        ]
      }
    },
    {
      "type": "Feature",
      "properties": {
        "feature_type": "station",
        "ref": "TXG5084",
        "name": "臺灣大道民和路口",
        "name_en": "Taiwan Boulevard-Minhe Intersection",
        "line": "238",
        "color": "#65a30d",
        "direction": 0,
        "station_id": "1321"
      },
      "geometry": {
        "type": "Point",
        "coordinates": [
          120.548851,
          24.24559
        ]
      }
    },
    {
      "type": "Feature",
      "properties": {
        "feature_type": "station",
        "ref": "TXG5876",
        "name": "東大庄",
        "name_en": "Dongdazhuang",
        "line": "238",
        "color": "#65a30d",
        "direction": 0,
        "station_id": "1360"
      },
      "geometry": {
        "type": "Point",
        "coordinates": [
          120.54651478777,
          24.246419229732
        ]
      }
    },
    {
      "type": "Feature",
      "properties": {
        "feature_type": "station",
        "ref": "TXG20751",
        "name": "中港高中(臺灣大道)",
        "name_en": "Chung Gang Senior High School(Taiwan Boulevard)",
        "line": "238",
        "color": "#65a30d",
        "direction": 0,
        "station_id": "2003"
      },
      "geometry": {
        "type": "Point",
        "coordinates": [
          120.54461,
          24.24715
        ]
      }
    },
    {
      "type": "Feature",
      "properties": {
        "feature_type": "station",
        "ref": "TXG17593",
        "name": "童綜合醫院(梧棲院區)",
        "name_en": "Tungs MetroHarbor Hosp.(Wuqi)",
        "line": "238",
        "color": "#65a30d",
        "direction": 0,
        "station_id": "114"
      },
      "geometry": {
        "type": "Point",
        "coordinates": [
          120.543078,
          24.247698
        ]
      }
    },
    {
      "type": "Feature",
      "properties": {
        "feature_type": "station",
        "ref": "TXG14727",
        "name": "邱厝庄",
        "name_en": "Qiucuozhuang",
        "line": "238",
        "color": "#65a30d",
        "direction": 0,
        "station_id": "2000"
      },
      "geometry": {
        "type": "Point",
        "coordinates": [
          120.54104,
          24.248447
        ]
      }
    },
    {
      "type": "Feature",
      "properties": {
        "feature_type": "station",
        "ref": "TXG19389",
        "name": "大庄(浩天宮)",
        "name_en": "Dazhuang(Haotian Temple)",
        "line": "238",
        "color": "#65a30d",
        "direction": 0,
        "station_id": "1999"
      },
      "geometry": {
        "type": "Point",
        "coordinates": [
          120.53917249644,
          24.249072298026
        ]
      }
    },
    {
      "type": "Feature",
      "properties": {
        "feature_type": "station",
        "ref": "TXG6350",
        "name": "臺灣大道港埠路口",
        "name_en": "Taiwan Boulevard-Gangbu Intersection",
        "line": "238",
        "color": "#65a30d",
        "direction": 0,
        "station_id": "1380"
      },
      "geometry": {
        "type": "Point",
        "coordinates": [
          120.53418701419,
          24.250890770517
        ]
      }
    },
    {
      "type": "Feature",
      "properties": {
        "feature_type": "station",
        "ref": "TXG6211",
        "name": "梧棲國小",
        "name_en": "Wuqi Elementary School",
        "line": "238",
        "color": "#65a30d",
        "direction": 0,
        "station_id": "1374"
      },
      "geometry": {
        "type": "Point",
        "coordinates": [
          120.530244,
          24.252374
        ]
      }
    },
    {
      "type": "Feature",
      "properties": {
        "feature_type": "station",
        "ref": "TXG5718",
        "name": "安仁里",
        "name_en": "Anren Village",
        "line": "238",
        "color": "#65a30d",
        "direction": 0,
        "station_id": "2136"
      },
      "geometry": {
        "type": "Point",
        "coordinates": [
          120.528621,
          24.253797
        ]
      }
    },
    {
      "type": "Feature",
      "properties": {
        "feature_type": "station",
        "ref": "TXG15479",
        "name": "梧棲(朝元宮)",
        "name_en": "Wuqi(Chaoyuan Temple)",
        "line": "238",
        "color": "#65a30d",
        "direction": 0,
        "station_id": "2119"
      },
      "geometry": {
        "type": "Point",
        "coordinates": [
          120.529541,
          24.256566
        ]
      }
    },
    {
      "type": "Feature",
      "properties": {
        "feature_type": "station",
        "ref": "TXG14213",
        "name": "梧棲郵局",
        "name_en": "Wuqi post office",
        "line": "238",
        "color": "#65a30d",
        "direction": 0,
        "station_id": "2369"
      },
      "geometry": {
        "type": "Point",
        "coordinates": [
          120.52989,
          24.257573
        ]
      }
    },
    {
      "type": "Feature",
      "properties": {
        "feature_type": "station",
        "ref": "TXG5159",
        "name": "下寮社區",
        "name_en": "Xialiao Community",
        "line": "238",
        "color": "#65a30d",
        "direction": 0,
        "station_id": "2165"
      },
      "geometry": {
        "type": "Point",
        "coordinates": [
          120.530127,
          24.258644
        ]
      }
    },
    {
      "type": "Feature",
      "properties": {
        "feature_type": "station",
        "ref": "TXG14214",
        "name": "下寮里",
        "name_en": "Xialiao Village",
        "line": "238",
        "color": "#65a30d",
        "direction": 0,
        "station_id": "2118"
      },
      "geometry": {
        "type": "Point",
        "coordinates": [
          120.53034064092,
          24.260777521231
        ]
      }
    },
    {
      "type": "Feature",
      "properties": {
        "feature_type": "station",
        "ref": "TXG13518",
        "name": "頂寮里",
        "name_en": "Dingliao Village",
        "line": "238",
        "color": "#65a30d",
        "direction": 0,
        "station_id": "1368"
      },
      "geometry": {
        "type": "Point",
        "coordinates": [
          120.532266,
          24.260464
        ]
      }
    },
    {
      "type": "Feature",
      "properties": {
        "feature_type": "station",
        "ref": "TXG14216",
        "name": "再生能源處",
        "name_en": "Department of Renewable Energy",
        "line": "238",
        "color": "#65a30d",
        "direction": 0,
        "station_id": "2109"
      },
      "geometry": {
        "type": "Point",
        "coordinates": [
          120.534884,
          24.259322
        ]
      }
    },
    {
      "type": "Feature",
      "properties": {
        "feature_type": "station",
        "ref": "TXG18080",
        "name": "臺銀中港分行",
        "name_en": "Taiwan Bank(Taichung Port Branch)",
        "line": "238",
        "color": "#65a30d",
        "direction": 0,
        "station_id": "2168"
      },
      "geometry": {
        "type": "Point",
        "coordinates": [
          120.536421,
          24.259952
        ]
      }
    },
    {
      "type": "Feature",
      "properties": {
        "feature_type": "station",
        "ref": "TXG12951",
        "name": "臺中港郵局",
        "name_en": "Taichung Port Post Office",
        "line": "238",
        "color": "#65a30d",
        "direction": 0,
        "station_id": "2169"
      },
      "geometry": {
        "type": "Point",
        "coordinates": [
          120.537403,
          24.261892
        ]
      }
    },
    {
      "type": "Feature",
      "properties": {
        "feature_type": "station",
        "ref": "TXG18079",
        "name": "臺中港郵局",
        "name_en": "Taichung Port Post Office",
        "line": "238",
        "color": "#65a30d",
        "direction": 1,
        "station_id": "2170"
      },
      "geometry": {
        "type": "Point",
        "coordinates": [
          120.537121,
          24.261647
        ]
      }
    },
    {
      "type": "Feature",
      "properties": {
        "feature_type": "station",
        "ref": "TXG18080",
        "name": "臺銀中港分行",
        "name_en": "Taiwan Bank(Taichung Port Branch)",
        "line": "238",
        "color": "#65a30d",
        "direction": 1,
        "station_id": "2168"
      },
      "geometry": {
        "type": "Point",
        "coordinates": [
          120.536421,
          24.259952
        ]
      }
    },
    {
      "type": "Feature",
      "properties": {
        "feature_type": "station",
        "ref": "TXG14216",
        "name": "再生能源處",
        "name_en": "Department of Renewable Energy",
        "line": "238",
        "color": "#65a30d",
        "direction": 1,
        "station_id": "2109"
      },
      "geometry": {
        "type": "Point",
        "coordinates": [
          120.534884,
          24.259322
        ]
      }
    },
    {
      "type": "Feature",
      "properties": {
        "feature_type": "station",
        "ref": "TXG13518",
        "name": "頂寮里",
        "name_en": "Dingliao Village",
        "line": "238",
        "color": "#65a30d",
        "direction": 1,
        "station_id": "1368"
      },
      "geometry": {
        "type": "Point",
        "coordinates": [
          120.532266,
          24.260464
        ]
      }
    },
    {
      "type": "Feature",
      "properties": {
        "feature_type": "station",
        "ref": "TXG14214",
        "name": "下寮里",
        "name_en": "Xialiao Village",
        "line": "238",
        "color": "#65a30d",
        "direction": 1,
        "station_id": "2118"
      },
      "geometry": {
        "type": "Point",
        "coordinates": [
          120.53034064092,
          24.260777521231
        ]
      }
    },
    {
      "type": "Feature",
      "properties": {
        "feature_type": "station",
        "ref": "TXG5159",
        "name": "下寮社區",
        "name_en": "Xialiao Community",
        "line": "238",
        "color": "#65a30d",
        "direction": 1,
        "station_id": "2165"
      },
      "geometry": {
        "type": "Point",
        "coordinates": [
          120.530127,
          24.258644
        ]
      }
    },
    {
      "type": "Feature",
      "properties": {
        "feature_type": "station",
        "ref": "TXG14213",
        "name": "梧棲郵局",
        "name_en": "Wuqi post office",
        "line": "238",
        "color": "#65a30d",
        "direction": 1,
        "station_id": "2369"
      },
      "geometry": {
        "type": "Point",
        "coordinates": [
          120.52989,
          24.257573
        ]
      }
    },
    {
      "type": "Feature",
      "properties": {
        "feature_type": "station",
        "ref": "TXG15426",
        "name": "梧棲(朝元宮)",
        "name_en": "Wuqi(Chaoyuan Temple)",
        "line": "238",
        "color": "#65a30d",
        "direction": 1,
        "station_id": "2120"
      },
      "geometry": {
        "type": "Point",
        "coordinates": [
          120.52948,
          24.256573
        ]
      }
    },
    {
      "type": "Feature",
      "properties": {
        "feature_type": "station",
        "ref": "TXG5718",
        "name": "安仁里",
        "name_en": "Anren Village",
        "line": "238",
        "color": "#65a30d",
        "direction": 1,
        "station_id": "2136"
      },
      "geometry": {
        "type": "Point",
        "coordinates": [
          120.528621,
          24.253797
        ]
      }
    },
    {
      "type": "Feature",
      "properties": {
        "feature_type": "station",
        "ref": "TXG6212",
        "name": "梧棲國小",
        "name_en": "Wuqi Elementary School",
        "line": "238",
        "color": "#65a30d",
        "direction": 1,
        "station_id": "1373"
      },
      "geometry": {
        "type": "Point",
        "coordinates": [
          120.529858,
          24.2521
        ]
      }
    },
    {
      "type": "Feature",
      "properties": {
        "feature_type": "station",
        "ref": "TXG1596",
        "name": "臺灣大道港埠路口",
        "name_en": "Taiwan Boulevard-Gangbu Intersection",
        "line": "238",
        "color": "#65a30d",
        "direction": 1,
        "station_id": "1379"
      },
      "geometry": {
        "type": "Point",
        "coordinates": [
          120.533168,
          24.250946
        ]
      }
    },
    {
      "type": "Feature",
      "properties": {
        "feature_type": "station",
        "ref": "TXG19390",
        "name": "大庄(浩天宮)",
        "name_en": "Dazhuang(Haotian Temple)",
        "line": "238",
        "color": "#65a30d",
        "direction": 1,
        "station_id": "1998"
      },
      "geometry": {
        "type": "Point",
        "coordinates": [
          120.53884,
          24.248841
        ]
      }
    },
    {
      "type": "Feature",
      "properties": {
        "feature_type": "station",
        "ref": "TXG14727",
        "name": "邱厝庄",
        "name_en": "Qiucuozhuang",
        "line": "238",
        "color": "#65a30d",
        "direction": 1,
        "station_id": "2000"
      },
      "geometry": {
        "type": "Point",
        "coordinates": [
          120.54104,
          24.248447
        ]
      }
    },
    {
      "type": "Feature",
      "properties": {
        "feature_type": "station",
        "ref": "TXG17593",
        "name": "童綜合醫院(梧棲院區)",
        "name_en": "Tungs MetroHarbor Hosp.(Wuqi)",
        "line": "238",
        "color": "#65a30d",
        "direction": 1,
        "station_id": "114"
      },
      "geometry": {
        "type": "Point",
        "coordinates": [
          120.543078,
          24.247698
        ]
      }
    },
    {
      "type": "Feature",
      "properties": {
        "feature_type": "station",
        "ref": "TXG20752",
        "name": "中港高中(臺灣大道)",
        "name_en": "Chung Gang Senior High School(Taiwan Boulevard)",
        "line": "238",
        "color": "#65a30d",
        "direction": 1,
        "station_id": "2002"
      },
      "geometry": {
        "type": "Point",
        "coordinates": [
          120.544535,
          24.246744
        ]
      }
    },
    {
      "type": "Feature",
      "properties": {
        "feature_type": "station",
        "ref": "TXG5876",
        "name": "東大庄",
        "name_en": "Dongdazhuang",
        "line": "238",
        "color": "#65a30d",
        "direction": 1,
        "station_id": "1360"
      },
      "geometry": {
        "type": "Point",
        "coordinates": [
          120.54651478777,
          24.246419229732
        ]
      }
    },
    {
      "type": "Feature",
      "properties": {
        "feature_type": "station",
        "ref": "TXG5084",
        "name": "臺灣大道民和路口",
        "name_en": "Taiwan Boulevard-Minhe Intersection",
        "line": "238",
        "color": "#65a30d",
        "direction": 1,
        "station_id": "1321"
      },
      "geometry": {
        "type": "Point",
        "coordinates": [
          120.548851,
          24.24559
        ]
      }
    },
    {
      "type": "Feature",
      "properties": {
        "feature_type": "station",
        "ref": "TXG5340",
        "name": "中港國小",
        "name_en": "Zhonggang Elementary School",
        "line": "238",
        "color": "#65a30d",
        "direction": 1,
        "station_id": "1338"
      },
      "geometry": {
        "type": "Point",
        "coordinates": [
          120.55644042029,
          24.242705582397
        ]
      }
    },
    {
      "type": "Feature",
      "properties": {
        "feature_type": "station",
        "ref": "TXG18757",
        "name": "臺灣大道中山路口",
        "name_en": "Taiwan Blvd.- Jhongshan Road Intersection",
        "line": "238",
        "color": "#65a30d",
        "direction": 1,
        "station_id": "3431"
      },
      "geometry": {
        "type": "Point",
        "coordinates": [
          120.561199,
          24.24064
        ]
      }
    },
    {
      "type": "Feature",
      "properties": {
        "feature_type": "station",
        "ref": "TXG5847",
        "name": "居仁里",
        "name_en": "Juren Village",
        "line": "238",
        "color": "#65a30d",
        "direction": 1,
        "station_id": "1357"
      },
      "geometry": {
        "type": "Point",
        "coordinates": [
          120.563163,
          24.239921
        ]
      }
    },
    {
      "type": "Feature",
      "properties": {
        "feature_type": "station",
        "ref": "TXG15441",
        "name": "沙鹿國中(光華路)",
        "name_en": "Sha-Lu Junior High School(Guanghua Road)",
        "line": "238",
        "color": "#65a30d",
        "direction": 1,
        "station_id": "2125"
      },
      "geometry": {
        "type": "Point",
        "coordinates": [
          120.563136,
          24.234349
        ]
      }
    },
    {
      "type": "Feature",
      "properties": {
        "feature_type": "station",
        "ref": "TXG18844",
        "name": "沙鹿光田醫院",
        "name_en": "Shalu Kuang Tien General Hospital",
        "line": "238",
        "color": "#65a30d",
        "direction": 1,
        "station_id": "3461"
      },
      "geometry": {
        "type": "Point",
        "coordinates": [
          120.558987,
          24.234995
        ]
      }
    },
    {
      "type": "Feature",
      "properties": {
        "feature_type": "station",
        "ref": "TXG15438",
        "name": "沙鹿車站",
        "name_en": "Shalu Station",
        "line": "238",
        "color": "#65a30d",
        "direction": 1,
        "station_id": "2122"
      },
      "geometry": {
        "type": "Point",
        "coordinates": [
          120.559362,
          24.236108
        ]
      }
    },
    {
      "type": "Feature",
      "properties": {
        "feature_type": "station",
        "ref": "TXG14111",
        "name": "沙鹿市場",
        "name_en": "Shalu Market",
        "line": "238",
        "color": "#65a30d",
        "direction": 1,
        "station_id": "1887"
      },
      "geometry": {
        "type": "Point",
        "coordinates": [
          120.55963,
          24.237319
        ]
      }
    },
    {
      "type": "Feature",
      "properties": {
        "feature_type": "station",
        "ref": "TXG6041",
        "name": "洛泉里",
        "name_en": "Luoquan Village",
        "line": "238",
        "color": "#65a30d",
        "direction": 1,
        "station_id": "3430"
      },
      "geometry": {
        "type": "Point",
        "coordinates": [
          120.562427,
          24.237563
        ]
      }
    },
    {
      "type": "Feature",
      "properties": {
        "feature_type": "station",
        "ref": "TXG17654",
        "name": "沙鹿高工(中山路)",
        "name_en": "Sha-Lu Ind. Voc. Senior High School(Zhongshan Road)",
        "line": "238",
        "color": "#65a30d",
        "direction": 1,
        "station_id": "2163"
      },
      "geometry": {
        "type": "Point",
        "coordinates": [
          120.564442,
          24.237272
        ]
      }
    },
    {
      "type": "Feature",
      "properties": {
        "feature_type": "station",
        "ref": "TXG18139",
        "name": "中山鎮政路口",
        "name_en": "Zhongshan-Zhenzheng Intersection",
        "line": "238",
        "color": "#65a30d",
        "direction": 1,
        "station_id": "3170"
      },
      "geometry": {
        "type": "Point",
        "coordinates": [
          120.566205,
          24.237011
        ]
      }
    },
    {
      "type": "Feature",
      "properties": {
        "feature_type": "station",
        "ref": "TXG18137",
        "name": "中山臺灣大道口",
        "name_en": "Zhongshan-Taiwan Boulevard Intersection",
        "line": "238",
        "color": "#65a30d",
        "direction": 1,
        "station_id": "3168"
      },
      "geometry": {
        "type": "Point",
        "coordinates": [
          120.569192,
          24.236981
        ]
      }
    },
    {
      "type": "Feature",
      "properties": {
        "feature_type": "station",
        "ref": "TXG6238",
        "name": "犁分",
        "name_en": "Lifen",
        "line": "238",
        "color": "#65a30d",
        "direction": 1,
        "station_id": "2377"
      },
      "geometry": {
        "type": "Point",
        "coordinates": [
          120.570987,
          24.241843
        ]
      }
    },
    {
      "type": "Feature",
      "properties": {
        "feature_type": "station",
        "ref": "TXG5767",
        "name": "西勢寮",
        "name_en": "Xishiliao",
        "line": "238",
        "color": "#65a30d",
        "direction": 1,
        "station_id": "5614"
      },
      "geometry": {
        "type": "Point",
        "coordinates": [
          120.596261,
          24.250188
        ]
      }
    },
    {
      "type": "Feature",
      "properties": {
        "feature_type": "station",
        "ref": "TXG25054",
        "name": "臺中國際機場2月台",
        "name_en": "Taichung Airport (Platform 2)",
        "line": "238",
        "color": "#65a30d",
        "direction": 1,
        "station_id": "2758"
      },
      "geometry": {
        "type": "Point",
        "coordinates": [
          120.599147,
          24.253013
        ]
      }
    },
    {
      "type": "Feature",
      "properties": {
        "feature_type": "station",
        "ref": "TXG14280",
        "name": "公明國中",
        "name_en": "Gong-Ming Junior High School",
        "line": "238",
        "color": "#65a30d",
        "direction": 1,
        "station_id": "2726"
      },
      "geometry": {
        "type": "Point",
        "coordinates": [
          120.598858,
          24.249997
        ]
      }
    },
    {
      "type": "Feature",
      "properties": {
        "feature_type": "station",
        "ref": "TXG3219",
        "name": "中清仁愛巷口",
        "name_en": "Zongqing-Renai Intersection",
        "line": "238",
        "color": "#65a30d",
        "direction": 1,
        "station_id": "8"
      },
      "geometry": {
        "type": "Point",
        "coordinates": [
          120.60176030085,
          24.249455396169
        ]
      }
    },
    {
      "type": "Feature",
      "properties": {
        "feature_type": "station",
        "ref": "TXG3220",
        "name": "樂群二村",
        "name_en": "Lequn 2nd Village",
        "line": "238",
        "color": "#65a30d",
        "direction": 1,
        "station_id": "1385"
      },
      "geometry": {
        "type": "Point",
        "coordinates": [
          120.605679,
          24.247684
        ]
      }
    },
    {
      "type": "Feature",
      "properties": {
        "feature_type": "station",
        "ref": "TXG3221",
        "name": "公明里",
        "name_en": "Gongming Village",
        "line": "238",
        "color": "#65a30d",
        "direction": 1,
        "station_id": "4281"
      },
      "geometry": {
        "type": "Point",
        "coordinates": [
          120.6085,
          24.246466
        ]
      }
    },
    {
      "type": "Feature",
      "properties": {
        "feature_type": "station",
        "ref": "TXG19045",
        "name": "清泉派出所",
        "name_en": "Qingquan Police Station",
        "line": "238",
        "color": "#65a30d",
        "direction": 1,
        "station_id": "3782"
      },
      "geometry": {
        "type": "Point",
        "coordinates": [
          120.610619,
          24.245605
        ]
      }
    },
    {
      "type": "Feature",
      "properties": {
        "feature_type": "station",
        "ref": "TXG6230",
        "name": "清泉里",
        "name_en": "Qingquan Village",
        "line": "238",
        "color": "#65a30d",
        "direction": 1,
        "station_id": "4279"
      },
      "geometry": {
        "type": "Point",
        "coordinates": [
          120.6147438384,
          24.244218185159
        ]
      }
    },
    {
      "type": "Feature",
      "properties": {
        "feature_type": "station",
        "ref": "TXG17847",
        "name": "中清清泉路口",
        "name_en": "Zhongqing-Qingquan Intersection",
        "line": "238",
        "color": "#65a30d",
        "direction": 1,
        "station_id": "2814"
      },
      "geometry": {
        "type": "Point",
        "coordinates": [
          120.617094,
          24.243306
        ]
      }
    },
    {
      "type": "Feature",
      "properties": {
        "feature_type": "station",
        "ref": "TXG7425",
        "name": "中清信義路口",
        "name_en": "Zhongqing-Xinyi Intersection",
        "line": "238",
        "color": "#65a30d",
        "direction": 1,
        "station_id": "2748"
      },
      "geometry": {
        "type": "Point",
        "coordinates": [
          120.62029336348,
          24.242529526248
        ]
      }
    },
    {
      "type": "Feature",
      "properties": {
        "feature_type": "station",
        "ref": "TXG21221",
        "name": "中清文化路口",
        "name_en": "Zhongqing-Wenhua Intersection",
        "line": "238",
        "color": "#65a30d",
        "direction": 1,
        "station_id": "4759"
      },
      "geometry": {
        "type": "Point",
        "coordinates": [
          120.624921,
          24.242249
        ]
      }
    },
    {
      "type": "Feature",
      "properties": {
        "feature_type": "station",
        "ref": "TXG12263",
        "name": "埔仔墘",
        "name_en": "PuZiQian",
        "line": "238",
        "color": "#65a30d",
        "direction": 1,
        "station_id": "819"
      },
      "geometry": {
        "type": "Point",
        "coordinates": [
          120.630897,
          24.240929
        ]
      }
    },
    {
      "type": "Feature",
      "properties": {
        "feature_type": "station",
        "ref": "TXG18181",
        "name": "和平清陽一路口",
        "name_en": "Heping-Qingyang 1Intersection",
        "line": "238",
        "color": "#65a30d",
        "direction": 1,
        "station_id": "3203"
      },
      "geometry": {
        "type": "Point",
        "coordinates": [
          120.634597,
          24.243122
        ]
      }
    },
    {
      "type": "Feature",
      "properties": {
        "feature_type": "station",
        "ref": "TXG5104",
        "name": "下山皮",
        "name_en": "Xiashanpi",
        "line": "238",
        "color": "#65a30d",
        "direction": 1,
        "station_id": "5231"
      },
      "geometry": {
        "type": "Point",
        "coordinates": [
          120.637964,
          24.246241
        ]
      }
    },
    {
      "type": "Feature",
      "properties": {
        "feature_type": "station",
        "ref": "TXG5810",
        "name": "車站前(和平路)",
        "name_en": "Front Station(Heping Road)",
        "line": "238",
        "color": "#65a30d",
        "direction": 1,
        "station_id": "5642"
      },
      "geometry": {
        "type": "Point",
        "coordinates": [
          120.644058,
          24.253519
        ]
      }
    },
    {
      "type": "Feature",
      "properties": {
        "feature_type": "station",
        "ref": "TXG5286",
        "name": "山皮",
        "name_en": "Shanpi",
        "line": "238",
        "color": "#65a30d",
        "direction": 1,
        "station_id": "5375"
      },
      "geometry": {
        "type": "Point",
        "coordinates": [
          120.648978,
          24.258197
        ]
      }
    },
    {
      "type": "Feature",
      "properties": {
        "feature_type": "station",
        "ref": "TXG6551",
        "name": "福連公司",
        "name_en": "Fulian Company",
        "line": "238",
        "color": "#65a30d",
        "direction": 1,
        "station_id": "6046"
      },
      "geometry": {
        "type": "Point",
        "coordinates": [
          120.653194,
          24.258588
        ]
      }
    },
    {
      "type": "Feature",
      "properties": {
        "feature_type": "station",
        "ref": "TXG13874",
        "name": "中正中山路口",
        "name_en": "Zhongzheng-Zhongshan Intersection",
        "line": "238",
        "color": "#65a30d",
        "direction": 1,
        "station_id": "1649"
      },
      "geometry": {
        "type": "Point",
        "coordinates": [
          120.656148,
          24.258493
        ]
      }
    },
    {
      "type": "Feature",
      "properties": {
        "feature_type": "station",
        "ref": "TXG6139",
        "name": "神岡",
        "name_en": "Shengang",
        "line": "238",
        "color": "#65a30d",
        "direction": 1,
        "station_id": "1662"
      },
      "geometry": {
        "type": "Point",
        "coordinates": [
          120.659246,
          24.257039
        ]
      }
    },
    {
      "type": "Feature",
      "properties": {
        "feature_type": "station",
        "ref": "TXG6141",
        "name": "神岡區公所",
        "name_en": "Shengang District Office",
        "line": "238",
        "color": "#65a30d",
        "direction": 1,
        "station_id": "1665"
      },
      "geometry": {
        "type": "Point",
        "coordinates": [
          120.6612,
          24.257686
        ]
      }
    },
    {
      "type": "Feature",
      "properties": {
        "feature_type": "station",
        "ref": "TXG6265",
        "name": "庄頭",
        "name_en": "Zhuangtou",
        "line": "238",
        "color": "#65a30d",
        "direction": 1,
        "station_id": "831"
      },
      "geometry": {
        "type": "Point",
        "coordinates": [
          120.663024,
          24.258155
        ]
      }
    },
    {
      "type": "Feature",
      "properties": {
        "feature_type": "station",
        "ref": "TXG5526",
        "name": "北庄",
        "name_en": "Beizhuang",
        "line": "238",
        "color": "#65a30d",
        "direction": 1,
        "station_id": "833"
      },
      "geometry": {
        "type": "Point",
        "coordinates": [
          120.668331,
          24.257336
        ]
      }
    },
    {
      "type": "Feature",
      "properties": {
        "feature_type": "station",
        "ref": "TXG6474",
        "name": "中山溝心路口",
        "name_en": "Zhongshan-Guoxin Intersection",
        "line": "238",
        "color": "#65a30d",
        "direction": 1,
        "station_id": "1648"
      },
      "geometry": {
        "type": "Point",
        "coordinates": [
          120.672218,
          24.255354
        ]
      }
    },
    {
      "type": "Feature",
      "properties": {
        "feature_type": "station",
        "ref": "TXG13889",
        "name": "電信局",
        "name_en": "Telecom Company",
        "line": "238",
        "color": "#65a30d",
        "direction": 1,
        "station_id": "1294"
      },
      "geometry": {
        "type": "Point",
        "coordinates": [
          120.673941,
          24.252929
        ]
      }
    },
    {
      "type": "Feature",
      "properties": {
        "feature_type": "station",
        "ref": "TXG6552",
        "name": "福華公司",
        "name_en": "Fuhua Company",
        "line": "238",
        "color": "#65a30d",
        "direction": 1,
        "station_id": "1673"
      },
      "geometry": {
        "type": "Point",
        "coordinates": [
          120.676081,
          24.25123
        ]
      }
    },
    {
      "type": "Feature",
      "properties": {
        "feature_type": "station",
        "ref": "TXG6553",
        "name": "福隆新村",
        "name_en": "Fulong Community",
        "line": "238",
        "color": "#65a30d",
        "direction": 1,
        "station_id": "1675"
      },
      "geometry": {
        "type": "Point",
        "coordinates": [
          120.679418,
          24.249112
        ]
      }
    },
    {
      "type": "Feature",
      "properties": {
        "feature_type": "station",
        "ref": "TXG6140",
        "name": "神岡高工",
        "name_en": "Taichung Municipal Shengang Industrial High School",
        "line": "238",
        "color": "#65a30d",
        "direction": 1,
        "station_id": "1668"
      },
      "geometry": {
        "type": "Point",
        "coordinates": [
          120.681602,
          24.247363
        ]
      }
    },
    {
      "type": "Feature",
      "properties": {
        "feature_type": "station",
        "ref": "TXG5941",
        "name": "社口",
        "name_en": "Shekou",
        "line": "238",
        "color": "#65a30d",
        "direction": 1,
        "station_id": "1656"
      },
      "geometry": {
        "type": "Point",
        "coordinates": [
          120.685269,
          24.24669
        ]
      }
    },
    {
      "type": "Feature",
      "properties": {
        "feature_type": "station",
        "ref": "TXG6056",
        "name": "紅瓦厝口",
        "name_en": "Hongwacuokuo",
        "line": "238",
        "color": "#65a30d",
        "direction": 1,
        "station_id": "1659"
      },
      "geometry": {
        "type": "Point",
        "coordinates": [
          120.68976,
          24.247647
        ]
      }
    },
    {
      "type": "Feature",
      "properties": {
        "feature_type": "station",
        "ref": "TXG6203",
        "name": "望寮",
        "name_en": "Wangliao",
        "line": "238",
        "color": "#65a30d",
        "direction": 1,
        "station_id": "1493"
      },
      "geometry": {
        "type": "Point",
        "coordinates": [
          120.693494,
          24.248422
        ]
      }
    },
    {
      "type": "Feature",
      "properties": {
        "feature_type": "station",
        "ref": "TXG5237",
        "name": "岸裡國小",
        "name_en": "Anli Elementary School",
        "line": "238",
        "color": "#65a30d",
        "direction": 1,
        "station_id": "837"
      },
      "geometry": {
        "type": "Point",
        "coordinates": [
          120.697252,
          24.248723
        ]
      }
    },
    {
      "type": "Feature",
      "properties": {
        "feature_type": "station",
        "ref": "TXG13892",
        "name": "臺豐社區",
        "name_en": "Taifeng Community",
        "line": "238",
        "color": "#65a30d",
        "direction": 1,
        "station_id": "1497"
      },
      "geometry": {
        "type": "Point",
        "coordinates": [
          120.700264,
          24.248994
        ]
      }
    },
    {
      "type": "Feature",
      "properties": {
        "feature_type": "station",
        "ref": "TXG5943",
        "name": "社皮鐵路巷",
        "name_en": "Shepi Railway Lane",
        "line": "238",
        "color": "#65a30d",
        "direction": 1,
        "station_id": "1498"
      },
      "geometry": {
        "type": "Point",
        "coordinates": [
          120.702115,
          24.249298
        ]
      }
    },
    {
      "type": "Feature",
      "properties": {
        "feature_type": "station",
        "ref": "TXG5856",
        "name": "忠勤新村(豐原運動中心)",
        "name_en": "Zhongqin Community(Fengyuan Sport Center)",
        "line": "238",
        "color": "#65a30d",
        "direction": 1,
        "station_id": "1500"
      },
      "geometry": {
        "type": "Point",
        "coordinates": [
          120.703987,
          24.249552
        ]
      }
    },
    {
      "type": "Feature",
      "properties": {
        "feature_type": "station",
        "ref": "TXG4910",
        "name": "三光新村",
        "name_en": "Sanguang Community",
        "line": "238",
        "color": "#65a30d",
        "direction": 1,
        "station_id": "1645"
      },
      "geometry": {
        "type": "Point",
        "coordinates": [
          120.707511,
          24.250031
        ]
      }
    },
    {
      "type": "Feature",
      "properties": {
        "feature_type": "station",
        "ref": "TXG6688",
        "name": "中正圓環西路口",
        "name_en": "Zhongzheng-Yuanhuan W. Intersection",
        "line": "238",
        "color": "#65a30d",
        "direction": 1,
        "station_id": "1651"
      },
      "geometry": {
        "type": "Point",
        "coordinates": [
          120.709928,
          24.250427
        ]
      }
    },
    {
      "type": "Feature",
      "properties": {
        "feature_type": "station",
        "ref": "TXG6406",
        "name": "慈龍寺",
        "name_en": "Cilong Temple",
        "line": "238",
        "color": "#65a30d",
        "direction": 1,
        "station_id": "1503"
      },
      "geometry": {
        "type": "Point",
        "coordinates": [
          120.712189,
          24.250819
        ]
      }
    },
    {
      "type": "Feature",
      "properties": {
        "feature_type": "station",
        "ref": "TXG6698",
        "name": "臺灣企銀(豐原郵局)",
        "name_en": "Taiwan Business Bank(Fengyuan Post Office)",
        "line": "238",
        "color": "#65a30d",
        "direction": 1,
        "station_id": "840"
      },
      "geometry": {
        "type": "Point",
        "coordinates": [
          120.716088,
          24.251568
        ]
      }
    },
    {
      "type": "Feature",
      "properties": {
        "feature_type": "station",
        "ref": "TXG6397",
        "name": "媽祖廟",
        "name_en": "Mazu Temple",
        "line": "238",
        "color": "#65a30d",
        "direction": 1,
        "station_id": "1288"
      },
      "geometry": {
        "type": "Point",
        "coordinates": [
          120.71840561888,
          24.25174170853
        ]
      }
    },
    {
      "type": "Feature",
      "properties": {
        "feature_type": "station",
        "ref": "TXG20104",
        "name": "豐原轉運中心(第3月台)",
        "name_en": "Fengyuan Transfer Center(Platform 3)",
        "line": "238",
        "color": "#65a30d",
        "direction": 1,
        "station_id": "10843"
      },
      "geometry": {
        "type": "Point",
        "coordinates": [
          120.724289,
          24.254261
        ]
      }
    }
  ]
}
