{
  "type": "FeatureCollection",
  "name": "251",
  "properties": {
    "id": "taichung_251",
    "name": "251",
    "name_en": "251",
    "ref": "251",
    "color": "#a21caf",
    "city_id": "Taichung",
    "source": "TDX Bus Shape / StopOfRoute",
    "official_map_url": "https://citybus.taichung.gov.tw/ebus/strapi/uploads/251_f799844b55.jpeg",
    "operator_id": "6",
    "operator": "豐原客運",
    "operator_en": "Fengyuan Bus Co., Ltd."
  },
  "features": [
    {
      "type": "Feature",
      "properties": {
        "feature_type": "route",
        "ref": "251",
        "name": "251",
        "name_en": "251",
        "color": "#a21caf",
        "direction": 0
      },
      "geometry": {
        "type": "LineString",
        "coordinates": [
          [
            120.82825,
            24.25734
          ],
          [
            120.82832,
            24.25718
          ],
          [
            120.8294,
            24.25483
          ],
          [
            120.83026,
            24.25081
          ],
          [
            120.83108,
            24.24922
          ],
          [
            120.83152,
            24.2487
          ],
          [
            120.83175,
            24.24822
          ],
          [
            120.8319,
            24.24784
          ],
          [
            120.83287,
            24.24714
          ],
          [
            120.83456,
            24.24588
          ],
          [
            120.83553,
            24.24516
          ],
          [
            120.8357,
            24.24506
          ],
          [
            120.83591,
            24.24498
          ],
          [
            120.83633,
            24.24492
          ],
          [
            120.83738,
            24.2448
          ],
          [
            120.8387,
            24.24469
          ],
          [
            120.83986,
            24.24477
          ],
          [
            120.84081,
            24.24487
          ],
          [
            120.84188,
            24.24493
          ],
          [
            120.84227,
            24.2449
          ],
          [
            120.84289,
            24.24476
          ],
          [
            120.84376,
            24.24446
          ],
          [
            120.84457,
            24.24419
          ],
          [
            120.84525,
            24.24394
          ],
          [
            120.84544,
            24.24379
          ],
          [
            120.84562,
            24.24362
          ],
          [
            120.84576,
            24.24337
          ],
          [
            120.84593,
            24.24296
          ],
          [
            120.84611,
            24.24271
          ],
          [
            120.84627,
            24.2425
          ],
          [
            120.84688,
            24.24192
          ],
          [
            120.84807,
            24.24088
          ],
          [
            120.84862,
            24.24051
          ],
          [
            120.8488,
            24.2404
          ],
          [
            120.84903,
            24.24039
          ],
          [
            120.84995,
            24.24041
          ],
          [
            120.85021,
            24.24031
          ],
          [
            120.85041,
            24.24017
          ],
          [
            120.85208,
            24.23814
          ],
          [
            120.85229,
            24.23797
          ],
          [
            120.85274,
            24.23777
          ],
          [
            120.85315,
            24.23748
          ],
          [
            120.85345,
            24.23718
          ],
          [
            120.85383,
            24.23683
          ],
          [
            120.85413,
            24.23658
          ],
          [
            120.8542,
            24.23639
          ],
          [
            120.85422,
            24.2362
          ],
          [
            120.85433,
            24.23608
          ],
          [
            120.85469,
            24.23584
          ],
          [
            120.85486,
            24.23578
          ],
          [
            120.85492,
            24.23576
          ],
          [
            120.85814,
            24.23608
          ],
          [
            120.85849,
            24.23615
          ],
          [
            120.859,
            24.23615
          ],
          [
            120.85952,
            24.23623
          ],
          [
            120.85986,
            24.23618
          ],
          [
            120.86008,
            24.23618
          ],
          [
            120.86038,
            24.23625
          ],
          [
            120.86059,
            24.23637
          ],
          [
            120.86083,
            24.23665
          ],
          [
            120.86121,
            24.23718
          ],
          [
            120.86162,
            24.23768
          ],
          [
            120.86196,
            24.238
          ],
          [
            120.86218,
            24.23827
          ],
          [
            120.86232,
            24.23863
          ],
          [
            120.86246,
            24.23892
          ],
          [
            120.86256,
            24.23905
          ],
          [
            120.86286,
            24.23923
          ],
          [
            120.86373,
            24.23972
          ],
          [
            120.86398,
            24.23982
          ],
          [
            120.86503,
            24.24
          ],
          [
            120.86582,
            24.24015
          ],
          [
            120.86647,
            24.24031
          ],
          [
            120.86719,
            24.24049
          ],
          [
            120.86764,
            24.24069
          ],
          [
            120.86798,
            24.24083
          ],
          [
            120.86854,
            24.2411
          ],
          [
            120.86906,
            24.24138
          ],
          [
            120.86961,
            24.24161
          ],
          [
            120.86995,
            24.24172
          ],
          [
            120.87014,
            24.24176
          ],
          [
            120.87034,
            24.24178
          ],
          [
            120.87049,
            24.2418
          ],
          [
            120.87066,
            24.24178
          ],
          [
            120.8709,
            24.24168
          ],
          [
            120.87121,
            24.24157
          ],
          [
            120.87158,
            24.24142
          ],
          [
            120.87252,
            24.24108
          ],
          [
            120.87266,
            24.24103
          ],
          [
            120.87279,
            24.24091
          ],
          [
            120.87287,
            24.24081
          ],
          [
            120.87317,
            24.24035
          ],
          [
            120.87329,
            24.24016
          ],
          [
            120.87344,
            24.24
          ],
          [
            120.87385,
            24.23974
          ],
          [
            120.87444,
            24.23939
          ],
          [
            120.87471,
            24.23935
          ],
          [
            120.87519,
            24.23937
          ],
          [
            120.87589,
            24.23944
          ],
          [
            120.87609,
            24.23945
          ],
          [
            120.87617,
            24.23941
          ],
          [
            120.87626,
            24.23932
          ],
          [
            120.87633,
            24.23904
          ],
          [
            120.87677,
            24.23867
          ],
          [
            120.87757,
            24.23829
          ],
          [
            120.87793,
            24.23811
          ],
          [
            120.87819,
            24.23796
          ],
          [
            120.87829,
            24.23777
          ],
          [
            120.87833,
            24.23756
          ],
          [
            120.87839,
            24.23728
          ],
          [
            120.87838,
            24.23693
          ],
          [
            120.87829,
            24.2366
          ],
          [
            120.87821,
            24.23628
          ],
          [
            120.87821,
            24.23605
          ],
          [
            120.87833,
            24.23577
          ],
          [
            120.8784,
            24.23557
          ],
          [
            120.87839,
            24.23538
          ],
          [
            120.87828,
            24.23518
          ],
          [
            120.87812,
            24.2349
          ],
          [
            120.87795,
            24.23469
          ],
          [
            120.87781,
            24.23445
          ],
          [
            120.87777,
            24.23425
          ],
          [
            120.87785,
            24.23404
          ],
          [
            120.87797,
            24.23371
          ],
          [
            120.8782,
            24.23324
          ],
          [
            120.87815,
            24.23287
          ],
          [
            120.87819,
            24.23255
          ],
          [
            120.87838,
            24.23223
          ],
          [
            120.87848,
            24.23195
          ],
          [
            120.87851,
            24.23178
          ],
          [
            120.87843,
            24.23156
          ],
          [
            120.87844,
            24.2314
          ],
          [
            120.87849,
            24.23129
          ],
          [
            120.87857,
            24.23106
          ],
          [
            120.87852,
            24.23078
          ],
          [
            120.87853,
            24.23063
          ],
          [
            120.8786,
            24.23039
          ],
          [
            120.87881,
            24.22973
          ],
          [
            120.87896,
            24.22928
          ],
          [
            120.87895,
            24.22911
          ],
          [
            120.87877,
            24.22883
          ],
          [
            120.87875,
            24.22869
          ],
          [
            120.8787,
            24.22842
          ],
          [
            120.87868,
            24.22834
          ],
          [
            120.87851,
            24.22814
          ],
          [
            120.87829,
            24.22806
          ],
          [
            120.87806,
            24.22807
          ],
          [
            120.87778,
            24.22802
          ],
          [
            120.87763,
            24.22789
          ],
          [
            120.87763,
            24.22774
          ],
          [
            120.87768,
            24.22767
          ],
          [
            120.87782,
            24.22763
          ],
          [
            120.8783,
            24.22761
          ],
          [
            120.87863,
            24.2276
          ],
          [
            120.87883,
            24.22757
          ],
          [
            120.87891,
            24.22749
          ],
          [
            120.87896,
            24.22735
          ],
          [
            120.87903,
            24.22706
          ],
          [
            120.87924,
            24.2268
          ],
          [
            120.87936,
            24.22658
          ],
          [
            120.87934,
            24.22621
          ],
          [
            120.87924,
            24.22563
          ],
          [
            120.87911,
            24.22545
          ],
          [
            120.87896,
            24.22528
          ],
          [
            120.87869,
            24.22478
          ],
          [
            120.87858,
            24.22454
          ],
          [
            120.87845,
            24.22438
          ],
          [
            120.87824,
            24.2243
          ],
          [
            120.87819,
            24.22426
          ],
          [
            120.87817,
            24.22414
          ],
          [
            120.87818,
            24.22382
          ],
          [
            120.87818,
            24.22348
          ],
          [
            120.87819,
            24.22335
          ],
          [
            120.8783,
            24.22321
          ],
          [
            120.87845,
            24.22312
          ],
          [
            120.8785,
            24.22303
          ],
          [
            120.87853,
            24.22288
          ],
          [
            120.87853,
            24.22268
          ],
          [
            120.87861,
            24.22245
          ],
          [
            120.87875,
            24.22208
          ],
          [
            120.87899,
            24.22191
          ],
          [
            120.87905,
            24.22172
          ],
          [
            120.87907,
            24.22156
          ],
          [
            120.87915,
            24.22148
          ],
          [
            120.87934,
            24.2213
          ],
          [
            120.87942,
            24.22113
          ],
          [
            120.87948,
            24.22098
          ],
          [
            120.87969,
            24.22072
          ],
          [
            120.87974,
            24.2203
          ],
          [
            120.87976,
            24.21994
          ],
          [
            120.87968,
            24.21961
          ],
          [
            120.87956,
            24.21924
          ],
          [
            120.87943,
            24.219
          ],
          [
            120.87937,
            24.21883
          ],
          [
            120.87937,
            24.21859
          ],
          [
            120.87931,
            24.21843
          ],
          [
            120.87926,
            24.21818
          ],
          [
            120.87935,
            24.218
          ],
          [
            120.87939,
            24.2178
          ],
          [
            120.87935,
            24.21758
          ],
          [
            120.87928,
            24.21737
          ],
          [
            120.87932,
            24.21726
          ],
          [
            120.87953,
            24.21716
          ],
          [
            120.87977,
            24.21713
          ],
          [
            120.87999,
            24.21702
          ],
          [
            120.88018,
            24.21677
          ],
          [
            120.88033,
            24.21658
          ],
          [
            120.88037,
            24.21637
          ],
          [
            120.88041,
            24.21605
          ],
          [
            120.88052,
            24.21588
          ],
          [
            120.88064,
            24.21575
          ],
          [
            120.88088,
            24.21558
          ],
          [
            120.88122,
            24.21541
          ],
          [
            120.88162,
            24.21506
          ],
          [
            120.88172,
            24.2149
          ],
          [
            120.88177,
            24.21452
          ],
          [
            120.88183,
            24.21436
          ],
          [
            120.88204,
            24.21428
          ],
          [
            120.8824,
            24.21432
          ],
          [
            120.88268,
            24.21423
          ],
          [
            120.88284,
            24.21416
          ],
          [
            120.88295,
            24.2141
          ],
          [
            120.88307,
            24.21395
          ],
          [
            120.88325,
            24.21348
          ],
          [
            120.88347,
            24.2133
          ],
          [
            120.88372,
            24.21331
          ],
          [
            120.88389,
            24.21339
          ],
          [
            120.88396,
            24.21349
          ],
          [
            120.88398,
            24.21365
          ],
          [
            120.88395,
            24.21385
          ],
          [
            120.88386,
            24.21405
          ],
          [
            120.88389,
            24.21428
          ],
          [
            120.8839,
            24.21445
          ],
          [
            120.88384,
            24.21458
          ],
          [
            120.88374,
            24.21473
          ],
          [
            120.88361,
            24.21498
          ],
          [
            120.88345,
            24.21529
          ],
          [
            120.88326,
            24.21537
          ],
          [
            120.88317,
            24.21551
          ],
          [
            120.88323,
            24.21561
          ],
          [
            120.88335,
            24.21563
          ],
          [
            120.88351,
            24.21545
          ],
          [
            120.88377,
            24.2153
          ],
          [
            120.88396,
            24.21516
          ],
          [
            120.88412,
            24.21507
          ],
          [
            120.88436,
            24.21504
          ],
          [
            120.88463,
            24.21506
          ],
          [
            120.88488,
            24.21512
          ],
          [
            120.88514,
            24.21525
          ],
          [
            120.88537,
            24.21552
          ],
          [
            120.88555,
            24.21568
          ],
          [
            120.88571,
            24.21588
          ],
          [
            120.88582,
            24.21602
          ],
          [
            120.88588,
            24.21613
          ],
          [
            120.886,
            24.21622
          ],
          [
            120.88609,
            24.21623
          ],
          [
            120.88628,
            24.2162
          ],
          [
            120.88643,
            24.21618
          ],
          [
            120.8866,
            24.2162
          ],
          [
            120.88671,
            24.21626
          ],
          [
            120.8868,
            24.21634
          ],
          [
            120.88699,
            24.21666
          ],
          [
            120.88711,
            24.21686
          ],
          [
            120.88721,
            24.21697
          ],
          [
            120.88814,
            24.21728
          ],
          [
            120.8883,
            24.21726
          ],
          [
            120.88849,
            24.21721
          ],
          [
            120.88866,
            24.21712
          ],
          [
            120.88892,
            24.21702
          ],
          [
            120.88913,
            24.21697
          ],
          [
            120.88929,
            24.21688
          ],
          [
            120.88952,
            24.21676
          ],
          [
            120.88967,
            24.21676
          ],
          [
            120.88976,
            24.21686
          ],
          [
            120.88978,
            24.21701
          ],
          [
            120.88969,
            24.21718
          ],
          [
            120.88956,
            24.21732
          ],
          [
            120.88937,
            24.21747
          ],
          [
            120.88926,
            24.21754
          ],
          [
            120.88908,
            24.21773
          ],
          [
            120.88901,
            24.21783
          ],
          [
            120.88893,
            24.21796
          ],
          [
            120.88875,
            24.21849
          ],
          [
            120.88829,
            24.21875
          ],
          [
            120.88809,
            24.21889
          ],
          [
            120.88774,
            24.21896
          ],
          [
            120.88753,
            24.21907
          ],
          [
            120.88736,
            24.21927
          ],
          [
            120.88718,
            24.21976
          ],
          [
            120.887,
            24.21987
          ],
          [
            120.88679,
            24.21985
          ],
          [
            120.88646,
            24.2197
          ],
          [
            120.88626,
            24.21946
          ],
          [
            120.88617,
            24.21921
          ],
          [
            120.88606,
            24.21916
          ],
          [
            120.88592,
            24.21917
          ],
          [
            120.8859,
            24.21927
          ],
          [
            120.88596,
            24.21942
          ],
          [
            120.88635,
            24.21983
          ],
          [
            120.88672,
            24.22013
          ],
          [
            120.88688,
            24.22024
          ],
          [
            120.88706,
            24.22029
          ],
          [
            120.88725,
            24.22044
          ],
          [
            120.88736,
            24.22061
          ],
          [
            120.88744,
            24.22067
          ],
          [
            120.88762,
            24.22066
          ],
          [
            120.88794,
            24.2206
          ],
          [
            120.88816,
            24.22063
          ],
          [
            120.88833,
            24.220580000000002
          ],
          [
            120.8889,
            24.2204
          ],
          [
            120.88906,
            24.22043
          ],
          [
            120.8892,
            24.22052
          ],
          [
            120.88932,
            24.22075
          ],
          [
            120.88972,
            24.22114
          ],
          [
            120.88983,
            24.22128
          ],
          [
            120.89001,
            24.22131
          ],
          [
            120.89018,
            24.22128
          ],
          [
            120.89033,
            24.22113
          ],
          [
            120.89097,
            24.22087
          ],
          [
            120.89121,
            24.22081
          ],
          [
            120.89137,
            24.22084
          ],
          [
            120.89156,
            24.22092
          ],
          [
            120.8917,
            24.22091
          ],
          [
            120.89187,
            24.22083
          ],
          [
            120.89204,
            24.22072
          ],
          [
            120.89225,
            24.22059
          ],
          [
            120.89251,
            24.22048
          ],
          [
            120.89278,
            24.22046
          ],
          [
            120.89297,
            24.22046
          ],
          [
            120.89334,
            24.2203
          ],
          [
            120.89366,
            24.22036
          ],
          [
            120.89397,
            24.22039
          ],
          [
            120.89418,
            24.2205
          ],
          [
            120.89426,
            24.22064
          ],
          [
            120.89427,
            24.22086
          ],
          [
            120.89425,
            24.221
          ],
          [
            120.89424,
            24.22118
          ],
          [
            120.89428,
            24.22142
          ],
          [
            120.89434,
            24.22168
          ],
          [
            120.8943,
            24.2219
          ],
          [
            120.89416,
            24.22223
          ],
          [
            120.89404,
            24.22249
          ],
          [
            120.8941,
            24.22263
          ],
          [
            120.89433,
            24.22295
          ],
          [
            120.89447,
            24.22301
          ],
          [
            120.89491,
            24.22306
          ],
          [
            120.89529,
            24.22327
          ],
          [
            120.89554,
            24.22329
          ],
          [
            120.89566,
            24.22339
          ],
          [
            120.8956,
            24.22367
          ],
          [
            120.89565,
            24.22384
          ],
          [
            120.89595,
            24.22412
          ],
          [
            120.89603,
            24.2243
          ],
          [
            120.89601,
            24.22452
          ],
          [
            120.89607,
            24.22473
          ],
          [
            120.89608,
            24.22491
          ],
          [
            120.89604,
            24.22508
          ],
          [
            120.89589,
            24.22523
          ],
          [
            120.89581,
            24.22535
          ],
          [
            120.89585,
            24.22549
          ],
          [
            120.89595,
            24.22568
          ],
          [
            120.89597,
            24.22582
          ],
          [
            120.89585,
            24.22599
          ],
          [
            120.89556,
            24.22617
          ],
          [
            120.89496,
            24.22643
          ],
          [
            120.89436,
            24.22694
          ],
          [
            120.89425,
            24.22723
          ],
          [
            120.89421,
            24.22755
          ],
          [
            120.8942,
            24.22781
          ],
          [
            120.89429,
            24.22816
          ],
          [
            120.89431,
            24.2289
          ],
          [
            120.8944,
            24.22907
          ],
          [
            120.89463,
            24.22916
          ],
          [
            120.8948,
            24.22915
          ],
          [
            120.89528,
            24.22904
          ],
          [
            120.89566,
            24.22902
          ],
          [
            120.89658,
            24.22938
          ],
          [
            120.89703,
            24.22943
          ],
          [
            120.89721,
            24.2294
          ],
          [
            120.89739,
            24.22931
          ],
          [
            120.89755,
            24.22921
          ],
          [
            120.89772,
            24.22915
          ],
          [
            120.89797,
            24.22916
          ],
          [
            120.89813,
            24.22928
          ],
          [
            120.8982,
            24.22946
          ],
          [
            120.89837,
            24.22972
          ],
          [
            120.89853,
            24.22982
          ],
          [
            120.89883,
            24.22993
          ],
          [
            120.89913,
            24.23
          ],
          [
            120.8994,
            24.23011
          ],
          [
            120.89964,
            24.23023
          ],
          [
            120.89984,
            24.23045
          ],
          [
            120.89998,
            24.23066
          ],
          [
            120.90013,
            24.23098
          ],
          [
            120.90025,
            24.23125
          ],
          [
            120.90022,
            24.23142
          ],
          [
            120.90007,
            24.23162
          ],
          [
            120.8999,
            24.23178
          ],
          [
            120.89986,
            24.23185
          ],
          [
            120.89985,
            24.23192
          ],
          [
            120.8999,
            24.2321
          ],
          [
            120.90033,
            24.23284
          ],
          [
            120.90073,
            24.23349
          ],
          [
            120.90085,
            24.23377
          ],
          [
            120.90122,
            24.23409
          ],
          [
            120.90156,
            24.23428
          ],
          [
            120.90184,
            24.23432
          ],
          [
            120.9022,
            24.23438
          ],
          [
            120.90241,
            24.23454
          ],
          [
            120.90262,
            24.2347
          ],
          [
            120.90304,
            24.23498
          ],
          [
            120.90357,
            24.23531
          ],
          [
            120.90393,
            24.23567
          ],
          [
            120.90405,
            24.23579
          ],
          [
            120.90447,
            24.23577
          ],
          [
            120.90477,
            24.2358
          ],
          [
            120.90499,
            24.23593
          ],
          [
            120.90514,
            24.23622
          ],
          [
            120.9053,
            24.23663
          ],
          [
            120.9056,
            24.23697
          ],
          [
            120.90575,
            24.2372
          ],
          [
            120.90589,
            24.23752
          ],
          [
            120.90605,
            24.2378
          ],
          [
            120.90642,
            24.2382
          ],
          [
            120.90665,
            24.23852
          ],
          [
            120.9068,
            24.23887
          ],
          [
            120.90696,
            24.23913
          ],
          [
            120.90703,
            24.23932
          ],
          [
            120.90701,
            24.2396
          ],
          [
            120.90698,
            24.2399
          ],
          [
            120.90696,
            24.24019
          ],
          [
            120.90694,
            24.24044
          ],
          [
            120.90706,
            24.24076
          ]
        ]
      }
    },
    {
      "type": "Feature",
      "properties": {
        "feature_type": "station",
        "ref": "TXG5899",
        "name": "東勢",
        "name_en": "Dongshi",
        "line": "251",
        "color": "#a21caf",
        "direction": 0
      },
      "geometry": {
        "type": "Point",
        "coordinates": [
          120.828248,
          24.25734
        ]
      }
    },
    {
      "type": "Feature",
      "properties": {
        "feature_type": "station",
        "ref": "TXG5987",
        "name": "南平里",
        "name_en": "Nanping Village",
        "line": "251",
        "color": "#a21caf",
        "direction": 0
      },
      "geometry": {
        "type": "Point",
        "coordinates": [
          120.829235,
          24.255013
        ]
      }
    },
    {
      "type": "Feature",
      "properties": {
        "feature_type": "station",
        "ref": "TXG5302",
        "name": "中嵙口",
        "name_en": "Zhongkekou",
        "line": "251",
        "color": "#a21caf",
        "direction": 0
      },
      "geometry": {
        "type": "Point",
        "coordinates": [
          120.829831,
          24.252501
        ]
      }
    },
    {
      "type": "Feature",
      "properties": {
        "feature_type": "station",
        "ref": "TXG5889",
        "name": "東勢南站",
        "name_en": "Dongshi South Station",
        "line": "251",
        "color": "#a21caf",
        "direction": 0
      },
      "geometry": {
        "type": "Point",
        "coordinates": [
          120.830743,
          24.249682
        ]
      }
    },
    {
      "type": "Feature",
      "properties": {
        "feature_type": "station",
        "ref": "TXG747",
        "name": "東坑豐勢路口",
        "name_en": "Dongkeng-Fengshi Intersection",
        "line": "251",
        "color": "#a21caf",
        "direction": 0
      },
      "geometry": {
        "type": "Point",
        "coordinates": [
          120.832787,
          24.247185
        ]
      }
    },
    {
      "type": "Feature",
      "properties": {
        "feature_type": "station",
        "ref": "TXG5258",
        "name": "大雪山後門",
        "name_en": "Daxueshan backdoor",
        "line": "251",
        "color": "#a21caf",
        "direction": 0
      },
      "geometry": {
        "type": "Point",
        "coordinates": [
          120.837056,
          24.244839
        ]
      }
    },
    {
      "type": "Feature",
      "properties": {
        "feature_type": "station",
        "ref": "TXG6174",
        "name": "高簡",
        "name_en": "Gaojian",
        "line": "251",
        "color": "#a21caf",
        "direction": 0
      },
      "geometry": {
        "type": "Point",
        "coordinates": [
          120.840715,
          24.244881
        ]
      }
    },
    {
      "type": "Feature",
      "properties": {
        "feature_type": "station",
        "ref": "TXG5186",
        "name": "上高簡",
        "name_en": "Shanggaojian",
        "line": "251",
        "color": "#a21caf",
        "direction": 0
      },
      "geometry": {
        "type": "Point",
        "coordinates": [
          120.842494,
          24.244847
        ]
      }
    },
    {
      "type": "Feature",
      "properties": {
        "feature_type": "station",
        "ref": "TXG5774",
        "name": "伯公下",
        "name_en": "Bogongxia",
        "line": "251",
        "color": "#a21caf",
        "direction": 0
      },
      "geometry": {
        "type": "Point",
        "coordinates": [
          120.845935,
          24.242858
        ]
      }
    },
    {
      "type": "Feature",
      "properties": {
        "feature_type": "station",
        "ref": "TXG5542",
        "name": "古靈堂",
        "name_en": "Guling Hall",
        "line": "251",
        "color": "#a21caf",
        "direction": 0
      },
      "geometry": {
        "type": "Point",
        "coordinates": [
          120.847852,
          24.241026
        ]
      }
    },
    {
      "type": "Feature",
      "properties": {
        "feature_type": "station",
        "ref": "TXG5653",
        "name": "石角",
        "name_en": "Shijiao",
        "line": "251",
        "color": "#a21caf",
        "direction": 0
      },
      "geometry": {
        "type": "Point",
        "coordinates": [
          120.850071,
          24.240307
        ]
      }
    },
    {
      "type": "Feature",
      "properties": {
        "feature_type": "station",
        "ref": "TXG5656",
        "name": "石角國小",
        "name_en": "Shih-Chiao Elementary School",
        "line": "251",
        "color": "#a21caf",
        "direction": 0
      },
      "geometry": {
        "type": "Point",
        "coordinates": [
          120.851452,
          24.238813
        ]
      }
    },
    {
      "type": "Feature",
      "properties": {
        "feature_type": "station",
        "ref": "TXG5175",
        "name": "上石角",
        "name_en": "Shangshijiao",
        "line": "251",
        "color": "#a21caf",
        "direction": 0
      },
      "geometry": {
        "type": "Point",
        "coordinates": [
          120.854174,
          24.236169
        ]
      }
    },
    {
      "type": "Feature",
      "properties": {
        "feature_type": "station",
        "ref": "TXG6385",
        "name": "雲仙洞",
        "name_en": "Yunxiandong",
        "line": "251",
        "color": "#a21caf",
        "direction": 0
      },
      "geometry": {
        "type": "Point",
        "coordinates": [
          120.861186,
          24.237226
        ]
      }
    },
    {
      "type": "Feature",
      "properties": {
        "feature_type": "station",
        "ref": "TXG5667",
        "name": "石橋頭前",
        "name_en": "Shiqiaotouqian",
        "line": "251",
        "color": "#a21caf",
        "direction": 0
      },
      "geometry": {
        "type": "Point",
        "coordinates": [
          120.863557,
          24.239703
        ]
      }
    },
    {
      "type": "Feature",
      "properties": {
        "feature_type": "station",
        "ref": "TXG5843",
        "name": "坪埔",
        "name_en": "Pingpu",
        "line": "251",
        "color": "#a21caf",
        "direction": 0
      },
      "geometry": {
        "type": "Point",
        "coordinates": [
          120.868184,
          24.240978
        ]
      }
    },
    {
      "type": "Feature",
      "properties": {
        "feature_type": "station",
        "ref": "TXG6666",
        "name": "檢查站",
        "name_en": "Security Checkpoint",
        "line": "251",
        "color": "#a21caf",
        "direction": 0
      },
      "geometry": {
        "type": "Point",
        "coordinates": [
          120.87322,
          24.240234
        ]
      }
    },
    {
      "type": "Feature",
      "properties": {
        "feature_type": "station",
        "ref": "TXG6467",
        "name": "楊桃樹腳",
        "name_en": "Yangtaoshujiao",
        "line": "251",
        "color": "#a21caf",
        "direction": 0
      },
      "geometry": {
        "type": "Point",
        "coordinates": [
          120.878239,
          24.236888
        ]
      }
    },
    {
      "type": "Feature",
      "properties": {
        "feature_type": "station",
        "ref": "TXG18116",
        "name": "下楊桃樹腳",
        "name_en": "Xiayangtaoshujiao",
        "line": "251",
        "color": "#a21caf",
        "direction": 0
      },
      "geometry": {
        "type": "Point",
        "coordinates": [
          120.877832,
          24.233975
        ]
      }
    },
    {
      "type": "Feature",
      "properties": {
        "feature_type": "station",
        "ref": "TXG18120",
        "name": "上小南坑",
        "name_en": "Shangxiaonankeng",
        "line": "251",
        "color": "#a21caf",
        "direction": 0
      },
      "geometry": {
        "type": "Point",
        "coordinates": [
          120.878779,
          24.229673
        ]
      }
    },
    {
      "type": "Feature",
      "properties": {
        "feature_type": "station",
        "ref": "TXG5285",
        "name": "小南坑",
        "name_en": "Xiaonankeng",
        "line": "251",
        "color": "#a21caf",
        "direction": 0
      },
      "geometry": {
        "type": "Point",
        "coordinates": [
          120.878867,
          24.227495
        ]
      }
    },
    {
      "type": "Feature",
      "properties": {
        "feature_type": "station",
        "ref": "TXG11231",
        "name": "七公里",
        "name_en": "7 kilometers",
        "line": "251",
        "color": "#a21caf",
        "direction": 0
      },
      "geometry": {
        "type": "Point",
        "coordinates": [
          120.878142,
          24.223938
        ]
      }
    },
    {
      "type": "Feature",
      "properties": {
        "feature_type": "station",
        "ref": "TXG5041",
        "name": "大雪山賞鳥協會（八公里）",
        "name_en": "Daxueshan Bird-watching Association(8 kilometers)",
        "line": "251",
        "color": "#a21caf",
        "direction": 0
      },
      "geometry": {
        "type": "Point",
        "coordinates": [
          120.879388,
          24.219054
        ]
      }
    },
    {
      "type": "Feature",
      "properties": {
        "feature_type": "station",
        "ref": "TXG5240",
        "name": "大南坑",
        "name_en": "Danankeng",
        "line": "251",
        "color": "#a21caf",
        "direction": 0
      },
      "geometry": {
        "type": "Point",
        "coordinates": [
          120.882775,
          24.214217
        ]
      }
    },
    {
      "type": "Feature",
      "properties": {
        "feature_type": "station",
        "ref": "TXG18098",
        "name": "九公里",
        "name_en": "9 kilometers",
        "line": "251",
        "color": "#a21caf",
        "direction": 0
      },
      "geometry": {
        "type": "Point",
        "coordinates": [
          120.884112,
          24.215078
        ]
      }
    },
    {
      "type": "Feature",
      "properties": {
        "feature_type": "station",
        "ref": "TXG18121",
        "name": "十里坡生態莊園",
        "name_en": "Shilipo Ecological Manor",
        "line": "251",
        "color": "#a21caf",
        "direction": 0
      },
      "geometry": {
        "type": "Point",
        "coordinates": [
          120.889631,
          24.216799
        ]
      }
    },
    {
      "type": "Feature",
      "properties": {
        "feature_type": "station",
        "ref": "TXG5052",
        "name": "十公里",
        "name_en": "10 kilometers",
        "line": "251",
        "color": "#a21caf",
        "direction": 0
      },
      "geometry": {
        "type": "Point",
        "coordinates": [
          120.889035,
          24.217847
        ]
      }
    },
    {
      "type": "Feature",
      "properties": {
        "feature_type": "station",
        "ref": "TXG5047",
        "name": "十一公里",
        "name_en": "11 kilometers",
        "line": "251",
        "color": "#a21caf",
        "direction": 0
      },
      "geometry": {
        "type": "Point",
        "coordinates": [
          120.887407,
          24.220589
        ]
      }
    },
    {
      "type": "Feature",
      "properties": {
        "feature_type": "station",
        "ref": "TXG5048",
        "name": "十二公里",
        "name_en": "12 kilometers",
        "line": "251",
        "color": "#a21caf",
        "direction": 0
      },
      "geometry": {
        "type": "Point",
        "coordinates": [
          120.894283,
          24.220832
        ]
      }
    },
    {
      "type": "Feature",
      "properties": {
        "feature_type": "station",
        "ref": "TXG5050",
        "name": "十三公里",
        "name_en": "13 kilometers",
        "line": "251",
        "color": "#a21caf",
        "direction": 0
      },
      "geometry": {
        "type": "Point",
        "coordinates": [
          120.895899,
          24.225796
        ]
      }
    },
    {
      "type": "Feature",
      "properties": {
        "feature_type": "station",
        "ref": "TXG18125",
        "name": "出雲山莊",
        "name_en": "Cirrus Lodge",
        "line": "251",
        "color": "#a21caf",
        "direction": 0
      },
      "geometry": {
        "type": "Point",
        "coordinates": [
          120.894185,
          24.227403
        ]
      }
    },
    {
      "type": "Feature",
      "properties": {
        "feature_type": "station",
        "ref": "TXG5055",
        "name": "十四公里",
        "name_en": "14 kilometers",
        "line": "251",
        "color": "#a21caf",
        "direction": 0
      },
      "geometry": {
        "type": "Point",
        "coordinates": [
          120.900277,
          24.232679
        ]
      }
    },
    {
      "type": "Feature",
      "properties": {
        "feature_type": "station",
        "ref": "TXG18278",
        "name": "十五公里",
        "name_en": "15 kilometers",
        "line": "251",
        "color": "#a21caf",
        "direction": 0
      },
      "geometry": {
        "type": "Point",
        "coordinates": [
          120.906972,
          24.239201
        ]
      }
    },
    {
      "type": "Feature",
      "properties": {
        "feature_type": "station",
        "ref": "TXG6623",
        "name": "橫流溪",
        "name_en": "Hengliu River",
        "line": "251",
        "color": "#a21caf",
        "direction": 0
      },
      "geometry": {
        "type": "Point",
        "coordinates": [
          120.907032,
          24.240728
        ]
      }
    },
    {
      "type": "Feature",
      "properties": {
        "feature_type": "station",
        "ref": "TXG6623",
        "name": "橫流溪",
        "name_en": "Hengliu River",
        "line": "251",
        "color": "#a21caf",
        "direction": 1
      },
      "geometry": {
        "type": "Point",
        "coordinates": [
          120.907032,
          24.240728
        ]
      }
    },
    {
      "type": "Feature",
      "properties": {
        "feature_type": "station",
        "ref": "TXG18278",
        "name": "十五公里",
        "name_en": "15 kilometers",
        "line": "251",
        "color": "#a21caf",
        "direction": 1
      },
      "geometry": {
        "type": "Point",
        "coordinates": [
          120.906972,
          24.239201
        ]
      }
    },
    {
      "type": "Feature",
      "properties": {
        "feature_type": "station",
        "ref": "TXG5055",
        "name": "十四公里",
        "name_en": "14 kilometers",
        "line": "251",
        "color": "#a21caf",
        "direction": 1
      },
      "geometry": {
        "type": "Point",
        "coordinates": [
          120.900277,
          24.232679
        ]
      }
    },
    {
      "type": "Feature",
      "properties": {
        "feature_type": "station",
        "ref": "TXG18153",
        "name": "出雲山莊",
        "name_en": "Cirrus Lodge",
        "line": "251",
        "color": "#a21caf",
        "direction": 1
      },
      "geometry": {
        "type": "Point",
        "coordinates": [
          120.894291,
          24.226994
        ]
      }
    },
    {
      "type": "Feature",
      "properties": {
        "feature_type": "station",
        "ref": "TXG5050",
        "name": "十三公里",
        "name_en": "13 kilometers",
        "line": "251",
        "color": "#a21caf",
        "direction": 1
      },
      "geometry": {
        "type": "Point",
        "coordinates": [
          120.895899,
          24.225796
        ]
      }
    },
    {
      "type": "Feature",
      "properties": {
        "feature_type": "station",
        "ref": "TXG5048",
        "name": "十二公里",
        "name_en": "12 kilometers",
        "line": "251",
        "color": "#a21caf",
        "direction": 1
      },
      "geometry": {
        "type": "Point",
        "coordinates": [
          120.894283,
          24.220832
        ]
      }
    },
    {
      "type": "Feature",
      "properties": {
        "feature_type": "station",
        "ref": "TXG5047",
        "name": "十一公里",
        "name_en": "11 kilometers",
        "line": "251",
        "color": "#a21caf",
        "direction": 1
      },
      "geometry": {
        "type": "Point",
        "coordinates": [
          120.887407,
          24.220589
        ]
      }
    },
    {
      "type": "Feature",
      "properties": {
        "feature_type": "station",
        "ref": "TXG5052",
        "name": "十公里",
        "name_en": "10 kilometers",
        "line": "251",
        "color": "#a21caf",
        "direction": 1
      },
      "geometry": {
        "type": "Point",
        "coordinates": [
          120.889035,
          24.217847
        ]
      }
    },
    {
      "type": "Feature",
      "properties": {
        "feature_type": "station",
        "ref": "TXG18128",
        "name": "十里坡生態莊園",
        "name_en": "Shilipo Ecological Manor",
        "line": "251",
        "color": "#a21caf",
        "direction": 1
      },
      "geometry": {
        "type": "Point",
        "coordinates": [
          120.88899,
          24.217036
        ]
      }
    },
    {
      "type": "Feature",
      "properties": {
        "feature_type": "station",
        "ref": "TXG18098",
        "name": "九公里",
        "name_en": "9 kilometers",
        "line": "251",
        "color": "#a21caf",
        "direction": 1
      },
      "geometry": {
        "type": "Point",
        "coordinates": [
          120.884112,
          24.215078
        ]
      }
    },
    {
      "type": "Feature",
      "properties": {
        "feature_type": "station",
        "ref": "TXG5240",
        "name": "大南坑",
        "name_en": "Danankeng",
        "line": "251",
        "color": "#a21caf",
        "direction": 1
      },
      "geometry": {
        "type": "Point",
        "coordinates": [
          120.882775,
          24.214217
        ]
      }
    },
    {
      "type": "Feature",
      "properties": {
        "feature_type": "station",
        "ref": "TXG5041",
        "name": "大雪山賞鳥協會（八公里）",
        "name_en": "Daxueshan Bird-watching Association(8 kilometers)",
        "line": "251",
        "color": "#a21caf",
        "direction": 1
      },
      "geometry": {
        "type": "Point",
        "coordinates": [
          120.879388,
          24.219054
        ]
      }
    },
    {
      "type": "Feature",
      "properties": {
        "feature_type": "station",
        "ref": "TXG11231",
        "name": "七公里",
        "name_en": "7 kilometers",
        "line": "251",
        "color": "#a21caf",
        "direction": 1
      },
      "geometry": {
        "type": "Point",
        "coordinates": [
          120.878142,
          24.223938
        ]
      }
    },
    {
      "type": "Feature",
      "properties": {
        "feature_type": "station",
        "ref": "TXG5285",
        "name": "小南坑",
        "name_en": "Xiaonankeng",
        "line": "251",
        "color": "#a21caf",
        "direction": 1
      },
      "geometry": {
        "type": "Point",
        "coordinates": [
          120.878867,
          24.227495
        ]
      }
    },
    {
      "type": "Feature",
      "properties": {
        "feature_type": "station",
        "ref": "TXG18120",
        "name": "上小南坑",
        "name_en": "Shangxiaonankeng",
        "line": "251",
        "color": "#a21caf",
        "direction": 1
      },
      "geometry": {
        "type": "Point",
        "coordinates": [
          120.878779,
          24.229673
        ]
      }
    },
    {
      "type": "Feature",
      "properties": {
        "feature_type": "station",
        "ref": "TXG18116",
        "name": "下楊桃樹腳",
        "name_en": "Xiayangtaoshujiao",
        "line": "251",
        "color": "#a21caf",
        "direction": 1
      },
      "geometry": {
        "type": "Point",
        "coordinates": [
          120.877832,
          24.233975
        ]
      }
    },
    {
      "type": "Feature",
      "properties": {
        "feature_type": "station",
        "ref": "TXG6467",
        "name": "楊桃樹腳",
        "name_en": "Yangtaoshujiao",
        "line": "251",
        "color": "#a21caf",
        "direction": 1
      },
      "geometry": {
        "type": "Point",
        "coordinates": [
          120.878239,
          24.236888
        ]
      }
    },
    {
      "type": "Feature",
      "properties": {
        "feature_type": "station",
        "ref": "TXG6666",
        "name": "檢查站",
        "name_en": "Security Checkpoint",
        "line": "251",
        "color": "#a21caf",
        "direction": 1
      },
      "geometry": {
        "type": "Point",
        "coordinates": [
          120.87322,
          24.240234
        ]
      }
    },
    {
      "type": "Feature",
      "properties": {
        "feature_type": "station",
        "ref": "TXG5843",
        "name": "坪埔",
        "name_en": "Pingpu",
        "line": "251",
        "color": "#a21caf",
        "direction": 1
      },
      "geometry": {
        "type": "Point",
        "coordinates": [
          120.868184,
          24.240978
        ]
      }
    },
    {
      "type": "Feature",
      "properties": {
        "feature_type": "station",
        "ref": "TXG5667",
        "name": "石橋頭前",
        "name_en": "Shiqiaotouqian",
        "line": "251",
        "color": "#a21caf",
        "direction": 1
      },
      "geometry": {
        "type": "Point",
        "coordinates": [
          120.863557,
          24.239703
        ]
      }
    },
    {
      "type": "Feature",
      "properties": {
        "feature_type": "station",
        "ref": "TXG6385",
        "name": "雲仙洞",
        "name_en": "Yunxiandong",
        "line": "251",
        "color": "#a21caf",
        "direction": 1
      },
      "geometry": {
        "type": "Point",
        "coordinates": [
          120.861186,
          24.237226
        ]
      }
    },
    {
      "type": "Feature",
      "properties": {
        "feature_type": "station",
        "ref": "TXG5175",
        "name": "上石角",
        "name_en": "Shangshijiao",
        "line": "251",
        "color": "#a21caf",
        "direction": 1
      },
      "geometry": {
        "type": "Point",
        "coordinates": [
          120.854174,
          24.236169
        ]
      }
    },
    {
      "type": "Feature",
      "properties": {
        "feature_type": "station",
        "ref": "TXG5656",
        "name": "石角國小",
        "name_en": "Shih-Chiao Elementary School",
        "line": "251",
        "color": "#a21caf",
        "direction": 1
      },
      "geometry": {
        "type": "Point",
        "coordinates": [
          120.851452,
          24.238813
        ]
      }
    },
    {
      "type": "Feature",
      "properties": {
        "feature_type": "station",
        "ref": "TXG5653",
        "name": "石角",
        "name_en": "Shijiao",
        "line": "251",
        "color": "#a21caf",
        "direction": 1
      },
      "geometry": {
        "type": "Point",
        "coordinates": [
          120.850071,
          24.240307
        ]
      }
    },
    {
      "type": "Feature",
      "properties": {
        "feature_type": "station",
        "ref": "TXG5542",
        "name": "古靈堂",
        "name_en": "Guling Hall",
        "line": "251",
        "color": "#a21caf",
        "direction": 1
      },
      "geometry": {
        "type": "Point",
        "coordinates": [
          120.847852,
          24.241026
        ]
      }
    },
    {
      "type": "Feature",
      "properties": {
        "feature_type": "station",
        "ref": "TXG5774",
        "name": "伯公下",
        "name_en": "Bogongxia",
        "line": "251",
        "color": "#a21caf",
        "direction": 1
      },
      "geometry": {
        "type": "Point",
        "coordinates": [
          120.845935,
          24.242858
        ]
      }
    },
    {
      "type": "Feature",
      "properties": {
        "feature_type": "station",
        "ref": "TXG5186",
        "name": "上高簡",
        "name_en": "Shanggaojian",
        "line": "251",
        "color": "#a21caf",
        "direction": 1
      },
      "geometry": {
        "type": "Point",
        "coordinates": [
          120.842494,
          24.244847
        ]
      }
    },
    {
      "type": "Feature",
      "properties": {
        "feature_type": "station",
        "ref": "TXG6174",
        "name": "高簡",
        "name_en": "Gaojian",
        "line": "251",
        "color": "#a21caf",
        "direction": 1
      },
      "geometry": {
        "type": "Point",
        "coordinates": [
          120.840715,
          24.244881
        ]
      }
    },
    {
      "type": "Feature",
      "properties": {
        "feature_type": "station",
        "ref": "TXG5258",
        "name": "大雪山後門",
        "name_en": "Daxueshan backdoor",
        "line": "251",
        "color": "#a21caf",
        "direction": 1
      },
      "geometry": {
        "type": "Point",
        "coordinates": [
          120.837056,
          24.244839
        ]
      }
    },
    {
      "type": "Feature",
      "properties": {
        "feature_type": "station",
        "ref": "TXG747",
        "name": "東坑豐勢路口",
        "name_en": "Dongkeng-Fengshi Intersection",
        "line": "251",
        "color": "#a21caf",
        "direction": 1
      },
      "geometry": {
        "type": "Point",
        "coordinates": [
          120.832787,
          24.247185
        ]
      }
    },
    {
      "type": "Feature",
      "properties": {
        "feature_type": "station",
        "ref": "TXG748",
        "name": "石角口",
        "name_en": "Shijiaokou",
        "line": "251",
        "color": "#a21caf",
        "direction": 1
      },
      "geometry": {
        "type": "Point",
        "coordinates": [
          120.83173,
          24.248246
        ]
      }
    },
    {
      "type": "Feature",
      "properties": {
        "feature_type": "station",
        "ref": "TXG5889",
        "name": "東勢南站",
        "name_en": "Dongshi South Station",
        "line": "251",
        "color": "#a21caf",
        "direction": 1
      },
      "geometry": {
        "type": "Point",
        "coordinates": [
          120.830743,
          24.249682
        ]
      }
    },
    {
      "type": "Feature",
      "properties": {
        "feature_type": "station",
        "ref": "TXG5302",
        "name": "中嵙口",
        "name_en": "Zhongkekou",
        "line": "251",
        "color": "#a21caf",
        "direction": 1
      },
      "geometry": {
        "type": "Point",
        "coordinates": [
          120.829831,
          24.252501
        ]
      }
    },
    {
      "type": "Feature",
      "properties": {
        "feature_type": "station",
        "ref": "TXG5987",
        "name": "南平里",
        "name_en": "Nanping Village",
        "line": "251",
        "color": "#a21caf",
        "direction": 1
      },
      "geometry": {
        "type": "Point",
        "coordinates": [
          120.829235,
          24.255013
        ]
      }
    },
    {
      "type": "Feature",
      "properties": {
        "feature_type": "station",
        "ref": "TXG5899",
        "name": "東勢",
        "name_en": "Dongshi",
        "line": "251",
        "color": "#a21caf",
        "direction": 1
      },
      "geometry": {
        "type": "Point",
        "coordinates": [
          120.828248,
          24.25734
        ]
      }
    }
  ]
}
