{
  "type": "FeatureCollection",
  "name": "黃5",
  "properties": {
    "id": "tainan_huang5",
    "name": "黃5",
    "name_en": "黃5",
    "ref": "黃5",
    "color": "#d97706",
    "city_id": "Tainan",
    "source": "TDX Bus Shape / StopOfRoute",
    "official_map_url": "http://busmap.tainan.gov.tw/ebus/resources/PathPic/zh_TW/1505.jpg",
    "operator_id": "10190",
    "operator": "新營客運",
    "operator_en": "Sinying Bus Co., Ltd."
  },
  "features": [
    {
      "type": "Feature",
      "properties": {
        "feature_type": "route",
        "ref": "黃5",
        "name": "黃5",
        "name_en": "黃5",
        "color": "#d97706",
        "direction": 0
      },
      "geometry": {
        "type": "LineString",
        "coordinates": [
          [
            120.32229,
            23.30749
          ],
          [
            120.32202,
            23.30725
          ],
          [
            120.32236,
            23.30707
          ],
          [
            120.32225,
            23.30693
          ],
          [
            120.32228,
            23.30677
          ],
          [
            120.32247,
            23.30655
          ],
          [
            120.32121,
            23.30511
          ],
          [
            120.32076,
            23.30458
          ],
          [
            120.32023,
            23.30595
          ],
          [
            120.31873,
            23.30529
          ],
          [
            120.31709,
            23.30455
          ],
          [
            120.31677,
            23.30471
          ],
          [
            120.31653,
            23.30443
          ],
          [
            120.31649,
            23.30425
          ],
          [
            120.31547,
            23.30361
          ],
          [
            120.31371,
            23.30225
          ],
          [
            120.31354,
            23.30123
          ],
          [
            120.31338,
            23.29973
          ],
          [
            120.31321,
            23.29831
          ],
          [
            120.31276,
            23.29521
          ],
          [
            120.31264,
            23.29283
          ],
          [
            120.31404,
            23.29193
          ],
          [
            120.31479,
            23.29152
          ],
          [
            120.31538,
            23.29141
          ],
          [
            120.32099,
            23.29133
          ],
          [
            120.32316,
            23.29126
          ],
          [
            120.32507,
            23.29119
          ],
          [
            120.32562,
            23.29117
          ],
          [
            120.32586,
            23.29049
          ],
          [
            120.32586,
            23.28959
          ],
          [
            120.32568,
            23.28963
          ],
          [
            120.32558,
            23.28899
          ],
          [
            120.32549,
            23.28899
          ],
          [
            120.32512,
            23.28878
          ],
          [
            120.32504,
            23.28839
          ],
          [
            120.32578,
            23.28835
          ],
          [
            120.32527,
            23.28251
          ],
          [
            120.32519,
            23.27918
          ],
          [
            120.32431,
            23.27918
          ],
          [
            120.32152,
            23.27904
          ],
          [
            120.32048,
            23.27902
          ],
          [
            120.32054,
            23.27822
          ],
          [
            120.32096,
            23.27751
          ],
          [
            120.32156,
            23.27728
          ],
          [
            120.32218,
            23.27728
          ],
          [
            120.32155,
            23.27729
          ],
          [
            120.32097,
            23.27751
          ],
          [
            120.32054,
            23.27821
          ],
          [
            120.32049,
            23.27902
          ],
          [
            120.31864,
            23.27901
          ],
          [
            120.31772,
            23.27892
          ],
          [
            120.31713,
            23.27759
          ],
          [
            120.31521,
            23.27681
          ],
          [
            120.31443,
            23.27692
          ],
          [
            120.31341,
            23.27661
          ],
          [
            120.31175,
            23.27662
          ],
          [
            120.31075,
            23.27672
          ],
          [
            120.30992,
            23.27673
          ],
          [
            120.30837,
            23.27625
          ],
          [
            120.30785,
            23.27621
          ],
          [
            120.30701,
            23.27612
          ],
          [
            120.30315,
            23.27607
          ],
          [
            120.29933,
            23.27616
          ],
          [
            120.29702,
            23.27645
          ],
          [
            120.29596,
            23.27653
          ],
          [
            120.29098,
            23.27096
          ],
          [
            120.29036,
            23.26888
          ],
          [
            120.28782,
            23.25963
          ],
          [
            120.28595,
            23.25661
          ],
          [
            120.28303,
            23.25145
          ],
          [
            120.28181,
            23.24968
          ],
          [
            120.28098,
            23.24986
          ],
          [
            120.27725,
            23.24951
          ],
          [
            120.27631,
            23.24955
          ],
          [
            120.27592,
            23.24981
          ],
          [
            120.27502,
            23.24985
          ],
          [
            120.27167,
            23.24978
          ],
          [
            120.27146,
            23.24973
          ],
          [
            120.26941,
            23.24672
          ],
          [
            120.26821,
            23.24629
          ],
          [
            120.26724,
            23.24582
          ],
          [
            120.26734,
            23.24549
          ],
          [
            120.26689,
            23.24535
          ],
          [
            120.26619,
            23.24508
          ],
          [
            120.26627,
            23.24471
          ],
          [
            120.26673,
            23.24437
          ],
          [
            120.26701,
            23.24363
          ],
          [
            120.26686,
            23.24306
          ],
          [
            120.26506,
            23.23835
          ],
          [
            120.26515,
            23.23611
          ],
          [
            120.26429,
            23.23581
          ],
          [
            120.26104,
            23.23469
          ],
          [
            120.26101,
            23.23457
          ],
          [
            120.26104,
            23.23442
          ],
          [
            120.26111,
            23.23414
          ],
          [
            120.26116,
            23.23394
          ],
          [
            120.26121,
            23.23379
          ],
          [
            120.26199,
            23.23191
          ],
          [
            120.26238,
            23.23131
          ],
          [
            120.26292,
            23.23031
          ],
          [
            120.26354,
            23.22903
          ],
          [
            120.26545,
            23.22465
          ],
          [
            120.26588,
            23.22379
          ],
          [
            120.26625,
            23.22274
          ],
          [
            120.26694,
            23.21916
          ],
          [
            120.26735,
            23.21854
          ],
          [
            120.27002,
            23.21695
          ],
          [
            120.27041,
            23.21543
          ],
          [
            120.27066,
            23.21349
          ],
          [
            120.27187,
            23.20665
          ],
          [
            120.27183,
            23.20592
          ],
          [
            120.27119,
            23.20489
          ],
          [
            120.27098,
            23.20426
          ],
          [
            120.27171,
            23.19612
          ],
          [
            120.27116,
            23.19367
          ],
          [
            120.27123,
            23.19122
          ],
          [
            120.27157,
            23.19051
          ],
          [
            120.27141,
            23.18935
          ],
          [
            120.27143,
            23.18874
          ],
          [
            120.27177,
            23.18792
          ],
          [
            120.27202,
            23.18694
          ],
          [
            120.27087,
            23.18642
          ],
          [
            120.27003,
            23.18578
          ],
          [
            120.26915,
            23.18485
          ],
          [
            120.26846,
            23.18416
          ],
          [
            120.26771,
            23.18388
          ],
          [
            120.26417,
            23.18368
          ],
          [
            120.26064,
            23.18369
          ]
        ]
      }
    },
    {
      "type": "Feature",
      "properties": {
        "feature_type": "route",
        "ref": "黃5",
        "name": "黃5",
        "name_en": "黃5",
        "color": "#d97706",
        "direction": 0
      },
      "geometry": {
        "type": "LineString",
        "coordinates": [
          [
            120.32224,
            23.30748
          ],
          [
            120.32202,
            23.30725
          ],
          [
            120.32236,
            23.30707
          ],
          [
            120.32225,
            23.30693
          ],
          [
            120.32228,
            23.30677
          ],
          [
            120.32247,
            23.30655
          ],
          [
            120.32121,
            23.30511
          ],
          [
            120.32076,
            23.30458
          ],
          [
            120.32025,
            23.30592
          ],
          [
            120.31872,
            23.30531
          ],
          [
            120.31706,
            23.30454
          ],
          [
            120.31688,
            23.30466
          ],
          [
            120.31667,
            23.30471
          ],
          [
            120.31654,
            23.30453
          ],
          [
            120.31654,
            23.30431
          ],
          [
            120.31546,
            23.30361
          ],
          [
            120.31392,
            23.30255
          ],
          [
            120.31368,
            23.30221
          ],
          [
            120.31354,
            23.30123
          ],
          [
            120.31338,
            23.29973
          ],
          [
            120.31321,
            23.29831
          ],
          [
            120.31274,
            23.29471
          ],
          [
            120.31264,
            23.29283
          ],
          [
            120.31491,
            23.29153
          ],
          [
            120.31538,
            23.29141
          ],
          [
            120.32099,
            23.29133
          ],
          [
            120.32507,
            23.29119
          ],
          [
            120.32561,
            23.29118
          ],
          [
            120.32583,
            23.29048
          ],
          [
            120.32586,
            23.28959
          ],
          [
            120.32566,
            23.28961
          ],
          [
            120.32561,
            23.28912
          ],
          [
            120.32558,
            23.28899
          ],
          [
            120.32549,
            23.28899
          ],
          [
            120.32511,
            23.28878
          ],
          [
            120.32502,
            23.28839
          ],
          [
            120.32577,
            23.28834
          ],
          [
            120.32527,
            23.28251
          ],
          [
            120.32519,
            23.27918
          ],
          [
            120.32431,
            23.27921
          ],
          [
            120.32152,
            23.27905
          ],
          [
            120.32048,
            23.27902
          ],
          [
            120.32056,
            23.27823
          ],
          [
            120.32098,
            23.27752
          ],
          [
            120.32156,
            23.27728
          ],
          [
            120.32218,
            23.27728
          ],
          [
            120.32155,
            23.27729
          ],
          [
            120.32098,
            23.27752
          ],
          [
            120.32057,
            23.27823
          ],
          [
            120.32049,
            23.27902
          ],
          [
            120.31862,
            23.27901
          ],
          [
            120.31775,
            23.27893
          ],
          [
            120.31718,
            23.27766
          ],
          [
            120.31513,
            23.27678
          ],
          [
            120.31443,
            23.27692
          ],
          [
            120.31337,
            23.27661
          ],
          [
            120.31175,
            23.27662
          ],
          [
            120.30992,
            23.27674
          ],
          [
            120.30837,
            23.27625
          ],
          [
            120.30785,
            23.27621
          ],
          [
            120.30712,
            23.27611
          ],
          [
            120.30315,
            23.27607
          ],
          [
            120.29933,
            23.27616
          ],
          [
            120.29702,
            23.27645
          ],
          [
            120.29587,
            23.27661
          ],
          [
            120.29563,
            23.27611
          ],
          [
            120.29087,
            23.27079
          ],
          [
            120.29036,
            23.26888
          ],
          [
            120.28791,
            23.25987
          ],
          [
            120.28639,
            23.25716
          ],
          [
            120.28595,
            23.25661
          ],
          [
            120.28367,
            23.25261
          ],
          [
            120.28183,
            23.24968
          ],
          [
            120.28094,
            23.24988
          ],
          [
            120.27725,
            23.24951
          ],
          [
            120.27631,
            23.24954
          ],
          [
            120.27585,
            23.24983
          ],
          [
            120.27502,
            23.24985
          ],
          [
            120.27235,
            23.24983
          ],
          [
            120.27167,
            23.24977
          ],
          [
            120.27147,
            23.24976
          ],
          [
            120.26941,
            23.24675
          ],
          [
            120.26722,
            23.24583
          ],
          [
            120.26734,
            23.24548
          ],
          [
            120.26689,
            23.24535
          ],
          [
            120.26615,
            23.24504
          ],
          [
            120.26629,
            23.24466
          ],
          [
            120.26668,
            23.24441
          ],
          [
            120.26701,
            23.24373
          ],
          [
            120.26686,
            23.24306
          ],
          [
            120.26502,
            23.23835
          ],
          [
            120.26513,
            23.23609
          ],
          [
            120.26428,
            23.23581
          ],
          [
            120.26105,
            23.23469
          ],
          [
            120.26101,
            23.23462
          ],
          [
            120.26105,
            23.23442
          ],
          [
            120.26111,
            23.23414
          ]
        ]
      }
    },
    {
      "type": "Feature",
      "properties": {
        "feature_type": "route",
        "ref": "黃5",
        "name": "黃5",
        "name_en": "黃5",
        "color": "#d97706",
        "direction": 0
      },
      "geometry": {
        "type": "LineString",
        "coordinates": [
          [
            120.32224,
            23.30748
          ],
          [
            120.32202,
            23.30725
          ],
          [
            120.32236,
            23.30707
          ],
          [
            120.32225,
            23.30693
          ],
          [
            120.32228,
            23.30677
          ],
          [
            120.32247,
            23.30655
          ],
          [
            120.32121,
            23.30511
          ],
          [
            120.32076,
            23.30458
          ],
          [
            120.32025,
            23.30592
          ],
          [
            120.31872,
            23.30531
          ],
          [
            120.31706,
            23.30454
          ],
          [
            120.31688,
            23.30466
          ],
          [
            120.31667,
            23.30471
          ],
          [
            120.31654,
            23.30453
          ],
          [
            120.31654,
            23.30431
          ],
          [
            120.31546,
            23.30361
          ],
          [
            120.31473,
            23.30713
          ],
          [
            120.31337,
            23.30701
          ],
          [
            120.31311,
            23.30815
          ],
          [
            120.31371,
            23.30817
          ],
          [
            120.31384,
            23.30832
          ],
          [
            120.31373,
            23.30915
          ],
          [
            120.31343,
            23.30873
          ],
          [
            120.31311,
            23.30814
          ],
          [
            120.31334,
            23.30697
          ],
          [
            120.31382,
            23.30494
          ],
          [
            120.31422,
            23.30371
          ],
          [
            120.31411,
            23.30362
          ],
          [
            120.31415,
            23.30348
          ],
          [
            120.31454,
            23.30292
          ],
          [
            120.31392,
            23.30255
          ],
          [
            120.31368,
            23.30221
          ],
          [
            120.31354,
            23.30123
          ],
          [
            120.31338,
            23.29973
          ],
          [
            120.31321,
            23.29831
          ],
          [
            120.31274,
            23.29471
          ],
          [
            120.31264,
            23.29283
          ],
          [
            120.31491,
            23.29153
          ],
          [
            120.31538,
            23.29141
          ],
          [
            120.32099,
            23.29133
          ],
          [
            120.32506,
            23.29119
          ],
          [
            120.32561,
            23.29118
          ],
          [
            120.32583,
            23.29048
          ],
          [
            120.32586,
            23.28959
          ],
          [
            120.32566,
            23.28961
          ],
          [
            120.32561,
            23.28912
          ],
          [
            120.32558,
            23.28899
          ],
          [
            120.32549,
            23.28899
          ],
          [
            120.32511,
            23.28878
          ],
          [
            120.32502,
            23.28839
          ],
          [
            120.32577,
            23.28834
          ],
          [
            120.32527,
            23.28251
          ],
          [
            120.32519,
            23.27918
          ],
          [
            120.32431,
            23.27921
          ],
          [
            120.32152,
            23.27905
          ],
          [
            120.32048,
            23.27902
          ],
          [
            120.32056,
            23.27823
          ],
          [
            120.32098,
            23.27752
          ],
          [
            120.32156,
            23.27728
          ],
          [
            120.32218,
            23.27728
          ],
          [
            120.32155,
            23.27729
          ],
          [
            120.32098,
            23.27752
          ],
          [
            120.32057,
            23.27823
          ],
          [
            120.32049,
            23.27902
          ],
          [
            120.31862,
            23.27901
          ],
          [
            120.31775,
            23.27893
          ],
          [
            120.31718,
            23.27766
          ],
          [
            120.31513,
            23.27678
          ],
          [
            120.31443,
            23.27692
          ],
          [
            120.31337,
            23.27661
          ],
          [
            120.31175,
            23.27662
          ],
          [
            120.30992,
            23.27674
          ],
          [
            120.30837,
            23.27625
          ],
          [
            120.30785,
            23.27621
          ],
          [
            120.30712,
            23.27611
          ],
          [
            120.30315,
            23.27607
          ],
          [
            120.29933,
            23.27616
          ],
          [
            120.29702,
            23.27645
          ],
          [
            120.29587,
            23.27661
          ],
          [
            120.29563,
            23.27611
          ],
          [
            120.29087,
            23.27079
          ],
          [
            120.29036,
            23.26888
          ],
          [
            120.28791,
            23.25987
          ],
          [
            120.28639,
            23.25716
          ],
          [
            120.28595,
            23.25661
          ],
          [
            120.28367,
            23.25261
          ],
          [
            120.28183,
            23.24968
          ],
          [
            120.28094,
            23.24988
          ],
          [
            120.27725,
            23.24951
          ],
          [
            120.27631,
            23.24954
          ],
          [
            120.27585,
            23.24983
          ],
          [
            120.27502,
            23.24985
          ],
          [
            120.27166,
            23.24978
          ],
          [
            120.27147,
            23.24976
          ],
          [
            120.26946,
            23.24673
          ],
          [
            120.26722,
            23.24583
          ],
          [
            120.26734,
            23.24551
          ],
          [
            120.26689,
            23.24535
          ],
          [
            120.26615,
            23.24504
          ],
          [
            120.26629,
            23.24466
          ],
          [
            120.26668,
            23.24441
          ],
          [
            120.26701,
            23.24373
          ],
          [
            120.26686,
            23.24306
          ],
          [
            120.26502,
            23.23835
          ],
          [
            120.26513,
            23.23609
          ],
          [
            120.26101,
            23.23465
          ],
          [
            120.26111,
            23.23414
          ]
        ]
      }
    },
    {
      "type": "Feature",
      "properties": {
        "feature_type": "route",
        "ref": "黃5",
        "name": "黃5",
        "name_en": "黃5",
        "color": "#d97706",
        "direction": 1
      },
      "geometry": {
        "type": "LineString",
        "coordinates": [
          [
            120.25981,
            23.18361
          ],
          [
            120.26003,
            23.18366
          ]
        ]
      }
    },
    {
      "type": "Feature",
      "properties": {
        "feature_type": "route",
        "ref": "黃5",
        "name": "黃5",
        "name_en": "黃5",
        "color": "#d97706",
        "direction": 1
      },
      "geometry": {
        "type": "LineString",
        "coordinates": [
          [
            120.32298,
            23.30718
          ],
          [
            120.32284,
            23.30728
          ]
        ]
      }
    },
    {
      "type": "Feature",
      "properties": {
        "feature_type": "route",
        "ref": "黃5",
        "name": "黃5",
        "name_en": "黃5",
        "color": "#d97706",
        "direction": 1
      },
      "geometry": {
        "type": "LineString",
        "coordinates": [
          [
            120.32298,
            23.30718
          ],
          [
            120.32284,
            23.30728
          ]
        ]
      }
    },
    {
      "type": "Feature",
      "properties": {
        "feature_type": "route",
        "ref": "黃5",
        "name": "黃5",
        "name_en": "黃5",
        "color": "#d97706",
        "direction": 1
      },
      "geometry": {
        "type": "LineString",
        "coordinates": [
          [
            120.32298,
            23.30718
          ],
          [
            120.32284,
            23.30728
          ]
        ]
      }
    },
    {
      "type": "Feature",
      "properties": {
        "feature_type": "station",
        "ref": "TNN7864",
        "name": "新營站",
        "name_en": "Sinying Station",
        "line": "黃5",
        "color": "#d97706",
        "direction": 0
      },
      "geometry": {
        "type": "Point",
        "coordinates": [
          120.32231,
          23.30743
        ]
      }
    },
    {
      "type": "Feature",
      "properties": {
        "feature_type": "station",
        "ref": "TNN20620",
        "name": "新營鐵道地景公園",
        "name_en": "Sinying Railway Park",
        "line": "黃5",
        "color": "#d97706",
        "direction": 0
      },
      "geometry": {
        "type": "Point",
        "coordinates": [
          120.32121,
          23.30511
        ]
      }
    },
    {
      "type": "Feature",
      "properties": {
        "feature_type": "station",
        "ref": "TNN7865",
        "name": "中營興業里",
        "name_en": "Jhongying Singye Vil.",
        "line": "黃5",
        "color": "#d97706",
        "direction": 0
      },
      "geometry": {
        "type": "Point",
        "coordinates": [
          120.31872,
          23.30531
        ]
      }
    },
    {
      "type": "Feature",
      "properties": {
        "feature_type": "station",
        "ref": "TNN7866",
        "name": "中山路",
        "name_en": "Jhongshan Rd.",
        "line": "黃5",
        "color": "#d97706",
        "direction": 0
      },
      "geometry": {
        "type": "Point",
        "coordinates": [
          120.31547,
          23.30361
        ]
      }
    },
    {
      "type": "Feature",
      "properties": {
        "feature_type": "station",
        "ref": "TNN7867",
        "name": "第一市場",
        "name_en": "First Market",
        "line": "黃5",
        "color": "#d97706",
        "direction": 0
      },
      "geometry": {
        "type": "Point",
        "coordinates": [
          120.31354,
          23.30123
        ]
      }
    },
    {
      "type": "Feature",
      "properties": {
        "feature_type": "station",
        "ref": "TNN7868",
        "name": "真武殿",
        "name_en": "Jhenwu Temple",
        "line": "黃5",
        "color": "#d97706",
        "direction": 0
      },
      "geometry": {
        "type": "Point",
        "coordinates": [
          120.31338,
          23.29973
        ]
      }
    },
    {
      "type": "Feature",
      "properties": {
        "feature_type": "station",
        "ref": "TNN7869",
        "name": "南光中學",
        "name_en": "Nanguang Senior High School",
        "line": "黃5",
        "color": "#d97706",
        "direction": 0
      },
      "geometry": {
        "type": "Point",
        "coordinates": [
          120.31321,
          23.29831
        ]
      }
    },
    {
      "type": "Feature",
      "properties": {
        "feature_type": "station",
        "ref": "TNN7870",
        "name": "副產",
        "name_en": "By-Product Center",
        "line": "黃5",
        "color": "#d97706",
        "direction": 0
      },
      "geometry": {
        "type": "Point",
        "coordinates": [
          120.31538,
          23.29141
        ]
      }
    },
    {
      "type": "Feature",
      "properties": {
        "feature_type": "station",
        "ref": "TNN7871",
        "name": "實驗所",
        "name_en": "Experiment Institute",
        "line": "黃5",
        "color": "#d97706",
        "direction": 0
      },
      "geometry": {
        "type": "Point",
        "coordinates": [
          120.32099,
          23.29133
        ]
      }
    },
    {
      "type": "Feature",
      "properties": {
        "feature_type": "station",
        "ref": "TNN25954",
        "name": "太康里",
        "name_en": "Taikang Vil.",
        "line": "黃5",
        "color": "#d97706",
        "direction": 0
      },
      "geometry": {
        "type": "Point",
        "coordinates": [
          120.32507,
          23.29119
        ]
      }
    },
    {
      "type": "Feature",
      "properties": {
        "feature_type": "station",
        "ref": "TNN7872",
        "name": "柳營奇美醫院",
        "name_en": "Liouying Chi Mei Hospital",
        "line": "黃5",
        "color": "#d97706",
        "direction": 0
      },
      "geometry": {
        "type": "Point",
        "coordinates": [
          120.32549,
          23.28899
        ]
      }
    },
    {
      "type": "Feature",
      "properties": {
        "feature_type": "station",
        "ref": "TNN7873",
        "name": "鳳和中學",
        "name_en": "Fonghe Senior High School",
        "line": "黃5",
        "color": "#d97706",
        "direction": 0
      },
      "geometry": {
        "type": "Point",
        "coordinates": [
          120.32431,
          23.27921
        ]
      }
    },
    {
      "type": "Feature",
      "properties": {
        "feature_type": "station",
        "ref": "TNN25944",
        "name": "中山西路一段",
        "name_en": "Sec. 1 Jhongshan W. Rd.",
        "line": "黃5",
        "color": "#d97706",
        "direction": 0
      },
      "geometry": {
        "type": "Point",
        "coordinates": [
          120.32155,
          23.27913
        ]
      }
    },
    {
      "type": "Feature",
      "properties": {
        "feature_type": "station",
        "ref": "TNN7874",
        "name": "柳營火車站",
        "name_en": "Liouying Train Station",
        "line": "黃5",
        "color": "#d97706",
        "direction": 0
      },
      "geometry": {
        "type": "Point",
        "coordinates": [
          120.32218,
          23.27728
        ]
      }
    },
    {
      "type": "Feature",
      "properties": {
        "feature_type": "station",
        "ref": "TNN7875",
        "name": "柳營代天院",
        "name_en": "Liouying Daitian Temple",
        "line": "黃5",
        "color": "#d97706",
        "direction": 0
      },
      "geometry": {
        "type": "Point",
        "coordinates": [
          120.31862,
          23.27901
        ]
      }
    },
    {
      "type": "Feature",
      "properties": {
        "feature_type": "station",
        "ref": "TNN15766",
        "name": "劉家古厝",
        "name_en": "Liou’s Historic House",
        "line": "黃5",
        "color": "#d97706",
        "direction": 0
      },
      "geometry": {
        "type": "Point",
        "coordinates": [
          120.30992,
          23.27674
        ]
      }
    },
    {
      "type": "Feature",
      "properties": {
        "feature_type": "station",
        "ref": "TNN29540",
        "name": "農水署柳營工作站",
        "name_en": "Irrigation Agency Liouying Workstation",
        "line": "黃5",
        "color": "#d97706",
        "direction": 0
      },
      "geometry": {
        "type": "Point",
        "coordinates": [
          120.30785,
          23.27621
        ]
      }
    },
    {
      "type": "Feature",
      "properties": {
        "feature_type": "station",
        "ref": "TNN8970",
        "name": "八翁里",
        "name_en": "Bawong Vil.",
        "line": "黃5",
        "color": "#d97706",
        "direction": 0
      },
      "geometry": {
        "type": "Point",
        "coordinates": [
          120.30326,
          23.27612
        ]
      }
    },
    {
      "type": "Feature",
      "properties": {
        "feature_type": "station",
        "ref": "TNN7876",
        "name": "八老爺",
        "name_en": "Balaoye",
        "line": "黃5",
        "color": "#d97706",
        "direction": 0
      },
      "geometry": {
        "type": "Point",
        "coordinates": [
          120.29702,
          23.27645
        ]
      }
    },
    {
      "type": "Feature",
      "properties": {
        "feature_type": "station",
        "ref": "TNN15986",
        "name": "賀建里",
        "name_en": "Hejian Vil.",
        "line": "黃5",
        "color": "#d97706",
        "direction": 0
      },
      "geometry": {
        "type": "Point",
        "coordinates": [
          120.28595,
          23.25661
        ]
      }
    },
    {
      "type": "Feature",
      "properties": {
        "feature_type": "station",
        "ref": "TNN7877",
        "name": "十六甲",
        "name_en": "Shihlioujia",
        "line": "黃5",
        "color": "#d97706",
        "direction": 0
      },
      "geometry": {
        "type": "Point",
        "coordinates": [
          120.27502,
          23.24985
        ]
      }
    },
    {
      "type": "Feature",
      "properties": {
        "feature_type": "station",
        "ref": "TNN7878",
        "name": "中庄",
        "name_en": "Jhongjhuang",
        "line": "黃5",
        "color": "#d97706",
        "direction": 0
      },
      "geometry": {
        "type": "Point",
        "coordinates": [
          120.27167,
          23.24978
        ]
      }
    },
    {
      "type": "Feature",
      "properties": {
        "feature_type": "station",
        "ref": "TNN7879",
        "name": "紅毛厝",
        "name_en": "Hongmaocuo",
        "line": "黃5",
        "color": "#d97706",
        "direction": 0
      },
      "geometry": {
        "type": "Point",
        "coordinates": [
          120.26689,
          23.24535
        ]
      }
    },
    {
      "type": "Feature",
      "properties": {
        "feature_type": "station",
        "ref": "TNN7880",
        "name": "顏姓祖厝",
        "name_en": "Old House of Yan",
        "line": "黃5",
        "color": "#d97706",
        "direction": 0
      },
      "geometry": {
        "type": "Point",
        "coordinates": [
          120.26686,
          23.24306
        ]
      }
    },
    {
      "type": "Feature",
      "properties": {
        "feature_type": "station",
        "ref": "TNN7881",
        "name": "下營區公所",
        "name_en": "Siaying District Office",
        "line": "黃5",
        "color": "#d97706",
        "direction": 0
      },
      "geometry": {
        "type": "Point",
        "coordinates": [
          120.26429,
          23.23581
        ]
      }
    },
    {
      "type": "Feature",
      "properties": {
        "feature_type": "station",
        "ref": "TNN15714",
        "name": "下營廟前",
        "name_en": "Siaying Temple",
        "line": "黃5",
        "color": "#d97706",
        "direction": 0
      },
      "geometry": {
        "type": "Point",
        "coordinates": [
          120.26111,
          23.23413
        ]
      }
    },
    {
      "type": "Feature",
      "properties": {
        "feature_type": "station",
        "ref": "TNN32377",
        "name": "下營衛生所",
        "name_en": "Siaying Public Health Center",
        "line": "黃5",
        "color": "#d97706",
        "direction": 0
      },
      "geometry": {
        "type": "Point",
        "coordinates": [
          120.26238,
          23.23131
        ]
      }
    },
    {
      "type": "Feature",
      "properties": {
        "feature_type": "station",
        "ref": "TNN32378",
        "name": "給水站",
        "name_en": "Water Supply Station",
        "line": "黃5",
        "color": "#d97706",
        "direction": 0
      },
      "geometry": {
        "type": "Point",
        "coordinates": [
          120.26347,
          23.22901
        ]
      }
    },
    {
      "type": "Feature",
      "properties": {
        "feature_type": "station",
        "ref": "TNN32379",
        "name": "下營中山路",
        "name_en": "Siaying Jhongshan Rd.",
        "line": "黃5",
        "color": "#d97706",
        "direction": 0
      },
      "geometry": {
        "type": "Point",
        "coordinates": [
          120.26545,
          23.22465
        ]
      }
    },
    {
      "type": "Feature",
      "properties": {
        "feature_type": "station",
        "ref": "TNN32380",
        "name": "右武衛公園",
        "name_en": "Youwuwei Park",
        "line": "黃5",
        "color": "#d97706",
        "direction": 0
      },
      "geometry": {
        "type": "Point",
        "coordinates": [
          120.26625,
          23.22274
        ]
      }
    },
    {
      "type": "Feature",
      "properties": {
        "feature_type": "station",
        "ref": "TNN32381",
        "name": "西連里",
        "name_en": "Silian Vil.",
        "line": "黃5",
        "color": "#d97706",
        "direction": 0
      },
      "geometry": {
        "type": "Point",
        "coordinates": [
          120.27066,
          23.21349
        ]
      }
    },
    {
      "type": "Feature",
      "properties": {
        "feature_type": "station",
        "ref": "TNN32382",
        "name": "中營三角公園",
        "name_en": "Jhongying Sanjiao Park",
        "line": "黃5",
        "color": "#d97706",
        "direction": 0
      },
      "geometry": {
        "type": "Point",
        "coordinates": [
          120.27119,
          23.20489
        ]
      }
    },
    {
      "type": "Feature",
      "properties": {
        "feature_type": "station",
        "ref": "TNN32383",
        "name": "水堀頭",
        "name_en": "Shuijuetou",
        "line": "黃5",
        "color": "#d97706",
        "direction": 0
      },
      "geometry": {
        "type": "Point",
        "coordinates": [
          120.27123,
          23.19122
        ]
      }
    },
    {
      "type": "Feature",
      "properties": {
        "feature_type": "station",
        "ref": "TNN33489",
        "name": "總爺糖廠",
        "name_en": "Zongye Sugar Refinery",
        "line": "黃5",
        "color": "#d97706",
        "direction": 0
      },
      "geometry": {
        "type": "Point",
        "coordinates": [
          120.26765,
          23.18394
        ]
      }
    },
    {
      "type": "Feature",
      "properties": {
        "feature_type": "station",
        "ref": "TNN33490",
        "name": "麻豆國中",
        "name_en": "Madou Junior High School",
        "line": "黃5",
        "color": "#d97706",
        "direction": 0
      },
      "geometry": {
        "type": "Point",
        "coordinates": [
          120.26064,
          23.18369
        ]
      }
    },
    {
      "type": "Feature",
      "properties": {
        "feature_type": "station",
        "ref": "TNN33491",
        "name": "麻豆國中",
        "name_en": "Madou Junior High School",
        "line": "黃5",
        "color": "#d97706",
        "direction": 1
      },
      "geometry": {
        "type": "Point",
        "coordinates": [
          120.25981,
          23.18359
        ]
      }
    },
    {
      "type": "Feature",
      "properties": {
        "feature_type": "station",
        "ref": "TNN33492",
        "name": "總爺糖廠",
        "name_en": "Zongye Sugar Refinery",
        "line": "黃5",
        "color": "#d97706",
        "direction": 1
      },
      "geometry": {
        "type": "Point",
        "coordinates": [
          120.26774,
          23.18381
        ]
      }
    },
    {
      "type": "Feature",
      "properties": {
        "feature_type": "station",
        "ref": "TNN32386",
        "name": "水堀頭",
        "name_en": "Shuijuetou",
        "line": "黃5",
        "color": "#d97706",
        "direction": 1
      },
      "geometry": {
        "type": "Point",
        "coordinates": [
          120.27137,
          23.19123
        ]
      }
    },
    {
      "type": "Feature",
      "properties": {
        "feature_type": "station",
        "ref": "TNN32387",
        "name": "中營三角公園",
        "name_en": "Jhongying Sanjiao Park",
        "line": "黃5",
        "color": "#d97706",
        "direction": 1
      },
      "geometry": {
        "type": "Point",
        "coordinates": [
          120.27132,
          23.20481
        ]
      }
    },
    {
      "type": "Feature",
      "properties": {
        "feature_type": "station",
        "ref": "TNN32388",
        "name": "西連里",
        "name_en": "Silian Vil.",
        "line": "黃5",
        "color": "#d97706",
        "direction": 1
      },
      "geometry": {
        "type": "Point",
        "coordinates": [
          120.27083,
          23.21336
        ]
      }
    },
    {
      "type": "Feature",
      "properties": {
        "feature_type": "station",
        "ref": "TNN32389",
        "name": "右武衛公園",
        "name_en": "Youwuwei Park",
        "line": "黃5",
        "color": "#d97706",
        "direction": 1
      },
      "geometry": {
        "type": "Point",
        "coordinates": [
          120.26637,
          23.22282
        ]
      }
    },
    {
      "type": "Feature",
      "properties": {
        "feature_type": "station",
        "ref": "TNN32390",
        "name": "下營中山路",
        "name_en": "Siaying Jhongshan Rd.",
        "line": "黃5",
        "color": "#d97706",
        "direction": 1
      },
      "geometry": {
        "type": "Point",
        "coordinates": [
          120.26559,
          23.22468
        ]
      }
    },
    {
      "type": "Feature",
      "properties": {
        "feature_type": "station",
        "ref": "TNN32391",
        "name": "給水站",
        "name_en": "Water Supply Station",
        "line": "黃5",
        "color": "#d97706",
        "direction": 1
      },
      "geometry": {
        "type": "Point",
        "coordinates": [
          120.26343,
          23.22937
        ]
      }
    },
    {
      "type": "Feature",
      "properties": {
        "feature_type": "station",
        "ref": "TNN32392",
        "name": "下營衛生所",
        "name_en": "Siaying Public Health Center",
        "line": "黃5",
        "color": "#d97706",
        "direction": 1
      },
      "geometry": {
        "type": "Point",
        "coordinates": [
          120.26249,
          23.23142
        ]
      }
    },
    {
      "type": "Feature",
      "properties": {
        "feature_type": "station",
        "ref": "TNN15715",
        "name": "下營廟前",
        "name_en": "Siaying Temple",
        "line": "黃5",
        "color": "#d97706",
        "direction": 1
      },
      "geometry": {
        "type": "Point",
        "coordinates": [
          120.26109,
          23.23435
        ]
      }
    },
    {
      "type": "Feature",
      "properties": {
        "feature_type": "station",
        "ref": "TNN7882",
        "name": "下營區公所",
        "name_en": "Siaying District Office",
        "line": "黃5",
        "color": "#d97706",
        "direction": 1
      },
      "geometry": {
        "type": "Point",
        "coordinates": [
          120.26431,
          23.23571
        ]
      }
    },
    {
      "type": "Feature",
      "properties": {
        "feature_type": "station",
        "ref": "TNN7883",
        "name": "顏姓祖厝",
        "name_en": "Old House of Yan",
        "line": "黃5",
        "color": "#d97706",
        "direction": 1
      },
      "geometry": {
        "type": "Point",
        "coordinates": [
          120.26687,
          23.24291
        ]
      }
    },
    {
      "type": "Feature",
      "properties": {
        "feature_type": "station",
        "ref": "TNN7884",
        "name": "紅毛厝",
        "name_en": "Hongmaocuo",
        "line": "黃5",
        "color": "#d97706",
        "direction": 1
      },
      "geometry": {
        "type": "Point",
        "coordinates": [
          120.26727,
          23.24564
        ]
      }
    },
    {
      "type": "Feature",
      "properties": {
        "feature_type": "station",
        "ref": "TNN7885",
        "name": "中庄",
        "name_en": "Jhongjhuang",
        "line": "黃5",
        "color": "#d97706",
        "direction": 1
      },
      "geometry": {
        "type": "Point",
        "coordinates": [
          120.27173,
          23.24971
        ]
      }
    },
    {
      "type": "Feature",
      "properties": {
        "feature_type": "station",
        "ref": "TNN7886",
        "name": "十六甲",
        "name_en": "Shihlioujia",
        "line": "黃5",
        "color": "#d97706",
        "direction": 1
      },
      "geometry": {
        "type": "Point",
        "coordinates": [
          120.27504,
          23.24973
        ]
      }
    },
    {
      "type": "Feature",
      "properties": {
        "feature_type": "station",
        "ref": "TNN15987",
        "name": "賀建里",
        "name_en": "Hejian Vil.",
        "line": "黃5",
        "color": "#d97706",
        "direction": 1
      },
      "geometry": {
        "type": "Point",
        "coordinates": [
          120.28617,
          23.25681
        ]
      }
    },
    {
      "type": "Feature",
      "properties": {
        "feature_type": "station",
        "ref": "TNN7887",
        "name": "八老爺",
        "name_en": "Balaoye",
        "line": "黃5",
        "color": "#d97706",
        "direction": 1
      },
      "geometry": {
        "type": "Point",
        "coordinates": [
          120.29727,
          23.27634
        ]
      }
    },
    {
      "type": "Feature",
      "properties": {
        "feature_type": "station",
        "ref": "TNN8971",
        "name": "八翁里",
        "name_en": "Bawong Vil.",
        "line": "黃5",
        "color": "#d97706",
        "direction": 1
      },
      "geometry": {
        "type": "Point",
        "coordinates": [
          120.30327,
          23.27602
        ]
      }
    },
    {
      "type": "Feature",
      "properties": {
        "feature_type": "station",
        "ref": "TNN29541",
        "name": "農水署柳營工作站",
        "name_en": "Irrigation Agency Liouying Workstation",
        "line": "黃5",
        "color": "#d97706",
        "direction": 1
      },
      "geometry": {
        "type": "Point",
        "coordinates": [
          120.30781,
          23.27611
        ]
      }
    },
    {
      "type": "Feature",
      "properties": {
        "feature_type": "station",
        "ref": "TNN15767",
        "name": "劉家古厝",
        "name_en": "Liou’s Historic House",
        "line": "黃5",
        "color": "#d97706",
        "direction": 1
      },
      "geometry": {
        "type": "Point",
        "coordinates": [
          120.30981,
          23.27658
        ]
      }
    },
    {
      "type": "Feature",
      "properties": {
        "feature_type": "station",
        "ref": "TNN7888",
        "name": "柳營代天院",
        "name_en": "Liouying Daitian Temple",
        "line": "黃5",
        "color": "#d97706",
        "direction": 1
      },
      "geometry": {
        "type": "Point",
        "coordinates": [
          120.31796,
          23.27888
        ]
      }
    },
    {
      "type": "Feature",
      "properties": {
        "feature_type": "station",
        "ref": "TNN7889",
        "name": "柳營火車站",
        "name_en": "Liouying Train Station",
        "line": "黃5",
        "color": "#d97706",
        "direction": 1
      },
      "geometry": {
        "type": "Point",
        "coordinates": [
          120.32218,
          23.27728
        ]
      }
    },
    {
      "type": "Feature",
      "properties": {
        "feature_type": "station",
        "ref": "TNN25945",
        "name": "中山西路一段",
        "name_en": "Sec. 1 Jhongshan W. Rd.",
        "line": "黃5",
        "color": "#d97706",
        "direction": 1
      },
      "geometry": {
        "type": "Point",
        "coordinates": [
          120.32101,
          23.27904
        ]
      }
    },
    {
      "type": "Feature",
      "properties": {
        "feature_type": "station",
        "ref": "TNN7890",
        "name": "鳳和中學",
        "name_en": "Fonghe Senior High School",
        "line": "黃5",
        "color": "#d97706",
        "direction": 1
      },
      "geometry": {
        "type": "Point",
        "coordinates": [
          120.32468,
          23.27906
        ]
      }
    },
    {
      "type": "Feature",
      "properties": {
        "feature_type": "station",
        "ref": "TNN7891",
        "name": "柳營奇美醫院",
        "name_en": "Liouying Chi Mei Hospital",
        "line": "黃5",
        "color": "#d97706",
        "direction": 1
      },
      "geometry": {
        "type": "Point",
        "coordinates": [
          120.32549,
          23.28899
        ]
      }
    },
    {
      "type": "Feature",
      "properties": {
        "feature_type": "station",
        "ref": "TNN25955",
        "name": "太康里",
        "name_en": "Taikang Vil.",
        "line": "黃5",
        "color": "#d97706",
        "direction": 1
      },
      "geometry": {
        "type": "Point",
        "coordinates": [
          120.32507,
          23.29131
        ]
      }
    },
    {
      "type": "Feature",
      "properties": {
        "feature_type": "station",
        "ref": "TNN7892",
        "name": "實驗所",
        "name_en": "Experiment Institute",
        "line": "黃5",
        "color": "#d97706",
        "direction": 1
      },
      "geometry": {
        "type": "Point",
        "coordinates": [
          120.32141,
          23.29144
        ]
      }
    },
    {
      "type": "Feature",
      "properties": {
        "feature_type": "station",
        "ref": "TNN7893",
        "name": "副產",
        "name_en": "By-Product Center",
        "line": "黃5",
        "color": "#d97706",
        "direction": 1
      },
      "geometry": {
        "type": "Point",
        "coordinates": [
          120.31548,
          23.29161
        ]
      }
    },
    {
      "type": "Feature",
      "properties": {
        "feature_type": "station",
        "ref": "TNN7894",
        "name": "南光中學",
        "name_en": "Nanguang Senior High School",
        "line": "黃5",
        "color": "#d97706",
        "direction": 1
      },
      "geometry": {
        "type": "Point",
        "coordinates": [
          120.31326,
          23.29843
        ]
      }
    },
    {
      "type": "Feature",
      "properties": {
        "feature_type": "station",
        "ref": "TNN7895",
        "name": "真武殿",
        "name_en": "Jhenwu Temple",
        "line": "黃5",
        "color": "#d97706",
        "direction": 1
      },
      "geometry": {
        "type": "Point",
        "coordinates": [
          120.31343,
          23.29977
        ]
      }
    },
    {
      "type": "Feature",
      "properties": {
        "feature_type": "station",
        "ref": "TNN7896",
        "name": "第一市場",
        "name_en": "First Market",
        "line": "黃5",
        "color": "#d97706",
        "direction": 1
      },
      "geometry": {
        "type": "Point",
        "coordinates": [
          120.31361,
          23.30121
        ]
      }
    },
    {
      "type": "Feature",
      "properties": {
        "feature_type": "station",
        "ref": "TNN7897",
        "name": "中山路",
        "name_en": "Jhongshan Rd.",
        "line": "黃5",
        "color": "#d97706",
        "direction": 1
      },
      "geometry": {
        "type": "Point",
        "coordinates": [
          120.31584,
          23.30381
        ]
      }
    },
    {
      "type": "Feature",
      "properties": {
        "feature_type": "station",
        "ref": "TNN7898",
        "name": "中營興業里",
        "name_en": "Jhongying Singye Vil.",
        "line": "黃5",
        "color": "#d97706",
        "direction": 1
      },
      "geometry": {
        "type": "Point",
        "coordinates": [
          120.31899,
          23.30528
        ]
      }
    },
    {
      "type": "Feature",
      "properties": {
        "feature_type": "station",
        "ref": "TNN20621",
        "name": "新營鐵道地景公園",
        "name_en": "Sinying Railway Park",
        "line": "黃5",
        "color": "#d97706",
        "direction": 1
      },
      "geometry": {
        "type": "Point",
        "coordinates": [
          120.32102,
          23.30478
        ]
      }
    },
    {
      "type": "Feature",
      "properties": {
        "feature_type": "station",
        "ref": "TNN7899",
        "name": "新營站",
        "name_en": "Sinying Station",
        "line": "黃5",
        "color": "#d97706",
        "direction": 1
      },
      "geometry": {
        "type": "Point",
        "coordinates": [
          120.32231,
          23.30743
        ]
      }
    },
    {
      "type": "Feature",
      "properties": {
        "feature_type": "station",
        "ref": "TNN32963",
        "name": "新營醫院(小黃公車)",
        "name_en": "Sinying Hospital(Shuttle Taxi)",
        "line": "黃5",
        "color": "#d97706",
        "direction": 0
      },
      "geometry": {
        "type": "Point",
        "coordinates": [
          120.31341,
          23.30872
        ]
      }
    },
    {
      "type": "Feature",
      "properties": {
        "feature_type": "station",
        "ref": "TNN32964",
        "name": "新營醫院(小黃公車)",
        "name_en": "Sinying Hospital(Shuttle Taxi)",
        "line": "黃5",
        "color": "#d97706",
        "direction": 1
      },
      "geometry": {
        "type": "Point",
        "coordinates": [
          120.31341,
          23.30872
        ]
      }
    }
  ]
}
