{
  "type": "FeatureCollection",
  "name": "黃14-1",
  "properties": {
    "id": "tainan_huang14-1",
    "name": "黃14-1",
    "name_en": "黃14-1",
    "ref": "黃14-1",
    "color": "#134e4a",
    "city_id": "Tainan",
    "source": "TDX Bus Shape / StopOfRoute",
    "official_map_url": "http://busmap.tainan.gov.tw/ebus/resources/PathPic/zh_TW/1704.jpg",
    "operator_id": "16202",
    "operator": "台一大車隊"
  },
  "features": [
    {
      "type": "Feature",
      "properties": {
        "feature_type": "route",
        "ref": "黃14-1",
        "name": "黃14-1",
        "name_en": "黃14-1",
        "color": "#134e4a",
        "direction": 0
      },
      "geometry": {
        "type": "LineString",
        "coordinates": [
          [
            120.41367,
            23.34759
          ],
          [
            120.41392,
            23.34743
          ],
          [
            120.41478,
            23.34861
          ],
          [
            120.41518,
            23.34972
          ],
          [
            120.41579,
            23.35076
          ],
          [
            120.41637,
            23.35124
          ],
          [
            120.41643,
            23.35137
          ],
          [
            120.41657,
            23.35151
          ],
          [
            120.41806,
            23.35356
          ],
          [
            120.41887,
            23.35462
          ],
          [
            120.41962,
            23.35559
          ],
          [
            120.42423,
            23.36178
          ],
          [
            120.42536,
            23.36331
          ],
          [
            120.42931,
            23.36504
          ],
          [
            120.43397,
            23.36589
          ],
          [
            120.43624,
            23.36631
          ],
          [
            120.43794,
            23.36756
          ],
          [
            120.43834,
            23.36851
          ],
          [
            120.44101,
            23.37183
          ],
          [
            120.44365,
            23.37497
          ],
          [
            120.44481,
            23.37651
          ],
          [
            120.44168,
            23.37644
          ],
          [
            120.43844,
            23.37634
          ],
          [
            120.43724,
            23.37631
          ],
          [
            120.43343,
            23.37615
          ],
          [
            120.43149,
            23.37615
          ],
          [
            120.43004,
            23.37637
          ],
          [
            120.43141,
            23.38037
          ],
          [
            120.43203,
            23.38175
          ],
          [
            120.43261,
            23.38261
          ],
          [
            120.43317,
            23.38405
          ],
          [
            120.43617,
            23.38316
          ],
          [
            120.43669,
            23.38281
          ],
          [
            120.43713,
            23.38251
          ],
          [
            120.43781,
            23.38229
          ],
          [
            120.43891,
            23.38275
          ],
          [
            120.43905,
            23.38283
          ],
          [
            120.43888,
            23.38352
          ],
          [
            120.43861,
            23.38423
          ],
          [
            120.43808,
            23.38496
          ],
          [
            120.43745,
            23.38557
          ],
          [
            120.43366,
            23.39018
          ],
          [
            120.43038,
            23.39443
          ],
          [
            120.42999,
            23.39489
          ],
          [
            120.42857,
            23.39669
          ],
          [
            120.42813,
            23.39627
          ],
          [
            120.42791,
            23.39598
          ],
          [
            120.42773,
            23.39579
          ],
          [
            120.42752,
            23.39571
          ],
          [
            120.42727,
            23.39571
          ],
          [
            120.42711,
            23.39583
          ],
          [
            120.42697,
            23.39603
          ],
          [
            120.42685,
            23.39615
          ],
          [
            120.42591,
            23.39601
          ],
          [
            120.42511,
            23.39592
          ],
          [
            120.42492,
            23.39588
          ],
          [
            120.42479,
            23.39592
          ],
          [
            120.42517,
            23.39594
          ],
          [
            120.42638,
            23.39608
          ],
          [
            120.42687,
            23.39616
          ],
          [
            120.42709,
            23.39584
          ],
          [
            120.42727,
            23.39571
          ],
          [
            120.42752,
            23.39571
          ],
          [
            120.42773,
            23.39581
          ],
          [
            120.42813,
            23.39627
          ],
          [
            120.42857,
            23.39668
          ],
          [
            120.43027,
            23.39443
          ],
          [
            120.43062,
            23.39444
          ],
          [
            120.43191,
            23.39485
          ],
          [
            120.43612,
            23.39709
          ],
          [
            120.43661,
            23.39727
          ],
          [
            120.43701,
            23.39779
          ],
          [
            120.43716,
            23.39795
          ],
          [
            120.43733,
            23.39805
          ],
          [
            120.43755,
            23.39798
          ],
          [
            120.43764,
            23.39785
          ]
        ]
      }
    },
    {
      "type": "Feature",
      "properties": {
        "feature_type": "station",
        "ref": "TNN20730",
        "name": "白河站",
        "name_en": "Baihe Bus Station",
        "line": "黃14-1",
        "color": "#134e4a",
        "direction": 0
      },
      "geometry": {
        "type": "Point",
        "coordinates": [
          120.41366,
          23.34758
        ]
      }
    },
    {
      "type": "Feature",
      "properties": {
        "feature_type": "station",
        "ref": "TNN20732",
        "name": "白河分局",
        "name_en": "Baihe Police Station",
        "line": "黃14-1",
        "color": "#134e4a",
        "direction": 0
      },
      "geometry": {
        "type": "Point",
        "coordinates": [
          120.41628,
          23.35114
        ]
      }
    },
    {
      "type": "Feature",
      "properties": {
        "feature_type": "station",
        "ref": "TNN20733",
        "name": "舊地政",
        "name_en": "Jioudijheng",
        "line": "黃14-1",
        "color": "#134e4a",
        "direction": 0
      },
      "geometry": {
        "type": "Point",
        "coordinates": [
          120.41969,
          23.35557
        ]
      }
    },
    {
      "type": "Feature",
      "properties": {
        "feature_type": "station",
        "ref": "TNN20734",
        "name": "白河國中",
        "name_en": "Baihe Junior High School",
        "line": "黃14-1",
        "color": "#134e4a",
        "direction": 0
      },
      "geometry": {
        "type": "Point",
        "coordinates": [
          120.42431,
          23.36187
        ]
      }
    },
    {
      "type": "Feature",
      "properties": {
        "feature_type": "station",
        "ref": "TNN20735",
        "name": "三間厝",
        "name_en": "Sanjiancuo",
        "line": "黃14-1",
        "color": "#134e4a",
        "direction": 0
      },
      "geometry": {
        "type": "Point",
        "coordinates": [
          120.42851,
          23.36468
        ]
      }
    },
    {
      "type": "Feature",
      "properties": {
        "feature_type": "station",
        "ref": "TNN20736",
        "name": "溪洲路口",
        "name_en": "Sijhou Rd. Intersection",
        "line": "黃14-1",
        "color": "#134e4a",
        "direction": 0
      },
      "geometry": {
        "type": "Point",
        "coordinates": [
          120.43419,
          23.36593
        ]
      }
    },
    {
      "type": "Feature",
      "properties": {
        "feature_type": "station",
        "ref": "TNN20737",
        "name": "埤子頭",
        "name_en": "Bizihtou",
        "line": "黃14-1",
        "color": "#134e4a",
        "direction": 0
      },
      "geometry": {
        "type": "Point",
        "coordinates": [
          120.43821,
          23.36808
        ]
      }
    },
    {
      "type": "Feature",
      "properties": {
        "feature_type": "station",
        "ref": "TNN20738",
        "name": "竹門活動中心",
        "name_en": "Jhumen Community Center",
        "line": "黃14-1",
        "color": "#134e4a",
        "direction": 0
      },
      "geometry": {
        "type": "Point",
        "coordinates": [
          120.44431,
          23.37653
        ]
      }
    },
    {
      "type": "Feature",
      "properties": {
        "feature_type": "station",
        "ref": "TNN20739",
        "name": "竹圍子",
        "name_en": "Jhuweizih",
        "line": "黃14-1",
        "color": "#134e4a",
        "direction": 0
      },
      "geometry": {
        "type": "Point",
        "coordinates": [
          120.43895,
          23.37645
        ]
      }
    },
    {
      "type": "Feature",
      "properties": {
        "feature_type": "station",
        "ref": "TNN20740",
        "name": "番子園",
        "name_en": "Fanzihyuan",
        "line": "黃14-1",
        "color": "#134e4a",
        "direction": 0
      },
      "geometry": {
        "type": "Point",
        "coordinates": [
          120.43734,
          23.37642
        ]
      }
    },
    {
      "type": "Feature",
      "properties": {
        "feature_type": "station",
        "ref": "TNN20741",
        "name": "美雅傢俱",
        "name_en": "Meiya Furniture",
        "line": "黃14-1",
        "color": "#134e4a",
        "direction": 0
      },
      "geometry": {
        "type": "Point",
        "coordinates": [
          120.43277,
          23.38297
        ]
      }
    },
    {
      "type": "Feature",
      "properties": {
        "feature_type": "station",
        "ref": "TNN20742",
        "name": "過溝仔",
        "name_en": "Guogouzih",
        "line": "黃14-1",
        "color": "#134e4a",
        "direction": 0
      },
      "geometry": {
        "type": "Point",
        "coordinates": [
          120.43669,
          23.38281
        ]
      }
    },
    {
      "type": "Feature",
      "properties": {
        "feature_type": "station",
        "ref": "TNN20743",
        "name": "甘宅",
        "name_en": "Ganjhai",
        "line": "黃14-1",
        "color": "#134e4a",
        "direction": 0
      },
      "geometry": {
        "type": "Point",
        "coordinates": [
          120.43892,
          23.38272
        ]
      }
    },
    {
      "type": "Feature",
      "properties": {
        "feature_type": "station",
        "ref": "TNN20744",
        "name": "埤角",
        "name_en": "Bijiao",
        "line": "黃14-1",
        "color": "#134e4a",
        "direction": 0
      },
      "geometry": {
        "type": "Point",
        "coordinates": [
          120.43742,
          23.38562
        ]
      }
    },
    {
      "type": "Feature",
      "properties": {
        "feature_type": "station",
        "ref": "TNN20745",
        "name": "大厝",
        "name_en": "Dacuo",
        "line": "黃14-1",
        "color": "#134e4a",
        "direction": 0
      },
      "geometry": {
        "type": "Point",
        "coordinates": [
          120.43372,
          23.39021
        ]
      }
    },
    {
      "type": "Feature",
      "properties": {
        "feature_type": "station",
        "ref": "TNN20746",
        "name": "草店活動中心",
        "name_en": "Caodian Community Center",
        "line": "黃14-1",
        "color": "#134e4a",
        "direction": 0
      },
      "geometry": {
        "type": "Point",
        "coordinates": [
          120.43276,
          23.39147
        ]
      }
    },
    {
      "type": "Feature",
      "properties": {
        "feature_type": "station",
        "ref": "TNN20747",
        "name": "關帝廟",
        "name_en": "Guandi Temple",
        "line": "黃14-1",
        "color": "#134e4a",
        "direction": 0
      },
      "geometry": {
        "type": "Point",
        "coordinates": [
          120.42839,
          23.39657
        ]
      }
    },
    {
      "type": "Feature",
      "properties": {
        "feature_type": "station",
        "ref": "TNN20748",
        "name": "大埔(白河)",
        "name_en": "Dapu(Baihe)",
        "line": "黃14-1",
        "color": "#134e4a",
        "direction": 0
      },
      "geometry": {
        "type": "Point",
        "coordinates": [
          120.42481,
          23.39592
        ]
      }
    },
    {
      "type": "Feature",
      "properties": {
        "feature_type": "station",
        "ref": "TNN20749",
        "name": "內角",
        "name_en": "Neijiao",
        "line": "黃14-1",
        "color": "#134e4a",
        "direction": 0
      },
      "geometry": {
        "type": "Point",
        "coordinates": [
          120.43764,
          23.39785
        ]
      }
    },
    {
      "type": "Feature",
      "properties": {
        "feature_type": "station",
        "ref": "TNN20750",
        "name": "內角",
        "name_en": "Neijiao",
        "line": "黃14-1",
        "color": "#134e4a",
        "direction": 1
      },
      "geometry": {
        "type": "Point",
        "coordinates": [
          120.43764,
          23.39785
        ]
      }
    },
    {
      "type": "Feature",
      "properties": {
        "feature_type": "station",
        "ref": "TNN20751",
        "name": "大埔(白河)",
        "name_en": "Dapu(Baihe)",
        "line": "黃14-1",
        "color": "#134e4a",
        "direction": 1
      },
      "geometry": {
        "type": "Point",
        "coordinates": [
          120.42481,
          23.39592
        ]
      }
    },
    {
      "type": "Feature",
      "properties": {
        "feature_type": "station",
        "ref": "TNN20752",
        "name": "關帝廟",
        "name_en": "Guandi Temple",
        "line": "黃14-1",
        "color": "#134e4a",
        "direction": 1
      },
      "geometry": {
        "type": "Point",
        "coordinates": [
          120.42834,
          23.39642
        ]
      }
    },
    {
      "type": "Feature",
      "properties": {
        "feature_type": "station",
        "ref": "TNN20753",
        "name": "草店活動中心",
        "name_en": "Caodian Community Center",
        "line": "黃14-1",
        "color": "#134e4a",
        "direction": 1
      },
      "geometry": {
        "type": "Point",
        "coordinates": [
          120.43265,
          23.39138
        ]
      }
    },
    {
      "type": "Feature",
      "properties": {
        "feature_type": "station",
        "ref": "TNN20754",
        "name": "大厝",
        "name_en": "Dacuo",
        "line": "黃14-1",
        "color": "#134e4a",
        "direction": 1
      },
      "geometry": {
        "type": "Point",
        "coordinates": [
          120.43371,
          23.39007
        ]
      }
    },
    {
      "type": "Feature",
      "properties": {
        "feature_type": "station",
        "ref": "TNN20755",
        "name": "埤角",
        "name_en": "Bijiao",
        "line": "黃14-1",
        "color": "#134e4a",
        "direction": 1
      },
      "geometry": {
        "type": "Point",
        "coordinates": [
          120.43739,
          23.38556
        ]
      }
    },
    {
      "type": "Feature",
      "properties": {
        "feature_type": "station",
        "ref": "TNN20756",
        "name": "甘宅",
        "name_en": "Ganjhai",
        "line": "黃14-1",
        "color": "#134e4a",
        "direction": 1
      },
      "geometry": {
        "type": "Point",
        "coordinates": [
          120.43892,
          23.38328
        ]
      }
    },
    {
      "type": "Feature",
      "properties": {
        "feature_type": "station",
        "ref": "TNN20757",
        "name": "過溝仔",
        "name_en": "Guogouzih",
        "line": "黃14-1",
        "color": "#134e4a",
        "direction": 1
      },
      "geometry": {
        "type": "Point",
        "coordinates": [
          120.43673,
          23.38286
        ]
      }
    },
    {
      "type": "Feature",
      "properties": {
        "feature_type": "station",
        "ref": "TNN20758",
        "name": "美雅傢俱",
        "name_en": "Meiya Furniture",
        "line": "黃14-1",
        "color": "#134e4a",
        "direction": 1
      },
      "geometry": {
        "type": "Point",
        "coordinates": [
          120.43276,
          23.38318
        ]
      }
    },
    {
      "type": "Feature",
      "properties": {
        "feature_type": "station",
        "ref": "TNN20759",
        "name": "番子園",
        "name_en": "Fanzihyuan",
        "line": "黃14-1",
        "color": "#134e4a",
        "direction": 1
      },
      "geometry": {
        "type": "Point",
        "coordinates": [
          120.43724,
          23.37629
        ]
      }
    },
    {
      "type": "Feature",
      "properties": {
        "feature_type": "station",
        "ref": "TNN20760",
        "name": "竹圍子",
        "name_en": "Jhuweizih",
        "line": "黃14-1",
        "color": "#134e4a",
        "direction": 1
      },
      "geometry": {
        "type": "Point",
        "coordinates": [
          120.43889,
          23.37635
        ]
      }
    },
    {
      "type": "Feature",
      "properties": {
        "feature_type": "station",
        "ref": "TNN20761",
        "name": "竹門活動中心",
        "name_en": "Jhumen Community Center",
        "line": "黃14-1",
        "color": "#134e4a",
        "direction": 1
      },
      "geometry": {
        "type": "Point",
        "coordinates": [
          120.44432,
          23.37648
        ]
      }
    },
    {
      "type": "Feature",
      "properties": {
        "feature_type": "station",
        "ref": "TNN20762",
        "name": "埤子頭",
        "name_en": "Bizihtou",
        "line": "黃14-1",
        "color": "#134e4a",
        "direction": 1
      },
      "geometry": {
        "type": "Point",
        "coordinates": [
          120.43813,
          23.36809
        ]
      }
    },
    {
      "type": "Feature",
      "properties": {
        "feature_type": "station",
        "ref": "TNN20763",
        "name": "溪洲路口",
        "name_en": "Sijhou Rd. Intersection",
        "line": "黃14-1",
        "color": "#134e4a",
        "direction": 1
      },
      "geometry": {
        "type": "Point",
        "coordinates": [
          120.43416,
          23.36605
        ]
      }
    },
    {
      "type": "Feature",
      "properties": {
        "feature_type": "station",
        "ref": "TNN20764",
        "name": "三間厝",
        "name_en": "Sanjiancuo",
        "line": "黃14-1",
        "color": "#134e4a",
        "direction": 1
      },
      "geometry": {
        "type": "Point",
        "coordinates": [
          120.42859,
          23.36478
        ]
      }
    },
    {
      "type": "Feature",
      "properties": {
        "feature_type": "station",
        "ref": "TNN20765",
        "name": "白河國中",
        "name_en": "Baihe Junior High School",
        "line": "黃14-1",
        "color": "#134e4a",
        "direction": 1
      },
      "geometry": {
        "type": "Point",
        "coordinates": [
          120.42421,
          23.36187
        ]
      }
    },
    {
      "type": "Feature",
      "properties": {
        "feature_type": "station",
        "ref": "TNN20766",
        "name": "舊地政",
        "name_en": "Jioudijheng",
        "line": "黃14-1",
        "color": "#134e4a",
        "direction": 1
      },
      "geometry": {
        "type": "Point",
        "coordinates": [
          120.41959,
          23.35571
        ]
      }
    },
    {
      "type": "Feature",
      "properties": {
        "feature_type": "station",
        "ref": "TNN20767",
        "name": "白河分局",
        "name_en": "Baihe Police Station",
        "line": "黃14-1",
        "color": "#134e4a",
        "direction": 1
      },
      "geometry": {
        "type": "Point",
        "coordinates": [
          120.41612,
          23.35111
        ]
      }
    },
    {
      "type": "Feature",
      "properties": {
        "feature_type": "station",
        "ref": "TNN20768",
        "name": "中山、中興路口",
        "name_en": "Jhongshan Rd. ＆ Jhongsing St.",
        "line": "黃14-1",
        "color": "#134e4a",
        "direction": 1
      },
      "geometry": {
        "type": "Point",
        "coordinates": [
          120.41549,
          23.35032
        ]
      }
    },
    {
      "type": "Feature",
      "properties": {
        "feature_type": "station",
        "ref": "TNN20769",
        "name": "白河站",
        "name_en": "Baihe Bus Station",
        "line": "黃14-1",
        "color": "#134e4a",
        "direction": 1
      },
      "geometry": {
        "type": "Point",
        "coordinates": [
          120.41366,
          23.34758
        ]
      }
    }
  ]
}
