{
  "type": "FeatureCollection",
  "name": "921",
  "properties": {
    "id": "taichung_921",
    "name": "921",
    "name_en": "921",
    "ref": "921",
    "color": "#0369a1",
    "city_id": "Taichung",
    "source": "TDX Bus Shape / StopOfRoute",
    "official_map_url": "https://citybus.taichung.gov.tw/ebus/strapi/uploads/921_1150720_cf1bec7703.jpeg",
    "operator_id": "19",
    "operator": "中鹿客運",
    "operator_en": "Chung-Lu Bus Co., Ltd."
  },
  "features": [
    {
      "type": "Feature",
      "properties": {
        "feature_type": "route",
        "ref": "921",
        "name": "921",
        "name_en": "921",
        "color": "#0369a1",
        "direction": 0
      },
      "geometry": {
        "type": "LineString",
        "coordinates": [
          [
            120.72453,
            24.25429
          ],
          [
            120.72439,
            24.25379
          ],
          [
            120.72452,
            24.25383
          ],
          [
            120.72462,
            24.25425
          ],
          [
            120.72472,
            24.25452
          ],
          [
            120.72488,
            24.25466
          ],
          [
            120.72511,
            24.2548
          ],
          [
            120.7254,
            24.255
          ],
          [
            120.72545,
            24.25507
          ],
          [
            120.72723,
            24.25604
          ],
          [
            120.72891,
            24.25702
          ],
          [
            120.7291,
            24.25703
          ],
          [
            120.73072,
            24.25792
          ],
          [
            120.7327,
            24.259
          ],
          [
            120.73586,
            24.26056
          ],
          [
            120.73602,
            24.26064
          ],
          [
            120.73573,
            24.26105
          ],
          [
            120.73486,
            24.26261
          ],
          [
            120.73457,
            24.26302
          ],
          [
            120.73328,
            24.26442
          ],
          [
            120.73298,
            24.26479
          ],
          [
            120.73269,
            24.26503
          ],
          [
            120.73227,
            24.26526
          ],
          [
            120.73196,
            24.26538
          ],
          [
            120.73164,
            24.26549
          ],
          [
            120.73135,
            24.26554
          ],
          [
            120.73107,
            24.26558
          ],
          [
            120.73074,
            24.26558
          ],
          [
            120.72923,
            24.26534
          ],
          [
            120.72674,
            24.26489
          ],
          [
            120.72275,
            24.26419
          ],
          [
            120.72006,
            24.26419
          ],
          [
            120.71779,
            24.2642
          ],
          [
            120.7174,
            24.26409
          ],
          [
            120.71389,
            24.26275
          ],
          [
            120.71071,
            24.26154
          ],
          [
            120.71025,
            24.26135
          ],
          [
            120.70992,
            24.26109
          ],
          [
            120.70972,
            24.26087
          ],
          [
            120.70955,
            24.26063
          ],
          [
            120.70931,
            24.26026
          ],
          [
            120.70905,
            24.25985
          ],
          [
            120.70879,
            24.25953
          ],
          [
            120.70811,
            24.25876
          ],
          [
            120.70696,
            24.25751
          ],
          [
            120.70582,
            24.25627
          ],
          [
            120.7048,
            24.25516
          ],
          [
            120.70362,
            24.25395
          ],
          [
            120.70339,
            24.25369
          ],
          [
            120.70328,
            24.25351
          ],
          [
            120.70318,
            24.25336
          ],
          [
            120.70311,
            24.25306
          ],
          [
            120.70307,
            24.25277
          ],
          [
            120.7031,
            24.25167
          ],
          [
            120.70307,
            24.25154
          ],
          [
            120.70304,
            24.25139
          ],
          [
            120.70307,
            24.24962
          ],
          [
            120.70132,
            24.2493
          ],
          [
            120.70083,
            24.24923
          ],
          [
            120.7003,
            24.24917
          ],
          [
            120.6991,
            24.24899
          ],
          [
            120.69911,
            24.24883
          ],
          [
            120.69918,
            24.24844
          ],
          [
            120.69915,
            24.2477
          ],
          [
            120.69909,
            24.24691
          ],
          [
            120.69902,
            24.24671
          ],
          [
            120.6977,
            24.24435
          ],
          [
            120.69699,
            24.24307
          ],
          [
            120.69689,
            24.2428
          ],
          [
            120.69681,
            24.24251
          ],
          [
            120.69675,
            24.24194
          ],
          [
            120.69662,
            24.24142
          ],
          [
            120.69654,
            24.24123
          ],
          [
            120.69576,
            24.24002
          ],
          [
            120.69563,
            24.23977
          ],
          [
            120.6955,
            24.23935
          ],
          [
            120.69545,
            24.2391
          ],
          [
            120.69544,
            24.23883
          ],
          [
            120.69545,
            24.23851
          ],
          [
            120.69549,
            24.23815
          ],
          [
            120.69554,
            24.23778
          ],
          [
            120.69554,
            24.2376
          ],
          [
            120.69553,
            24.23743
          ],
          [
            120.69548,
            24.23724
          ],
          [
            120.6954,
            24.23706
          ],
          [
            120.69538,
            24.23691
          ],
          [
            120.69539,
            24.23677
          ],
          [
            120.69544,
            24.23648
          ],
          [
            120.69561,
            24.23608
          ],
          [
            120.69656,
            24.23595
          ],
          [
            120.6982,
            24.23573
          ],
          [
            120.69953,
            24.23553
          ],
          [
            120.70013,
            24.23534
          ],
          [
            120.70035,
            24.23524
          ],
          [
            120.7006,
            24.2351
          ],
          [
            120.7009,
            24.23486
          ],
          [
            120.70116,
            24.23463
          ],
          [
            120.70149,
            24.23423
          ],
          [
            120.70235,
            24.23297
          ],
          [
            120.70304,
            24.23212
          ],
          [
            120.70327,
            24.23197
          ],
          [
            120.70351,
            24.23187
          ],
          [
            120.70415,
            24.2317
          ],
          [
            120.70494,
            24.23166
          ],
          [
            120.70873,
            24.23123
          ],
          [
            120.7089,
            24.23247
          ],
          [
            120.7091,
            24.23313
          ],
          [
            120.71046,
            24.23282
          ],
          [
            120.71108,
            24.23261
          ],
          [
            120.71111,
            24.23251
          ],
          [
            120.71109,
            24.23197
          ],
          [
            120.71103,
            24.23166
          ],
          [
            120.71084,
            24.22974
          ],
          [
            120.71313,
            24.22957
          ],
          [
            120.71446,
            24.22947
          ],
          [
            120.71513,
            24.22938
          ],
          [
            120.718,
            24.22849
          ],
          [
            120.71987,
            24.22885
          ],
          [
            120.72442,
            24.22906
          ],
          [
            120.72422,
            24.22716
          ],
          [
            120.72444,
            24.22585
          ],
          [
            120.72364,
            24.218
          ],
          [
            120.72363,
            24.2175
          ],
          [
            120.72342,
            24.21594
          ],
          [
            120.72316,
            24.21491
          ],
          [
            120.72279,
            24.21381
          ],
          [
            120.72225,
            24.21156
          ],
          [
            120.7219,
            24.2101
          ],
          [
            120.72182,
            24.20989
          ],
          [
            120.72169,
            24.20906
          ],
          [
            120.72169,
            24.20877
          ],
          [
            120.72172,
            24.20852
          ],
          [
            120.72221,
            24.20762
          ],
          [
            120.72228,
            24.20739
          ],
          [
            120.72232,
            24.20673
          ],
          [
            120.72247,
            24.20562
          ],
          [
            120.7225,
            24.20461
          ],
          [
            120.7225,
            24.20353
          ],
          [
            120.72252,
            24.20318
          ],
          [
            120.7225,
            24.2028
          ],
          [
            120.72243,
            24.2023
          ],
          [
            120.72215,
            24.20065
          ],
          [
            120.72197,
            24.19963
          ],
          [
            120.7218,
            24.19861
          ],
          [
            120.72161,
            24.19762
          ],
          [
            120.7214,
            24.19663
          ],
          [
            120.72134,
            24.19642
          ],
          [
            120.72103,
            24.19586
          ],
          [
            120.72168,
            24.19556
          ],
          [
            120.72188,
            24.19594
          ],
          [
            120.72124,
            24.1962
          ],
          [
            120.72017,
            24.19446
          ],
          [
            120.71933,
            24.19303
          ],
          [
            120.71877,
            24.19226
          ],
          [
            120.71797,
            24.19132
          ],
          [
            120.71769,
            24.19098
          ],
          [
            120.71774,
            24.19062
          ],
          [
            120.7182,
            24.18833
          ],
          [
            120.71848,
            24.18672
          ],
          [
            120.71867,
            24.18581
          ],
          [
            120.71883,
            24.18501
          ],
          [
            120.71897,
            24.18442
          ],
          [
            120.71906,
            24.18371
          ],
          [
            120.71912,
            24.18345
          ],
          [
            120.71942,
            24.18221
          ],
          [
            120.71968,
            24.18017
          ],
          [
            120.70786,
            24.18015
          ],
          [
            120.70783,
            24.1852
          ],
          [
            120.70708,
            24.18906
          ],
          [
            120.70713,
            24.18932
          ],
          [
            120.70704,
            24.18973
          ]
        ]
      }
    },
    {
      "type": "Feature",
      "properties": {
        "feature_type": "station",
        "ref": "TXG22873",
        "name": "豐原轉運中心(第6月台)",
        "name_en": "Fengyuan Transfer Center(Platform 6)",
        "line": "921",
        "color": "#0369a1",
        "direction": 0
      },
      "geometry": {
        "type": "Point",
        "coordinates": [
          120.724293,
          24.254269
        ]
      }
    },
    {
      "type": "Feature",
      "properties": {
        "feature_type": "station",
        "ref": "TXG22874",
        "name": "豐勢明興街口",
        "name_en": "Fengshi-Mingxing Intersection",
        "line": "921",
        "color": "#0369a1",
        "direction": 0
      },
      "geometry": {
        "type": "Point",
        "coordinates": [
          120.727349,
          24.256049500001
        ]
      }
    },
    {
      "type": "Feature",
      "properties": {
        "feature_type": "station",
        "ref": "TXG22875",
        "name": "大楓樹福德祠",
        "name_en": "Dafengshu Fude Temple",
        "line": "921",
        "color": "#0369a1",
        "direction": 0
      },
      "geometry": {
        "type": "Point",
        "coordinates": [
          120.73072523887,
          24.257850878511
        ]
      }
    },
    {
      "type": "Feature",
      "properties": {
        "feature_type": "station",
        "ref": "TXG22876",
        "name": "永豐原紙廠",
        "name_en": "Yongfongyuan Paper Factory",
        "line": "921",
        "color": "#0369a1",
        "direction": 0
      },
      "geometry": {
        "type": "Point",
        "coordinates": [
          120.73227874547,
          24.258696501181
        ]
      }
    },
    {
      "type": "Feature",
      "properties": {
        "feature_type": "station",
        "ref": "TXG22877",
        "name": "豐原大道角潭路口",
        "name_en": "Fengyuan Boulevard-Jiaotan Intersection",
        "line": "921",
        "color": "#0369a1",
        "direction": 0
      },
      "geometry": {
        "type": "Point",
        "coordinates": [
          120.729675,
          24.26542
        ]
      }
    },
    {
      "type": "Feature",
      "properties": {
        "feature_type": "station",
        "ref": "TXG11716",
        "name": "豐原大道460巷口",
        "name_en": "Fengyuan Boulevard 460th Lane",
        "line": "921",
        "color": "#0369a1",
        "direction": 0
      },
      "geometry": {
        "type": "Point",
        "coordinates": [
          120.726795,
          24.2649916
        ]
      }
    },
    {
      "type": "Feature",
      "properties": {
        "feature_type": "station",
        "ref": "TXG22878",
        "name": "豐原大道豐科路口",
        "name_en": "Fengyuan Boulevard-Fengke Intersection",
        "line": "921",
        "color": "#0369a1",
        "direction": 0
      },
      "geometry": {
        "type": "Point",
        "coordinates": [
          120.7221667,
          24.2642083
        ]
      }
    },
    {
      "type": "Feature",
      "properties": {
        "feature_type": "station",
        "ref": "TXG22879",
        "name": "消防公園",
        "name_en": "Fire Park",
        "line": "921",
        "color": "#0369a1",
        "direction": 0
      },
      "geometry": {
        "type": "Point",
        "coordinates": [
          120.714007,
          24.262778
        ]
      }
    },
    {
      "type": "Feature",
      "properties": {
        "feature_type": "station",
        "ref": "TXG22880",
        "name": "豐原大道豐洲路口",
        "name_en": "Fengyuan Boulevard-Fengzhou Intersection",
        "line": "921",
        "color": "#0369a1",
        "direction": 0
      },
      "geometry": {
        "type": "Point",
        "coordinates": [
          120.709062,
          24.259956
        ]
      }
    },
    {
      "type": "Feature",
      "properties": {
        "feature_type": "station",
        "ref": "TXG14372",
        "name": "葫蘆墩公園(豐原大道)",
        "name_en": "Huludun Park(Fengyuan Boulevard)",
        "line": "921",
        "color": "#0369a1",
        "direction": 0
      },
      "geometry": {
        "type": "Point",
        "coordinates": [
          120.705965,
          24.256381
        ]
      }
    },
    {
      "type": "Feature",
      "properties": {
        "feature_type": "station",
        "ref": "TXG22881",
        "name": "豐原大道豐社路口",
        "name_en": "Fengyuan Boulevard-Fengshe Intersection",
        "line": "921",
        "color": "#0369a1",
        "direction": 0
      },
      "geometry": {
        "type": "Point",
        "coordinates": [
          120.70305167,
          24.251965
        ]
      }
    },
    {
      "type": "Feature",
      "properties": {
        "feature_type": "station",
        "ref": "TXG22882",
        "name": "社皮鐵路巷",
        "name_en": "Shepi Railway Lane",
        "line": "921",
        "color": "#0369a1",
        "direction": 0
      },
      "geometry": {
        "type": "Point",
        "coordinates": [
          120.702195,
          24.249493
        ]
      }
    },
    {
      "type": "Feature",
      "properties": {
        "feature_type": "station",
        "ref": "TXG22883",
        "name": "臺灣氣球博物館",
        "name_en": "Taiwan Balloons Museum",
        "line": "921",
        "color": "#0369a1",
        "direction": 0
      },
      "geometry": {
        "type": "Point",
        "coordinates": [
          120.699072,
          24.247307
        ]
      }
    },
    {
      "type": "Feature",
      "properties": {
        "feature_type": "station",
        "ref": "TXG22884",
        "name": "大豐路五段295巷口",
        "name_en": "Dafeng Road Sec.5 295th Lane",
        "line": "921",
        "color": "#0369a1",
        "direction": 0
      },
      "geometry": {
        "type": "Point",
        "coordinates": [
          120.69773,
          24.24442333
        ]
      }
    },
    {
      "type": "Feature",
      "properties": {
        "feature_type": "station",
        "ref": "TXG22885",
        "name": "大億加油站",
        "name_en": "Dayi Gas Station",
        "line": "921",
        "color": "#0369a1",
        "direction": 0
      },
      "geometry": {
        "type": "Point",
        "coordinates": [
          120.696689,
          24.241746
        ]
      }
    },
    {
      "type": "Feature",
      "properties": {
        "feature_type": "station",
        "ref": "TXG22886",
        "name": "大豐中興路口",
        "name_en": "Dafeng-Zhongxing Intersection",
        "line": "921",
        "color": "#0369a1",
        "direction": 0
      },
      "geometry": {
        "type": "Point",
        "coordinates": [
          120.695553,
          24.239392
        ]
      }
    },
    {
      "type": "Feature",
      "properties": {
        "feature_type": "station",
        "ref": "TXG22887",
        "name": "筱雲山莊",
        "name_en": "Xiaoyun Community",
        "line": "921",
        "color": "#0369a1",
        "direction": 0
      },
      "geometry": {
        "type": "Point",
        "coordinates": [
          120.695597,
          24.23619
        ]
      }
    },
    {
      "type": "Feature",
      "properties": {
        "feature_type": "station",
        "ref": "TXG22888",
        "name": "三社東路16巷口",
        "name_en": "Sanshe E.16th Lane",
        "line": "921",
        "color": "#0369a1",
        "direction": 0
      },
      "geometry": {
        "type": "Point",
        "coordinates": [
          120.697976,
          24.235733
        ]
      }
    },
    {
      "type": "Feature",
      "properties": {
        "feature_type": "station",
        "ref": "TXG22889",
        "name": "台灣味噌文化館",
        "name_en": "Taiwan Miso Culture Museum",
        "line": "921",
        "color": "#0369a1",
        "direction": 0
      },
      "geometry": {
        "type": "Point",
        "coordinates": [
          120.70002167,
          24.235303333
        ]
      }
    },
    {
      "type": "Feature",
      "properties": {
        "feature_type": "station",
        "ref": "TXG22890",
        "name": "三和路354巷",
        "name_en": "Sanhe Road 354th Lane",
        "line": "921",
        "color": "#0369a1",
        "direction": 0
      },
      "geometry": {
        "type": "Point",
        "coordinates": [
          120.702909,
          24.232198
        ]
      }
    },
    {
      "type": "Feature",
      "properties": {
        "feature_type": "station",
        "ref": "TXG22891",
        "name": "瑞格電子",
        "name_en": "Ruige Electronic",
        "line": "921",
        "color": "#0369a1",
        "direction": 0
      },
      "geometry": {
        "type": "Point",
        "coordinates": [
          120.707621,
          24.231296
        ]
      }
    },
    {
      "type": "Feature",
      "properties": {
        "feature_type": "station",
        "ref": "TXG11672",
        "name": "栗林車站(民生街)",
        "name_en": "Lilin Station(Minsheng Street)",
        "line": "921",
        "color": "#0369a1",
        "direction": 0
      },
      "geometry": {
        "type": "Point",
        "coordinates": [
          120.709665,
          24.232924
        ]
      }
    },
    {
      "type": "Feature",
      "properties": {
        "feature_type": "station",
        "ref": "TXG11671",
        "name": "栗林活動中心",
        "name_en": "Lilin Village Activity Center",
        "line": "921",
        "color": "#0369a1",
        "direction": 0
      },
      "geometry": {
        "type": "Point",
        "coordinates": [
          120.710894,
          24.230211
        ]
      }
    },
    {
      "type": "Feature",
      "properties": {
        "feature_type": "station",
        "ref": "TXG11670",
        "name": "吉嘉電子",
        "name_en": "GIGATEK INC.",
        "line": "921",
        "color": "#0369a1",
        "direction": 0
      },
      "geometry": {
        "type": "Point",
        "coordinates": [
          120.713519,
          24.229516
        ]
      }
    },
    {
      "type": "Feature",
      "properties": {
        "feature_type": "station",
        "ref": "TXG11693",
        "name": "祥和嘉豐路口",
        "name_en": "Xianghe-Jiafong Intersection",
        "line": "921",
        "color": "#0369a1",
        "direction": 0
      },
      "geometry": {
        "type": "Point",
        "coordinates": [
          120.716406,
          24.2289
        ]
      }
    },
    {
      "type": "Feature",
      "properties": {
        "feature_type": "station",
        "ref": "TXG11694",
        "name": "鐮村路210巷口",
        "name_en": "Liancun Road 210th Lane",
        "line": "921",
        "color": "#0369a1",
        "direction": 0
      },
      "geometry": {
        "type": "Point",
        "coordinates": [
          120.722946,
          24.228954
        ]
      }
    },
    {
      "type": "Feature",
      "properties": {
        "feature_type": "station",
        "ref": "TXG11695",
        "name": "金星觀入口",
        "name_en": "Jinxingguan Entrance",
        "line": "921",
        "color": "#0369a1",
        "direction": 0
      },
      "geometry": {
        "type": "Point",
        "coordinates": [
          120.724339,
          24.226672
        ]
      }
    },
    {
      "type": "Feature",
      "properties": {
        "feature_type": "station",
        "ref": "TXG11696",
        "name": "下鐮村",
        "name_en": "Xialian Village",
        "line": "921",
        "color": "#0369a1",
        "direction": 0
      },
      "geometry": {
        "type": "Point",
        "coordinates": [
          120.724235,
          24.223078
        ]
      }
    },
    {
      "type": "Feature",
      "properties": {
        "feature_type": "station",
        "ref": "TXG11697",
        "name": "福德祠(豐興路)",
        "name_en": "Fude Temple(Fengxing Road)",
        "line": "921",
        "color": "#0369a1",
        "direction": 0
      },
      "geometry": {
        "type": "Point",
        "coordinates": [
          120.724052,
          24.22155
        ]
      }
    },
    {
      "type": "Feature",
      "properties": {
        "feature_type": "station",
        "ref": "TXG11698",
        "name": "新田",
        "name_en": "Xintian",
        "line": "921",
        "color": "#0369a1",
        "direction": 0
      },
      "geometry": {
        "type": "Point",
        "coordinates": [
          120.723656,
          24.218245
        ]
      }
    },
    {
      "type": "Feature",
      "properties": {
        "feature_type": "station",
        "ref": "TXG11669",
        "name": "中新",
        "name_en": "Zhongxin",
        "line": "921",
        "color": "#0369a1",
        "direction": 0
      },
      "geometry": {
        "type": "Point",
        "coordinates": [
          120.722628,
          24.213202
        ]
      }
    },
    {
      "type": "Feature",
      "properties": {
        "feature_type": "station",
        "ref": "TXG11668",
        "name": "南新",
        "name_en": "Nanxin",
        "line": "921",
        "color": "#0369a1",
        "direction": 0
      },
      "geometry": {
        "type": "Point",
        "coordinates": [
          120.72178099999999,
          24.209647
        ]
      }
    },
    {
      "type": "Feature",
      "properties": {
        "feature_type": "station",
        "ref": "TXG22899",
        "name": "潭子聯合辦公大樓",
        "name_en": "Tanzi Regional Government Office",
        "line": "921",
        "color": "#0369a1",
        "direction": 0
      },
      "geometry": {
        "type": "Point",
        "coordinates": [
          120.7226,
          24.203778
        ]
      }
    },
    {
      "type": "Feature",
      "properties": {
        "feature_type": "station",
        "ref": "TXG22900",
        "name": "中興",
        "name_en": "Zhongxing",
        "line": "921",
        "color": "#0369a1",
        "direction": 0
      },
      "geometry": {
        "type": "Point",
        "coordinates": [
          120.72189707853,
          24.199190025288
        ]
      }
    },
    {
      "type": "Feature",
      "properties": {
        "feature_type": "station",
        "ref": "TXG18348",
        "name": "慈濟醫院",
        "name_en": "Tzu Chi Hospital",
        "line": "921",
        "color": "#0369a1",
        "direction": 0
      },
      "geometry": {
        "type": "Point",
        "coordinates": [
          120.721643,
          24.195722
        ]
      }
    },
    {
      "type": "Feature",
      "properties": {
        "feature_type": "station",
        "ref": "TXG22902",
        "name": "慈濟中醫院區",
        "name_en": "Tzu Chi Chinese Medicine Hospital",
        "line": "921",
        "color": "#0369a1",
        "direction": 0
      },
      "geometry": {
        "type": "Point",
        "coordinates": [
          120.71932119089,
          24.193069630014
        ]
      }
    },
    {
      "type": "Feature",
      "properties": {
        "feature_type": "station",
        "ref": "TXG22903",
        "name": "聚興",
        "name_en": "Juxing",
        "line": "921",
        "color": "#0369a1",
        "direction": 0
      },
      "geometry": {
        "type": "Point",
        "coordinates": [
          120.71823910973,
          24.191664676758
        ]
      }
    },
    {
      "type": "Feature",
      "properties": {
        "feature_type": "station",
        "ref": "TXG22904",
        "name": "名人球場",
        "name_en": "Min Ren Golf Course",
        "line": "921",
        "color": "#0369a1",
        "direction": 0
      },
      "geometry": {
        "type": "Point",
        "coordinates": [
          120.718189,
          24.18845
        ]
      }
    },
    {
      "type": "Feature",
      "properties": {
        "feature_type": "station",
        "ref": "TXG22905",
        "name": "仁愛園區",
        "name_en": "Renai Sr. Citizens Home",
        "line": "921",
        "color": "#0369a1",
        "direction": 0
      },
      "geometry": {
        "type": "Point",
        "coordinates": [
          120.718891,
          24.18474
        ]
      }
    },
    {
      "type": "Feature",
      "properties": {
        "feature_type": "station",
        "ref": "TXG22906",
        "name": "軍功松竹路口",
        "name_en": "Jungong-Songzhu Intersection",
        "line": "921",
        "color": "#0369a1",
        "direction": 0
      },
      "geometry": {
        "type": "Point",
        "coordinates": [
          120.719177,
          24.183209
        ]
      }
    },
    {
      "type": "Feature",
      "properties": {
        "feature_type": "station",
        "ref": "TXG11623",
        "name": "軍福松竹二路口",
        "name_en": "Junfu-Songzhu 2nd Intersection",
        "line": "921",
        "color": "#0369a1",
        "direction": 0
      },
      "geometry": {
        "type": "Point",
        "coordinates": [
          120.718042,
          24.180168
        ]
      }
    },
    {
      "type": "Feature",
      "properties": {
        "feature_type": "station",
        "ref": "TXG20815",
        "name": "軍福公園",
        "name_en": "Jyun Fu Park",
        "line": "921",
        "color": "#0369a1",
        "direction": 0
      },
      "geometry": {
        "type": "Point",
        "coordinates": [
          120.715123,
          24.180153
        ]
      }
    },
    {
      "type": "Feature",
      "properties": {
        "feature_type": "station",
        "ref": "TXG20817",
        "name": "葳格高級中學",
        "name_en": "Wagor Senior High School",
        "line": "921",
        "color": "#0369a1",
        "direction": 0
      },
      "geometry": {
        "type": "Point",
        "coordinates": [
          120.712626,
          24.180163
        ]
      }
    },
    {
      "type": "Feature",
      "properties": {
        "feature_type": "station",
        "ref": "TXG14431",
        "name": "南興公園",
        "name_en": "Nanxing Park",
        "line": "921",
        "color": "#0369a1",
        "direction": 0
      },
      "geometry": {
        "type": "Point",
        "coordinates": [
          120.708609,
          24.180097
        ]
      }
    },
    {
      "type": "Feature",
      "properties": {
        "feature_type": "station",
        "ref": "TXG14562",
        "name": "捷運舊社站(敦富路)",
        "name_en": "MRT Jiushe Station(Dunfu Road)",
        "line": "921",
        "color": "#0369a1",
        "direction": 0
      },
      "geometry": {
        "type": "Point",
        "coordinates": [
          120.7079,
          24.182753
        ]
      }
    },
    {
      "type": "Feature",
      "properties": {
        "feature_type": "station",
        "ref": "TXG14146",
        "name": "敦富二街口",
        "name_en": "Dunfu 2th Intersection",
        "line": "921",
        "color": "#0369a1",
        "direction": 0
      },
      "geometry": {
        "type": "Point",
        "coordinates": [
          120.707947,
          24.185265
        ]
      }
    },
    {
      "type": "Feature",
      "properties": {
        "feature_type": "station",
        "ref": "TXG14158",
        "name": "捷運北屯總站(敦富路)",
        "name_en": "MRT Beitun Station(Dunfu Road)",
        "line": "921",
        "color": "#0369a1",
        "direction": 0
      },
      "geometry": {
        "type": "Point",
        "coordinates": [
          120.707167,
          24.189472
        ]
      }
    },
    {
      "type": "Feature",
      "properties": {
        "feature_type": "station",
        "ref": "TXG14165",
        "name": "捷運北屯總站(敦富路)",
        "name_en": "MRT Beitun Station(Dunfu Road)",
        "line": "921",
        "color": "#0369a1",
        "direction": 1
      },
      "geometry": {
        "type": "Point",
        "coordinates": [
          120.706889,
          24.189389
        ]
      }
    },
    {
      "type": "Feature",
      "properties": {
        "feature_type": "station",
        "ref": "TXG14156",
        "name": "敦富二街口",
        "name_en": "Dunfu 2th Intersection",
        "line": "921",
        "color": "#0369a1",
        "direction": 1
      },
      "geometry": {
        "type": "Point",
        "coordinates": [
          120.707727,
          24.185216
        ]
      }
    },
    {
      "type": "Feature",
      "properties": {
        "feature_type": "station",
        "ref": "TXG14432",
        "name": "南興公園",
        "name_en": "Nanxing Park",
        "line": "921",
        "color": "#0369a1",
        "direction": 1
      },
      "geometry": {
        "type": "Point",
        "coordinates": [
          120.708608,
          24.180063
        ]
      }
    },
    {
      "type": "Feature",
      "properties": {
        "feature_type": "station",
        "ref": "TXG20818",
        "name": "葳格高級中學",
        "name_en": "Wagor Senior High School",
        "line": "921",
        "color": "#0369a1",
        "direction": 1
      },
      "geometry": {
        "type": "Point",
        "coordinates": [
          120.712439,
          24.180109
        ]
      }
    },
    {
      "type": "Feature",
      "properties": {
        "feature_type": "station",
        "ref": "TXG20816",
        "name": "軍福公園",
        "name_en": "Jyun Fu Park",
        "line": "921",
        "color": "#0369a1",
        "direction": 1
      },
      "geometry": {
        "type": "Point",
        "coordinates": [
          120.715096,
          24.180036
        ]
      }
    },
    {
      "type": "Feature",
      "properties": {
        "feature_type": "station",
        "ref": "TXG11624",
        "name": "軍福松竹二路口",
        "name_en": "Junfu-Songzhu 2nd Intersection",
        "line": "921",
        "color": "#0369a1",
        "direction": 1
      },
      "geometry": {
        "type": "Point",
        "coordinates": [
          120.718116,
          24.180077
        ]
      }
    },
    {
      "type": "Feature",
      "properties": {
        "feature_type": "station",
        "ref": "TXG22907",
        "name": "軍功松竹路口",
        "name_en": "Jungong-Songzhu Intersection",
        "line": "921",
        "color": "#0369a1",
        "direction": 1
      },
      "geometry": {
        "type": "Point",
        "coordinates": [
          120.719396,
          24.182736
        ]
      }
    },
    {
      "type": "Feature",
      "properties": {
        "feature_type": "station",
        "ref": "TXG22908",
        "name": "仁愛園區",
        "name_en": "Renai Sr. Citizens Home",
        "line": "921",
        "color": "#0369a1",
        "direction": 1
      },
      "geometry": {
        "type": "Point",
        "coordinates": [
          120.719109,
          24.184332
        ]
      }
    },
    {
      "type": "Feature",
      "properties": {
        "feature_type": "station",
        "ref": "TXG22909",
        "name": "名人球場",
        "name_en": "Min Ren Golf Course",
        "line": "921",
        "color": "#0369a1",
        "direction": 1
      },
      "geometry": {
        "type": "Point",
        "coordinates": [
          120.718272,
          24.188379
        ]
      }
    },
    {
      "type": "Feature",
      "properties": {
        "feature_type": "station",
        "ref": "TXG22910",
        "name": "聚興",
        "name_en": "Juxing",
        "line": "921",
        "color": "#0369a1",
        "direction": 1
      },
      "geometry": {
        "type": "Point",
        "coordinates": [
          120.718364,
          24.191565
        ]
      }
    },
    {
      "type": "Feature",
      "properties": {
        "feature_type": "station",
        "ref": "TXG22911",
        "name": "慈濟中醫院區",
        "name_en": "Tzu Chi Chinese Medicine Hospital",
        "line": "921",
        "color": "#0369a1",
        "direction": 1
      },
      "geometry": {
        "type": "Point",
        "coordinates": [
          120.719528,
          24.19304
        ]
      }
    },
    {
      "type": "Feature",
      "properties": {
        "feature_type": "station",
        "ref": "TXG18359",
        "name": "慈濟醫院",
        "name_en": "Tzu Chi Hospital",
        "line": "921",
        "color": "#0369a1",
        "direction": 1
      },
      "geometry": {
        "type": "Point",
        "coordinates": [
          120.721738,
          24.195901
        ]
      }
    },
    {
      "type": "Feature",
      "properties": {
        "feature_type": "station",
        "ref": "TXG22913",
        "name": "中興",
        "name_en": "Zhongxing",
        "line": "921",
        "color": "#0369a1",
        "direction": 1
      },
      "geometry": {
        "type": "Point",
        "coordinates": [
          120.722069,
          24.199369
        ]
      }
    },
    {
      "type": "Feature",
      "properties": {
        "feature_type": "station",
        "ref": "TXG22914",
        "name": "潭子聯合辦公大樓",
        "name_en": "Tanzi Regional Government Office",
        "line": "921",
        "color": "#0369a1",
        "direction": 1
      },
      "geometry": {
        "type": "Point",
        "coordinates": [
          120.722664,
          24.20327
        ]
      }
    },
    {
      "type": "Feature",
      "properties": {
        "feature_type": "station",
        "ref": "TXG11677",
        "name": "南新",
        "name_en": "Nanxin",
        "line": "921",
        "color": "#0369a1",
        "direction": 1
      },
      "geometry": {
        "type": "Point",
        "coordinates": [
          120.721934,
          24.20995
        ]
      }
    },
    {
      "type": "Feature",
      "properties": {
        "feature_type": "station",
        "ref": "TXG11676",
        "name": "中新",
        "name_en": "Zhongxin",
        "line": "921",
        "color": "#0369a1",
        "direction": 1
      },
      "geometry": {
        "type": "Point",
        "coordinates": [
          120.722706,
          24.21319
        ]
      }
    },
    {
      "type": "Feature",
      "properties": {
        "feature_type": "station",
        "ref": "TXG11699",
        "name": "新田",
        "name_en": "Xintian",
        "line": "921",
        "color": "#0369a1",
        "direction": 1
      },
      "geometry": {
        "type": "Point",
        "coordinates": [
          120.723712,
          24.218167
        ]
      }
    },
    {
      "type": "Feature",
      "properties": {
        "feature_type": "station",
        "ref": "TXG11700",
        "name": "福德祠(豐興路)",
        "name_en": "Fude Temple(Fengxing Road)",
        "line": "921",
        "color": "#0369a1",
        "direction": 1
      },
      "geometry": {
        "type": "Point",
        "coordinates": [
          120.724125,
          24.221586
        ]
      }
    },
    {
      "type": "Feature",
      "properties": {
        "feature_type": "station",
        "ref": "TXG11701",
        "name": "下鐮村",
        "name_en": "Xialian Village",
        "line": "921",
        "color": "#0369a1",
        "direction": 1
      },
      "geometry": {
        "type": "Point",
        "coordinates": [
          120.724378,
          24.223963
        ]
      }
    },
    {
      "type": "Feature",
      "properties": {
        "feature_type": "station",
        "ref": "TXG11702",
        "name": "金星觀入口",
        "name_en": "Jinxingguan Entrance",
        "line": "921",
        "color": "#0369a1",
        "direction": 1
      },
      "geometry": {
        "type": "Point",
        "coordinates": [
          120.724415,
          24.226559
        ]
      }
    },
    {
      "type": "Feature",
      "properties": {
        "feature_type": "station",
        "ref": "TXG11703",
        "name": "鐮村路210巷口",
        "name_en": "Liancun Road 210th Lane",
        "line": "921",
        "color": "#0369a1",
        "direction": 1
      },
      "geometry": {
        "type": "Point",
        "coordinates": [
          120.72248833,
          24.22909333
        ]
      }
    },
    {
      "type": "Feature",
      "properties": {
        "feature_type": "station",
        "ref": "TXG11704",
        "name": "祥和嘉豐路口",
        "name_en": "Xianghe-Jiafong Intersection",
        "line": "921",
        "color": "#0369a1",
        "direction": 1
      },
      "geometry": {
        "type": "Point",
        "coordinates": [
          120.71659667,
          24.22900167
        ]
      }
    },
    {
      "type": "Feature",
      "properties": {
        "feature_type": "station",
        "ref": "TXG11675",
        "name": "吉嘉電子",
        "name_en": "GIGATEK INC.",
        "line": "921",
        "color": "#0369a1",
        "direction": 1
      },
      "geometry": {
        "type": "Point",
        "coordinates": [
          120.713412,
          24.22957
        ]
      }
    },
    {
      "type": "Feature",
      "properties": {
        "feature_type": "station",
        "ref": "TXG11674",
        "name": "栗林活動中心",
        "name_en": "Lilin Village Activity Center",
        "line": "921",
        "color": "#0369a1",
        "direction": 1
      },
      "geometry": {
        "type": "Point",
        "coordinates": [
          120.710928,
          24.230314
        ]
      }
    },
    {
      "type": "Feature",
      "properties": {
        "feature_type": "station",
        "ref": "TXG11673",
        "name": "栗林車站(民生街)",
        "name_en": "Lilin Station(Minsheng Street)",
        "line": "921",
        "color": "#0369a1",
        "direction": 1
      },
      "geometry": {
        "type": "Point",
        "coordinates": [
          120.710293,
          24.232872
        ]
      }
    },
    {
      "type": "Feature",
      "properties": {
        "feature_type": "station",
        "ref": "TXG22922",
        "name": "瑞格電子",
        "name_en": "Ruige Electronic",
        "line": "921",
        "color": "#0369a1",
        "direction": 1
      },
      "geometry": {
        "type": "Point",
        "coordinates": [
          120.707202,
          24.231431
        ]
      }
    },
    {
      "type": "Feature",
      "properties": {
        "feature_type": "station",
        "ref": "TXG22923",
        "name": "三和路354巷",
        "name_en": "Sanhe Road 354th Lane",
        "line": "921",
        "color": "#0369a1",
        "direction": 1
      },
      "geometry": {
        "type": "Point",
        "coordinates": [
          120.70287333,
          24.23244
        ]
      }
    },
    {
      "type": "Feature",
      "properties": {
        "feature_type": "station",
        "ref": "TXG22924",
        "name": "台灣味噌文化館",
        "name_en": "Taiwan Miso Culture Museum",
        "line": "921",
        "color": "#0369a1",
        "direction": 1
      },
      "geometry": {
        "type": "Point",
        "coordinates": [
          120.70079,
          24.23510833
        ]
      }
    },
    {
      "type": "Feature",
      "properties": {
        "feature_type": "station",
        "ref": "TXG22925",
        "name": "三社東路16巷口",
        "name_en": "Sanshe E.16th Lane",
        "line": "921",
        "color": "#0369a1",
        "direction": 1
      },
      "geometry": {
        "type": "Point",
        "coordinates": [
          120.697683,
          24.235823
        ]
      }
    },
    {
      "type": "Feature",
      "properties": {
        "feature_type": "station",
        "ref": "TXG22926",
        "name": "筱雲山莊",
        "name_en": "Xiaoyun Community",
        "line": "921",
        "color": "#0369a1",
        "direction": 1
      },
      "geometry": {
        "type": "Point",
        "coordinates": [
          120.695964,
          24.236029
        ]
      }
    },
    {
      "type": "Feature",
      "properties": {
        "feature_type": "station",
        "ref": "TXG22927",
        "name": "大豐中興路口",
        "name_en": "Dafeng-Zhongxing Intersection",
        "line": "921",
        "color": "#0369a1",
        "direction": 1
      },
      "geometry": {
        "type": "Point",
        "coordinates": [
          120.695545,
          24.239002
        ]
      }
    },
    {
      "type": "Feature",
      "properties": {
        "feature_type": "station",
        "ref": "TXG22928",
        "name": "大億加油站",
        "name_en": "Dayi Gas Station",
        "line": "921",
        "color": "#0369a1",
        "direction": 1
      },
      "geometry": {
        "type": "Point",
        "coordinates": [
          120.696715,
          24.2413
        ]
      }
    },
    {
      "type": "Feature",
      "properties": {
        "feature_type": "station",
        "ref": "TXG22929",
        "name": "大豐路五段295巷口",
        "name_en": "Dafeng Road Sec.5 295th Lane",
        "line": "921",
        "color": "#0369a1",
        "direction": 1
      },
      "geometry": {
        "type": "Point",
        "coordinates": [
          120.698389,
          24.245474
        ]
      }
    },
    {
      "type": "Feature",
      "properties": {
        "feature_type": "station",
        "ref": "TXG22930",
        "name": "臺灣氣球博物館",
        "name_en": "Taiwan Balloons Museum",
        "line": "921",
        "color": "#0369a1",
        "direction": 1
      },
      "geometry": {
        "type": "Point",
        "coordinates": [
          120.699152,
          24.247805
        ]
      }
    },
    {
      "type": "Feature",
      "properties": {
        "feature_type": "station",
        "ref": "TXG22931",
        "name": "臺豐社區",
        "name_en": "Taifeng Community",
        "line": "921",
        "color": "#0369a1",
        "direction": 1
      },
      "geometry": {
        "type": "Point",
        "coordinates": [
          120.700264,
          24.248994
        ]
      }
    },
    {
      "type": "Feature",
      "properties": {
        "feature_type": "station",
        "ref": "TXG22932",
        "name": "豐原大道豐社路口",
        "name_en": "Fengyuan Boulevard-Fengshe Intersection",
        "line": "921",
        "color": "#0369a1",
        "direction": 1
      },
      "geometry": {
        "type": "Point",
        "coordinates": [
          120.703271,
          24.252041
        ]
      }
    },
    {
      "type": "Feature",
      "properties": {
        "feature_type": "station",
        "ref": "TXG14358",
        "name": "葫蘆墩公園(豐原大道)",
        "name_en": "Huludun Park(Fengyuan Boulevard)",
        "line": "921",
        "color": "#0369a1",
        "direction": 1
      },
      "geometry": {
        "type": "Point",
        "coordinates": [
          120.706099,
          24.256294
        ]
      }
    },
    {
      "type": "Feature",
      "properties": {
        "feature_type": "station",
        "ref": "TXG22933",
        "name": "豐原大道豐洲路口",
        "name_en": "Fengyuan Boulevard-Fengzhou Intersection",
        "line": "921",
        "color": "#0369a1",
        "direction": 1
      },
      "geometry": {
        "type": "Point",
        "coordinates": [
          120.709503,
          24.260162
        ]
      }
    },
    {
      "type": "Feature",
      "properties": {
        "feature_type": "station",
        "ref": "TXG22934",
        "name": "消防公園",
        "name_en": "Fire Park",
        "line": "921",
        "color": "#0369a1",
        "direction": 1
      },
      "geometry": {
        "type": "Point",
        "coordinates": [
          120.714231,
          24.262693
        ]
      }
    },
    {
      "type": "Feature",
      "properties": {
        "feature_type": "station",
        "ref": "TXG22935",
        "name": "豐原大道豐科路口",
        "name_en": "Fengyuan Boulevard-Fengke Intersection",
        "line": "921",
        "color": "#0369a1",
        "direction": 1
      },
      "geometry": {
        "type": "Point",
        "coordinates": [
          120.72216,
          24.264004
        ]
      }
    },
    {
      "type": "Feature",
      "properties": {
        "feature_type": "station",
        "ref": "TXG11717",
        "name": "豐原大道460巷口",
        "name_en": "Fengyuan Boulevard 460th Lane",
        "line": "921",
        "color": "#0369a1",
        "direction": 1
      },
      "geometry": {
        "type": "Point",
        "coordinates": [
          120.726785,
          24.26467167
        ]
      }
    },
    {
      "type": "Feature",
      "properties": {
        "feature_type": "station",
        "ref": "TXG22936",
        "name": "豐原大道角潭路口",
        "name_en": "Fengyuan Boulevard-Jiaotan Intersection",
        "line": "921",
        "color": "#0369a1",
        "direction": 1
      },
      "geometry": {
        "type": "Point",
        "coordinates": [
          120.729575,
          24.265193333
        ]
      }
    },
    {
      "type": "Feature",
      "properties": {
        "feature_type": "station",
        "ref": "TXG22937",
        "name": "永豐原紙廠",
        "name_en": "Yongfongyuan Paper Factory",
        "line": "921",
        "color": "#0369a1",
        "direction": 1
      },
      "geometry": {
        "type": "Point",
        "coordinates": [
          120.732209,
          24.258901
        ]
      }
    },
    {
      "type": "Feature",
      "properties": {
        "feature_type": "station",
        "ref": "TXG22938",
        "name": "大楓樹福德祠",
        "name_en": "Dafengshu Fude Temple",
        "line": "921",
        "color": "#0369a1",
        "direction": 1
      },
      "geometry": {
        "type": "Point",
        "coordinates": [
          120.730867,
          24.258191
        ]
      }
    },
    {
      "type": "Feature",
      "properties": {
        "feature_type": "station",
        "ref": "TXG22939",
        "name": "豐勢明興街口",
        "name_en": "Fengshi-Mingxing Intersection",
        "line": "921",
        "color": "#0369a1",
        "direction": 1
      },
      "geometry": {
        "type": "Point",
        "coordinates": [
          120.7273865,
          24.256153
        ]
      }
    },
    {
      "type": "Feature",
      "properties": {
        "feature_type": "station",
        "ref": "TXG22940",
        "name": "豐原轉運中心(第6月台)",
        "name_en": "Fengyuan Transfer Center(Platform 6)",
        "line": "921",
        "color": "#0369a1",
        "direction": 1
      },
      "geometry": {
        "type": "Point",
        "coordinates": [
          120.724293,
          24.254269
        ]
      }
    }
  ]
}
