{
  "type": "FeatureCollection",
  "name": "橘14",
  "properties": {
    "id": "tainan_ju14",
    "name": "橘14",
    "name_en": "橘14",
    "ref": "橘14",
    "color": "#3f6212",
    "city_id": "Tainan",
    "source": "TDX Bus Shape / StopOfRoute",
    "official_map_url": "http://busmap.tainan.gov.tw/ebus/resources/PathPic/zh_TW/1414.jpg",
    "operator_id": "16233",
    "operator": "漢程客運",
    "operator_en": "Han-Cheng Bus Co., Ltd."
  },
  "features": [
    {
      "type": "Feature",
      "properties": {
        "feature_type": "route",
        "ref": "橘14",
        "name": "橘14",
        "name_en": "橘14",
        "color": "#3f6212",
        "direction": 0
      },
      "geometry": {
        "type": "LineString",
        "coordinates": [
          [
            120.23916,
            23.18557
          ],
          [
            120.23938,
            23.18558
          ],
          [
            120.23942,
            23.18571
          ],
          [
            120.23964,
            23.18618
          ],
          [
            120.24109,
            23.18516
          ],
          [
            120.23861,
            23.18391
          ],
          [
            120.23556,
            23.18233
          ],
          [
            120.23482,
            23.17796
          ],
          [
            120.23361,
            23.17241
          ],
          [
            120.23215,
            23.16685
          ],
          [
            120.23162,
            23.16465
          ],
          [
            120.23111,
            23.16204
          ],
          [
            120.23079,
            23.15963
          ],
          [
            120.23061,
            23.15719
          ],
          [
            120.23058,
            23.15433
          ],
          [
            120.23075,
            23.15147
          ],
          [
            120.23112,
            23.14862
          ],
          [
            120.23165,
            23.14581
          ],
          [
            120.23245,
            23.14291
          ],
          [
            120.23342,
            23.14011
          ],
          [
            120.23461,
            23.13731
          ],
          [
            120.23586,
            23.13461
          ],
          [
            120.24086,
            23.12388
          ],
          [
            120.24206,
            23.12061
          ],
          [
            120.24249,
            23.11907
          ],
          [
            120.24271,
            23.11801
          ],
          [
            120.24267,
            23.11763
          ],
          [
            120.24243,
            23.11715
          ],
          [
            120.24111,
            23.11637
          ],
          [
            120.23955,
            23.11561
          ],
          [
            120.23748,
            23.11479
          ],
          [
            120.23537,
            23.11409
          ],
          [
            120.23539,
            23.11159
          ],
          [
            120.23552,
            23.10963
          ],
          [
            120.23558,
            23.10761
          ],
          [
            120.23566,
            23.10361
          ],
          [
            120.23578,
            23.09945
          ],
          [
            120.23581,
            23.09528
          ],
          [
            120.23582,
            23.09313
          ],
          [
            120.23583,
            23.09203
          ],
          [
            120.24041,
            23.09555
          ],
          [
            120.24362,
            23.09801
          ],
          [
            120.24516,
            23.09915
          ],
          [
            120.24604,
            23.09965
          ],
          [
            120.24701,
            23.10002
          ],
          [
            120.24949,
            23.10099
          ],
          [
            120.25039,
            23.10161
          ],
          [
            120.25089,
            23.10201
          ],
          [
            120.25138,
            23.10236
          ],
          [
            120.25213,
            23.10286
          ],
          [
            120.25291,
            23.10331
          ],
          [
            120.25596,
            23.10505
          ],
          [
            120.25871,
            23.10654
          ],
          [
            120.25974,
            23.10411
          ],
          [
            120.26507,
            23.10621
          ],
          [
            120.27035,
            23.10829
          ],
          [
            120.27541,
            23.11028
          ],
          [
            120.27667,
            23.11077
          ],
          [
            120.27883,
            23.10615
          ],
          [
            120.27982,
            23.10391
          ],
          [
            120.28045,
            23.10121
          ],
          [
            120.28091,
            23.09858
          ],
          [
            120.28299,
            23.09891
          ],
          [
            120.28554,
            23.09946
          ],
          [
            120.28503,
            23.10125
          ],
          [
            120.28457,
            23.10307
          ],
          [
            120.28902,
            23.10394
          ],
          [
            120.29001,
            23.10431
          ],
          [
            120.29721,
            23.10699
          ],
          [
            120.30064,
            23.10775
          ],
          [
            120.30586,
            23.10809
          ],
          [
            120.30873,
            23.10865
          ],
          [
            120.30801,
            23.11022
          ],
          [
            120.30734,
            23.11098
          ],
          [
            120.30691,
            23.11169
          ],
          [
            120.30683,
            23.11187
          ],
          [
            120.30678,
            23.11206
          ],
          [
            120.30668,
            23.11244
          ],
          [
            120.30673,
            23.11301
          ],
          [
            120.30679,
            23.11334
          ],
          [
            120.30684,
            23.11357
          ],
          [
            120.30696,
            23.11378
          ],
          [
            120.30724,
            23.11426
          ],
          [
            120.30779,
            23.11519
          ],
          [
            120.30791,
            23.11554
          ],
          [
            120.30796,
            23.11591
          ],
          [
            120.30802,
            23.11663
          ]
        ]
      }
    },
    {
      "type": "Feature",
      "properties": {
        "feature_type": "route",
        "ref": "橘14",
        "name": "橘14",
        "name_en": "橘14",
        "color": "#3f6212",
        "direction": 1
      },
      "geometry": {
        "type": "LineString",
        "coordinates": [
          [
            120.24416,
            23.10068
          ],
          [
            120.24374,
            23.10076
          ],
          [
            120.24319,
            23.10071
          ],
          [
            120.24237,
            23.10033
          ],
          [
            120.24133,
            23.09964
          ],
          [
            120.23988,
            23.09856
          ],
          [
            120.23888,
            23.09811
          ],
          [
            120.23765,
            23.09786
          ],
          [
            120.23687,
            23.09773
          ]
        ]
      }
    },
    {
      "type": "Feature",
      "properties": {
        "feature_type": "route",
        "ref": "橘14",
        "name": "橘14",
        "name_en": "橘14",
        "color": "#3f6212",
        "direction": 1
      },
      "geometry": {
        "type": "LineString",
        "coordinates": [
          [
            120.24416,
            23.11793
          ],
          [
            120.24373,
            23.11896
          ]
        ]
      }
    },
    {
      "type": "Feature",
      "properties": {
        "feature_type": "station",
        "ref": "TNN25016",
        "name": "麻豆轉運站",
        "name_en": "Madou Bus Station",
        "line": "橘14",
        "color": "#3f6212",
        "direction": 0
      },
      "geometry": {
        "type": "Point",
        "coordinates": [
          120.23917,
          23.18557
        ]
      }
    },
    {
      "type": "Feature",
      "properties": {
        "feature_type": "station",
        "ref": "TNN25018",
        "name": "安定工業區",
        "name_en": "Anding Industrial Park",
        "line": "橘14",
        "color": "#3f6212",
        "direction": 0
      },
      "geometry": {
        "type": "Point",
        "coordinates": [
          120.23539,
          23.11159
        ]
      }
    },
    {
      "type": "Feature",
      "properties": {
        "feature_type": "station",
        "ref": "TNN25019",
        "name": "港子尾",
        "name_en": "Gangzihwei",
        "line": "橘14",
        "color": "#3f6212",
        "direction": 0
      },
      "geometry": {
        "type": "Point",
        "coordinates": [
          120.23566,
          23.10361
        ]
      }
    },
    {
      "type": "Feature",
      "properties": {
        "feature_type": "station",
        "ref": "TNN25020",
        "name": "港口北",
        "name_en": "North Gangkou",
        "line": "橘14",
        "color": "#3f6212",
        "direction": 0
      },
      "geometry": {
        "type": "Point",
        "coordinates": [
          120.23581,
          23.09528
        ]
      }
    },
    {
      "type": "Feature",
      "properties": {
        "feature_type": "station",
        "ref": "TNN25021",
        "name": "中榮里口",
        "name_en": "Jhongrong Vil.",
        "line": "橘14",
        "color": "#3f6212",
        "direction": 0
      },
      "geometry": {
        "type": "Point",
        "coordinates": [
          120.23581,
          23.09308
        ]
      }
    },
    {
      "type": "Feature",
      "properties": {
        "feature_type": "station",
        "ref": "TNN25022",
        "name": "許中營",
        "name_en": "Syujhongying",
        "line": "橘14",
        "color": "#3f6212",
        "direction": 0
      },
      "geometry": {
        "type": "Point",
        "coordinates": [
          120.24146,
          23.09635
        ]
      }
    },
    {
      "type": "Feature",
      "properties": {
        "feature_type": "station",
        "ref": "TNN25023",
        "name": "樹谷生活館",
        "name_en": "Tree Valley Life Science Museum",
        "line": "橘14",
        "color": "#3f6212",
        "direction": 0
      },
      "geometry": {
        "type": "Point",
        "coordinates": [
          120.26192,
          23.10493
        ]
      }
    },
    {
      "type": "Feature",
      "properties": {
        "feature_type": "station",
        "ref": "TNN25024",
        "name": "湖濱雅舍",
        "name_en": "Hubin Yashe",
        "line": "橘14",
        "color": "#3f6212",
        "direction": 0
      },
      "geometry": {
        "type": "Point",
        "coordinates": [
          120.27041,
          23.10828
        ]
      }
    },
    {
      "type": "Feature",
      "properties": {
        "feature_type": "station",
        "ref": "TNN25025",
        "name": "南茂科技",
        "name_en": "ChipMOS",
        "line": "橘14",
        "color": "#3f6212",
        "direction": 0
      },
      "geometry": {
        "type": "Point",
        "coordinates": [
          120.27536,
          23.11024
        ]
      }
    },
    {
      "type": "Feature",
      "properties": {
        "feature_type": "station",
        "ref": "TNN25027",
        "name": "群創五廠",
        "name_en": "No. 5 Factory of LNNOLUX",
        "line": "橘14",
        "color": "#3f6212",
        "direction": 0
      },
      "geometry": {
        "type": "Point",
        "coordinates": [
          120.27883,
          23.10599
        ]
      }
    },
    {
      "type": "Feature",
      "properties": {
        "feature_type": "station",
        "ref": "TNN25028",
        "name": "南科商場",
        "name_en": "Southern Taiwan Science Park",
        "line": "橘14",
        "color": "#3f6212",
        "direction": 0
      },
      "geometry": {
        "type": "Point",
        "coordinates": [
          120.28299,
          23.09891
        ]
      }
    },
    {
      "type": "Feature",
      "properties": {
        "feature_type": "station",
        "ref": "TNN25029",
        "name": "南科實中",
        "name_en": "Nanke International Experimental High School",
        "line": "橘14",
        "color": "#3f6212",
        "direction": 0
      },
      "geometry": {
        "type": "Point",
        "coordinates": [
          120.29002,
          23.10423
        ]
      }
    },
    {
      "type": "Feature",
      "properties": {
        "feature_type": "station",
        "ref": "TNN25610",
        "name": "蓮潭里",
        "name_en": "Liantan Vil.",
        "line": "橘14",
        "color": "#3f6212",
        "direction": 0
      },
      "geometry": {
        "type": "Point",
        "coordinates": [
          120.30693,
          23.11169
        ]
      }
    },
    {
      "type": "Feature",
      "properties": {
        "feature_type": "station",
        "ref": "TNN25611",
        "name": "陽光大道",
        "name_en": "Sunshine Boulevard",
        "line": "橘14",
        "color": "#3f6212",
        "direction": 0
      },
      "geometry": {
        "type": "Point",
        "coordinates": [
          120.30804,
          23.11663
        ]
      }
    },
    {
      "type": "Feature",
      "properties": {
        "feature_type": "station",
        "ref": "TNN25612",
        "name": "陽光大道",
        "name_en": "Sunshine Boulevard",
        "line": "橘14",
        "color": "#3f6212",
        "direction": 1
      },
      "geometry": {
        "type": "Point",
        "coordinates": [
          120.30787,
          23.11657
        ]
      }
    },
    {
      "type": "Feature",
      "properties": {
        "feature_type": "station",
        "ref": "TNN25613",
        "name": "蓮潭里",
        "name_en": "Liantan Vil.",
        "line": "橘14",
        "color": "#3f6212",
        "direction": 1
      },
      "geometry": {
        "type": "Point",
        "coordinates": [
          120.30657,
          23.11228
        ]
      }
    },
    {
      "type": "Feature",
      "properties": {
        "feature_type": "station",
        "ref": "TNN25030",
        "name": "南科實中",
        "name_en": "Nanke International Experimental High School",
        "line": "橘14",
        "color": "#3f6212",
        "direction": 1
      },
      "geometry": {
        "type": "Point",
        "coordinates": [
          120.29093,
          23.10494
        ]
      }
    },
    {
      "type": "Feature",
      "properties": {
        "feature_type": "station",
        "ref": "TNN25031",
        "name": "南科商場",
        "name_en": "Southern Taiwan Science Park",
        "line": "橘14",
        "color": "#3f6212",
        "direction": 1
      },
      "geometry": {
        "type": "Point",
        "coordinates": [
          120.28213,
          23.09894
        ]
      }
    },
    {
      "type": "Feature",
      "properties": {
        "feature_type": "station",
        "ref": "TNN25032",
        "name": "群創五廠",
        "name_en": "No. 5 Factory of LNNOLUX",
        "line": "橘14",
        "color": "#3f6212",
        "direction": 1
      },
      "geometry": {
        "type": "Point",
        "coordinates": [
          120.27908,
          23.10604
        ]
      }
    },
    {
      "type": "Feature",
      "properties": {
        "feature_type": "station",
        "ref": "TNN25033",
        "name": "台積電",
        "name_en": "TSMC",
        "line": "橘14",
        "color": "#3f6212",
        "direction": 1
      },
      "geometry": {
        "type": "Point",
        "coordinates": [
          120.27541,
          23.11051
        ]
      }
    },
    {
      "type": "Feature",
      "properties": {
        "feature_type": "station",
        "ref": "TNN25035",
        "name": "湖濱雅舍",
        "name_en": "Hubin Yashe",
        "line": "橘14",
        "color": "#3f6212",
        "direction": 1
      },
      "geometry": {
        "type": "Point",
        "coordinates": [
          120.27025,
          23.10848
        ]
      }
    },
    {
      "type": "Feature",
      "properties": {
        "feature_type": "station",
        "ref": "TNN25036",
        "name": "樹谷生活館",
        "name_en": "Tree Valley Life Science Museum",
        "line": "橘14",
        "color": "#3f6212",
        "direction": 1
      },
      "geometry": {
        "type": "Point",
        "coordinates": [
          120.26174,
          23.10504
        ]
      }
    },
    {
      "type": "Feature",
      "properties": {
        "feature_type": "station",
        "ref": "TNN25039",
        "name": "港口北",
        "name_en": "North Gangkou",
        "line": "橘14",
        "color": "#3f6212",
        "direction": 1
      },
      "geometry": {
        "type": "Point",
        "coordinates": [
          120.23581,
          23.09528
        ]
      }
    },
    {
      "type": "Feature",
      "properties": {
        "feature_type": "station",
        "ref": "TNN25038",
        "name": "中榮里口",
        "name_en": "Jhongrong Vil.",
        "line": "橘14",
        "color": "#3f6212",
        "direction": 1
      },
      "geometry": {
        "type": "Point",
        "coordinates": [
          120.23581,
          23.09308
        ]
      }
    },
    {
      "type": "Feature",
      "properties": {
        "feature_type": "station",
        "ref": "TNN25037",
        "name": "許中營",
        "name_en": "Syujhongying",
        "line": "橘14",
        "color": "#3f6212",
        "direction": 1
      },
      "geometry": {
        "type": "Point",
        "coordinates": [
          120.24041,
          23.09551
        ]
      }
    },
    {
      "type": "Feature",
      "properties": {
        "feature_type": "station",
        "ref": "TNN25040",
        "name": "港子尾",
        "name_en": "Gangzihwei",
        "line": "橘14",
        "color": "#3f6212",
        "direction": 1
      },
      "geometry": {
        "type": "Point",
        "coordinates": [
          120.23589,
          23.10358
        ]
      }
    },
    {
      "type": "Feature",
      "properties": {
        "feature_type": "station",
        "ref": "TNN25041",
        "name": "安定工業區",
        "name_en": "Anding Industrial Park",
        "line": "橘14",
        "color": "#3f6212",
        "direction": 1
      },
      "geometry": {
        "type": "Point",
        "coordinates": [
          120.23554,
          23.11167
        ]
      }
    },
    {
      "type": "Feature",
      "properties": {
        "feature_type": "station",
        "ref": "TNN25017",
        "name": "麻豆轉運站",
        "name_en": "Madou Bus Station",
        "line": "橘14",
        "color": "#3f6212",
        "direction": 1
      },
      "geometry": {
        "type": "Point",
        "coordinates": [
          120.23917,
          23.18557
        ]
      }
    }
  ]
}
