{
  "type": "FeatureCollection",
  "name": "706（經自治街）",
  "properties": {
    "id": "keelung_706_ed0aeaaabc",
    "name": "706（經自治街）",
    "name_en": "706 (via 自治街)",
    "ref": "706",
    "color": "#9f1239",
    "city_id": "Keelung",
    "source": "TDX Bus Shape / StopOfRoute",
    "via": "自治街",
    "official_map_url": "https://web.taiwanbus.tw/MISUploadData/Schematic/file/0383.jpg"
  },
  "features": [
    {
      "type": "Feature",
      "properties": {
        "feature_type": "route",
        "ref": "706",
        "name": "706（經自治街）",
        "name_en": "706 (via 自治街)",
        "color": "#9f1239",
        "direction": 1
      },
      "geometry": {
        "type": "LineString",
        "coordinates": [
          [
            121.71308,
            25.09599
          ],
          [
            121.71325,
            25.09568
          ],
          [
            121.71339,
            25.0954
          ],
          [
            121.71349,
            25.09522
          ],
          [
            121.71377,
            25.09486
          ],
          [
            121.71435,
            25.09413
          ],
          [
            121.71489001262793,
            25.093425044182542
          ],
          [
            121.71490389219106,
            25.093400690867497
          ],
          [
            121.71491066923578,
            25.093373585098476
          ],
          [
            121.71490967521034,
            25.093345798371978
          ],
          [
            121.71490097530919,
            25.093319153117
          ],
          [
            121.71488514012678,
            25.093295396897645
          ],
          [
            121.71486352977537,
            25.093276306577117
          ],
          [
            121.71419,
            25.09282
          ],
          [
            121.7141,
            25.09278
          ],
          [
            121.71406,
            25.09276
          ],
          [
            121.71403,
            25.09274
          ],
          [
            121.71394,
            25.09269
          ],
          [
            121.71358,
            25.09245
          ],
          [
            121.71343,
            25.09236
          ],
          [
            121.71285,
            25.09199
          ],
          [
            121.71227,
            25.09165
          ],
          [
            121.71208,
            25.09156
          ],
          [
            121.71152,
            25.0913
          ],
          [
            121.71095,
            25.09105
          ],
          [
            121.71071,
            25.09094
          ],
          [
            121.71034,
            25.09078
          ],
          [
            121.70992,
            25.0906
          ],
          [
            121.70982,
            25.09055
          ],
          [
            121.70971,
            25.0905
          ],
          [
            121.70954,
            25.09042
          ],
          [
            121.70936,
            25.09034
          ],
          [
            121.70843028167825,
            25.089854155417644
          ],
          [
            121.70842263003749,
            25.08984850860036
          ],
          [
            121.70841722312505,
            25.089840904312357
          ],
          [
            121.70841468173298,
            25.08983214243719
          ],
          [
            121.70841525863499,
            25.089823094454648
          ],
          [
            121.70841889645087,
            25.08981466030155
          ],
          [
            121.70842515091765,
            25.0898077451616
          ],
          [
            121.70846,
            25.08978
          ],
          [
            121.70848,
            25.08977
          ],
          [
            121.7085,
            25.08975
          ],
          [
            121.70851,
            25.08974
          ],
          [
            121.70852,
            25.08972
          ],
          [
            121.70854,
            25.08968
          ],
          [
            121.70856,
            25.08965
          ],
          [
            121.70859,
            25.08956
          ],
          [
            121.70861,
            25.08923
          ],
          [
            121.70861,
            25.08922
          ],
          [
            121.70862,
            25.08909
          ],
          [
            121.70864,
            25.08883
          ],
          [
            121.70878,
            25.08864
          ],
          [
            121.70909,
            25.08828
          ],
          [
            121.70918,
            25.08816
          ],
          [
            121.70934,
            25.08806
          ],
          [
            121.70941,
            25.08802
          ],
          [
            121.70968,
            25.08787
          ],
          [
            121.70972,
            25.08784
          ],
          [
            121.70985,
            25.08777
          ],
          [
            121.71,
            25.08769
          ],
          [
            121.71026,
            25.08753
          ],
          [
            121.71043,
            25.08744
          ],
          [
            121.71076,
            25.08725
          ],
          [
            121.71119195077013,
            25.087016861746168
          ],
          [
            121.71120832789107,
            25.087006138333862
          ],
          [
            121.71122272041372,
            25.08699278974948
          ],
          [
            121.71123438428262,
            25.086977384294187
          ],
          [
            121.71124297259828,
            25.086960380147477
          ],
          [
            121.7112482299323,
            25.086942283036155
          ],
          [
            121.71125000000002,
            25.08692363119328
          ],
          [
            121.71125,
            25.08645
          ],
          [
            121.71125000000002,
            25.086923631250617
          ],
          [
            121.71124823000211,
            25.086942283124312
          ],
          [
            121.71124297265078,
            25.086960380263697
          ],
          [
            121.71123438430739,
            25.086977384433066
          ],
          [
            121.711222720402,
            25.086992789903277
          ],
          [
            121.71120832783643,
            25.08700613849286
          ],
          [
            121.71119195064863,
            25.087016861869618
          ],
          [
            121.71076,
            25.08725
          ],
          [
            121.71043,
            25.08744
          ],
          [
            121.71026,
            25.08753
          ],
          [
            121.71,
            25.08769
          ],
          [
            121.70924355615463,
            25.088095515472073
          ],
          [
            121.70922871164437,
            25.08810065881116
          ],
          [
            121.70921297656909,
            25.088100963759448
          ],
          [
            121.70919803207872,
            25.088096461660893
          ],
          [
            121.70918559186272,
            25.088087668772577
          ],
          [
            121.70917708244464,
            25.088075593377802
          ],
          [
            121.70917347837103,
            25.088061602177316
          ],
          [
            121.70917,
            25.08801
          ],
          [
            121.70915,
            25.08783
          ],
          [
            121.70912,
            25.08756
          ],
          [
            121.70956877876453,
            25.0871695573288
          ],
          [
            121.70958653960973,
            25.087149808675676
          ],
          [
            121.70959888562984,
            25.08712646119768
          ],
          [
            121.70960481106214,
            25.0871011098415
          ],
          [
            121.70960397807536,
            25.087075199983442
          ],
          [
            121.70959643416124,
            25.087050208842115
          ],
          [
            121.70958284229434,
            25.087027854938565
          ],
          [
            121.70925,
            25.08661
          ],
          [
            121.70914,
            25.08651
          ],
          [
            121.70913,
            25.0865
          ],
          [
            121.70904,
            25.0864
          ],
          [
            121.709,
            25.08633
          ],
          [
            121.70896,
            25.08626
          ],
          [
            121.70892,
            25.08617
          ],
          [
            121.70863806547794,
            25.085780627916666
          ],
          [
            121.70862904942881,
            25.085765614970843
          ],
          [
            121.70862263305688,
            25.085749157681978
          ],
          [
            121.70861919358057,
            25.085731974868658
          ],
          [
            121.70861882004229,
            25.085714511365612
          ],
          [
            121.70862152211231,
            25.085697219274174
          ],
          [
            121.70862712189862,
            25.08568079123289
          ],
          [
            121.70889420029404,
            25.085076884626975
          ],
          [
            121.7089004332603,
            25.08505774827304
          ],
          [
            121.70890272222097,
            25.085037630448948
          ],
          [
            121.70890087974024,
            25.085017474523703
          ],
          [
            121.70889496977588,
            25.08499798016698
          ],
          [
            121.70888519747963,
            25.084979824083515
          ],
          [
            121.70887218109405,
            25.084963918298417
          ],
          [
            121.70855,
            25.08464
          ],
          [
            121.70854,
            25.08462
          ],
          [
            121.7083243652453,
            25.084186124065827
          ],
          [
            121.70831998149886,
            25.084178918234795
          ],
          [
            121.70831443942515,
            25.084172574481535
          ],
          [
            121.70830783079305,
            25.08416714654792
          ],
          [
            121.70830033489834,
            25.0841627816968
          ],
          [
            121.70829215510885,
            25.084159598349032
          ],
          [
            121.70828357107855,
            25.084157691177687
          ],
          [
            121.7078958495365,
            25.084102063336076
          ],
          [
            121.70787359065964,
            25.08409679052701
          ],
          [
            121.70785274867617,
            25.08408765077812
          ],
          [
            121.70783423791079,
            25.084075007513924
          ],
          [
            121.7078187571749,
            25.084059338038134
          ],
          [
            121.70780689089135,
            25.08404123389884
          ],
          [
            121.70779903877823,
            25.084021203665614
          ],
          [
            121.70763,
            25.08341
          ],
          [
            121.70761,
            25.08325
          ],
          [
            121.70747598125291,
            25.08271137557666
          ],
          [
            121.70747312716048,
            25.082690756585002
          ],
          [
            121.70747466246095,
            25.08266985744697
          ],
          [
            121.70748056966777,
            25.082649616263193
          ],
          [
            121.70749062886291,
            25.082630786587906
          ],
          [
            121.70750446555503,
            25.082614069426615
          ],
          [
            121.707521242889,
            25.082600303757697
          ],
          [
            121.70785,
            25.08238
          ],
          [
            121.70788,
            25.08236
          ],
          [
            121.70789,
            25.08235
          ],
          [
            121.70793,
            25.08233
          ],
          [
            121.70799,
            25.0823
          ],
          [
            121.70803,
            25.08229
          ],
          [
            121.70809,
            25.08227
          ],
          [
            121.70813,
            25.08226
          ],
          [
            121.70872324670079,
            25.08212242809001
          ],
          [
            121.70874229364628,
            25.082116366874352
          ],
          [
            121.70876011130804,
            25.08210735685772
          ],
          [
            121.70877598326311,
            25.082095707291
          ],
          [
            121.70878944447479,
            25.082081759498
          ],
          [
            121.70880010053943,
            25.08206592213887
          ],
          [
            121.70880770590229,
            25.082048457518297
          ],
          [
            121.70891,
            25.08174
          ],
          [
            121.70891,
            25.08172
          ],
          [
            121.70891,
            25.0817
          ],
          [
            121.7089,
            25.08166
          ],
          [
            121.70889,
            25.08163
          ],
          [
            121.7088,
            25.08151
          ],
          [
            121.70876,
            25.08146
          ],
          [
            121.70847568249242,
            25.0809835736788
          ],
          [
            121.70846643982216,
            25.080963279610668
          ],
          [
            121.70846183655067,
            25.080941385087062
          ],
          [
            121.7084622338541,
            25.080919094562436
          ],
          [
            121.70846761497711,
            25.080897348089202
          ],
          [
            121.70847775298303,
            25.080877062775627
          ],
          [
            121.7084919412909,
            25.08085937587044
          ],
          [
            121.70876,
            25.08059
          ],
          [
            121.70877,
            25.08057
          ],
          [
            121.70878,
            25.08057
          ],
          [
            121.70884,
            25.08053
          ],
          [
            121.70893,
            25.08048
          ],
          [
            121.70894,
            25.08047
          ],
          [
            121.70906,
            25.08042
          ],
          [
            121.70912,
            25.0804
          ],
          [
            121.70913,
            25.08039
          ],
          [
            121.7092,
            25.08033
          ],
          [
            121.70935,
            25.08016
          ],
          [
            121.70962,
            25.07985
          ],
          [
            121.70976,
            25.07969
          ],
          [
            121.70987,
            25.07959
          ],
          [
            121.70992,
            25.07956
          ],
          [
            121.70998,
            25.07954
          ],
          [
            121.71006,
            25.07953
          ],
          [
            121.71021,
            25.07952
          ],
          [
            121.71032,
            25.07951
          ],
          [
            121.71038,
            25.0795
          ],
          [
            121.7105737063583,
            25.079500000000003
          ],
          [
            121.71058754795229,
            25.07949895009166
          ],
          [
            121.71060100928061,
            25.079495829210433
          ],
          [
            121.71061372052446,
            25.079490723095283
          ],
          [
            121.71062533247196,
            25.079483772024886
          ],
          [
            121.71063552611174,
            25.07947516696377
          ],
          [
            121.71064416715673,
            25.079464938575182
          ],
          [
            121.71079,
            25.07926
          ],
          [
            121.71081,
            25.07924
          ],
          [
            121.71085,
            25.07921
          ]
        ]
      }
    },
    {
      "type": "Feature",
      "properties": {
        "feature_type": "station",
        "ref": "KEE306695",
        "name": "自治街",
        "name_en": "Zizhi St.",
        "line": "706（經自治街）",
        "color": "#9f1239",
        "direction": 1,
        "station_id": "141079"
      },
      "geometry": {
        "type": "Point",
        "coordinates": [
          121.713113,
          25.096005
        ]
      }
    },
    {
      "type": "Feature",
      "properties": {
        "feature_type": "station",
        "ref": "KEE306693",
        "name": "泰安路23之12號",
        "name_en": "No.23-12 Taian Rd.",
        "line": "706（經自治街）",
        "color": "#9f1239",
        "direction": 1,
        "station_id": "141077"
      },
      "geometry": {
        "type": "Point",
        "coordinates": [
          121.708603,
          25.089085
        ]
      }
    },
    {
      "type": "Feature",
      "properties": {
        "feature_type": "station",
        "ref": "KEE306692",
        "name": "泰安公園",
        "name_en": "Taian Park",
        "line": "706（經自治街）",
        "color": "#9f1239",
        "direction": 1,
        "station_id": "141076"
      },
      "geometry": {
        "type": "Point",
        "coordinates": [
          121.709332,
          25.088051
        ]
      }
    },
    {
      "type": "Feature",
      "properties": {
        "feature_type": "station",
        "ref": "KEE306691",
        "name": "泰安里民活動中心",
        "name_en": "Taian Village Activity Center",
        "line": "706（經自治街）",
        "color": "#9f1239",
        "direction": 1,
        "station_id": "141075"
      },
      "geometry": {
        "type": "Point",
        "coordinates": [
          121.711234,
          25.086454
        ]
      }
    },
    {
      "type": "Feature",
      "properties": {
        "feature_type": "station",
        "ref": "KEE306690",
        "name": "泰安路77號",
        "name_en": "No.77 Taian Rd.",
        "line": "706（經自治街）",
        "color": "#9f1239",
        "direction": 1,
        "station_id": "141074"
      },
      "geometry": {
        "type": "Point",
        "coordinates": [
          121.708798,
          25.085286
        ]
      }
    },
    {
      "type": "Feature",
      "properties": {
        "feature_type": "station",
        "ref": "KEE306689",
        "name": "泰安路130號",
        "name_en": "No.130 Taian Rd.",
        "line": "706（經自治街）",
        "color": "#9f1239",
        "direction": 1,
        "station_id": "141073"
      },
      "geometry": {
        "type": "Point",
        "coordinates": [
          121.70867,
          25.08109
        ]
      }
    },
    {
      "type": "Feature",
      "properties": {
        "feature_type": "station",
        "ref": "KEE306688",
        "name": "泰安路186之1號",
        "name_en": "No.186-1 Taian Rd.",
        "line": "706（經自治街）",
        "color": "#9f1239",
        "direction": 1,
        "station_id": "141072"
      },
      "geometry": {
        "type": "Point",
        "coordinates": [
          121.710819,
          25.07913
        ]
      }
    },
    {
      "type": "Feature",
      "properties": {
        "feature_type": "route",
        "ref": "706",
        "name": "706（經自治街）",
        "name_en": "706 (via 自治街)",
        "color": "#9f1239",
        "direction": 1
      },
      "geometry": {
        "type": "LineString",
        "coordinates": [
          [
            121.713095,
            25.095958
          ],
          [
            121.71344030046531,
            25.09528482442439
          ],
          [
            121.71344792431537,
            25.09526503234865
          ],
          [
            121.7134512465594,
            25.095243980650235
          ],
          [
            121.71345000435639,
            25.0952227422256
          ],
          [
            121.71344424538756,
            25.095202132299317
          ],
          [
            121.71343419070757,
            25.095182941971412
          ],
          [
            121.71342050671394,
            25.095166188850044
          ],
          [
            121.712052,
            25.0938
          ],
          [
            121.711804,
            25.093543
          ],
          [
            121.711675,
            25.093435
          ],
          [
            121.711524,
            25.093336
          ],
          [
            121.710954,
            25.09292
          ],
          [
            121.709824,
            25.09205
          ],
          [
            121.708404,
            25.091098
          ],
          [
            121.708129,
            25.09083
          ],
          [
            121.70738389095686,
            25.09052037062383
          ],
          [
            121.70734805085615,
            25.09049720301651
          ],
          [
            121.70732374337693,
            25.090463490023524
          ],
          [
            121.70731461466842,
            25.090424009386503
          ],
          [
            121.70732192583229,
            25.090384215228372
          ],
          [
            121.70734466685482,
            25.090349604984006
          ],
          [
            121.70737939438374,
            25.090325100266373
          ],
          [
            121.70847145710508,
            25.089819161004286
          ],
          [
            121.70848902784756,
            25.089809109020525
          ],
          [
            121.70850464882106,
            25.089796201242574
          ],
          [
            121.70851752838418,
            25.089780982789463
          ],
          [
            121.70852726262085,
            25.08976393092718
          ],
          [
            121.70853354625567,
            25.089745580419248
          ],
          [
            121.70853618342537,
            25.08972647887091
          ],
          [
            121.708562,
            25.089086000000002
          ],
          [
            121.70858,
            25.0888
          ],
          [
            121.70908,
            25.08818
          ],
          [
            121.70932,
            25.08804
          ],
          [
            121.70934,
            25.08806
          ],
          [
            121.70941,
            25.08802
          ],
          [
            121.70968,
            25.08787
          ],
          [
            121.70972,
            25.08784
          ],
          [
            121.70985,
            25.08777
          ],
          [
            121.71,
            25.08769
          ],
          [
            121.71026,
            25.08753
          ],
          [
            121.71043,
            25.08744
          ],
          [
            121.71076,
            25.08725
          ],
          [
            121.71119195077013,
            25.087016861746168
          ],
          [
            121.71120832789107,
            25.087006138333862
          ],
          [
            121.71122272041372,
            25.08699278974948
          ],
          [
            121.71123438428262,
            25.086977384294187
          ],
          [
            121.71124297259828,
            25.086960380147477
          ],
          [
            121.7112482299323,
            25.086942283036155
          ],
          [
            121.71125000000002,
            25.08692363119328
          ],
          [
            121.71125,
            25.08645
          ],
          [
            121.71125000000002,
            25.086923631250617
          ],
          [
            121.71124823000211,
            25.086942283124312
          ],
          [
            121.71124297265078,
            25.086960380263697
          ],
          [
            121.71123438430739,
            25.086977384433066
          ],
          [
            121.711222720402,
            25.086992789903277
          ],
          [
            121.71120832783643,
            25.08700613849286
          ],
          [
            121.71119195064863,
            25.087016861869618
          ],
          [
            121.71076,
            25.08725
          ],
          [
            121.7104,
            25.08743
          ],
          [
            121.71022,
            25.08753
          ],
          [
            121.7093024296967,
            25.08805230863599
          ],
          [
            121.70926310498338,
            25.088066747637033
          ],
          [
            121.70922109840431,
            25.088067753514274
          ],
          [
            121.70918132636247,
            25.08805538344308
          ],
          [
            121.70914874591651,
            25.088031179189127
          ],
          [
            121.70912741778784,
            25.087998157492343
          ],
          [
            121.70912,
            25.087960434070226
          ],
          [
            121.70912,
            25.08766
          ],
          [
            121.70911,
            25.08751
          ],
          [
            121.70953596681656,
            25.087225037416406
          ],
          [
            121.70955783027006,
            25.087205911206684
          ],
          [
            121.70957385514765,
            25.087182037808365
          ],
          [
            121.70958265420792,
            25.087155220842988
          ],
          [
            121.70958364241628,
            25.087127243325174
          ],
          [
            121.70957675406838,
            25.08709996543272
          ],
          [
            121.7095626735721,
            25.087075494598075
          ],
          [
            121.70921,
            25.08662
          ],
          [
            121.70911,
            25.08652
          ],
          [
            121.7091,
            25.08651
          ],
          [
            121.70909,
            25.0865
          ],
          [
            121.70902,
            25.0864
          ],
          [
            121.70897,
            25.08634
          ],
          [
            121.70894,
            25.08627
          ],
          [
            121.7089,
            25.08618
          ],
          [
            121.70883,
            25.08606
          ],
          [
            121.70882,
            25.08605
          ],
          [
            121.70882,
            25.08604
          ],
          [
            121.70878,
            25.08598
          ],
          [
            121.70873,
            25.0859
          ],
          [
            121.70871,
            25.08585
          ],
          [
            121.70871,
            25.08582
          ],
          [
            121.70869,
            25.08574
          ],
          [
            121.7087,
            25.08565
          ],
          [
            121.70872,
            25.08552
          ],
          [
            121.70886075617008,
            25.085025158580375
          ],
          [
            121.70886404620974,
            25.085007708798997
          ],
          [
            121.70886416716935,
            25.08498981900397
          ],
          [
            121.70886106505125,
            25.084972154018462
          ],
          [
            121.70885482410392,
            25.08495519359467
          ],
          [
            121.7088456138213,
            25.08493939835002
          ],
          [
            121.70883396336748,
            25.08492547902938
          ],
          [
            121.70855,
            25.08464
          ],
          [
            121.70854,
            25.08462
          ],
          [
            121.7083243652453,
            25.084186124065827
          ],
          [
            121.70831998149886,
            25.084178918234795
          ],
          [
            121.70831443942515,
            25.084172574481535
          ],
          [
            121.70830783079305,
            25.08416714654792
          ],
          [
            121.70830033489834,
            25.0841627816968
          ],
          [
            121.70829215510885,
            25.084159598349032
          ],
          [
            121.70828357107855,
            25.084157691177687
          ],
          [
            121.7078958495365,
            25.084102063336076
          ],
          [
            121.70787359065964,
            25.08409679052701
          ],
          [
            121.70785274867617,
            25.08408765077812
          ],
          [
            121.70783423791079,
            25.084075007513924
          ],
          [
            121.7078187571749,
            25.084059338038134
          ],
          [
            121.70780689089135,
            25.08404123389884
          ],
          [
            121.70779903877823,
            25.084021203665614
          ],
          [
            121.70763,
            25.08341
          ],
          [
            121.70761,
            25.08325
          ],
          [
            121.70758,
            25.08313
          ],
          [
            121.70759,
            25.08309
          ],
          [
            121.70765296804765,
            25.08245687620535
          ],
          [
            121.70765589957206,
            25.082442086144496
          ],
          [
            121.70766163286086,
            25.08242805194328
          ],
          [
            121.70766999298944,
            25.082415161611813
          ],
          [
            121.70768071723779,
            25.082403820233385
          ],
          [
            121.70769346859255,
            25.082394384214858
          ],
          [
            121.70770762591987,
            25.082387239051798
          ],
          [
            121.7079,
            25.08231
          ],
          [
            121.70796,
            25.08228
          ],
          [
            121.708,
            25.08227
          ],
          [
            121.70806,
            25.08225
          ],
          [
            121.7081,
            25.08224
          ],
          [
            121.7088010255075,
            25.08213162048176
          ],
          [
            121.70882753164051,
            25.08212452314336
          ],
          [
            121.70885164145534,
            25.082111968698936
          ],
          [
            121.70887190666359,
            25.08209466141138
          ],
          [
            121.70888722467271,
            25.08207354293819
          ],
          [
            121.70889676205816,
            25.082049762296435
          ],
          [
            121.70890000000001,
            25.08202461334685
          ],
          [
            121.7089,
            25.08174
          ],
          [
            121.70891,
            25.08172
          ],
          [
            121.70891,
            25.0817
          ],
          [
            121.7089,
            25.08166
          ],
          [
            121.70889,
            25.08163
          ],
          [
            121.7088,
            25.08151
          ],
          [
            121.70876,
            25.08146
          ],
          [
            121.70847568249242,
            25.0809835736788
          ],
          [
            121.70846643982216,
            25.080963279610668
          ],
          [
            121.70846183655067,
            25.080941385087062
          ],
          [
            121.7084622338541,
            25.080919094562436
          ],
          [
            121.70846761497711,
            25.080897348089202
          ],
          [
            121.70847775298303,
            25.080877062775627
          ],
          [
            121.7084919412909,
            25.08085937587044
          ],
          [
            121.70876,
            25.08059
          ],
          [
            121.70877,
            25.08057
          ],
          [
            121.70878,
            25.08057
          ],
          [
            121.70884,
            25.08053
          ],
          [
            121.70893,
            25.08048
          ],
          [
            121.70894,
            25.08047
          ],
          [
            121.70906,
            25.08042
          ],
          [
            121.70912,
            25.0804
          ],
          [
            121.70913,
            25.08039
          ],
          [
            121.7092,
            25.08033
          ],
          [
            121.70935,
            25.08016
          ],
          [
            121.70962,
            25.07985
          ],
          [
            121.70976,
            25.07969
          ],
          [
            121.70987,
            25.07959
          ],
          [
            121.70992,
            25.07956
          ],
          [
            121.70998,
            25.07954
          ],
          [
            121.71006,
            25.07953
          ],
          [
            121.71021,
            25.07952
          ],
          [
            121.71032,
            25.07951
          ],
          [
            121.71038,
            25.0795
          ],
          [
            121.7105737063583,
            25.079500000000003
          ],
          [
            121.71058754795229,
            25.07949895009166
          ],
          [
            121.71060100928061,
            25.079495829210433
          ],
          [
            121.71061372052446,
            25.079490723095283
          ],
          [
            121.71062533247196,
            25.079483772024886
          ],
          [
            121.71063552611174,
            25.07947516696377
          ],
          [
            121.71064416715673,
            25.079464938575182
          ],
          [
            121.71079,
            25.07926
          ],
          [
            121.71081,
            25.07924
          ],
          [
            121.71085,
            25.07921
          ],
          [
            121.71081,
            25.07924
          ],
          [
            121.71079,
            25.07926
          ],
          [
            121.71064416709032,
            25.079464938654446
          ],
          [
            121.71063552605754,
            25.079475167030026
          ],
          [
            121.71062533242146,
            25.079483772071296
          ],
          [
            121.71061372048248,
            25.079490723124398
          ],
          [
            121.71060100925105,
            25.079495829225646
          ],
          [
            121.71058754793806,
            25.079498950097026
          ],
          [
            121.71057370636102,
            25.079500000000003
          ],
          [
            121.71038,
            25.0795
          ],
          [
            121.71032,
            25.07951
          ],
          [
            121.71021,
            25.07952
          ],
          [
            121.71006,
            25.07953
          ],
          [
            121.70998,
            25.07954
          ],
          [
            121.70992,
            25.07956
          ],
          [
            121.70987,
            25.07959
          ],
          [
            121.70976,
            25.07969
          ],
          [
            121.70962,
            25.07985
          ],
          [
            121.70935,
            25.08016
          ],
          [
            121.7092,
            25.08033
          ],
          [
            121.70913,
            25.08039
          ],
          [
            121.70912,
            25.0804
          ],
          [
            121.70872757046887,
            25.080531420224816
          ],
          [
            121.70870512521329,
            25.080541565153634
          ],
          [
            121.70868531135791,
            25.080555944195943
          ],
          [
            121.70866928064002,
            25.080573820743655
          ],
          [
            121.708657758586,
            25.080594385730937
          ],
          [
            121.70865126666676,
            25.080616708417168
          ],
          [
            121.7086500957523,
            25.080639732736188
          ],
          [
            121.70868,
            25.08109
          ],
          [
            121.70869,
            25.0813
          ],
          [
            121.70887552144995,
            25.08181300677284
          ],
          [
            121.70885,
            25.08183
          ],
          [
            121.7087,
            25.08195
          ],
          [
            121.70853,
            25.08208
          ],
          [
            121.70844,
            25.08214
          ],
          [
            121.70833,
            25.08219
          ],
          [
            121.70781082333764,
            25.082346559083426
          ],
          [
            121.70779741718293,
            25.08235181865369
          ],
          [
            121.70778503059198,
            25.082359164329763
          ],
          [
            121.70777419862009,
            25.08236832880004
          ],
          [
            121.70776523851403,
            25.082379043655543
          ],
          [
            121.70775841269739,
            25.0823909950796
          ],
          [
            121.70775389230442,
            25.08240394926203
          ],
          [
            121.70771,
            25.08258
          ],
          [
            121.7076,
            25.08299
          ],
          [
            121.70759,
            25.08309
          ],
          [
            121.70758,
            25.08313
          ],
          [
            121.70761,
            25.08325
          ],
          [
            121.70769069096956,
            25.083898616558223
          ],
          [
            121.70769479957569,
            25.083917161989913
          ],
          [
            121.70770233457552,
            25.08393469884019
          ],
          [
            121.70771307962976,
            25.08395078380108
          ],
          [
            121.70772671126765,
            25.083964932648417
          ],
          [
            121.70774281912023,
            25.083976719443093
          ],
          [
            121.70776063498091,
            25.08398567492961
          ],
          [
            121.70807,
            25.08411
          ],
          [
            121.70816,
            25.08414
          ],
          [
            121.70828357106464,
            25.084157691175687
          ],
          [
            121.70829215508128,
            25.08415959833977
          ],
          [
            121.70830033485882,
            25.08416278167794
          ],
          [
            121.70830783074456,
            25.08416714651622
          ],
          [
            121.70831443937152,
            25.084172574434454
          ],
          [
            121.70831998144448,
            25.084178918170604
          ],
          [
            121.70832436518711,
            25.084186123987383
          ],
          [
            121.70854,
            25.08462
          ],
          [
            121.70855,
            25.08464
          ],
          [
            121.70887613852237,
            25.084967915546798
          ],
          [
            121.70888864604929,
            25.08498322133932
          ],
          [
            121.70889800413015,
            25.08500069882649
          ],
          [
            121.70890361681512,
            25.085019463336398
          ],
          [
            121.70890528639951,
            25.08503885389619
          ],
          [
            121.70890295407278,
            25.08505818748064
          ],
          [
            121.70889680889502,
            25.08507654594657
          ],
          [
            121.7088,
            25.08529
          ],
          [
            121.70876,
            25.08538
          ],
          [
            121.70872,
            25.08552
          ],
          [
            121.7087,
            25.08565
          ],
          [
            121.70869,
            25.08574
          ],
          [
            121.70871,
            25.08582
          ],
          [
            121.70871,
            25.08585
          ],
          [
            121.70873,
            25.0859
          ],
          [
            121.70878,
            25.08598
          ],
          [
            121.70882,
            25.08604
          ],
          [
            121.70882,
            25.08605
          ],
          [
            121.70883,
            25.08606
          ],
          [
            121.7089,
            25.08618
          ],
          [
            121.70894,
            25.08627
          ],
          [
            121.70897,
            25.08634
          ],
          [
            121.70902,
            25.0864
          ],
          [
            121.70909,
            25.0865
          ],
          [
            121.7091,
            25.08651
          ],
          [
            121.70911,
            25.08652
          ],
          [
            121.70943155116974,
            25.08684285988014
          ],
          [
            121.70944445387143,
            25.08685857192064
          ],
          [
            121.70945419355195,
            25.086876500480642
          ],
          [
            121.70946016013339,
            25.086895754819448
          ],
          [
            121.70946215092461,
            25.086915680846783
          ],
          [
            121.70946009829635,
            25.086935601654403
          ],
          [
            121.70945417366256,
            25.0869546008285
          ],
          [
            121.70926,
            25.08741
          ],
          [
            121.70911,
            25.08751
          ],
          [
            121.70912,
            25.08766
          ],
          [
            121.70911999999998,
            25.08796043343205
          ],
          [
            121.70912741756965,
            25.087998156921266
          ],
          [
            121.70914874577332,
            25.088031178659506
          ],
          [
            121.7091813263229,
            25.088055382908973
          ],
          [
            121.70922109846913,
            25.08806775291921
          ],
          [
            121.70926310512212,
            25.088066746926472
          ],
          [
            121.70930242992053,
            25.08805230786931
          ],
          [
            121.71022,
            25.08753
          ],
          [
            121.7104,
            25.08743
          ],
          [
            121.71116042314387,
            25.0870484881006
          ],
          [
            121.71117666214667,
            25.087038609937462
          ],
          [
            121.71119115010093,
            25.087026204228273
          ],
          [
            121.71120317308814,
            25.087011772956743
          ],
          [
            121.71121239596293,
            25.08699571840005
          ],
          [
            121.71121856163418,
            25.086978488085062
          ],
          [
            121.71122150178006,
            25.086960513312704
          ],
          [
            121.71125,
            25.08656
          ],
          [
            121.71125,
            25.08645
          ],
          [
            121.71125000000002,
            25.086923631250617
          ],
          [
            121.71124823000211,
            25.086942283124312
          ],
          [
            121.71124297265078,
            25.086960380263697
          ],
          [
            121.71123438430739,
            25.086977384433066
          ],
          [
            121.711222720402,
            25.086992789903277
          ],
          [
            121.71120832783643,
            25.08700613849286
          ],
          [
            121.71119195064863,
            25.087016861869618
          ],
          [
            121.71076,
            25.08725
          ],
          [
            121.7104,
            25.08743
          ],
          [
            121.71022,
            25.08753
          ],
          [
            121.70932,
            25.08804
          ],
          [
            121.70908,
            25.08818
          ],
          [
            121.70858,
            25.0888
          ],
          [
            121.70856,
            25.08908
          ],
          [
            121.70856000000002,
            25.089685125786428
          ],
          [
            121.70855827945475,
            25.089703516971813
          ],
          [
            121.70855316755966,
            25.089721376470447
          ],
          [
            121.70854481209896,
            25.08973818796656
          ],
          [
            121.70853345462797,
            25.089753465442016
          ],
          [
            121.7085194234896,
            25.089766767226994
          ],
          [
            121.70850344238171,
            25.089777530520045
          ],
          [
            121.70751345688191,
            25.090330887679976
          ],
          [
            121.7075435466815,
            25.090512028374818
          ],
          [
            121.70754721264878,
            25.09052619491265
          ],
          [
            121.70755334122748,
            25.09053953618398
          ],
          [
            121.70756178195188,
            25.090551782378622
          ],
          [
            121.70757230705351,
            25.090562603039476
          ],
          [
            121.70758463251804,
            25.090571706176718
          ],
          [
            121.70759819036911,
            25.090578746292195
          ],
          [
            121.70798,
            25.09074
          ],
          [
            121.70815,
            25.09085
          ],
          [
            121.70823,
            25.09093
          ],
          [
            121.70831,
            25.09101
          ],
          [
            121.7084,
            25.0911
          ],
          [
            121.70859,
            25.09124
          ],
          [
            121.70944,
            25.09182
          ],
          [
            121.70987,
            25.09211
          ],
          [
            121.70998,
            25.09218
          ],
          [
            121.71009,
            25.09226
          ],
          [
            121.71035,
            25.09244
          ],
          [
            121.71053,
            25.09257
          ],
          [
            121.71061,
            25.09265
          ],
          [
            121.71072,
            25.09273
          ],
          [
            121.71077,
            25.09278
          ],
          [
            121.71085,
            25.09283
          ],
          [
            121.71095,
            25.0929
          ],
          [
            121.71126,
            25.09311
          ],
          [
            121.71158,
            25.09335
          ],
          [
            121.71167,
            25.09341
          ],
          [
            121.71184,
            25.09356
          ],
          [
            121.71187,
            25.09359
          ],
          [
            121.71199,
            25.09371
          ],
          [
            121.71228,
            25.094
          ],
          [
            121.71238,
            25.0941
          ],
          [
            121.71275,
            25.09445
          ],
          [
            121.71283,
            25.09453
          ],
          [
            121.7134446702437,
            25.095230190715792
          ],
          [
            121.71345091164277,
            25.095238919207414
          ],
          [
            121.71345532203507,
            25.095248737847275
          ],
          [
            121.71345761084865,
            25.095259141069
          ],
          [
            121.7134576950272,
            25.09526975136127
          ],
          [
            121.71345557151605,
            25.09528018369858
          ],
          [
            121.71345139543754,
            25.095289918742306
          ],
          [
            121.71325340611882,
            25.09564748058251
          ],
          [
            121.71325068057752,
            25.095654948056925
          ],
          [
            121.71325038681509,
            25.09566289090621
          ],
          [
            121.71325258754757,
            25.095670580664752
          ],
          [
            121.71325710021337,
            25.09567737942926
          ],
          [
            121.71326355046466,
            25.09568272320879
          ],
          [
            121.71327134511017,
            25.0956861520295
          ],
          [
            121.71332,
            25.0957
          ]
        ]
      }
    },
    {
      "type": "Feature",
      "properties": {
        "feature_type": "station",
        "ref": "KEE306694",
        "name": "自治街",
        "name_en": "Zizhi St.",
        "line": "706（經自治街）",
        "color": "#9f1239",
        "direction": 1,
        "station_id": "141078"
      },
      "geometry": {
        "type": "Point",
        "coordinates": [
          121.713305,
          25.09573
        ]
      }
    }
  ]
}
