{
  "type": "FeatureCollection",
  "name": "8151（大南）",
  "properties": {
    "id": "inter_city_8151",
    "name": "8151（大南）",
    "name_en": "8151 (大南)",
    "ref": "8151",
    "color": "#be123c",
    "city_id": "InterCity",
    "source": "TDX Bus Shape / StopOfRoute",
    "via": "大南",
    "official_map_url": "https://web.taiwanbus.tw/MISUploadData/Schematic/file/8151.jpg",
    "operator_id": "113",
    "operator": "東台灣客運"
  },
  "features": [
    {
      "type": "Feature",
      "properties": {
        "feature_type": "route",
        "ref": "8151",
        "name": "8151（大南）",
        "name_en": "8151 (大南)",
        "color": "#be123c",
        "direction": 0
      },
      "geometry": {
        "type": "LineString",
        "coordinates": [
          [
            121.14755,
            22.75276
          ],
          [
            121.14739,
            22.75259
          ],
          [
            121.14715,
            22.75232
          ],
          [
            121.14715,
            22.75232
          ],
          [
            121.14725,
            22.75224
          ],
          [
            121.14742,
            22.7521
          ],
          [
            121.14759,
            22.75197
          ],
          [
            121.14809,
            22.75154
          ],
          [
            121.14813,
            22.7515
          ],
          [
            121.14854,
            22.75114
          ],
          [
            121.14866,
            22.75104
          ],
          [
            121.14873,
            22.75099
          ],
          [
            121.14881,
            22.75091
          ],
          [
            121.14891,
            22.75083
          ],
          [
            121.14937,
            22.75049
          ],
          [
            121.14937,
            22.75049
          ],
          [
            121.14966,
            22.75078
          ],
          [
            121.14997,
            22.75107
          ],
          [
            121.14997,
            22.75107
          ],
          [
            121.14963,
            22.75138
          ],
          [
            121.14953,
            22.75146
          ],
          [
            121.14926,
            22.75166
          ],
          [
            121.1491,
            22.75179
          ],
          [
            121.14871,
            22.75212
          ],
          [
            121.14851,
            22.75229
          ],
          [
            121.14808,
            22.75264
          ],
          [
            121.14808,
            22.75264
          ],
          [
            121.14865,
            22.75331
          ],
          [
            121.14899,
            22.75367
          ],
          [
            121.14941,
            22.75407
          ],
          [
            121.14958,
            22.75423
          ],
          [
            121.14982,
            22.7545
          ],
          [
            121.14982,
            22.7545
          ],
          [
            121.14994,
            22.75462
          ],
          [
            121.1502,
            22.75488
          ],
          [
            121.15038,
            22.75506
          ],
          [
            121.15052,
            22.75522
          ],
          [
            121.15065,
            22.75537
          ],
          [
            121.15068,
            22.7554
          ],
          [
            121.15108,
            22.75582
          ],
          [
            121.15108,
            22.75582
          ],
          [
            121.15072,
            22.75623
          ],
          [
            121.15052,
            22.75646
          ],
          [
            121.15031,
            22.75668
          ],
          [
            121.14992,
            22.75712
          ],
          [
            121.14992,
            22.75712
          ],
          [
            121.14986,
            22.75718
          ],
          [
            121.14958,
            22.75749
          ],
          [
            121.14925,
            22.75784
          ],
          [
            121.14899,
            22.7581
          ],
          [
            121.14855,
            22.75846
          ],
          [
            121.14843,
            22.75855
          ],
          [
            121.14831,
            22.75864
          ],
          [
            121.14796,
            22.75889
          ],
          [
            121.14772,
            22.75904
          ],
          [
            121.1473,
            22.7593
          ],
          [
            121.14687,
            22.75954
          ],
          [
            121.14614,
            22.75999
          ],
          [
            121.14608,
            22.76002
          ],
          [
            121.14516,
            22.76056
          ],
          [
            121.14508,
            22.7606
          ],
          [
            121.14486,
            22.76074
          ],
          [
            121.1445,
            22.76095
          ],
          [
            121.1445,
            22.76095
          ],
          [
            121.14426,
            22.7611
          ],
          [
            121.14417,
            22.76116
          ],
          [
            121.14388,
            22.76135
          ],
          [
            121.14366,
            22.76151
          ],
          [
            121.14361,
            22.76155
          ],
          [
            121.14353,
            22.7616
          ],
          [
            121.14308,
            22.76194
          ],
          [
            121.14279,
            22.76216
          ],
          [
            121.14279,
            22.76216
          ],
          [
            121.14214,
            22.76263
          ],
          [
            121.14167,
            22.76295
          ],
          [
            121.14138,
            22.76316
          ],
          [
            121.1406,
            22.76373
          ],
          [
            121.13992,
            22.76424
          ],
          [
            121.13976,
            22.76433
          ],
          [
            121.13948,
            22.76465
          ],
          [
            121.13926,
            22.76488
          ],
          [
            121.13926,
            22.76488
          ],
          [
            121.13905,
            22.76508
          ],
          [
            121.13897,
            22.76518
          ],
          [
            121.13893,
            22.76522
          ],
          [
            121.13885,
            22.7653
          ],
          [
            121.13877,
            22.76539
          ],
          [
            121.13872,
            22.76545
          ],
          [
            121.13863,
            22.76555
          ],
          [
            121.13819,
            22.76603
          ],
          [
            121.13803,
            22.76619
          ],
          [
            121.13731,
            22.76694
          ],
          [
            121.13705,
            22.76723
          ],
          [
            121.13688,
            22.7674
          ],
          [
            121.13686,
            22.76742
          ],
          [
            121.13654,
            22.76775
          ],
          [
            121.13628,
            22.76801
          ],
          [
            121.13628,
            22.76801
          ],
          [
            121.1359,
            22.76768
          ],
          [
            121.13541,
            22.76727
          ],
          [
            121.13456,
            22.76657
          ],
          [
            121.13439,
            22.76646
          ],
          [
            121.13434,
            22.76642
          ],
          [
            121.13427,
            22.76639
          ],
          [
            121.13421,
            22.76636
          ],
          [
            121.13399,
            22.76629
          ],
          [
            121.13399,
            22.76629
          ],
          [
            121.13377,
            22.76623
          ],
          [
            121.13343,
            22.76613
          ],
          [
            121.13336,
            22.76611
          ],
          [
            121.1333,
            22.76609
          ],
          [
            121.1332,
            22.76605
          ],
          [
            121.13267,
            22.76587
          ],
          [
            121.13235,
            22.76576
          ],
          [
            121.13223,
            22.76574
          ],
          [
            121.1322,
            22.76573
          ],
          [
            121.13216,
            22.76573
          ],
          [
            121.13213,
            22.76573
          ],
          [
            121.1321,
            22.76573
          ],
          [
            121.13208,
            22.76573
          ],
          [
            121.13205,
            22.76574
          ],
          [
            121.13202,
            22.76575
          ],
          [
            121.13197,
            22.76577
          ],
          [
            121.13135,
            22.7662
          ],
          [
            121.13097,
            22.76647
          ],
          [
            121.13071,
            22.76666
          ],
          [
            121.13018,
            22.767
          ],
          [
            121.12964,
            22.76727
          ],
          [
            121.12933,
            22.76742
          ],
          [
            121.12911,
            22.76753
          ],
          [
            121.12887,
            22.76765
          ],
          [
            121.12887,
            22.76765
          ],
          [
            121.12874,
            22.76771
          ],
          [
            121.12845,
            22.76785
          ],
          [
            121.12822,
            22.76796
          ],
          [
            121.12771,
            22.7682
          ],
          [
            121.12748,
            22.7683
          ],
          [
            121.12656,
            22.76873
          ],
          [
            121.12637,
            22.76882
          ],
          [
            121.12622,
            22.76889
          ],
          [
            121.1262,
            22.7689
          ],
          [
            121.12617,
            22.76891
          ],
          [
            121.12613,
            22.76892
          ],
          [
            121.1261,
            22.76893
          ],
          [
            121.12603,
            22.76894
          ],
          [
            121.12596,
            22.76894
          ],
          [
            121.1259,
            22.76893
          ],
          [
            121.12583,
            22.76893
          ],
          [
            121.1256,
            22.7689
          ],
          [
            121.12536,
            22.76887
          ],
          [
            121.12505,
            22.76884
          ],
          [
            121.12472,
            22.76882
          ],
          [
            121.1244,
            22.76879
          ],
          [
            121.12397,
            22.76876
          ],
          [
            121.12397,
            22.76876
          ],
          [
            121.12355,
            22.76873
          ],
          [
            121.12337,
            22.76872
          ],
          [
            121.12321,
            22.76871
          ],
          [
            121.12255999999999,
            22.76869
          ],
          [
            121.12235,
            22.76867
          ],
          [
            121.1222,
            22.76867
          ],
          [
            121.12209,
            22.76868
          ],
          [
            121.12202,
            22.76869
          ],
          [
            121.12165,
            22.76876
          ],
          [
            121.12131,
            22.76883
          ],
          [
            121.12096,
            22.76892
          ],
          [
            121.12085,
            22.76895
          ],
          [
            121.12046,
            22.76903
          ],
          [
            121.11935,
            22.76929
          ],
          [
            121.11902,
            22.76936
          ],
          [
            121.11902,
            22.76936
          ],
          [
            121.11862,
            22.76945
          ],
          [
            121.11806,
            22.76958
          ],
          [
            121.11791,
            22.76962
          ],
          [
            121.11764,
            22.76967
          ],
          [
            121.11737,
            22.76974
          ],
          [
            121.11685,
            22.76982
          ],
          [
            121.11639,
            22.76994
          ],
          [
            121.11618,
            22.76998
          ],
          [
            121.11618,
            22.76998
          ],
          [
            121.11603,
            22.77001
          ],
          [
            121.11588,
            22.77004
          ],
          [
            121.11566,
            22.77009
          ],
          [
            121.11516,
            22.7702
          ],
          [
            121.11477,
            22.77028
          ],
          [
            121.11471,
            22.77029
          ],
          [
            121.11405,
            22.77043
          ],
          [
            121.11394,
            22.77045
          ],
          [
            121.11377,
            22.77048
          ],
          [
            121.11372,
            22.77049
          ],
          [
            121.11372,
            22.77049
          ],
          [
            121.11301,
            22.77063
          ],
          [
            121.11251,
            22.77074
          ],
          [
            121.11197,
            22.77086
          ],
          [
            121.11116,
            22.77104
          ],
          [
            121.10979,
            22.77133
          ],
          [
            121.10964,
            22.77136
          ],
          [
            121.10925,
            22.77145
          ],
          [
            121.10893,
            22.77152
          ],
          [
            121.10893,
            22.77152
          ],
          [
            121.10884,
            22.77154
          ],
          [
            121.10881,
            22.77158
          ],
          [
            121.10876,
            22.77159
          ],
          [
            121.10611,
            22.7723
          ],
          [
            121.1046,
            22.7727
          ],
          [
            121.10213,
            22.77334
          ],
          [
            121.10152,
            22.77345
          ],
          [
            121.10152,
            22.77345
          ],
          [
            121.10083,
            22.77356
          ],
          [
            121.10075,
            22.77354
          ],
          [
            121.10062,
            22.77356
          ],
          [
            121.09806,
            22.77395
          ],
          [
            121.09595,
            22.77428
          ],
          [
            121.0953,
            22.77438
          ],
          [
            121.09502,
            22.77442
          ],
          [
            121.0946,
            22.77446
          ],
          [
            121.0945,
            22.77446
          ],
          [
            121.0945,
            22.77446
          ],
          [
            121.09436,
            22.77446
          ],
          [
            121.09389,
            22.77447
          ],
          [
            121.09299,
            22.77447
          ],
          [
            121.09283,
            22.77448
          ],
          [
            121.09244,
            22.77447
          ],
          [
            121.09224,
            22.77446
          ],
          [
            121.09187,
            22.77445
          ],
          [
            121.09187,
            22.77445
          ],
          [
            121.09181,
            22.77445
          ],
          [
            121.09129,
            22.77447
          ],
          [
            121.09034,
            22.77453
          ],
          [
            121.09016,
            22.77453
          ],
          [
            121.08972,
            22.77451
          ],
          [
            121.08957,
            22.77451
          ],
          [
            121.08847,
            22.7745
          ],
          [
            121.0884,
            22.7745
          ],
          [
            121.08731,
            22.7745
          ],
          [
            121.08723,
            22.7745
          ],
          [
            121.08702,
            22.7745
          ],
          [
            121.08667,
            22.7745
          ],
          [
            121.08656,
            22.7745
          ],
          [
            121.08656,
            22.7745
          ],
          [
            121.08635,
            22.7745
          ],
          [
            121.08599,
            22.77451
          ],
          [
            121.08591,
            22.77451
          ],
          [
            121.08581,
            22.77451
          ],
          [
            121.08577,
            22.77452
          ],
          [
            121.08517,
            22.77454
          ],
          [
            121.08515,
            22.77454
          ],
          [
            121.08501,
            22.77454
          ],
          [
            121.08489,
            22.77454
          ],
          [
            121.08481,
            22.77453
          ],
          [
            121.08462,
            22.7745
          ],
          [
            121.08455,
            22.77449
          ],
          [
            121.08447,
            22.77446
          ],
          [
            121.08444,
            22.77445
          ],
          [
            121.08438,
            22.77443
          ],
          [
            121.08388,
            22.77427
          ],
          [
            121.08366,
            22.77419
          ],
          [
            121.08283,
            22.7739
          ],
          [
            121.08211,
            22.77366
          ],
          [
            121.08189,
            22.77359
          ],
          [
            121.08114,
            22.77334
          ],
          [
            121.08095,
            22.77328
          ],
          [
            121.07995,
            22.77294
          ],
          [
            121.07958,
            22.77281
          ],
          [
            121.07958,
            22.77281
          ],
          [
            121.07795,
            22.77226
          ],
          [
            121.07475,
            22.7712
          ],
          [
            121.07475,
            22.7712
          ],
          [
            121.07392,
            22.77094
          ],
          [
            121.06906,
            22.7693
          ],
          [
            121.06906,
            22.7693
          ],
          [
            121.06632,
            22.7684
          ],
          [
            121.06543,
            22.76808
          ],
          [
            121.06281,
            22.76718
          ],
          [
            121.06281,
            22.76718
          ],
          [
            121.06275,
            22.76716
          ],
          [
            121.0624,
            22.76704
          ],
          [
            121.06233,
            22.76702
          ],
          [
            121.06102,
            22.76662
          ],
          [
            121.06077,
            22.76652
          ],
          [
            121.06061,
            22.76648
          ],
          [
            121.05827,
            22.76568
          ],
          [
            121.05646,
            22.76506
          ],
          [
            121.05644,
            22.76506
          ],
          [
            121.05627,
            22.765
          ],
          [
            121.05626,
            22.765
          ],
          [
            121.05456,
            22.76443
          ],
          [
            121.05433,
            22.76434
          ],
          [
            121.05397,
            22.76423
          ],
          [
            121.05335,
            22.76403
          ],
          [
            121.05279,
            22.76382
          ],
          [
            121.05261,
            22.76376
          ],
          [
            121.05261,
            22.76376
          ],
          [
            121.05188,
            22.7635
          ],
          [
            121.0517,
            22.76344
          ],
          [
            121.05152,
            22.76337
          ],
          [
            121.05139,
            22.76332
          ],
          [
            121.051,
            22.76318
          ],
          [
            121.0506,
            22.76305
          ],
          [
            121.05021,
            22.76291
          ],
          [
            121.05006,
            22.76284
          ],
          [
            121.05005,
            22.76284
          ],
          [
            121.0499,
            22.76275
          ],
          [
            121.04973,
            22.76265
          ],
          [
            121.0497,
            22.76263
          ],
          [
            121.04957,
            22.76252
          ],
          [
            121.04936,
            22.76229
          ],
          [
            121.04933,
            22.76225
          ],
          [
            121.0493,
            22.76221
          ],
          [
            121.04929,
            22.7622
          ],
          [
            121.04929,
            22.7622
          ],
          [
            121.04927,
            22.76217
          ],
          [
            121.04926,
            22.76214
          ],
          [
            121.04924,
            22.7621
          ],
          [
            121.04923,
            22.76207
          ],
          [
            121.04919,
            22.7619
          ],
          [
            121.04917,
            22.76182
          ],
          [
            121.04916,
            22.76172
          ],
          [
            121.04916,
            22.76171
          ],
          [
            121.04915,
            22.76159
          ],
          [
            121.04915,
            22.76154
          ],
          [
            121.04915,
            22.76146
          ],
          [
            121.04917,
            22.76128
          ],
          [
            121.04919,
            22.76118
          ],
          [
            121.04922,
            22.76101
          ],
          [
            121.04923,
            22.76099
          ],
          [
            121.04926,
            22.76083
          ],
          [
            121.04928,
            22.76071
          ],
          [
            121.04929,
            22.76065
          ],
          [
            121.04934,
            22.76048
          ],
          [
            121.04938,
            22.7603
          ],
          [
            121.04942,
            22.76016
          ],
          [
            121.04956,
            22.75988
          ],
          [
            121.04965,
            22.75973
          ],
          [
            121.04977,
            22.75957
          ],
          [
            121.04986,
            22.75945
          ],
          [
            121.04994,
            22.75937
          ],
          [
            121.05004,
            22.75926
          ],
          [
            121.05046,
            22.75894
          ],
          [
            121.0509,
            22.75859
          ],
          [
            121.0509,
            22.75859
          ],
          [
            121.05111,
            22.75842
          ],
          [
            121.05134,
            22.7582
          ],
          [
            121.0517,
            22.7578
          ],
          [
            121.05191,
            22.75755
          ],
          [
            121.05219,
            22.75723
          ],
          [
            121.05232,
            22.75706
          ],
          [
            121.05248,
            22.75687
          ],
          [
            121.05264,
            22.75664
          ],
          [
            121.05277,
            22.75647
          ],
          [
            121.05286,
            22.7561
          ],
          [
            121.05306,
            22.75548
          ],
          [
            121.05318,
            22.7551
          ],
          [
            121.05326,
            22.75487
          ],
          [
            121.0535,
            22.754
          ],
          [
            121.05363,
            22.75353
          ],
          [
            121.05374,
            22.75306
          ],
          [
            121.05384,
            22.75263
          ],
          [
            121.05399,
            22.75185
          ],
          [
            121.05422,
            22.7503
          ],
          [
            121.05424,
            22.75014
          ],
          [
            121.05428,
            22.74998
          ],
          [
            121.05433,
            22.74981
          ],
          [
            121.05438,
            22.74966
          ],
          [
            121.05445,
            22.74952
          ],
          [
            121.05452,
            22.7494
          ],
          [
            121.05461,
            22.74928
          ],
          [
            121.05469,
            22.7492
          ],
          [
            121.05487,
            22.74902
          ],
          [
            121.0549,
            22.74898
          ],
          [
            121.0553,
            22.74867
          ],
          [
            121.0553,
            22.74867
          ],
          [
            121.05555,
            22.74848
          ],
          [
            121.05578,
            22.74831
          ],
          [
            121.05598,
            22.74815
          ],
          [
            121.05628,
            22.74788
          ],
          [
            121.0564,
            22.74773
          ],
          [
            121.05645,
            22.74766
          ],
          [
            121.05651,
            22.74759
          ],
          [
            121.05656,
            22.74751
          ],
          [
            121.05668,
            22.74728
          ],
          [
            121.05679,
            22.74705
          ],
          [
            121.05683,
            22.74689
          ],
          [
            121.05687,
            22.74668
          ],
          [
            121.05692,
            22.74641
          ],
          [
            121.05693,
            22.74605
          ],
          [
            121.05694,
            22.74592
          ],
          [
            121.05696,
            22.74547
          ],
          [
            121.057,
            22.74436
          ],
          [
            121.05703,
            22.74412
          ],
          [
            121.05708,
            22.74377
          ],
          [
            121.05716,
            22.74332
          ],
          [
            121.05726,
            22.74252
          ],
          [
            121.05726,
            22.7425
          ],
          [
            121.05729,
            22.74235
          ],
          [
            121.05735,
            22.74199
          ],
          [
            121.05741,
            22.74167
          ],
          [
            121.05741,
            22.74153
          ],
          [
            121.0574,
            22.74143
          ],
          [
            121.05738,
            22.74129
          ],
          [
            121.05736,
            22.74119
          ],
          [
            121.0573,
            22.74101
          ],
          [
            121.05711,
            22.74057
          ],
          [
            121.05704,
            22.74041
          ],
          [
            121.05694,
            22.74023
          ],
          [
            121.05676,
            22.7399
          ],
          [
            121.05666,
            22.73963
          ],
          [
            121.05659,
            22.73928
          ],
          [
            121.05657,
            22.73885
          ],
          [
            121.05656,
            22.7388
          ],
          [
            121.05657,
            22.73867
          ],
          [
            121.05658,
            22.73778
          ],
          [
            121.05657,
            22.73742
          ],
          [
            121.05665,
            22.73581
          ],
          [
            121.05662,
            22.73537
          ],
          [
            121.05645,
            22.73421
          ],
          [
            121.05645,
            22.73421
          ],
          [
            121.05643,
            22.73409
          ],
          [
            121.05643,
            22.73405
          ],
          [
            121.05637,
            22.73352
          ],
          [
            121.05631,
            22.73313
          ],
          [
            121.05629,
            22.73298
          ],
          [
            121.05612,
            22.73192
          ],
          [
            121.05606,
            22.73134
          ],
          [
            121.05606,
            22.7312
          ],
          [
            121.05606,
            22.7311
          ],
          [
            121.05608,
            22.73084
          ],
          [
            121.05608,
            22.73079
          ],
          [
            121.05612,
            22.73007
          ],
          [
            121.05614,
            22.72983
          ],
          [
            121.05614,
            22.72983
          ],
          [
            121.0563,
            22.72768
          ],
          [
            121.05632,
            22.72701
          ],
          [
            121.05628,
            22.72674
          ],
          [
            121.05622,
            22.72654
          ],
          [
            121.05517999999999,
            22.72418
          ],
          [
            121.05508,
            22.72406
          ],
          [
            121.05491,
            22.72367
          ],
          [
            121.05424,
            22.72213
          ],
          [
            121.05377,
            22.7211
          ],
          [
            121.05355,
            22.72071
          ],
          [
            121.05355,
            22.72071
          ],
          [
            121.05322,
            22.72024
          ],
          [
            121.05277,
            22.71972
          ],
          [
            121.05217,
            22.71905
          ],
          [
            121.05218,
            22.71904
          ],
          [
            121.05204,
            22.71889
          ],
          [
            121.05157,
            22.71833
          ],
          [
            121.05133,
            22.71806
          ],
          [
            121.05103,
            22.71776
          ],
          [
            121.05081,
            22.71756
          ],
          [
            121.05042,
            22.71723
          ],
          [
            121.04954,
            22.71646
          ],
          [
            121.04923,
            22.71619
          ],
          [
            121.04902,
            22.716
          ],
          [
            121.04864,
            22.71566
          ],
          [
            121.04861,
            22.71563
          ],
          [
            121.04831,
            22.71534
          ],
          [
            121.04827,
            22.71528
          ],
          [
            121.04765,
            22.71464
          ],
          [
            121.04732,
            22.71419
          ],
          [
            121.04722,
            22.7141
          ],
          [
            121.04709,
            22.71402
          ],
          [
            121.04697,
            22.71395
          ],
          [
            121.04688,
            22.7139
          ],
          [
            121.04684,
            22.71388
          ],
          [
            121.0467,
            22.71381
          ],
          [
            121.04652,
            22.71372
          ],
          [
            121.04611,
            22.71354
          ],
          [
            121.04583,
            22.7134
          ],
          [
            121.04568,
            22.7133
          ],
          [
            121.04557,
            22.71321
          ],
          [
            121.04537,
            22.71302
          ],
          [
            121.04527,
            22.7129
          ],
          [
            121.04522,
            22.7128
          ],
          [
            121.04504,
            22.71248
          ],
          [
            121.04469,
            22.7118
          ],
          [
            121.04445,
            22.71137
          ],
          [
            121.04429,
            22.71107
          ],
          [
            121.04423,
            22.71096
          ],
          [
            121.04412,
            22.71075
          ],
          [
            121.04369,
            22.70991
          ],
          [
            121.04339,
            22.70934
          ],
          [
            121.04312,
            22.70885
          ],
          [
            121.04282,
            22.70831
          ],
          [
            121.04262,
            22.70793
          ],
          [
            121.04249,
            22.70766
          ],
          [
            121.04245,
            22.70759
          ],
          [
            121.04236,
            22.7074
          ],
          [
            121.04229,
            22.70726
          ],
          [
            121.04218,
            22.70704
          ],
          [
            121.04199,
            22.7067
          ],
          [
            121.04184,
            22.70644
          ],
          [
            121.04166,
            22.70608
          ],
          [
            121.04166,
            22.70608
          ],
          [
            121.04149,
            22.70578
          ],
          [
            121.04136,
            22.70556
          ],
          [
            121.04127,
            22.70541
          ],
          [
            121.0412,
            22.7053
          ],
          [
            121.04113,
            22.70522
          ],
          [
            121.04103,
            22.70511
          ],
          [
            121.04103,
            22.7051
          ],
          [
            121.04093,
            22.705
          ],
          [
            121.04072,
            22.70482
          ],
          [
            121.04053,
            22.70469
          ],
          [
            121.04041,
            22.70462
          ],
          [
            121.04026,
            22.70453
          ],
          [
            121.04014,
            22.70444
          ],
          [
            121.04007,
            22.70439
          ],
          [
            121.04003,
            22.70434
          ],
          [
            121.03999,
            22.7043
          ],
          [
            121.03991,
            22.70422
          ],
          [
            121.03985,
            22.70413
          ],
          [
            121.03981,
            22.70406
          ],
          [
            121.03977,
            22.70399
          ],
          [
            121.03974,
            22.70394
          ],
          [
            121.03972,
            22.70387
          ],
          [
            121.03966,
            22.70371
          ],
          [
            121.03967,
            22.70324
          ],
          [
            121.03967,
            22.70304
          ],
          [
            121.03967,
            22.70293
          ],
          [
            121.03967,
            22.70284
          ],
          [
            121.03967,
            22.70275
          ],
          [
            121.03968,
            22.70223
          ],
          [
            121.03968,
            22.70203
          ],
          [
            121.03968,
            22.70167
          ],
          [
            121.03969,
            22.70159
          ],
          [
            121.03969,
            22.70149
          ],
          [
            121.0397,
            22.70116
          ],
          [
            121.0397,
            22.70105
          ],
          [
            121.0397,
            22.70091
          ],
          [
            121.03969,
            22.70037
          ],
          [
            121.03969,
            22.70033
          ],
          [
            121.0397,
            22.70023
          ],
          [
            121.03971,
            22.70019
          ],
          [
            121.03972,
            22.70006
          ],
          [
            121.03977,
            22.69998
          ],
          [
            121.03982,
            22.69992
          ],
          [
            121.03987,
            22.69986
          ],
          [
            121.03992,
            22.69982
          ],
          [
            121.03998,
            22.69978
          ],
          [
            121.04009,
            22.69971
          ],
          [
            121.04013,
            22.69969
          ],
          [
            121.04018,
            22.69966
          ],
          [
            121.04092,
            22.69931
          ],
          [
            121.0415,
            22.69901
          ],
          [
            121.04166,
            22.69893
          ],
          [
            121.04177,
            22.69886
          ],
          [
            121.04189,
            22.69878
          ],
          [
            121.042,
            22.69869
          ],
          [
            121.04253,
            22.69811
          ],
          [
            121.04253,
            22.69811
          ],
          [
            121.04248,
            22.69804
          ],
          [
            121.04248,
            22.69804
          ],
          [
            121.04253,
            22.69811
          ],
          [
            121.04253,
            22.69811
          ],
          [
            121.04386,
            22.69651
          ],
          [
            121.04423,
            22.6961
          ],
          [
            121.04518,
            22.69504
          ],
          [
            121.04531,
            22.69488
          ],
          [
            121.04538,
            22.69478
          ],
          [
            121.04544,
            22.69467
          ],
          [
            121.0455,
            22.69455
          ],
          [
            121.04555,
            22.69446
          ],
          [
            121.04563,
            22.69429
          ],
          [
            121.04569,
            22.69414
          ],
          [
            121.04593,
            22.69335
          ],
          [
            121.04595,
            22.69328
          ],
          [
            121.04597,
            22.69321
          ],
          [
            121.04597,
            22.69321
          ],
          [
            121.04638,
            22.69184
          ],
          [
            121.04643,
            22.69151
          ],
          [
            121.04644,
            22.69134
          ],
          [
            121.04642,
            22.69107
          ],
          [
            121.0464,
            22.69078
          ],
          [
            121.04639,
            22.69066
          ],
          [
            121.04639,
            22.69066
          ],
          [
            121.04636,
            22.6903
          ],
          [
            121.04634,
            22.69021
          ],
          [
            121.04632,
            22.69012
          ],
          [
            121.04629,
            22.69
          ],
          [
            121.04611,
            22.68953
          ],
          [
            121.04609,
            22.68947
          ],
          [
            121.04606,
            22.68939
          ],
          [
            121.04605,
            22.68934
          ],
          [
            121.04604,
            22.68927
          ],
          [
            121.04605,
            22.6892
          ],
          [
            121.04556,
            22.68836
          ],
          [
            121.04542,
            22.688110000000002
          ],
          [
            121.04511,
            22.68758
          ],
          [
            121.04491,
            22.68723
          ],
          [
            121.0448,
            22.68703
          ],
          [
            121.04443,
            22.68634
          ],
          [
            121.04402,
            22.68559
          ],
          [
            121.0437,
            22.68497
          ],
          [
            121.0437,
            22.68497
          ],
          [
            121.04357,
            22.68474
          ],
          [
            121.04348,
            22.68452
          ],
          [
            121.04338,
            22.6843
          ],
          [
            121.04332,
            22.68416
          ],
          [
            121.04325,
            22.68395
          ],
          [
            121.04314,
            22.68357
          ],
          [
            121.04293,
            22.68267
          ],
          [
            121.04282,
            22.68222
          ],
          [
            121.04265,
            22.68144
          ],
          [
            121.04262,
            22.6813
          ],
          [
            121.0422,
            22.67947
          ],
          [
            121.04217,
            22.67934
          ],
          [
            121.04205,
            22.67871
          ],
          [
            121.04185,
            22.67789
          ],
          [
            121.04159,
            22.67672
          ],
          [
            121.04155,
            22.67657
          ],
          [
            121.04147,
            22.67634
          ],
          [
            121.04144,
            22.67626
          ],
          [
            121.04141,
            22.67618
          ],
          [
            121.04137,
            22.6761
          ],
          [
            121.04123,
            22.67591
          ],
          [
            121.04108,
            22.67574
          ],
          [
            121.0406,
            22.67525
          ],
          [
            121.0406,
            22.67525
          ],
          [
            121.03984,
            22.67447
          ],
          [
            121.03954,
            22.67419
          ],
          [
            121.03906,
            22.67372
          ],
          [
            121.03887,
            22.67351
          ],
          [
            121.03807,
            22.67265
          ],
          [
            121.03796,
            22.67252
          ],
          [
            121.03738,
            22.67189
          ],
          [
            121.03706,
            22.67156
          ],
          [
            121.03663,
            22.67116
          ],
          [
            121.03656,
            22.6711
          ],
          [
            121.03642,
            22.67096
          ],
          [
            121.03642,
            22.67096
          ],
          [
            121.03603,
            22.67055
          ],
          [
            121.0357,
            22.67026
          ],
          [
            121.0355,
            22.67003
          ],
          [
            121.03539,
            22.66992
          ],
          [
            121.03532,
            22.66985
          ],
          [
            121.03465,
            22.66921
          ],
          [
            121.03436,
            22.66891
          ],
          [
            121.034,
            22.66853
          ],
          [
            121.03372,
            22.66825
          ],
          [
            121.03264,
            22.66714
          ],
          [
            121.03237,
            22.66684
          ],
          [
            121.03225,
            22.6667
          ],
          [
            121.03213,
            22.66656
          ],
          [
            121.03144,
            22.66577
          ],
          [
            121.03106,
            22.66534
          ],
          [
            121.03081,
            22.66509
          ],
          [
            121.03033,
            22.66464
          ],
          [
            121.0298,
            22.66419
          ],
          [
            121.02956,
            22.66394
          ],
          [
            121.02943,
            22.6638
          ],
          [
            121.02931,
            22.66365
          ],
          [
            121.02912,
            22.66338
          ],
          [
            121.02902,
            22.66324
          ],
          [
            121.02876,
            22.66279
          ],
          [
            121.02875,
            22.66277
          ],
          [
            121.02864,
            22.66258
          ],
          [
            121.02827,
            22.66195
          ],
          [
            121.02791,
            22.6614
          ],
          [
            121.02759,
            22.66095
          ],
          [
            121.0272,
            22.66044
          ],
          [
            121.02683,
            22.65995
          ],
          [
            121.02642,
            22.65942
          ],
          [
            121.02636,
            22.65935
          ],
          [
            121.02628,
            22.65924
          ],
          [
            121.02609,
            22.65896
          ],
          [
            121.02586,
            22.65861
          ],
          [
            121.02566,
            22.65829
          ],
          [
            121.02543,
            22.65789
          ],
          [
            121.02506,
            22.65724
          ],
          [
            121.02505,
            22.65723
          ],
          [
            121.02465,
            22.65651
          ],
          [
            121.0242,
            22.65575
          ],
          [
            121.02279,
            22.65343
          ],
          [
            121.0227,
            22.65329
          ],
          [
            121.02192,
            22.65204
          ],
          [
            121.02174,
            22.65178
          ],
          [
            121.02156,
            22.65156
          ],
          [
            121.02105,
            22.65094
          ],
          [
            121.02098,
            22.65085
          ],
          [
            121.02097,
            22.65084
          ],
          [
            121.02088,
            22.6507
          ],
          [
            121.02085,
            22.65066
          ],
          [
            121.02084,
            22.65064
          ],
          [
            121.02073,
            22.65043
          ],
          [
            121.02069,
            22.65034
          ],
          [
            121.02061,
            22.65017
          ],
          [
            121.02061,
            22.65016
          ],
          [
            121.02054,
            22.65001
          ],
          [
            121.02048,
            22.64984
          ],
          [
            121.02041,
            22.64967
          ],
          [
            121.02039,
            22.64963
          ],
          [
            121.02034,
            22.6495
          ],
          [
            121.0203,
            22.64942
          ],
          [
            121.02027,
            22.64934
          ],
          [
            121.02023,
            22.64925
          ],
          [
            121.0202,
            22.64918
          ],
          [
            121.02012,
            22.64901
          ],
          [
            121.02005,
            22.64884
          ],
          [
            121.02003,
            22.6488
          ],
          [
            121.01998,
            22.64868
          ],
          [
            121.0199,
            22.64851
          ],
          [
            121.01987,
            22.64844
          ],
          [
            121.01975,
            22.64818
          ],
          [
            121.0197,
            22.64806
          ],
          [
            121.01963,
            22.64789
          ],
          [
            121.01957,
            22.64776
          ],
          [
            121.01954,
            22.64758
          ],
          [
            121.01945,
            22.64733
          ],
          [
            121.01928,
            22.64705
          ],
          [
            121.01928,
            22.64705
          ],
          [
            121.01907,
            22.64671
          ],
          [
            121.01888,
            22.64643
          ],
          [
            121.01875,
            22.64623
          ],
          [
            121.01855,
            22.64593
          ],
          [
            121.01841,
            22.64563
          ],
          [
            121.01833,
            22.64542
          ],
          [
            121.01826,
            22.64518
          ],
          [
            121.01824,
            22.64509
          ],
          [
            121.01817,
            22.64486
          ],
          [
            121.01806,
            22.64441
          ],
          [
            121.01795,
            22.64405
          ],
          [
            121.01788,
            22.64384
          ],
          [
            121.01772,
            22.64349
          ],
          [
            121.01758,
            22.64322
          ],
          [
            121.01755,
            22.64316
          ],
          [
            121.0175,
            22.64306
          ],
          [
            121.0174,
            22.6429
          ],
          [
            121.01731,
            22.64274
          ],
          [
            121.01729,
            22.6427
          ],
          [
            121.01722,
            22.64258
          ],
          [
            121.01717,
            22.64249
          ],
          [
            121.01713,
            22.64241
          ],
          [
            121.01704,
            22.64222
          ],
          [
            121.01698,
            22.64204
          ],
          [
            121.01691,
            22.64177
          ],
          [
            121.01687,
            22.64156
          ],
          [
            121.01681,
            22.64125
          ],
          [
            121.01681,
            22.64121
          ],
          [
            121.01677,
            22.64103
          ],
          [
            121.01676,
            22.64098
          ],
          [
            121.01676,
            22.64098
          ],
          [
            121.01671,
            22.64068
          ],
          [
            121.01661,
            22.64019
          ],
          [
            121.01648,
            22.63943
          ],
          [
            121.01645,
            22.6393
          ],
          [
            121.01644,
            22.63927
          ],
          [
            121.0164,
            22.63913
          ],
          [
            121.01636,
            22.63903
          ],
          [
            121.01624,
            22.63876
          ],
          [
            121.01603,
            22.63832
          ],
          [
            121.01585,
            22.63797
          ],
          [
            121.0158,
            22.63786
          ],
          [
            121.01562,
            22.63747
          ],
          [
            121.01558,
            22.63736
          ],
          [
            121.0155,
            22.63713
          ],
          [
            121.01544,
            22.63695
          ],
          [
            121.01517,
            22.6361
          ],
          [
            121.01512,
            22.63593
          ],
          [
            121.01495,
            22.63541
          ],
          [
            121.01469,
            22.63457
          ],
          [
            121.0145,
            22.63392
          ],
          [
            121.01439,
            22.63357
          ],
          [
            121.01433,
            22.6334
          ],
          [
            121.0141,
            22.63268
          ],
          [
            121.01392,
            22.63205
          ],
          [
            121.01392,
            22.63201
          ],
          [
            121.0139,
            22.63192
          ],
          [
            121.01375,
            22.63103
          ],
          [
            121.01372,
            22.63086
          ],
          [
            121.01363,
            22.63034
          ],
          [
            121.01293,
            22.62754
          ],
          [
            121.01289,
            22.62736
          ],
          [
            121.01276,
            22.62684
          ],
          [
            121.01271,
            22.62666
          ],
          [
            121.01267,
            22.62649
          ],
          [
            121.01255,
            22.62602
          ],
          [
            121.0124,
            22.62547
          ],
          [
            121.01227,
            22.62503
          ],
          [
            121.01226,
            22.62498
          ],
          [
            121.01222,
            22.62486
          ],
          [
            121.01213,
            22.62463
          ],
          [
            121.01207,
            22.62447
          ],
          [
            121.01206,
            22.62444
          ],
          [
            121.012,
            22.6243
          ],
          [
            121.01194,
            22.62416
          ],
          [
            121.01161,
            22.62354
          ],
          [
            121.01149,
            22.62332
          ],
          [
            121.01141,
            22.62316
          ],
          [
            121.01088,
            22.6222
          ],
          [
            121.01088,
            22.6222
          ],
          [
            121.01087,
            22.62217
          ],
          [
            121.01079,
            22.62193
          ],
          [
            121.01064,
            22.62163
          ],
          [
            121.01047,
            22.62137
          ],
          [
            121.01037,
            22.62121
          ],
          [
            121.01028,
            22.62101
          ],
          [
            121.01023,
            22.62088
          ],
          [
            121.01021,
            22.62076
          ],
          [
            121.01019,
            22.62059
          ],
          [
            121.01018,
            22.62045
          ],
          [
            121.01017,
            22.62014
          ],
          [
            121.01019,
            22.61968
          ],
          [
            121.01019,
            22.61944
          ],
          [
            121.01017,
            22.61914
          ],
          [
            121.01016,
            22.61902
          ],
          [
            121.01013,
            22.61883
          ],
          [
            121.01009,
            22.61864
          ],
          [
            121.01004,
            22.61846
          ],
          [
            121.00997,
            22.61828
          ],
          [
            121.0099,
            22.61812
          ],
          [
            121.00983,
            22.61795
          ],
          [
            121.00867,
            22.61607
          ],
          [
            121.00862,
            22.61601
          ],
          [
            121.00851,
            22.61581
          ],
          [
            121.00825,
            22.61537
          ],
          [
            121.00819,
            22.61525
          ],
          [
            121.00789,
            22.61475
          ],
          [
            121.00789,
            22.61475
          ],
          [
            121.00777,
            22.61456
          ],
          [
            121.00769,
            22.61434
          ],
          [
            121.00769,
            22.61434
          ],
          [
            121.00758,
            22.6143
          ],
          [
            121.00756,
            22.61428
          ],
          [
            121.00755,
            22.61426
          ],
          [
            121.0074,
            22.61402
          ],
          [
            121.00726,
            22.61379
          ],
          [
            121.00693,
            22.61323
          ],
          [
            121.00671,
            22.61277
          ],
          [
            121.00651,
            22.61246
          ],
          [
            121.00643,
            22.61235
          ],
          [
            121.00619,
            22.61194
          ],
          [
            121.00582,
            22.61133
          ],
          [
            121.00553,
            22.61074
          ],
          [
            121.00543,
            22.61058
          ],
          [
            121.00541,
            22.61053
          ]
        ]
      }
    },
    {
      "type": "Feature",
      "properties": {
        "feature_type": "station",
        "ref": "THB297077",
        "name": "台東轉運站",
        "name_en": "Taitung Bus Station",
        "line": "8151（大南）",
        "color": "#be123c",
        "direction": 0
      },
      "geometry": {
        "type": "Point",
        "coordinates": [
          121.1476471,
          22.752851
        ]
      }
    },
    {
      "type": "Feature",
      "properties": {
        "feature_type": "station",
        "ref": "THB96102",
        "name": "中央市場",
        "name_en": "Zhongyang Market",
        "line": "8151（大南）",
        "color": "#be123c",
        "direction": 0
      },
      "geometry": {
        "type": "Point",
        "coordinates": [
          121.14977,
          22.754421
        ]
      }
    },
    {
      "type": "Feature",
      "properties": {
        "feature_type": "station",
        "ref": "THB96103",
        "name": "署東醫院",
        "name_en": "Taitung Hospital",
        "line": "8151（大南）",
        "color": "#be123c",
        "direction": 0
      },
      "geometry": {
        "type": "Point",
        "coordinates": [
          121.149968,
          22.757231
        ]
      }
    },
    {
      "type": "Feature",
      "properties": {
        "feature_type": "station",
        "ref": "THB92645",
        "name": "變電所",
        "name_en": "Transformer Substation",
        "line": "8151（大南）",
        "color": "#be123c",
        "direction": 0
      },
      "geometry": {
        "type": "Point",
        "coordinates": [
          121.144565,
          22.761042
        ]
      }
    },
    {
      "type": "Feature",
      "properties": {
        "feature_type": "station",
        "ref": "THB275475",
        "name": "舊縣議會",
        "name_en": "Consultative  Council",
        "line": "8151（大南）",
        "color": "#be123c",
        "direction": 0
      },
      "geometry": {
        "type": "Point",
        "coordinates": [
          121.14285,
          22.76223
        ]
      }
    },
    {
      "type": "Feature",
      "properties": {
        "feature_type": "station",
        "ref": "THB96431",
        "name": "更生四維路口",
        "name_en": "Gengsheng Siwei Rd. Intersection",
        "line": "8151（大南）",
        "color": "#be123c",
        "direction": 0
      },
      "geometry": {
        "type": "Point",
        "coordinates": [
          121.13937,
          22.764973
        ]
      }
    },
    {
      "type": "Feature",
      "properties": {
        "feature_type": "station",
        "ref": "THB238991",
        "name": "馬蘭加油站",
        "name_en": "Malan Gas Station",
        "line": "8151（大南）",
        "color": "#be123c",
        "direction": 0
      },
      "geometry": {
        "type": "Point",
        "coordinates": [
          121.13689,
          22.76745
        ]
      }
    },
    {
      "type": "Feature",
      "properties": {
        "feature_type": "station",
        "ref": "THB238927",
        "name": "馬蘭橋",
        "name_en": "Malan Bridge",
        "line": "8151（大南）",
        "color": "#be123c",
        "direction": 0
      },
      "geometry": {
        "type": "Point",
        "coordinates": [
          121.134203,
          22.766426
        ]
      }
    },
    {
      "type": "Feature",
      "properties": {
        "feature_type": "station",
        "ref": "THB136228",
        "name": "台東糖廠",
        "name_en": "Taitung Sugar Factory",
        "line": "8151（大南）",
        "color": "#be123c",
        "direction": 0
      },
      "geometry": {
        "type": "Point",
        "coordinates": [
          121.12891,
          22.76771
        ]
      }
    },
    {
      "type": "Feature",
      "properties": {
        "feature_type": "station",
        "ref": "THB238903",
        "name": "東方大鎮",
        "name_en": "Dongfangdazhen",
        "line": "8151（大南）",
        "color": "#be123c",
        "direction": 0
      },
      "geometry": {
        "type": "Point",
        "coordinates": [
          121.12396,
          22.76884
        ]
      }
    },
    {
      "type": "Feature",
      "properties": {
        "feature_type": "station",
        "ref": "THB294039",
        "name": "稅務局",
        "name_en": "Tax Bureau",
        "line": "8151（大南）",
        "color": "#be123c",
        "direction": 0
      },
      "geometry": {
        "type": "Point",
        "coordinates": [
          121.11905,
          22.76948
        ]
      }
    },
    {
      "type": "Feature",
      "properties": {
        "feature_type": "station",
        "ref": "THB135653",
        "name": "豐年米廠",
        "name_en": "Fengnian Rice Factory",
        "line": "8151（大南）",
        "color": "#be123c",
        "direction": 0
      },
      "geometry": {
        "type": "Point",
        "coordinates": [
          121.11619,
          22.77004
        ]
      }
    },
    {
      "type": "Feature",
      "properties": {
        "feature_type": "station",
        "ref": "THB97306",
        "name": "豐年",
        "name_en": "Fengnian",
        "line": "8151（大南）",
        "color": "#be123c",
        "direction": 0
      },
      "geometry": {
        "type": "Point",
        "coordinates": [
          121.11375,
          22.77054
        ]
      }
    },
    {
      "type": "Feature",
      "properties": {
        "feature_type": "station",
        "ref": "THB135655",
        "name": "大潤發",
        "name_en": "Darunfa",
        "line": "8151（大南）",
        "color": "#be123c",
        "direction": 0
      },
      "geometry": {
        "type": "Point",
        "coordinates": [
          121.10897,
          22.77169
        ]
      }
    },
    {
      "type": "Feature",
      "properties": {
        "feature_type": "station",
        "ref": "THB187876",
        "name": "中興陸橋",
        "name_en": "Zhongxing Land Bridge",
        "line": "8151（大南）",
        "color": "#be123c",
        "direction": 0
      },
      "geometry": {
        "type": "Point",
        "coordinates": [
          121.10153,
          22.7735
        ]
      }
    },
    {
      "type": "Feature",
      "properties": {
        "feature_type": "station",
        "ref": "THB276755",
        "name": "永豐餘",
        "name_en": "Yuen Foong Yu",
        "line": "8151（大南）",
        "color": "#be123c",
        "direction": 0
      },
      "geometry": {
        "type": "Point",
        "coordinates": [
          121.096746,
          22.774289
        ]
      }
    },
    {
      "type": "Feature",
      "properties": {
        "feature_type": "station",
        "ref": "THB136062",
        "name": "豐田",
        "name_en": "Fengtian",
        "line": "8151（大南）",
        "color": "#be123c",
        "direction": 0
      },
      "geometry": {
        "type": "Point",
        "coordinates": [
          121.09177,
          22.77453
        ]
      }
    },
    {
      "type": "Feature",
      "properties": {
        "feature_type": "station",
        "ref": "THB97099",
        "name": "豐田國小",
        "name_en": "Fengtian Elementary School",
        "line": "8151（大南）",
        "color": "#be123c",
        "direction": 0
      },
      "geometry": {
        "type": "Point",
        "coordinates": [
          121.08654,
          22.77464
        ]
      }
    },
    {
      "type": "Feature",
      "properties": {
        "feature_type": "station",
        "ref": "THB247206",
        "name": "田寮",
        "name_en": "Tianliao",
        "line": "8151（大南）",
        "color": "#be123c",
        "direction": 0
      },
      "geometry": {
        "type": "Point",
        "coordinates": [
          121.07953,
          22.77295
        ]
      }
    },
    {
      "type": "Feature",
      "properties": {
        "feature_type": "station",
        "ref": "THB150801",
        "name": "體育中學",
        "name_en": "National Taitung University Affiliated Physical Ed",
        "line": "8151（大南）",
        "color": "#be123c",
        "direction": 0
      },
      "geometry": {
        "type": "Point",
        "coordinates": [
          121.07467,
          22.77133
        ]
      }
    },
    {
      "type": "Feature",
      "properties": {
        "feature_type": "station",
        "ref": "THB97096",
        "name": "新田",
        "name_en": "Xintian",
        "line": "8151（大南）",
        "color": "#be123c",
        "direction": 0
      },
      "geometry": {
        "type": "Point",
        "coordinates": [
          121.06901,
          22.76943
        ]
      }
    },
    {
      "type": "Feature",
      "properties": {
        "feature_type": "station",
        "ref": "THB136253",
        "name": "新園",
        "name_en": "Xinyuan",
        "line": "8151（大南）",
        "color": "#be123c",
        "direction": 0
      },
      "geometry": {
        "type": "Point",
        "coordinates": [
          121.06275,
          22.76732
        ]
      }
    },
    {
      "type": "Feature",
      "properties": {
        "feature_type": "station",
        "ref": "THB97479",
        "name": "新園活動中心",
        "name_en": "Xinyuan Activity Center",
        "line": "8151（大南）",
        "color": "#be123c",
        "direction": 0
      },
      "geometry": {
        "type": "Point",
        "coordinates": [
          121.05253,
          22.763771
        ]
      }
    },
    {
      "type": "Feature",
      "properties": {
        "feature_type": "station",
        "ref": "THB136254",
        "name": "大南",
        "name_en": "Danan",
        "line": "8151（大南）",
        "color": "#be123c",
        "direction": 0
      },
      "geometry": {
        "type": "Point",
        "coordinates": [
          121.049945,
          22.762805
        ]
      }
    },
    {
      "type": "Feature",
      "properties": {
        "feature_type": "station",
        "ref": "THB247214",
        "name": "墾區入口",
        "name_en": "Kenqu Entrance",
        "line": "8151（大南）",
        "color": "#be123c",
        "direction": 0
      },
      "geometry": {
        "type": "Point",
        "coordinates": [
          121.05086,
          22.75856
        ]
      }
    },
    {
      "type": "Feature",
      "properties": {
        "feature_type": "station",
        "ref": "THB97092",
        "name": "建上路",
        "name_en": "Jianshang Rd.",
        "line": "8151（大南）",
        "color": "#be123c",
        "direction": 0
      },
      "geometry": {
        "type": "Point",
        "coordinates": [
          121.055257,
          22.748638
        ]
      }
    },
    {
      "type": "Feature",
      "properties": {
        "feature_type": "station",
        "ref": "THB247215",
        "name": "建和",
        "name_en": "Jianhe",
        "line": "8151（大南）",
        "color": "#be123c",
        "direction": 0
      },
      "geometry": {
        "type": "Point",
        "coordinates": [
          121.05635,
          22.73422
        ]
      }
    },
    {
      "type": "Feature",
      "properties": {
        "feature_type": "station",
        "ref": "THB247216",
        "name": "建東",
        "name_en": "Jiandong",
        "line": "8151（大南）",
        "color": "#be123c",
        "direction": 0
      },
      "geometry": {
        "type": "Point",
        "coordinates": [
          121.05605,
          22.72982
        ]
      }
    },
    {
      "type": "Feature",
      "properties": {
        "feature_type": "station",
        "ref": "THB238821",
        "name": "青海雲南路口",
        "name_en": "Qinghai Yunnan Rd. Intersection",
        "line": "8151（大南）",
        "color": "#be123c",
        "direction": 0
      },
      "geometry": {
        "type": "Point",
        "coordinates": [
          121.05351,
          22.72074
        ]
      }
    },
    {
      "type": "Feature",
      "properties": {
        "feature_type": "station",
        "ref": "THB136255",
        "name": "下建和",
        "name_en": "Xiajianhe",
        "line": "8151（大南）",
        "color": "#be123c",
        "direction": 0
      },
      "geometry": {
        "type": "Point",
        "coordinates": [
          121.05213,
          22.71908
        ]
      }
    },
    {
      "type": "Feature",
      "properties": {
        "feature_type": "station",
        "ref": "THB247207",
        "name": "知本國中",
        "name_en": "Zhiben Junior High School",
        "line": "8151（大南）",
        "color": "#be123c",
        "direction": 0
      },
      "geometry": {
        "type": "Point",
        "coordinates": [
          121.04861,
          22.71568
        ]
      }
    },
    {
      "type": "Feature",
      "properties": {
        "feature_type": "station",
        "ref": "THB97087",
        "name": "崎仔頭",
        "name_en": "Qizitou",
        "line": "8151（大南）",
        "color": "#be123c",
        "direction": 0
      },
      "geometry": {
        "type": "Point",
        "coordinates": [
          121.041614,
          22.7061
        ]
      }
    },
    {
      "type": "Feature",
      "properties": {
        "feature_type": "station",
        "ref": "THB97248",
        "name": "北荒野",
        "name_en": "Beihuangye",
        "line": "8151（大南）",
        "color": "#be123c",
        "direction": 0
      },
      "geometry": {
        "type": "Point",
        "coordinates": [
          121.04239,
          22.69803
        ]
      }
    },
    {
      "type": "Feature",
      "properties": {
        "feature_type": "station",
        "ref": "THB97249",
        "name": "荒野",
        "name_en": "Huangye",
        "line": "8151（大南）",
        "color": "#be123c",
        "direction": 0
      },
      "geometry": {
        "type": "Point",
        "coordinates": [
          121.04591,
          22.6932
        ]
      }
    },
    {
      "type": "Feature",
      "properties": {
        "feature_type": "station",
        "ref": "THB136268",
        "name": "美和",
        "name_en": "Meihe",
        "line": "8151（大南）",
        "color": "#be123c",
        "direction": 0
      },
      "geometry": {
        "type": "Point",
        "coordinates": [
          121.043637,
          22.684996
        ]
      }
    },
    {
      "type": "Feature",
      "properties": {
        "feature_type": "station",
        "ref": "THB97251",
        "name": "三和A",
        "name_en": "Sanhe(A)",
        "line": "8151（大南）",
        "color": "#be123c",
        "direction": 0
      },
      "geometry": {
        "type": "Point",
        "coordinates": [
          121.04052,
          22.67532
        ]
      }
    },
    {
      "type": "Feature",
      "properties": {
        "feature_type": "station",
        "ref": "THB97294",
        "name": "三和村",
        "name_en": "Sanhe Village",
        "line": "8151（大南）",
        "color": "#be123c",
        "direction": 0
      },
      "geometry": {
        "type": "Point",
        "coordinates": [
          121.036379,
          22.670995
        ]
      }
    },
    {
      "type": "Feature",
      "properties": {
        "feature_type": "station",
        "ref": "THB136375",
        "name": "華源",
        "name_en": "Huayuan",
        "line": "8151（大南）",
        "color": "#be123c",
        "direction": 0
      },
      "geometry": {
        "type": "Point",
        "coordinates": [
          121.028721,
          22.662848
        ]
      }
    },
    {
      "type": "Feature",
      "properties": {
        "feature_type": "station",
        "ref": "THB97253",
        "name": "南坑",
        "name_en": "Nankeng",
        "line": "8151（大南）",
        "color": "#be123c",
        "direction": 0
      },
      "geometry": {
        "type": "Point",
        "coordinates": [
          121.019181,
          22.647067
        ]
      }
    },
    {
      "type": "Feature",
      "properties": {
        "feature_type": "station",
        "ref": "THB97293",
        "name": "新吉村",
        "name_en": "Xinji Village",
        "line": "8151（大南）",
        "color": "#be123c",
        "direction": 0
      },
      "geometry": {
        "type": "Point",
        "coordinates": [
          121.01659,
          22.64101
        ]
      }
    },
    {
      "type": "Feature",
      "properties": {
        "feature_type": "station",
        "ref": "THB97292",
        "name": "北里村",
        "name_en": "Beili Village",
        "line": "8151（大南）",
        "color": "#be123c",
        "direction": 0
      },
      "geometry": {
        "type": "Point",
        "coordinates": [
          121.01081,
          22.62232
        ]
      }
    },
    {
      "type": "Feature",
      "properties": {
        "feature_type": "station",
        "ref": "THB97256",
        "name": "大王國中",
        "name_en": "Dawang Junior High School",
        "line": "8151（大南）",
        "color": "#be123c",
        "direction": 0
      },
      "geometry": {
        "type": "Point",
        "coordinates": [
          121.0078,
          22.6148
        ]
      }
    },
    {
      "type": "Feature",
      "properties": {
        "feature_type": "station",
        "ref": "THB98366",
        "name": "太麻里",
        "name_en": "Taimali",
        "line": "8151（大南）",
        "color": "#be123c",
        "direction": 0
      },
      "geometry": {
        "type": "Point",
        "coordinates": [
          121.005379,
          22.610527
        ]
      }
    }
  ]
}
