{
  "type": "FeatureCollection",
  "name": "8131（大南）",
  "properties": {
    "id": "inter_city_8131",
    "name": "8131（大南）",
    "name_en": "8131 (大南)",
    "ref": "8131",
    "color": "#be123c",
    "city_id": "InterCity",
    "source": "TDX Bus Shape / StopOfRoute",
    "via": "大南",
    "official_map_url": "https://web.taiwanbus.tw/MISUploadData/Schematic/file/8131.jpg",
    "operator_id": "113",
    "operator": "東台灣客運"
  },
  "features": [
    {
      "type": "Feature",
      "properties": {
        "feature_type": "route",
        "ref": "8131",
        "name": "8131（大南）",
        "name_en": "8131 (大南)",
        "color": "#be123c",
        "direction": 0
      },
      "geometry": {
        "type": "LineString",
        "coordinates": [
          [
            121.14757,
            22.75278
          ],
          [
            121.14739,
            22.75259
          ],
          [
            121.14715,
            22.75232
          ],
          [
            121.14715,
            22.75232
          ],
          [
            121.14725,
            22.75224
          ],
          [
            121.14742,
            22.7521
          ],
          [
            121.14759,
            22.75197
          ],
          [
            121.14809,
            22.75154
          ],
          [
            121.14813,
            22.7515
          ],
          [
            121.14854,
            22.75114
          ],
          [
            121.14866,
            22.75104
          ],
          [
            121.14873,
            22.75099
          ],
          [
            121.14881,
            22.75091
          ],
          [
            121.14891,
            22.75083
          ],
          [
            121.14937,
            22.75049
          ],
          [
            121.14937,
            22.75049
          ],
          [
            121.14966,
            22.75078
          ],
          [
            121.14997,
            22.75107
          ],
          [
            121.14997,
            22.75107
          ],
          [
            121.14963,
            22.75138
          ],
          [
            121.14953,
            22.75146
          ],
          [
            121.14926,
            22.75166
          ],
          [
            121.1491,
            22.75179
          ],
          [
            121.14871,
            22.75212
          ],
          [
            121.14851,
            22.75229
          ],
          [
            121.14808,
            22.75264
          ],
          [
            121.14808,
            22.75264
          ],
          [
            121.14865,
            22.75331
          ],
          [
            121.14899,
            22.75367
          ],
          [
            121.14941,
            22.75407
          ],
          [
            121.14958,
            22.75423
          ],
          [
            121.14983,
            22.7545
          ],
          [
            121.14983,
            22.7545
          ],
          [
            121.14994,
            22.75462
          ],
          [
            121.1502,
            22.75488
          ],
          [
            121.15038,
            22.75506
          ],
          [
            121.15052,
            22.75522
          ],
          [
            121.15065,
            22.75537
          ],
          [
            121.15068,
            22.7554
          ],
          [
            121.15108,
            22.75582
          ],
          [
            121.15108,
            22.75582
          ],
          [
            121.15072,
            22.75623
          ],
          [
            121.15052,
            22.75646
          ],
          [
            121.15031,
            22.75668
          ],
          [
            121.15001,
            22.75702
          ],
          [
            121.15001,
            22.75702
          ],
          [
            121.14986,
            22.75718
          ],
          [
            121.14958,
            22.75749
          ],
          [
            121.14925,
            22.75784
          ],
          [
            121.14899,
            22.7581
          ],
          [
            121.14855,
            22.75846
          ],
          [
            121.14843,
            22.75855
          ],
          [
            121.14831,
            22.75864
          ],
          [
            121.14796,
            22.75889
          ],
          [
            121.14772,
            22.75904
          ],
          [
            121.1473,
            22.7593
          ],
          [
            121.14687,
            22.75954
          ],
          [
            121.14614,
            22.75999
          ],
          [
            121.14608,
            22.76002
          ],
          [
            121.14516,
            22.76056
          ],
          [
            121.14508,
            22.7606
          ],
          [
            121.14486,
            22.76074
          ],
          [
            121.1445,
            22.76095
          ],
          [
            121.1445,
            22.76095
          ],
          [
            121.14426,
            22.7611
          ],
          [
            121.14417,
            22.76116
          ],
          [
            121.14388,
            22.76135
          ],
          [
            121.14366,
            22.76151
          ],
          [
            121.14361,
            22.76155
          ],
          [
            121.14353,
            22.7616
          ],
          [
            121.14308,
            22.76194
          ],
          [
            121.14279,
            22.76216
          ],
          [
            121.14279,
            22.76216
          ],
          [
            121.14214,
            22.76263
          ],
          [
            121.14167,
            22.76295
          ],
          [
            121.14138,
            22.76316
          ],
          [
            121.1406,
            22.76373
          ],
          [
            121.13992,
            22.76424
          ],
          [
            121.13976,
            22.76433
          ],
          [
            121.13948,
            22.76465
          ],
          [
            121.13926,
            22.76488
          ],
          [
            121.13926,
            22.76488
          ],
          [
            121.13905,
            22.76508
          ],
          [
            121.13897,
            22.76518
          ],
          [
            121.13893,
            22.76522
          ],
          [
            121.13885,
            22.7653
          ],
          [
            121.13877,
            22.76539
          ],
          [
            121.13872,
            22.76545
          ],
          [
            121.13863,
            22.76555
          ],
          [
            121.13819,
            22.76603
          ],
          [
            121.13803,
            22.76619
          ],
          [
            121.13731,
            22.76694
          ],
          [
            121.13705,
            22.76723
          ],
          [
            121.13688,
            22.7674
          ],
          [
            121.13686,
            22.76742
          ],
          [
            121.13654,
            22.76775
          ],
          [
            121.13628,
            22.76801
          ],
          [
            121.13628,
            22.76801
          ],
          [
            121.1359,
            22.76768
          ],
          [
            121.13541,
            22.76727
          ],
          [
            121.13456,
            22.76657
          ],
          [
            121.13439,
            22.76646
          ],
          [
            121.13434,
            22.76642
          ],
          [
            121.13427,
            22.76639
          ],
          [
            121.13421,
            22.76636
          ],
          [
            121.13399,
            22.76629
          ],
          [
            121.13399,
            22.76629
          ],
          [
            121.13377,
            22.76623
          ],
          [
            121.13343,
            22.76613
          ],
          [
            121.13336,
            22.76611
          ],
          [
            121.1333,
            22.76609
          ],
          [
            121.1332,
            22.76605
          ],
          [
            121.13267,
            22.76587
          ],
          [
            121.13235,
            22.76576
          ],
          [
            121.13223,
            22.76574
          ],
          [
            121.1322,
            22.76573
          ],
          [
            121.13216,
            22.76573
          ],
          [
            121.13213,
            22.76573
          ],
          [
            121.1321,
            22.76573
          ],
          [
            121.13208,
            22.76573
          ],
          [
            121.13205,
            22.76574
          ],
          [
            121.13202,
            22.76575
          ],
          [
            121.13197,
            22.76577
          ],
          [
            121.13135,
            22.7662
          ],
          [
            121.13097,
            22.76647
          ],
          [
            121.13071,
            22.76666
          ],
          [
            121.13018,
            22.767
          ],
          [
            121.12964,
            22.76727
          ],
          [
            121.12933,
            22.76742
          ],
          [
            121.12911,
            22.76753
          ],
          [
            121.12887,
            22.76765
          ],
          [
            121.12887,
            22.76765
          ],
          [
            121.12874,
            22.76771
          ],
          [
            121.12845,
            22.76785
          ],
          [
            121.12822,
            22.76796
          ],
          [
            121.12771,
            22.7682
          ],
          [
            121.12748,
            22.7683
          ],
          [
            121.12656,
            22.76873
          ],
          [
            121.12637,
            22.76882
          ],
          [
            121.12622,
            22.76889
          ],
          [
            121.1262,
            22.7689
          ],
          [
            121.12617,
            22.76891
          ],
          [
            121.12613,
            22.76892
          ],
          [
            121.1261,
            22.76893
          ],
          [
            121.12603,
            22.76894
          ],
          [
            121.12596,
            22.76894
          ],
          [
            121.1259,
            22.76893
          ],
          [
            121.12583,
            22.76893
          ],
          [
            121.1256,
            22.7689
          ],
          [
            121.12536,
            22.76887
          ],
          [
            121.12505,
            22.76884
          ],
          [
            121.12472,
            22.76882
          ],
          [
            121.1244,
            22.76879
          ],
          [
            121.12397,
            22.76876
          ],
          [
            121.12397,
            22.76876
          ],
          [
            121.12355,
            22.76873
          ],
          [
            121.12337,
            22.76872
          ],
          [
            121.12321,
            22.76871
          ],
          [
            121.12255999999999,
            22.76869
          ],
          [
            121.12235,
            22.76867
          ],
          [
            121.1222,
            22.76867
          ],
          [
            121.12209,
            22.76868
          ],
          [
            121.12202,
            22.76869
          ],
          [
            121.12165,
            22.76876
          ],
          [
            121.12131,
            22.76883
          ],
          [
            121.12096,
            22.76892
          ],
          [
            121.12085,
            22.76895
          ],
          [
            121.12046,
            22.76903
          ],
          [
            121.11935,
            22.76929
          ],
          [
            121.11902,
            22.76936
          ],
          [
            121.11902,
            22.76936
          ],
          [
            121.11862,
            22.76945
          ],
          [
            121.11806,
            22.76958
          ],
          [
            121.11791,
            22.76962
          ],
          [
            121.11764,
            22.76967
          ],
          [
            121.11737,
            22.76974
          ],
          [
            121.11685,
            22.76982
          ],
          [
            121.11639,
            22.76994
          ],
          [
            121.11618,
            22.76998
          ],
          [
            121.11618,
            22.76998
          ],
          [
            121.11603,
            22.77001
          ],
          [
            121.11588,
            22.77004
          ],
          [
            121.11566,
            22.77009
          ],
          [
            121.11516,
            22.7702
          ],
          [
            121.11477,
            22.77028
          ],
          [
            121.11471,
            22.77029
          ],
          [
            121.11405,
            22.77043
          ],
          [
            121.11394,
            22.77045
          ],
          [
            121.11377,
            22.77048
          ],
          [
            121.11369,
            22.7705
          ],
          [
            121.11369,
            22.7705
          ],
          [
            121.11301,
            22.77063
          ],
          [
            121.11251,
            22.77074
          ],
          [
            121.11197,
            22.77086
          ],
          [
            121.11116,
            22.77104
          ],
          [
            121.10979,
            22.77133
          ],
          [
            121.10964,
            22.77136
          ],
          [
            121.10925,
            22.77145
          ],
          [
            121.10894,
            22.77152
          ],
          [
            121.10894,
            22.77152
          ],
          [
            121.10884,
            22.77154
          ],
          [
            121.10881,
            22.77158
          ],
          [
            121.1088,
            22.77158
          ],
          [
            121.10876,
            22.77159
          ],
          [
            121.10847,
            22.77167
          ],
          [
            121.10798,
            22.77181
          ],
          [
            121.10619,
            22.77228
          ],
          [
            121.10611,
            22.7723
          ],
          [
            121.10603,
            22.77232
          ],
          [
            121.10584,
            22.77237
          ],
          [
            121.10509,
            22.77257
          ],
          [
            121.10499,
            22.7726
          ],
          [
            121.10488,
            22.77262
          ],
          [
            121.10478,
            22.77266
          ],
          [
            121.10469,
            22.77268
          ],
          [
            121.1046,
            22.7727
          ],
          [
            121.10457,
            22.77271
          ],
          [
            121.1039,
            22.77288
          ],
          [
            121.10386,
            22.77289
          ],
          [
            121.10371,
            22.77293
          ],
          [
            121.10352,
            22.77298
          ],
          [
            121.10277,
            22.77317
          ],
          [
            121.10226,
            22.7733
          ],
          [
            121.10213,
            22.77334
          ],
          [
            121.10197,
            22.77337
          ],
          [
            121.1018,
            22.7734
          ],
          [
            121.10173,
            22.77341
          ],
          [
            121.10157,
            22.77344
          ],
          [
            121.10152,
            22.77345
          ],
          [
            121.10152,
            22.77345
          ],
          [
            121.10145,
            22.77346
          ],
          [
            121.10083,
            22.77356
          ],
          [
            121.10075,
            22.77354
          ],
          [
            121.10062,
            22.77356
          ],
          [
            121.09917,
            22.77379
          ],
          [
            121.09806,
            22.77395
          ],
          [
            121.09722,
            22.77408
          ],
          [
            121.09595,
            22.77428
          ],
          [
            121.09585,
            22.7743
          ],
          [
            121.09562,
            22.77433
          ],
          [
            121.09539,
            22.77437
          ],
          [
            121.0953,
            22.77438
          ],
          [
            121.0952,
            22.7744
          ],
          [
            121.09502,
            22.77442
          ],
          [
            121.09484,
            22.77444
          ],
          [
            121.0946,
            22.77446
          ],
          [
            121.0945,
            22.77446
          ],
          [
            121.0945,
            22.77446
          ],
          [
            121.09436,
            22.77446
          ],
          [
            121.09389,
            22.77447
          ],
          [
            121.09299,
            22.77447
          ],
          [
            121.09283,
            22.77448
          ],
          [
            121.09244,
            22.77447
          ],
          [
            121.09224,
            22.77446
          ],
          [
            121.09192,
            22.77445
          ],
          [
            121.09192,
            22.77445
          ],
          [
            121.09181,
            22.77445
          ],
          [
            121.09129,
            22.77447
          ],
          [
            121.09034,
            22.77453
          ],
          [
            121.09016,
            22.77453
          ],
          [
            121.08972,
            22.77451
          ],
          [
            121.08957,
            22.77451
          ],
          [
            121.08847,
            22.7745
          ],
          [
            121.0884,
            22.7745
          ],
          [
            121.08731,
            22.7745
          ],
          [
            121.08723,
            22.7745
          ],
          [
            121.08702,
            22.7745
          ],
          [
            121.08667,
            22.7745
          ],
          [
            121.08654,
            22.7745
          ],
          [
            121.08654,
            22.7745
          ],
          [
            121.08635,
            22.7745
          ],
          [
            121.08599,
            22.77451
          ],
          [
            121.08591,
            22.77451
          ],
          [
            121.08581,
            22.77451
          ],
          [
            121.08577,
            22.77452
          ],
          [
            121.08517,
            22.77454
          ],
          [
            121.08515,
            22.77454
          ],
          [
            121.08501,
            22.77454
          ],
          [
            121.08489,
            22.77454
          ],
          [
            121.08481,
            22.77453
          ],
          [
            121.08462,
            22.7745
          ],
          [
            121.08455,
            22.77449
          ],
          [
            121.08447,
            22.77446
          ],
          [
            121.08444,
            22.77445
          ],
          [
            121.08438,
            22.77443
          ],
          [
            121.08388,
            22.77427
          ],
          [
            121.08366,
            22.77419
          ],
          [
            121.08283,
            22.7739
          ],
          [
            121.08211,
            22.77366
          ],
          [
            121.08189,
            22.77359
          ],
          [
            121.08114,
            22.77334
          ],
          [
            121.08095,
            22.77328
          ],
          [
            121.07995,
            22.77294
          ],
          [
            121.07958,
            22.77281
          ],
          [
            121.07958,
            22.77281
          ],
          [
            121.07795,
            22.77226
          ],
          [
            121.07491,
            22.77125
          ],
          [
            121.07471,
            22.77118
          ],
          [
            121.07471,
            22.77118
          ],
          [
            121.07392,
            22.77094
          ],
          [
            121.06906,
            22.7693
          ],
          [
            121.06906,
            22.7693
          ],
          [
            121.06632,
            22.7684
          ],
          [
            121.06543,
            22.76808
          ],
          [
            121.06283,
            22.76719
          ],
          [
            121.06283,
            22.76719
          ],
          [
            121.06275,
            22.76716
          ],
          [
            121.0624,
            22.76704
          ],
          [
            121.06233,
            22.76702
          ],
          [
            121.06102,
            22.76662
          ],
          [
            121.06077,
            22.76652
          ],
          [
            121.06061,
            22.76648
          ],
          [
            121.05827,
            22.76568
          ],
          [
            121.05646,
            22.76506
          ],
          [
            121.05644,
            22.76506
          ],
          [
            121.05627,
            22.765
          ],
          [
            121.05626,
            22.765
          ],
          [
            121.05456,
            22.76443
          ],
          [
            121.05433,
            22.76434
          ],
          [
            121.05397,
            22.76423
          ],
          [
            121.05335,
            22.76403
          ],
          [
            121.05279,
            22.76382
          ],
          [
            121.05261,
            22.76376
          ],
          [
            121.05261,
            22.76376
          ],
          [
            121.05188,
            22.7635
          ],
          [
            121.0517,
            22.76344
          ],
          [
            121.05152,
            22.76337
          ],
          [
            121.05139,
            22.76332
          ],
          [
            121.051,
            22.76318
          ],
          [
            121.0506,
            22.76305
          ],
          [
            121.05021,
            22.76291
          ],
          [
            121.05006,
            22.76284
          ],
          [
            121.05005,
            22.76284
          ],
          [
            121.0499,
            22.76275
          ],
          [
            121.04973,
            22.76265
          ],
          [
            121.0497,
            22.76263
          ],
          [
            121.04957,
            22.76252
          ],
          [
            121.04936,
            22.76229
          ],
          [
            121.04933,
            22.76225
          ],
          [
            121.0493,
            22.76221
          ],
          [
            121.04929,
            22.7622
          ],
          [
            121.04929,
            22.7622
          ],
          [
            121.04927,
            22.76217
          ],
          [
            121.04926,
            22.76214
          ],
          [
            121.04924,
            22.7621
          ],
          [
            121.04923,
            22.76207
          ],
          [
            121.04919,
            22.7619
          ],
          [
            121.04917,
            22.76182
          ],
          [
            121.04916,
            22.76172
          ],
          [
            121.04916,
            22.76171
          ],
          [
            121.04915,
            22.76159
          ],
          [
            121.04915,
            22.76154
          ],
          [
            121.04915,
            22.76146
          ],
          [
            121.04917,
            22.76128
          ],
          [
            121.04919,
            22.76118
          ],
          [
            121.04922,
            22.76101
          ],
          [
            121.04923,
            22.76099
          ],
          [
            121.04926,
            22.76083
          ],
          [
            121.04928,
            22.76071
          ],
          [
            121.04929,
            22.76065
          ],
          [
            121.04934,
            22.76048
          ],
          [
            121.04938,
            22.7603
          ],
          [
            121.04942,
            22.76016
          ],
          [
            121.04956,
            22.75988
          ],
          [
            121.04965,
            22.75973
          ],
          [
            121.04977,
            22.75957
          ],
          [
            121.04986,
            22.75945
          ],
          [
            121.04994,
            22.75937
          ],
          [
            121.05004,
            22.75926
          ],
          [
            121.05046,
            22.75894
          ],
          [
            121.0509,
            22.75859
          ],
          [
            121.0509,
            22.75859
          ],
          [
            121.05111,
            22.75842
          ],
          [
            121.05134,
            22.7582
          ],
          [
            121.0517,
            22.7578
          ],
          [
            121.05191,
            22.75755
          ],
          [
            121.05219,
            22.75723
          ],
          [
            121.05232,
            22.75706
          ],
          [
            121.05248,
            22.75687
          ],
          [
            121.05264,
            22.75664
          ],
          [
            121.05277,
            22.75647
          ],
          [
            121.05286,
            22.7561
          ],
          [
            121.05306,
            22.75548
          ],
          [
            121.05318,
            22.7551
          ],
          [
            121.05326,
            22.75487
          ],
          [
            121.0535,
            22.754
          ],
          [
            121.05363,
            22.75353
          ],
          [
            121.05374,
            22.75306
          ],
          [
            121.05384,
            22.75263
          ],
          [
            121.05399,
            22.75185
          ],
          [
            121.05422,
            22.7503
          ],
          [
            121.05424,
            22.75014
          ],
          [
            121.05428,
            22.74998
          ],
          [
            121.05433,
            22.74981
          ],
          [
            121.05438,
            22.74966
          ],
          [
            121.05445,
            22.74952
          ],
          [
            121.05452,
            22.7494
          ],
          [
            121.05461,
            22.74928
          ],
          [
            121.05469,
            22.7492
          ],
          [
            121.05487,
            22.74902
          ],
          [
            121.0549,
            22.74898
          ],
          [
            121.0553,
            22.74867
          ],
          [
            121.0553,
            22.74867
          ],
          [
            121.05555,
            22.74848
          ],
          [
            121.05578,
            22.74831
          ],
          [
            121.05598,
            22.74815
          ],
          [
            121.05628,
            22.74788
          ],
          [
            121.0564,
            22.74773
          ],
          [
            121.05645,
            22.74766
          ],
          [
            121.05651,
            22.74759
          ],
          [
            121.05656,
            22.74751
          ],
          [
            121.05668,
            22.74728
          ],
          [
            121.05679,
            22.74705
          ],
          [
            121.05683,
            22.74689
          ],
          [
            121.05687,
            22.74668
          ],
          [
            121.05692,
            22.74641
          ],
          [
            121.05693,
            22.74605
          ],
          [
            121.05694,
            22.74592
          ],
          [
            121.05696,
            22.74547
          ],
          [
            121.057,
            22.74436
          ],
          [
            121.05703,
            22.74412
          ],
          [
            121.05708,
            22.74377
          ],
          [
            121.05716,
            22.74332
          ],
          [
            121.05726,
            22.74252
          ],
          [
            121.05726,
            22.7425
          ],
          [
            121.05729,
            22.74235
          ],
          [
            121.05735,
            22.74199
          ],
          [
            121.05741,
            22.74167
          ],
          [
            121.05741,
            22.74153
          ],
          [
            121.0574,
            22.74143
          ],
          [
            121.05738,
            22.74129
          ],
          [
            121.05736,
            22.74119
          ],
          [
            121.0573,
            22.74101
          ],
          [
            121.05711,
            22.74057
          ],
          [
            121.05704,
            22.74041
          ],
          [
            121.05694,
            22.74023
          ],
          [
            121.05676,
            22.7399
          ],
          [
            121.05666,
            22.73963
          ],
          [
            121.05659,
            22.73928
          ],
          [
            121.05657,
            22.73885
          ],
          [
            121.05656,
            22.7388
          ],
          [
            121.05657,
            22.73867
          ],
          [
            121.05658,
            22.73778
          ],
          [
            121.05657,
            22.73742
          ],
          [
            121.05665,
            22.73581
          ],
          [
            121.05662,
            22.73537
          ],
          [
            121.05645,
            22.73421
          ],
          [
            121.05645,
            22.73421
          ],
          [
            121.05631,
            22.73313
          ],
          [
            121.05612,
            22.73192
          ],
          [
            121.05606,
            22.7312
          ],
          [
            121.05612,
            22.73007
          ],
          [
            121.05614,
            22.72983
          ],
          [
            121.05614,
            22.72983
          ],
          [
            121.0563,
            22.72768
          ],
          [
            121.05632,
            22.72701
          ],
          [
            121.05628,
            22.72674
          ],
          [
            121.05622,
            22.72654
          ],
          [
            121.05517999999999,
            22.72418
          ],
          [
            121.05508,
            22.72406
          ],
          [
            121.05491,
            22.72367
          ],
          [
            121.05424,
            22.72213
          ],
          [
            121.05377,
            22.7211
          ],
          [
            121.05355,
            22.72071
          ],
          [
            121.05355,
            22.72071
          ],
          [
            121.05322,
            22.72024
          ],
          [
            121.05277,
            22.71972
          ],
          [
            121.05217,
            22.71905
          ],
          [
            121.05218,
            22.71904
          ],
          [
            121.05204,
            22.71889
          ],
          [
            121.05157,
            22.71833
          ],
          [
            121.05133,
            22.71806
          ],
          [
            121.05103,
            22.71776
          ],
          [
            121.05081,
            22.71756
          ],
          [
            121.05042,
            22.71723
          ],
          [
            121.04954,
            22.71646
          ],
          [
            121.04923,
            22.71619
          ],
          [
            121.04902,
            22.716
          ],
          [
            121.04864,
            22.71566
          ],
          [
            121.04861,
            22.71563
          ],
          [
            121.04831,
            22.71534
          ],
          [
            121.04827,
            22.71528
          ],
          [
            121.04765,
            22.71464
          ],
          [
            121.04732,
            22.71419
          ],
          [
            121.04722,
            22.7141
          ],
          [
            121.04709,
            22.71402
          ],
          [
            121.04697,
            22.71395
          ],
          [
            121.04688,
            22.7139
          ],
          [
            121.04684,
            22.71388
          ],
          [
            121.0467,
            22.71381
          ],
          [
            121.04652,
            22.71372
          ],
          [
            121.04611,
            22.71354
          ],
          [
            121.04583,
            22.7134
          ],
          [
            121.04568,
            22.7133
          ],
          [
            121.04557,
            22.71321
          ],
          [
            121.04537,
            22.71302
          ],
          [
            121.04527,
            22.7129
          ],
          [
            121.04522,
            22.7128
          ],
          [
            121.04504,
            22.71248
          ],
          [
            121.04469,
            22.7118
          ],
          [
            121.04445,
            22.71137
          ],
          [
            121.04429,
            22.71107
          ],
          [
            121.04423,
            22.71096
          ],
          [
            121.04412,
            22.71075
          ],
          [
            121.04369,
            22.70991
          ],
          [
            121.04339,
            22.70934
          ],
          [
            121.04312,
            22.70885
          ],
          [
            121.04282,
            22.70831
          ],
          [
            121.04262,
            22.70793
          ],
          [
            121.04249,
            22.70766
          ],
          [
            121.04245,
            22.70759
          ],
          [
            121.04236,
            22.7074
          ],
          [
            121.04229,
            22.70726
          ],
          [
            121.04218,
            22.70704
          ],
          [
            121.04199,
            22.7067
          ],
          [
            121.04184,
            22.70644
          ],
          [
            121.04166,
            22.70608
          ],
          [
            121.04166,
            22.70608
          ],
          [
            121.04136,
            22.70556
          ],
          [
            121.0412,
            22.7053
          ],
          [
            121.04093,
            22.705
          ],
          [
            121.04056,
            22.70468
          ],
          [
            121.04031,
            22.70452
          ],
          [
            121.03986,
            22.7045
          ],
          [
            121.03964,
            22.70444
          ],
          [
            121.03954,
            22.70446
          ],
          [
            121.03768,
            22.70482
          ],
          [
            121.03725,
            22.70466
          ],
          [
            121.03607,
            22.7042
          ],
          [
            121.03499,
            22.70378
          ],
          [
            121.03432,
            22.70349
          ],
          [
            121.03399,
            22.70333
          ],
          [
            121.03372,
            22.70322
          ],
          [
            121.03352,
            22.70314
          ],
          [
            121.03306,
            22.70293
          ],
          [
            121.03286,
            22.70286
          ],
          [
            121.03262,
            22.70285
          ],
          [
            121.03196,
            22.70291
          ],
          [
            121.03161,
            22.70296
          ],
          [
            121.03161,
            22.70296
          ],
          [
            121.03133,
            22.703
          ],
          [
            121.03101,
            22.70305
          ],
          [
            121.03069,
            22.7031
          ],
          [
            121.03062,
            22.70311
          ],
          [
            121.03045,
            22.70312
          ],
          [
            121.03038,
            22.70312
          ],
          [
            121.03031,
            22.70312
          ],
          [
            121.03022,
            22.70311
          ],
          [
            121.03011,
            22.7031
          ],
          [
            121.03001,
            22.70309
          ],
          [
            121.02989,
            22.70307
          ],
          [
            121.02985,
            22.70306
          ],
          [
            121.02979,
            22.70305
          ],
          [
            121.02966,
            22.70302
          ],
          [
            121.02965,
            22.70302
          ],
          [
            121.02955,
            22.70299
          ],
          [
            121.02948,
            22.70297
          ],
          [
            121.02943,
            22.70295
          ],
          [
            121.02929,
            22.7029
          ],
          [
            121.02927,
            22.70289
          ],
          [
            121.02912,
            22.70283
          ],
          [
            121.02907,
            22.70281
          ],
          [
            121.02894,
            22.70275
          ],
          [
            121.02880999999999,
            22.70269
          ],
          [
            121.02877,
            22.70266
          ],
          [
            121.0285,
            22.70252
          ],
          [
            121.02825,
            22.70241
          ],
          [
            121.02822,
            22.70239
          ],
          [
            121.02812,
            22.70234
          ],
          [
            121.02807,
            22.70232
          ],
          [
            121.02796,
            22.70225
          ],
          [
            121.02793,
            22.70224
          ],
          [
            121.02778,
            22.70215
          ],
          [
            121.02768,
            22.70207
          ],
          [
            121.02758,
            22.70198
          ],
          [
            121.0275,
            22.7019
          ],
          [
            121.02742,
            22.70179
          ],
          [
            121.02733,
            22.70166
          ],
          [
            121.02726,
            22.70151
          ],
          [
            121.02723,
            22.70144
          ],
          [
            121.0272,
            22.70135
          ],
          [
            121.02717,
            22.70127
          ],
          [
            121.02712,
            22.70112
          ],
          [
            121.02704,
            22.70084
          ],
          [
            121.02696,
            22.70057
          ],
          [
            121.02687,
            22.70025
          ],
          [
            121.02683,
            22.70011
          ],
          [
            121.02679,
            22.69999
          ],
          [
            121.02676,
            22.69989
          ],
          [
            121.02672,
            22.69981
          ],
          [
            121.02669,
            22.69974
          ],
          [
            121.02666,
            22.69967
          ],
          [
            121.02662,
            22.6996
          ],
          [
            121.0266,
            22.69958
          ],
          [
            121.02656,
            22.69953
          ],
          [
            121.02639,
            22.69934
          ],
          [
            121.02618,
            22.69915
          ],
          [
            121.02584,
            22.69883
          ],
          [
            121.02583,
            22.69882
          ],
          [
            121.02574,
            22.69874
          ],
          [
            121.02545,
            22.69847
          ],
          [
            121.02545,
            22.69847
          ],
          [
            121.02544,
            22.69847
          ],
          [
            121.02509,
            22.69813
          ],
          [
            121.02499,
            22.69804
          ],
          [
            121.02492,
            22.69798
          ],
          [
            121.02462,
            22.6977
          ],
          [
            121.0244,
            22.69749
          ],
          [
            121.02426,
            22.69736
          ],
          [
            121.02413,
            22.69723
          ],
          [
            121.02407,
            22.69717
          ],
          [
            121.02407,
            22.69717
          ],
          [
            121.024,
            22.69708
          ],
          [
            121.02388,
            22.69694
          ],
          [
            121.02379,
            22.69685
          ],
          [
            121.02373,
            22.69679
          ],
          [
            121.02366,
            22.69672
          ],
          [
            121.02366,
            22.69672
          ],
          [
            121.02377,
            22.69657
          ],
          [
            121.02388,
            22.69642
          ],
          [
            121.02399,
            22.69628
          ],
          [
            121.0241,
            22.69613
          ],
          [
            121.02432,
            22.69583
          ],
          [
            121.02443,
            22.69568
          ],
          [
            121.02454,
            22.69553
          ],
          [
            121.02464,
            22.69538
          ],
          [
            121.02475,
            22.69523
          ],
          [
            121.02486,
            22.69509
          ],
          [
            121.02497,
            22.69494
          ],
          [
            121.02508,
            22.69479
          ],
          [
            121.02519,
            22.69464
          ],
          [
            121.02519,
            22.69464
          ],
          [
            121.02511,
            22.69462
          ],
          [
            121.02508,
            22.69461
          ],
          [
            121.02485,
            22.69454
          ],
          [
            121.02478,
            22.69454
          ],
          [
            121.0247,
            22.69452
          ],
          [
            121.0246,
            22.69451
          ],
          [
            121.02451,
            22.6945
          ],
          [
            121.0245,
            22.6945
          ],
          [
            121.02449,
            22.6945
          ],
          [
            121.02437,
            22.69448
          ],
          [
            121.0242,
            22.69447
          ],
          [
            121.02413,
            22.69446
          ],
          [
            121.0241,
            22.69446
          ],
          [
            121.02398,
            22.69444
          ],
          [
            121.02394,
            22.69443
          ],
          [
            121.02392999999999,
            22.69443
          ],
          [
            121.02392,
            22.69443
          ],
          [
            121.02387,
            22.69441
          ],
          [
            121.02382,
            22.69437
          ],
          [
            121.02376,
            22.69433
          ],
          [
            121.02373,
            22.6943
          ],
          [
            121.02357,
            22.69418
          ],
          [
            121.02345,
            22.69409
          ],
          [
            121.02337,
            22.69404
          ],
          [
            121.0233,
            22.694
          ],
          [
            121.02329,
            22.69399
          ],
          [
            121.02321,
            22.69395
          ],
          [
            121.02314,
            22.69391
          ],
          [
            121.02313,
            22.69391
          ],
          [
            121.02308,
            22.69389
          ],
          [
            121.023,
            22.69386
          ],
          [
            121.02296,
            22.69384
          ],
          [
            121.02292,
            22.69383
          ],
          [
            121.02282,
            22.6938
          ],
          [
            121.02278,
            22.69378
          ],
          [
            121.02277,
            22.69378
          ],
          [
            121.02274,
            22.69377
          ],
          [
            121.02267,
            22.69374
          ],
          [
            121.0226,
            22.69372
          ],
          [
            121.02253,
            22.6937
          ],
          [
            121.02247,
            22.69368
          ],
          [
            121.02238,
            22.69365
          ],
          [
            121.02223,
            22.69357
          ],
          [
            121.0221,
            22.69352
          ],
          [
            121.02194,
            22.69346
          ],
          [
            121.02186,
            22.69343
          ],
          [
            121.02176,
            22.69339
          ],
          [
            121.02169,
            22.69337
          ],
          [
            121.02151,
            22.6933
          ],
          [
            121.02122,
            22.69318
          ],
          [
            121.02095,
            22.69306
          ],
          [
            121.0207,
            22.69297
          ],
          [
            121.02058,
            22.69292
          ],
          [
            121.02053,
            22.6929
          ],
          [
            121.02041,
            22.69287
          ],
          [
            121.0204,
            22.69287
          ],
          [
            121.02029,
            22.69284
          ],
          [
            121.02015,
            22.69281
          ],
          [
            121.02002,
            22.6928
          ],
          [
            121.01985,
            22.69279
          ],
          [
            121.0198,
            22.69279
          ]
        ]
      }
    },
    {
      "type": "Feature",
      "properties": {
        "feature_type": "station",
        "ref": "THB297077",
        "name": "台東轉運站",
        "name_en": "Taitung Bus Station",
        "line": "8131（大南）",
        "color": "#be123c",
        "direction": 0
      },
      "geometry": {
        "type": "Point",
        "coordinates": [
          121.1476471,
          22.752851
        ]
      }
    },
    {
      "type": "Feature",
      "properties": {
        "feature_type": "station",
        "ref": "THB96102",
        "name": "中央市場",
        "name_en": "Zhongyang Market",
        "line": "8131（大南）",
        "color": "#be123c",
        "direction": 0
      },
      "geometry": {
        "type": "Point",
        "coordinates": [
          121.14977,
          22.754421
        ]
      }
    },
    {
      "type": "Feature",
      "properties": {
        "feature_type": "station",
        "ref": "THB96103",
        "name": "署東醫院",
        "name_en": "Taitung Hospital",
        "line": "8131（大南）",
        "color": "#be123c",
        "direction": 0
      },
      "geometry": {
        "type": "Point",
        "coordinates": [
          121.149968,
          22.757231
        ]
      }
    },
    {
      "type": "Feature",
      "properties": {
        "feature_type": "station",
        "ref": "THB92645",
        "name": "變電所",
        "name_en": "Transformer Substation",
        "line": "8131（大南）",
        "color": "#be123c",
        "direction": 0
      },
      "geometry": {
        "type": "Point",
        "coordinates": [
          121.144565,
          22.761042
        ]
      }
    },
    {
      "type": "Feature",
      "properties": {
        "feature_type": "station",
        "ref": "THB275475",
        "name": "舊縣議會",
        "name_en": "Consultative  Council",
        "line": "8131（大南）",
        "color": "#be123c",
        "direction": 0
      },
      "geometry": {
        "type": "Point",
        "coordinates": [
          121.14285,
          22.76223
        ]
      }
    },
    {
      "type": "Feature",
      "properties": {
        "feature_type": "station",
        "ref": "THB96431",
        "name": "更生四維路口",
        "name_en": "Gengsheng Siwei Rd. Intersection",
        "line": "8131（大南）",
        "color": "#be123c",
        "direction": 0
      },
      "geometry": {
        "type": "Point",
        "coordinates": [
          121.13937,
          22.764973
        ]
      }
    },
    {
      "type": "Feature",
      "properties": {
        "feature_type": "station",
        "ref": "THB238991",
        "name": "馬蘭加油站",
        "name_en": "Malan Gas Station",
        "line": "8131（大南）",
        "color": "#be123c",
        "direction": 0
      },
      "geometry": {
        "type": "Point",
        "coordinates": [
          121.13689,
          22.76745
        ]
      }
    },
    {
      "type": "Feature",
      "properties": {
        "feature_type": "station",
        "ref": "THB238927",
        "name": "馬蘭橋",
        "name_en": "Malan Bridge",
        "line": "8131（大南）",
        "color": "#be123c",
        "direction": 0
      },
      "geometry": {
        "type": "Point",
        "coordinates": [
          121.134203,
          22.766426
        ]
      }
    },
    {
      "type": "Feature",
      "properties": {
        "feature_type": "station",
        "ref": "THB136228",
        "name": "台東糖廠",
        "name_en": "Taitung Sugar Factory",
        "line": "8131（大南）",
        "color": "#be123c",
        "direction": 0
      },
      "geometry": {
        "type": "Point",
        "coordinates": [
          121.12891,
          22.76771
        ]
      }
    },
    {
      "type": "Feature",
      "properties": {
        "feature_type": "station",
        "ref": "THB238903",
        "name": "東方大鎮",
        "name_en": "Dongfangdazhen",
        "line": "8131（大南）",
        "color": "#be123c",
        "direction": 0
      },
      "geometry": {
        "type": "Point",
        "coordinates": [
          121.12396,
          22.76884
        ]
      }
    },
    {
      "type": "Feature",
      "properties": {
        "feature_type": "station",
        "ref": "THB294039",
        "name": "稅務局",
        "name_en": "Tax Bureau",
        "line": "8131（大南）",
        "color": "#be123c",
        "direction": 0
      },
      "geometry": {
        "type": "Point",
        "coordinates": [
          121.11905,
          22.76948
        ]
      }
    },
    {
      "type": "Feature",
      "properties": {
        "feature_type": "station",
        "ref": "THB135653",
        "name": "豐年米廠",
        "name_en": "Fengnian Rice Factory",
        "line": "8131（大南）",
        "color": "#be123c",
        "direction": 0
      },
      "geometry": {
        "type": "Point",
        "coordinates": [
          121.11619,
          22.77004
        ]
      }
    },
    {
      "type": "Feature",
      "properties": {
        "feature_type": "station",
        "ref": "THB97306",
        "name": "豐年",
        "name_en": "Fengnian",
        "line": "8131（大南）",
        "color": "#be123c",
        "direction": 0
      },
      "geometry": {
        "type": "Point",
        "coordinates": [
          121.11375,
          22.77054
        ]
      }
    },
    {
      "type": "Feature",
      "properties": {
        "feature_type": "station",
        "ref": "THB135655",
        "name": "大潤發",
        "name_en": "Darunfa",
        "line": "8131（大南）",
        "color": "#be123c",
        "direction": 0
      },
      "geometry": {
        "type": "Point",
        "coordinates": [
          121.10897,
          22.77169
        ]
      }
    },
    {
      "type": "Feature",
      "properties": {
        "feature_type": "station",
        "ref": "THB187876",
        "name": "中興陸橋",
        "name_en": "Zhongxing Land Bridge",
        "line": "8131（大南）",
        "color": "#be123c",
        "direction": 0
      },
      "geometry": {
        "type": "Point",
        "coordinates": [
          121.10153,
          22.7735
        ]
      }
    },
    {
      "type": "Feature",
      "properties": {
        "feature_type": "station",
        "ref": "THB276755",
        "name": "永豐餘",
        "name_en": "Yuen Foong Yu",
        "line": "8131（大南）",
        "color": "#be123c",
        "direction": 0
      },
      "geometry": {
        "type": "Point",
        "coordinates": [
          121.096746,
          22.774289
        ]
      }
    },
    {
      "type": "Feature",
      "properties": {
        "feature_type": "station",
        "ref": "THB136062",
        "name": "豐田",
        "name_en": "Fengtian",
        "line": "8131（大南）",
        "color": "#be123c",
        "direction": 0
      },
      "geometry": {
        "type": "Point",
        "coordinates": [
          121.09177,
          22.77453
        ]
      }
    },
    {
      "type": "Feature",
      "properties": {
        "feature_type": "station",
        "ref": "THB97099",
        "name": "豐田國小",
        "name_en": "Fengtian Elementary School",
        "line": "8131（大南）",
        "color": "#be123c",
        "direction": 0
      },
      "geometry": {
        "type": "Point",
        "coordinates": [
          121.08654,
          22.77464
        ]
      }
    },
    {
      "type": "Feature",
      "properties": {
        "feature_type": "station",
        "ref": "THB247206",
        "name": "田寮",
        "name_en": "Tianliao",
        "line": "8131（大南）",
        "color": "#be123c",
        "direction": 0
      },
      "geometry": {
        "type": "Point",
        "coordinates": [
          121.07953,
          22.77295
        ]
      }
    },
    {
      "type": "Feature",
      "properties": {
        "feature_type": "station",
        "ref": "THB150801",
        "name": "體育中學",
        "name_en": "National Taitung University Affiliated Physical Ed",
        "line": "8131（大南）",
        "color": "#be123c",
        "direction": 0
      },
      "geometry": {
        "type": "Point",
        "coordinates": [
          121.07467,
          22.77133
        ]
      }
    },
    {
      "type": "Feature",
      "properties": {
        "feature_type": "station",
        "ref": "THB97096",
        "name": "新田",
        "name_en": "Xintian",
        "line": "8131（大南）",
        "color": "#be123c",
        "direction": 0
      },
      "geometry": {
        "type": "Point",
        "coordinates": [
          121.06901,
          22.76943
        ]
      }
    },
    {
      "type": "Feature",
      "properties": {
        "feature_type": "station",
        "ref": "THB136253",
        "name": "新園",
        "name_en": "Xinyuan",
        "line": "8131（大南）",
        "color": "#be123c",
        "direction": 0
      },
      "geometry": {
        "type": "Point",
        "coordinates": [
          121.06275,
          22.76732
        ]
      }
    },
    {
      "type": "Feature",
      "properties": {
        "feature_type": "station",
        "ref": "THB97479",
        "name": "新園活動中心",
        "name_en": "Xinyuan Activity Center",
        "line": "8131（大南）",
        "color": "#be123c",
        "direction": 0
      },
      "geometry": {
        "type": "Point",
        "coordinates": [
          121.05253,
          22.763771
        ]
      }
    },
    {
      "type": "Feature",
      "properties": {
        "feature_type": "station",
        "ref": "THB136254",
        "name": "大南",
        "name_en": "Danan",
        "line": "8131（大南）",
        "color": "#be123c",
        "direction": 0
      },
      "geometry": {
        "type": "Point",
        "coordinates": [
          121.049945,
          22.762805
        ]
      }
    },
    {
      "type": "Feature",
      "properties": {
        "feature_type": "station",
        "ref": "THB247214",
        "name": "墾區入口",
        "name_en": "Kenqu Entrance",
        "line": "8131（大南）",
        "color": "#be123c",
        "direction": 0
      },
      "geometry": {
        "type": "Point",
        "coordinates": [
          121.05086,
          22.75856
        ]
      }
    },
    {
      "type": "Feature",
      "properties": {
        "feature_type": "station",
        "ref": "THB97092",
        "name": "建上路",
        "name_en": "Jianshang Rd.",
        "line": "8131（大南）",
        "color": "#be123c",
        "direction": 0
      },
      "geometry": {
        "type": "Point",
        "coordinates": [
          121.055257,
          22.748638
        ]
      }
    },
    {
      "type": "Feature",
      "properties": {
        "feature_type": "station",
        "ref": "THB247215",
        "name": "建和",
        "name_en": "Jianhe",
        "line": "8131（大南）",
        "color": "#be123c",
        "direction": 0
      },
      "geometry": {
        "type": "Point",
        "coordinates": [
          121.05635,
          22.73422
        ]
      }
    },
    {
      "type": "Feature",
      "properties": {
        "feature_type": "station",
        "ref": "THB247216",
        "name": "建東",
        "name_en": "Jiandong",
        "line": "8131（大南）",
        "color": "#be123c",
        "direction": 0
      },
      "geometry": {
        "type": "Point",
        "coordinates": [
          121.05605,
          22.72982
        ]
      }
    },
    {
      "type": "Feature",
      "properties": {
        "feature_type": "station",
        "ref": "THB238821",
        "name": "青海雲南路口",
        "name_en": "Qinghai Yunnan Rd. Intersection",
        "line": "8131（大南）",
        "color": "#be123c",
        "direction": 0
      },
      "geometry": {
        "type": "Point",
        "coordinates": [
          121.05351,
          22.72074
        ]
      }
    },
    {
      "type": "Feature",
      "properties": {
        "feature_type": "station",
        "ref": "THB136255",
        "name": "下建和",
        "name_en": "Xiajianhe",
        "line": "8131（大南）",
        "color": "#be123c",
        "direction": 0
      },
      "geometry": {
        "type": "Point",
        "coordinates": [
          121.05213,
          22.71908
        ]
      }
    },
    {
      "type": "Feature",
      "properties": {
        "feature_type": "station",
        "ref": "THB247207",
        "name": "知本國中",
        "name_en": "Zhiben Junior High School",
        "line": "8131（大南）",
        "color": "#be123c",
        "direction": 0
      },
      "geometry": {
        "type": "Point",
        "coordinates": [
          121.04861,
          22.71568
        ]
      }
    },
    {
      "type": "Feature",
      "properties": {
        "feature_type": "station",
        "ref": "THB97087",
        "name": "崎仔頭",
        "name_en": "Qizitou",
        "line": "8131（大南）",
        "color": "#be123c",
        "direction": 0
      },
      "geometry": {
        "type": "Point",
        "coordinates": [
          121.041614,
          22.7061
        ]
      }
    },
    {
      "type": "Feature",
      "properties": {
        "feature_type": "station",
        "ref": "THB293536",
        "name": "鎮樂",
        "name_en": "Zhenle",
        "line": "8131（大南）",
        "color": "#be123c",
        "direction": 0
      },
      "geometry": {
        "type": "Point",
        "coordinates": [
          121.031428,
          22.703024
        ]
      }
    },
    {
      "type": "Feature",
      "properties": {
        "feature_type": "station",
        "ref": "THB97185",
        "name": "溫泉國小",
        "name_en": "Wenquan Elementary School",
        "line": "8131（大南）",
        "color": "#be123c",
        "direction": 0
      },
      "geometry": {
        "type": "Point",
        "coordinates": [
          121.02539,
          22.69852
        ]
      }
    },
    {
      "type": "Feature",
      "properties": {
        "feature_type": "station",
        "ref": "THB247217",
        "name": "東遊季",
        "name_en": "Dongyouji",
        "line": "8131（大南）",
        "color": "#be123c",
        "direction": 0
      },
      "geometry": {
        "type": "Point",
        "coordinates": [
          121.024099,
          22.697249
        ]
      }
    },
    {
      "type": "Feature",
      "properties": {
        "feature_type": "station",
        "ref": "THB97184",
        "name": "知本溫泉",
        "name_en": "Zhiben Hot Spring",
        "line": "8131（大南）",
        "color": "#be123c",
        "direction": 0
      },
      "geometry": {
        "type": "Point",
        "coordinates": [
          121.01978,
          22.69285
        ]
      }
    }
  ]
}
