{
  "type": "FeatureCollection",
  "name": "168環東區間",
  "properties": {
    "id": "kaohsiung_168_qu_7877302ac3",
    "name": "168環東區間",
    "name_en": "168環東區間",
    "ref": "168環東區間",
    "color": "#3f6212",
    "city_id": "Kaohsiung",
    "source": "TDX Bus Shape / StopOfRoute",
    "official_map_url": "http://ibus.tbkc.gov.tw/cms/api/route/2072/map/1743/image",
    "operator_id": "10350",
    "operator": "漢程客運",
    "operator_en": "Han-Cheng Bus Co., Ltd."
  },
  "features": [
    {
      "type": "Feature",
      "properties": {
        "feature_type": "route",
        "ref": "168環東區間",
        "name": "168環東區間",
        "name_en": "168環東區間",
        "color": "#3f6212",
        "direction": 0
      },
      "geometry": {
        "type": "LineString",
        "coordinates": [
          [
            120.32162,
            22.66597
          ],
          [
            120.32193,
            22.66595
          ],
          [
            120.32213,
            22.66673
          ],
          [
            120.32221,
            22.66692
          ],
          [
            120.3194,
            22.66762
          ],
          [
            120.31806,
            22.66801
          ],
          [
            120.31682,
            22.66836
          ],
          [
            120.31488,
            22.66878
          ],
          [
            120.31454,
            22.66882
          ],
          [
            120.31377,
            22.66877
          ],
          [
            120.31151,
            22.66835
          ],
          [
            120.31111,
            22.66837
          ],
          [
            120.30718,
            22.66938
          ],
          [
            120.30637,
            22.66958
          ],
          [
            120.30358,
            22.67035
          ],
          [
            120.30341,
            22.67043
          ],
          [
            120.30331,
            22.67019
          ],
          [
            120.30325,
            22.66797
          ],
          [
            120.3032,
            22.66567
          ],
          [
            120.3031,
            22.66325
          ],
          [
            120.30303,
            22.66192
          ],
          [
            120.30299,
            22.65959
          ],
          [
            120.30293,
            22.65833
          ],
          [
            120.30299,
            22.65729
          ],
          [
            120.3032,
            22.65608
          ],
          [
            120.30461,
            22.65644
          ],
          [
            120.306,
            22.65678
          ],
          [
            120.30661,
            22.65687
          ],
          [
            120.30721,
            22.65684
          ],
          [
            120.30881,
            22.65654
          ],
          [
            120.31301,
            22.65585
          ],
          [
            120.31483,
            22.65555
          ],
          [
            120.31556,
            22.65537
          ],
          [
            120.31618,
            22.65516
          ],
          [
            120.31656,
            22.655
          ],
          [
            120.31693,
            22.6548
          ],
          [
            120.31745,
            22.65449
          ],
          [
            120.31817,
            22.65399
          ],
          [
            120.3189,
            22.65345
          ],
          [
            120.32009,
            22.65261
          ],
          [
            120.3223,
            22.65106
          ],
          [
            120.32435,
            22.64956
          ],
          [
            120.32465,
            22.64926
          ],
          [
            120.32495,
            22.64887
          ],
          [
            120.32511,
            22.64854
          ],
          [
            120.32524,
            22.64822
          ],
          [
            120.32528,
            22.64799
          ],
          [
            120.32534,
            22.64695
          ],
          [
            120.32543,
            22.64646
          ],
          [
            120.32553,
            22.64596
          ],
          [
            120.32584,
            22.64502
          ],
          [
            120.32657,
            22.64305
          ],
          [
            120.32731,
            22.641
          ],
          [
            120.32794,
            22.63926
          ],
          [
            120.3279,
            22.63897
          ],
          [
            120.32731,
            22.63752
          ],
          [
            120.327,
            22.63678
          ],
          [
            120.32671,
            22.63602
          ],
          [
            120.32616,
            22.63444
          ],
          [
            120.32555,
            22.63283
          ],
          [
            120.32485,
            22.63274
          ],
          [
            120.32464,
            22.63274
          ],
          [
            120.32417,
            22.63285
          ],
          [
            120.32234,
            22.63328
          ],
          [
            120.32061,
            22.63367
          ],
          [
            120.31891,
            22.63407
          ],
          [
            120.31797,
            22.63428
          ],
          [
            120.31752,
            22.63437
          ],
          [
            120.31732,
            22.63446
          ],
          [
            120.31679,
            22.63488
          ],
          [
            120.31676,
            22.63446
          ],
          [
            120.31671,
            22.63415
          ],
          [
            120.3167,
            22.63356
          ],
          [
            120.31718,
            22.63226
          ],
          [
            120.31822,
            22.62953
          ],
          [
            120.31848,
            22.62884
          ],
          [
            120.31849,
            22.6287
          ],
          [
            120.31892,
            22.6276
          ],
          [
            120.31916,
            22.62691
          ],
          [
            120.32007,
            22.6272
          ],
          [
            120.32237,
            22.62796
          ],
          [
            120.32393,
            22.62393
          ],
          [
            120.31075,
            22.61952
          ],
          [
            120.30417,
            22.61729
          ],
          [
            120.30088,
            22.61618
          ],
          [
            120.29742,
            22.615
          ],
          [
            120.29499,
            22.62109
          ],
          [
            120.29371,
            22.62071
          ],
          [
            120.28948,
            22.62066
          ],
          [
            120.28596,
            22.6224
          ],
          [
            120.287,
            22.624389999999998
          ],
          [
            120.28485,
            22.6254
          ]
        ]
      }
    },
    {
      "type": "Feature",
      "properties": {
        "feature_type": "route",
        "ref": "168環東區間",
        "name": "168環東區間",
        "name_en": "168環東區間",
        "color": "#3f6212",
        "direction": 1
      },
      "geometry": {
        "type": "LineString",
        "coordinates": [
          [
            120.28533,
            22.62633
          ],
          [
            120.28608,
            22.62595
          ],
          [
            120.28897,
            22.62702
          ],
          [
            120.29585,
            22.62934
          ],
          [
            120.29235,
            22.63849
          ],
          [
            120.29182,
            22.63974
          ],
          [
            120.29147,
            22.642
          ],
          [
            120.28772,
            22.64332
          ],
          [
            120.28817,
            22.64459
          ],
          [
            120.28799,
            22.65089
          ],
          [
            120.28809,
            22.65355
          ],
          [
            120.28826,
            22.65624
          ],
          [
            120.29214,
            22.65605
          ],
          [
            120.2921,
            22.6547
          ],
          [
            120.29201,
            22.65301
          ],
          [
            120.29395,
            22.65378
          ],
          [
            120.29534,
            22.65421
          ],
          [
            120.29644,
            22.65448
          ],
          [
            120.29705,
            22.65463
          ],
          [
            120.29716,
            22.65417
          ],
          [
            120.29729,
            22.65409
          ],
          [
            120.29861,
            22.65415
          ],
          [
            120.30023,
            22.65418
          ],
          [
            120.30055,
            22.65411
          ],
          [
            120.30077,
            22.65409
          ],
          [
            120.30369,
            22.65448
          ]
        ]
      }
    },
    {
      "type": "Feature",
      "properties": {
        "feature_type": "station",
        "ref": "KHH10207235481",
        "name": "金獅湖站",
        "name_en": "Golden Lion Lake Station",
        "line": "168環東區間",
        "color": "#3f6212",
        "direction": 0
      },
      "geometry": {
        "type": "Point",
        "coordinates": [
          120.321739,
          22.665889
        ]
      }
    },
    {
      "type": "Feature",
      "properties": {
        "feature_type": "station",
        "ref": "KHH10207220461",
        "name": "天祥一路",
        "name_en": "Tiansiang 1st Rd.",
        "line": "168環東區間",
        "color": "#3f6212",
        "direction": 0
      },
      "geometry": {
        "type": "Point",
        "coordinates": [
          120.31846,
          22.66801
        ]
      }
    },
    {
      "type": "Feature",
      "properties": {
        "feature_type": "station",
        "ref": "KHH1020723191",
        "name": "民族一路口",
        "name_en": "Minzu 1st Rd. Intersection",
        "line": "168環東區間",
        "color": "#3f6212",
        "direction": 0
      },
      "geometry": {
        "type": "Point",
        "coordinates": [
          120.316021,
          22.668576
        ]
      }
    },
    {
      "type": "Feature",
      "properties": {
        "feature_type": "station",
        "ref": "KHH10207241201",
        "name": "興隆寺",
        "name_en": "Singlong Temple",
        "line": "168環東區間",
        "color": "#3f6212",
        "direction": 0
      },
      "geometry": {
        "type": "Point",
        "coordinates": [
          120.312475,
          22.668626
        ]
      }
    },
    {
      "type": "Feature",
      "properties": {
        "feature_type": "station",
        "ref": "KHH10207241261",
        "name": "北極殿(左營)",
        "name_en": "Beiji Temple(Zuoying)",
        "line": "168環東區間",
        "color": "#3f6212",
        "direction": 0
      },
      "geometry": {
        "type": "Point",
        "coordinates": [
          120.310478,
          22.668605
        ]
      }
    },
    {
      "type": "Feature",
      "properties": {
        "feature_type": "station",
        "ref": "KHH10207241341",
        "name": "新莊國小",
        "name_en": "Shin Juang Elementary School",
        "line": "168環東區間",
        "color": "#3f6212",
        "direction": 0
      },
      "geometry": {
        "type": "Point",
        "coordinates": [
          120.307986,
          22.669219
        ]
      }
    },
    {
      "type": "Feature",
      "properties": {
        "feature_type": "station",
        "ref": "KHH10207235911",
        "name": "漢神巨蛋",
        "name_en": "Hanshin Arena",
        "line": "168環東區間",
        "color": "#3f6212",
        "direction": 0
      },
      "geometry": {
        "type": "Point",
        "coordinates": [
          120.303211,
          22.668395
        ]
      }
    },
    {
      "type": "Feature",
      "properties": {
        "feature_type": "station",
        "ref": "KHH10207262661",
        "name": "捷運巨蛋站",
        "name_en": "MRT Kaohsiung Arena Station",
        "line": "168環東區間",
        "color": "#3f6212",
        "direction": 0
      },
      "geometry": {
        "type": "Point",
        "coordinates": [
          120.303106,
          22.665071
        ]
      }
    },
    {
      "type": "Feature",
      "properties": {
        "feature_type": "station",
        "ref": "KHH10207236101",
        "name": "明誠路口(博愛二路)",
        "name_en": "Mingcheng Rd. Intersection(Boai 2nd Rd.)",
        "line": "168環東區間",
        "color": "#3f6212",
        "direction": 0
      },
      "geometry": {
        "type": "Point",
        "coordinates": [
          120.302999,
          22.661589
        ]
      }
    },
    {
      "type": "Feature",
      "properties": {
        "feature_type": "station",
        "ref": "KHH10207236091",
        "name": "捷運凹子底站(輕軌愛河之心站)",
        "name_en": "MRT Aozihdi Station(LRT Heart of Love River Station)",
        "line": "168環東區間",
        "color": "#3f6212",
        "direction": 0
      },
      "geometry": {
        "type": "Point",
        "coordinates": [
          120.302951,
          22.657221
        ]
      }
    },
    {
      "type": "Feature",
      "properties": {
        "feature_type": "station",
        "ref": "KHH102072148591",
        "name": "大順一路(好市多)",
        "name_en": "Dashun 1st Rd.(Costco)",
        "line": "168環東區間",
        "color": "#3f6212",
        "direction": 0
      },
      "geometry": {
        "type": "Point",
        "coordinates": [
          120.30638,
          22.656812
        ]
      }
    },
    {
      "type": "Feature",
      "properties": {
        "feature_type": "station",
        "ref": "KHH10207228021",
        "name": "慈濟靜思堂(龍華國中)",
        "name_en": "Tzu Chi Meditation Hall(Longhua Junior High School)",
        "line": "168環東區間",
        "color": "#3f6212",
        "direction": 0
      },
      "geometry": {
        "type": "Point",
        "coordinates": [
          120.309353,
          22.656423
        ]
      }
    },
    {
      "type": "Feature",
      "properties": {
        "feature_type": "station",
        "ref": "KHH10207228041",
        "name": "大順民族路口",
        "name_en": "Dashun Minzu Rd. Intersection",
        "line": "168環東區間",
        "color": "#3f6212",
        "direction": 0
      },
      "geometry": {
        "type": "Point",
        "coordinates": [
          120.314937,
          22.65545
        ]
      }
    },
    {
      "type": "Feature",
      "properties": {
        "feature_type": "station",
        "ref": "KHH10207228481",
        "name": "家樂福鼎山店",
        "name_en": "Carrefour(Dingshan Store)",
        "line": "168環東區間",
        "color": "#3f6212",
        "direction": 0
      },
      "geometry": {
        "type": "Point",
        "coordinates": [
          120.31923,
          22.65308
        ]
      }
    },
    {
      "type": "Feature",
      "properties": {
        "feature_type": "station",
        "ref": "KHH102072148601",
        "name": "大順二路",
        "name_en": "Dashun 2nd Rd.",
        "line": "168環東區間",
        "color": "#3f6212",
        "direction": 0
      },
      "geometry": {
        "type": "Point",
        "coordinates": [
          120.322674,
          22.650642
        ]
      }
    },
    {
      "type": "Feature",
      "properties": {
        "feature_type": "station",
        "ref": "KHH10207224451",
        "name": "建工路口(高雄高工)",
        "name_en": "Jiangong Rd. Intersection(Kaohsiung Industial High School)",
        "line": "168環東區間",
        "color": "#3f6212",
        "direction": 0
      },
      "geometry": {
        "type": "Point",
        "coordinates": [
          120.324468,
          22.649278
        ]
      }
    },
    {
      "type": "Feature",
      "properties": {
        "feature_type": "station",
        "ref": "KHH1020724821",
        "name": "正興國小",
        "name_en": "Zhengxing Primary School",
        "line": "168環東區間",
        "color": "#3f6212",
        "direction": 0
      },
      "geometry": {
        "type": "Point",
        "coordinates": [
          120.325681,
          22.644983
        ]
      }
    },
    {
      "type": "Feature",
      "properties": {
        "feature_type": "station",
        "ref": "KHH1020724861",
        "name": "樹德家商",
        "name_en": "Shu-T home-econmics & commercila high school",
        "line": "168環東區間",
        "color": "#3f6212",
        "direction": 0
      },
      "geometry": {
        "type": "Point",
        "coordinates": [
          120.326453,
          22.643067
        ]
      }
    },
    {
      "type": "Feature",
      "properties": {
        "feature_type": "station",
        "ref": "KHH1020724941",
        "name": "大順覺民路口(科工館)",
        "name_en": "Dashun Jyuemin Rd.Intersection(NationalScience and TechnologyMuseum)",
        "line": "168環東區間",
        "color": "#3f6212",
        "direction": 0
      },
      "geometry": {
        "type": "Point",
        "coordinates": [
          120.327257,
          22.640935
        ]
      }
    },
    {
      "type": "Feature",
      "properties": {
        "feature_type": "station",
        "ref": "KHH10207239691",
        "name": "臺鐵科工館站",
        "name_en": "TRA Science and Technology Museum Station",
        "line": "168環東區間",
        "color": "#3f6212",
        "direction": 0
      },
      "geometry": {
        "type": "Point",
        "coordinates": [
          120.327012,
          22.636912
        ]
      }
    },
    {
      "type": "Feature",
      "properties": {
        "feature_type": "station",
        "ref": "KHH1020724981",
        "name": "憲政路口",
        "name_en": "Sianjheng Rd. Intersection",
        "line": "168環東區間",
        "color": "#3f6212",
        "direction": 0
      },
      "geometry": {
        "type": "Point",
        "coordinates": [
          120.325964,
          22.633961
        ]
      }
    },
    {
      "type": "Feature",
      "properties": {
        "feature_type": "station",
        "ref": "KHH10207227481",
        "name": "聖功醫院",
        "name_en": "St. Joseph Hospital",
        "line": "168環東區間",
        "color": "#3f6212",
        "direction": 0
      },
      "geometry": {
        "type": "Point",
        "coordinates": [
          120.324701,
          22.632797
        ]
      }
    },
    {
      "type": "Feature",
      "properties": {
        "feature_type": "station",
        "ref": "KHH10207227651",
        "name": "道明中學",
        "name_en": "St. Dominic Catholic High School",
        "line": "168環東區間",
        "color": "#3f6212",
        "direction": 0
      },
      "geometry": {
        "type": "Point",
        "coordinates": [
          120.322432,
          22.633339
        ]
      }
    },
    {
      "type": "Feature",
      "properties": {
        "feature_type": "station",
        "ref": "KHH10207227891",
        "name": "凱旋路口",
        "name_en": "Kaisyuan Rd. Intersection",
        "line": "168環東區間",
        "color": "#3f6212",
        "direction": 0
      },
      "geometry": {
        "type": "Point",
        "coordinates": [
          120.318773,
          22.634149
        ]
      }
    },
    {
      "type": "Feature",
      "properties": {
        "feature_type": "station",
        "ref": "KHH1020726971",
        "name": "和平一路",
        "name_en": "Heping 1st Rd.",
        "line": "168環東區間",
        "color": "#3f6212",
        "direction": 0
      },
      "geometry": {
        "type": "Point",
        "coordinates": [
          120.317049,
          22.632373
        ]
      }
    },
    {
      "type": "Feature",
      "properties": {
        "feature_type": "station",
        "ref": "KHH1020727061",
        "name": "捷運文化中心站",
        "name_en": "MRT Cultural Center Station",
        "line": "168環東區間",
        "color": "#3f6212",
        "direction": 0
      },
      "geometry": {
        "type": "Point",
        "coordinates": [
          120.31813,
          22.629564
        ]
      }
    },
    {
      "type": "Feature",
      "properties": {
        "feature_type": "station",
        "ref": "KHH1020725311",
        "name": "高雄文化中心(和平一路)",
        "name_en": "Kaohsiung Cultural Center(Heping 1st Rd.)",
        "line": "168環東區間",
        "color": "#3f6212",
        "direction": 0
      },
      "geometry": {
        "type": "Point",
        "coordinates": [
          120.318871,
          22.627588
        ]
      }
    },
    {
      "type": "Feature",
      "properties": {
        "feature_type": "station",
        "ref": "KHH10207245031",
        "name": "同慶路",
        "name_en": "Tongcing Rd.",
        "line": "168環東區間",
        "color": "#3f6212",
        "direction": 0
      },
      "geometry": {
        "type": "Point",
        "coordinates": [
          120.320557,
          22.627274
        ]
      }
    },
    {
      "type": "Feature",
      "properties": {
        "feature_type": "station",
        "ref": "KHH1020725391",
        "name": "輕軌凱旋公園站(民生醫院)",
        "name_en": "LRT Kaisyuan Park Station(Kaohsiung Municipal Minsheng Hospital)",
        "line": "168環東區間",
        "color": "#3f6212",
        "direction": 0
      },
      "geometry": {
        "type": "Point",
        "coordinates": [
          120.322426,
          22.62766
        ]
      }
    },
    {
      "type": "Feature",
      "properties": {
        "feature_type": "station",
        "ref": "KHH10207282961",
        "name": "輕軌衛生局站(凱旋二路)",
        "name_en": "LRT Department of Health Station(Kaisyuan 2nd Rd.)",
        "line": "168環東區間",
        "color": "#3f6212",
        "direction": 0
      },
      "geometry": {
        "type": "Point",
        "coordinates": [
          120.323544,
          22.624721
        ]
      }
    },
    {
      "type": "Feature",
      "properties": {
        "feature_type": "station",
        "ref": "KHH102072143561",
        "name": "長青服務中心",
        "name_en": "Senior Citizens Service Center",
        "line": "168環東區間",
        "color": "#3f6212",
        "direction": 0
      },
      "geometry": {
        "type": "Point",
        "coordinates": [
          120.321242,
          22.62312
        ]
      }
    },
    {
      "type": "Feature",
      "properties": {
        "feature_type": "station",
        "ref": "KHH102072143571",
        "name": "廣東一街口",
        "name_en": "Guangdong 1st St. Intersection",
        "line": "168環東區間",
        "color": "#3f6212",
        "direction": 0
      },
      "geometry": {
        "type": "Point",
        "coordinates": [
          120.319991,
          22.622738
        ]
      }
    },
    {
      "type": "Feature",
      "properties": {
        "feature_type": "station",
        "ref": "KHH102072143581",
        "name": "光華路口(四維二路)",
        "name_en": "Guanghua Rd. Intersection(Sihwei 2nd Rd.)",
        "line": "168環東區間",
        "color": "#3f6212",
        "direction": 0
      },
      "geometry": {
        "type": "Point",
        "coordinates": [
          120.317329,
          22.621812
        ]
      }
    },
    {
      "type": "Feature",
      "properties": {
        "feature_type": "station",
        "ref": "KHH102072143591",
        "name": "復華中學",
        "name_en": "FuHwa Senior High School",
        "line": "168環東區間",
        "color": "#3f6212",
        "direction": 0
      },
      "geometry": {
        "type": "Point",
        "coordinates": [
          120.314094,
          22.620679
        ]
      }
    },
    {
      "type": "Feature",
      "properties": {
        "feature_type": "station",
        "ref": "KHH102072143601",
        "name": "市政大樓(四維三路)",
        "name_en": "Kaohsiung City Hall(Sihwei 3rd Rd.)",
        "line": "168環東區間",
        "color": "#3f6212",
        "direction": 0
      },
      "geometry": {
        "type": "Point",
        "coordinates": [
          120.31151,
          22.619953
        ]
      }
    },
    {
      "type": "Feature",
      "properties": {
        "feature_type": "station",
        "ref": "KHH102072143621",
        "name": "忠孝路口(四維三路)",
        "name_en": "Jhongsiao Rd. Intersection(Sihwei 3rd Rd.)",
        "line": "168環東區間",
        "color": "#3f6212",
        "direction": 0
      },
      "geometry": {
        "type": "Point",
        "coordinates": [
          120.30815,
          22.618671
        ]
      }
    },
    {
      "type": "Feature",
      "properties": {
        "feature_type": "station",
        "ref": "KHH102072143641",
        "name": "苓雅國中",
        "name_en": "Lingya Junior High School",
        "line": "168環東區間",
        "color": "#3f6212",
        "direction": 0
      },
      "geometry": {
        "type": "Point",
        "coordinates": [
          120.305022,
          22.617608
        ]
      }
    },
    {
      "type": "Feature",
      "properties": {
        "feature_type": "station",
        "ref": "KHH102072143651",
        "name": "中華四路口",
        "name_en": "Jhonghua 4th Rd. Intersection",
        "line": "168環東區間",
        "color": "#3f6212",
        "direction": 0
      },
      "geometry": {
        "type": "Point",
        "coordinates": [
          120.302088,
          22.616614
        ]
      }
    },
    {
      "type": "Feature",
      "properties": {
        "feature_type": "station",
        "ref": "KHH102072143661",
        "name": "自強三路口(四維四路)",
        "name_en": "Zihciang 3rd Rd. Intersection(Sihwei 4th Rd.)",
        "line": "168環東區間",
        "color": "#3f6212",
        "direction": 0
      },
      "geometry": {
        "type": "Point",
        "coordinates": [
          120.298802,
          22.615486
        ]
      }
    },
    {
      "type": "Feature",
      "properties": {
        "feature_type": "station",
        "ref": "KHH102072143671",
        "name": "苓雅市場",
        "name_en": "Lingya Market",
        "line": "168環東區間",
        "color": "#3f6212",
        "direction": 0
      },
      "geometry": {
        "type": "Point",
        "coordinates": [
          120.296764,
          22.616931
        ]
      }
    },
    {
      "type": "Feature",
      "properties": {
        "feature_type": "station",
        "ref": "KHH102072143691",
        "name": "漢神百貨",
        "name_en": "Hanshin Department Store",
        "line": "168環東區間",
        "color": "#3f6212",
        "direction": 0
      },
      "geometry": {
        "type": "Point",
        "coordinates": [
          120.295867,
          22.619297
        ]
      }
    },
    {
      "type": "Feature",
      "properties": {
        "feature_type": "station",
        "ref": "KHH102072143711",
        "name": "高雄女中(真愛碼頭)",
        "name_en": "Kaohsiung Girls' Senior High School(Love Pier)",
        "line": "168環東區間",
        "color": "#3f6212",
        "direction": 0
      },
      "geometry": {
        "type": "Point",
        "coordinates": [
          120.292069,
          22.620807
        ]
      }
    },
    {
      "type": "Feature",
      "properties": {
        "feature_type": "station",
        "ref": "KHH102072143721",
        "name": "大成街口(輕軌真愛碼頭站)",
        "name_en": "Dacheng St. Intersection(LRT Love Pier Station）",
        "line": "168環東區間",
        "color": "#3f6212",
        "direction": 0
      },
      "geometry": {
        "type": "Point",
        "coordinates": [
          120.288549,
          22.621192
        ]
      }
    },
    {
      "type": "Feature",
      "properties": {
        "feature_type": "station",
        "ref": "KHH102072143731",
        "name": "大智路口(五福四路)",
        "name_en": "Dajhih Rd. Intersection(Wufu 4th Rd.)",
        "line": "168環東區間",
        "color": "#3f6212",
        "direction": 0
      },
      "geometry": {
        "type": "Point",
        "coordinates": [
          120.286952,
          22.621951
        ]
      }
    },
    {
      "type": "Feature",
      "properties": {
        "feature_type": "station",
        "ref": "KHH102072143741",
        "name": "大智路(光榮國小)",
        "name_en": "Dajhih Rd.(Guang-Rong Elementary School)",
        "line": "168環東區間",
        "color": "#3f6212",
        "direction": 0
      },
      "geometry": {
        "type": "Point",
        "coordinates": [
          120.286569,
          22.623553
        ]
      }
    },
    {
      "type": "Feature",
      "properties": {
        "feature_type": "station",
        "ref": "KHH102072143761",
        "name": "捷運鹽埕埔站(大仁路)",
        "name_en": "MRT Yanchengpu Station(Daren Rd.)",
        "line": "168環東區間",
        "color": "#3f6212",
        "direction": 0
      },
      "geometry": {
        "type": "Point",
        "coordinates": [
          120.285158,
          22.625389
        ]
      }
    },
    {
      "type": "Feature",
      "properties": {
        "feature_type": "station",
        "ref": "KHH102072143772",
        "name": "捷運鹽埕埔站(大仁路)",
        "name_en": "MRT Yanchengpu Station(Daren Rd.)",
        "line": "168環東區間",
        "color": "#3f6212",
        "direction": 1
      },
      "geometry": {
        "type": "Point",
        "coordinates": [
          120.285158,
          22.625389
        ]
      }
    },
    {
      "type": "Feature",
      "properties": {
        "feature_type": "station",
        "ref": "KHH102072143782",
        "name": "歷史博物館(高雄國際會議中心)",
        "name_en": "Kaohsiung Museum of History(ICCK)",
        "line": "168環東區間",
        "color": "#3f6212",
        "direction": 1
      },
      "geometry": {
        "type": "Point",
        "coordinates": [
          120.286722,
          22.626005
        ]
      }
    },
    {
      "type": "Feature",
      "properties": {
        "feature_type": "station",
        "ref": "KHH102072143802",
        "name": "台灣銀行(健保署)",
        "name_en": "Bank of Taiwan(Health Insurance Agency)",
        "line": "168環東區間",
        "color": "#3f6212",
        "direction": 1
      },
      "geometry": {
        "type": "Point",
        "coordinates": [
          120.289999,
          22.627313
        ]
      }
    },
    {
      "type": "Feature",
      "properties": {
        "feature_type": "station",
        "ref": "KHH102072143812",
        "name": "捷運前金站",
        "name_en": "MRT Cianjin",
        "line": "168環東區間",
        "color": "#3f6212",
        "direction": 1
      },
      "geometry": {
        "type": "Point",
        "coordinates": [
          120.293353,
          22.628424
        ]
      }
    },
    {
      "type": "Feature",
      "properties": {
        "feature_type": "station",
        "ref": "KHH102072143822",
        "name": "六合二路口",
        "name_en": "Liouhe 2nd Rd. Intersection",
        "line": "168環東區間",
        "color": "#3f6212",
        "direction": 1
      },
      "geometry": {
        "type": "Point",
        "coordinates": [
          120.295255,
          22.631307
        ]
      }
    },
    {
      "type": "Feature",
      "properties": {
        "feature_type": "station",
        "ref": "KHH102072143832",
        "name": "七賢二路口(中華三路)",
        "name_en": "Cisian 2nd Rd. Intersection(Jhonghua 3rd Rd.)",
        "line": "168環東區間",
        "color": "#3f6212",
        "direction": 1
      },
      "geometry": {
        "type": "Point",
        "coordinates": [
          120.29442,
          22.633341
        ]
      }
    },
    {
      "type": "Feature",
      "properties": {
        "feature_type": "station",
        "ref": "KHH102072143852",
        "name": "三民市場",
        "name_en": "Sanmin Market",
        "line": "168環東區間",
        "color": "#3f6212",
        "direction": 1
      },
      "geometry": {
        "type": "Point",
        "coordinates": [
          120.293302,
          22.636176
        ]
      }
    },
    {
      "type": "Feature",
      "properties": {
        "feature_type": "station",
        "ref": "KHH102072143902",
        "name": "臺鐵三塊厝站(中華路)",
        "name_en": "TRA Sankuaicuo Station(Jhonghua Rd.)",
        "line": "168環東區間",
        "color": "#3f6212",
        "direction": 1
      },
      "geometry": {
        "type": "Point",
        "coordinates": [
          120.292641,
          22.638126
        ]
      }
    },
    {
      "type": "Feature",
      "properties": {
        "feature_type": "station",
        "ref": "KHH102072143912",
        "name": "中華二路口",
        "name_en": "Jhonghua 2nd Rd. Intersection",
        "line": "168環東區間",
        "color": "#3f6212",
        "direction": 1
      },
      "geometry": {
        "type": "Point",
        "coordinates": [
          120.290792,
          22.642377
        ]
      }
    },
    {
      "type": "Feature",
      "properties": {
        "feature_type": "station",
        "ref": "KHH102072143922",
        "name": "九如新村",
        "name_en": "Jiouru New Village",
        "line": "168環東區間",
        "color": "#3f6212",
        "direction": 1
      },
      "geometry": {
        "type": "Point",
        "coordinates": [
          120.288108,
          22.643284
        ]
      }
    },
    {
      "type": "Feature",
      "properties": {
        "feature_type": "station",
        "ref": "KHH102072143932",
        "name": "中都濕地公園(美都路)",
        "name_en": "Jhongdu Wetlands Park(Meidu Rd.)",
        "line": "168環東區間",
        "color": "#3f6212",
        "direction": 1
      },
      "geometry": {
        "type": "Point",
        "coordinates": [
          120.288172,
          22.648401
        ]
      }
    },
    {
      "type": "Feature",
      "properties": {
        "feature_type": "station",
        "ref": "KHH10207243702",
        "name": "美術園區",
        "name_en": "Art Public Square",
        "line": "168環東區間",
        "color": "#3f6212",
        "direction": 1
      },
      "geometry": {
        "type": "Point",
        "coordinates": [
          120.288135,
          22.653388
        ]
      }
    },
    {
      "type": "Feature",
      "properties": {
        "feature_type": "station",
        "ref": "KHH102072158812",
        "name": "美術館(中華藝校)",
        "name_en": "Kaohsiung Museum of Fine Arts(Chung-Hwa School of Arts)",
        "line": "168環東區間",
        "color": "#3f6212",
        "direction": 1
      },
      "geometry": {
        "type": "Point",
        "coordinates": [
          120.288803,
          22.656156
        ]
      }
    },
    {
      "type": "Feature",
      "properties": {
        "feature_type": "station",
        "ref": "KHH10207243622",
        "name": "市立聯合醫院",
        "name_en": "Kaohsiung Municipal United Hospital",
        "line": "168環東區間",
        "color": "#3f6212",
        "direction": 1
      },
      "geometry": {
        "type": "Point",
        "coordinates": [
          120.292039,
          22.655206
        ]
      }
    },
    {
      "type": "Feature",
      "properties": {
        "feature_type": "station",
        "ref": "KHH10207228622",
        "name": "裕誠路口(大順一路)",
        "name_en": "Yucheng Rd. Intersection(Dashun 1st Rd.)",
        "line": "168環東區間",
        "color": "#3f6212",
        "direction": 1
      },
      "geometry": {
        "type": "Point",
        "coordinates": [
          120.294428,
          22.653784
        ]
      }
    },
    {
      "type": "Feature",
      "properties": {
        "feature_type": "station",
        "ref": "KHH10207227962",
        "name": "龍德路口(大順一路)",
        "name_en": "Longde Rd. Intersection(Dashun 1st Rd.)",
        "line": "168環東區間",
        "color": "#3f6212",
        "direction": 1
      },
      "geometry": {
        "type": "Point",
        "coordinates": [
          120.296566,
          22.654407
        ]
      }
    },
    {
      "type": "Feature",
      "properties": {
        "feature_type": "station",
        "ref": "KHH10207236482",
        "name": "捷運凹子底站(輕軌愛河之心站)",
        "name_en": "MRT Aozihdi Station(LRT Heart of Love River Station)",
        "line": "168環東區間",
        "color": "#3f6212",
        "direction": 1
      },
      "geometry": {
        "type": "Point",
        "coordinates": [
          120.303235,
          22.656977
        ]
      }
    },
    {
      "type": "Feature",
      "properties": {
        "feature_type": "station",
        "ref": "KHH102072113932",
        "name": "明誠路口(博愛二路)",
        "name_en": "Mingcheng Rd. Intersection(Boai 2nd Rd.)",
        "line": "168環東區間",
        "color": "#3f6212",
        "direction": 1
      },
      "geometry": {
        "type": "Point",
        "coordinates": [
          120.303238,
          22.660755
        ]
      }
    },
    {
      "type": "Feature",
      "properties": {
        "feature_type": "station",
        "ref": "KHH10207262652",
        "name": "捷運巨蛋站",
        "name_en": "MRT Kaohsiung Arena Station",
        "line": "168環東區間",
        "color": "#3f6212",
        "direction": 1
      },
      "geometry": {
        "type": "Point",
        "coordinates": [
          120.303453,
          22.666229
        ]
      }
    },
    {
      "type": "Feature",
      "properties": {
        "feature_type": "station",
        "ref": "KHH10207235932",
        "name": "漢神巨蛋",
        "name_en": "Hanshin Arena",
        "line": "168環東區間",
        "color": "#3f6212",
        "direction": 1
      },
      "geometry": {
        "type": "Point",
        "coordinates": [
          120.303541,
          22.668385
        ]
      }
    },
    {
      "type": "Feature",
      "properties": {
        "feature_type": "station",
        "ref": "KHH10207252542",
        "name": "新莊國小",
        "name_en": "Shin Juang Elementary School",
        "line": "168環東區間",
        "color": "#3f6212",
        "direction": 1
      },
      "geometry": {
        "type": "Point",
        "coordinates": [
          120.3079,
          22.668935
        ]
      }
    },
    {
      "type": "Feature",
      "properties": {
        "feature_type": "station",
        "ref": "KHH10207241272",
        "name": "北極殿(左營)",
        "name_en": "Beiji Temple(Zuoying)",
        "line": "168環東區間",
        "color": "#3f6212",
        "direction": 1
      },
      "geometry": {
        "type": "Point",
        "coordinates": [
          120.310227,
          22.668441
        ]
      }
    },
    {
      "type": "Feature",
      "properties": {
        "feature_type": "station",
        "ref": "KHH10207242522",
        "name": "興隆寺",
        "name_en": "Singlong Temple",
        "line": "168環東區間",
        "color": "#3f6212",
        "direction": 1
      },
      "geometry": {
        "type": "Point",
        "coordinates": [
          120.312722,
          22.668442
        ]
      }
    },
    {
      "type": "Feature",
      "properties": {
        "feature_type": "station",
        "ref": "KHH1020723222",
        "name": "民族一路口",
        "name_en": "Minzu 1st Rd. Intersection",
        "line": "168環東區間",
        "color": "#3f6212",
        "direction": 1
      },
      "geometry": {
        "type": "Point",
        "coordinates": [
          120.315893,
          22.668398
        ]
      }
    },
    {
      "type": "Feature",
      "properties": {
        "feature_type": "station",
        "ref": "KHH10207246442",
        "name": "天祥一路",
        "name_en": "Tiansiang 1st Rd.",
        "line": "168環東區間",
        "color": "#3f6212",
        "direction": 1
      },
      "geometry": {
        "type": "Point",
        "coordinates": [
          120.318221,
          22.667789
        ]
      }
    },
    {
      "type": "Feature",
      "properties": {
        "feature_type": "station",
        "ref": "KHH102072122432",
        "name": "金獅湖站",
        "name_en": "Golden Lion Lake Station",
        "line": "168環東區間",
        "color": "#3f6212",
        "direction": 1
      },
      "geometry": {
        "type": "Point",
        "coordinates": [
          120.321739,
          22.665889
        ]
      }
    }
  ]
}
