{
  "type": "FeatureCollection",
  "name": "105",
  "properties": {
    "id": "keelung_105",
    "name": "105",
    "name_en": "105",
    "ref": "105",
    "color": "#3730a3",
    "city_id": "Keelung",
    "source": "TDX Bus Shape / StopOfRoute",
    "official_map_url": "https://web.taiwanbus.tw/MISUploadData/Schematic/file/0361.jpg"
  },
  "features": [
    {
      "type": "Feature",
      "properties": {
        "feature_type": "route",
        "ref": "105",
        "name": "105",
        "name_en": "105",
        "color": "#3730a3",
        "direction": 0
      },
      "geometry": {
        "type": "LineString",
        "coordinates": [
          [
            121.73904,
            25.1331
          ],
          [
            121.73909,
            25.13318
          ],
          [
            121.73927,
            25.13345
          ],
          [
            121.7393,
            25.13349
          ],
          [
            121.7394,
            25.13364
          ],
          [
            121.7396,
            25.13397
          ],
          [
            121.74022672431552,
            25.13495773208343
          ],
          [
            121.74025586592845,
            25.134988660191265
          ],
          [
            121.74029512036121,
            25.135007509502326
          ],
          [
            121.7403392185474,
            25.13501194917727
          ],
          [
            121.74038203832481,
            25.135001362854904
          ],
          [
            121.740417635013,
            25.134977220237023
          ],
          [
            121.74044116808464,
            25.134942634175626
          ],
          [
            121.74079887885816,
            25.1341010019355
          ],
          [
            121.74080430536131,
            25.134084290768445
          ],
          [
            121.74080674163551,
            25.134066746535677
          ],
          [
            121.74080602122919,
            25.134049074459327
          ],
          [
            121.74080216325973,
            25.13403174350246
          ],
          [
            121.74079527010593,
            25.134015213575882
          ],
          [
            121.74078574811602,
            25.134000217045987
          ],
          [
            121.74019,
            25.13322
          ],
          [
            121.74012,
            25.1331
          ],
          [
            121.74001,
            25.13291
          ],
          [
            121.73989,
            25.13272
          ],
          [
            121.73983,
            25.13262
          ],
          [
            121.73983,
            25.13252
          ],
          [
            121.73983,
            25.13234
          ],
          [
            121.73981069681362,
            25.131507521989363
          ],
          [
            121.73981219313299,
            25.131487940088263
          ],
          [
            121.73981753859452,
            25.131468908837913
          ],
          [
            121.73982655851343,
            25.131451067551534
          ],
          [
            121.73983895749738,
            25.131435000511452
          ],
          [
            121.73985432949347,
            25.13142123389536
          ],
          [
            121.73987186058712,
            25.131410375439295
          ],
          [
            121.74080968091714,
            25.130938656763263
          ],
          [
            121.74083410646554,
            25.13092226632491
          ],
          [
            121.74085338382285,
            25.130900506140534
          ],
          [
            121.74086592282028,
            25.130874977388892
          ],
          [
            121.74087089097651,
            25.13084737495889
          ],
          [
            121.74086795844886,
            25.1308195314138
          ],
          [
            121.74085747931528,
            25.130793573075
          ],
          [
            121.74036,
            25.12993
          ],
          [
            121.74025,
            25.12977
          ],
          [
            121.74005,
            25.12946
          ],
          [
            121.73995,
            25.1293
          ],
          [
            121.7398,
            25.12907
          ],
          [
            121.7392713705576,
            25.128375502918935
          ],
          [
            121.73925684657995,
            25.128349243030353
          ],
          [
            121.73925056378913,
            25.12832003600974
          ],
          [
            121.73925321704658,
            25.128290371019567
          ],
          [
            121.73926460690754,
            25.128262477970882
          ],
          [
            121.73928387719856,
            25.128238453578263
          ],
          [
            121.73930926457238,
            25.12822027124542
          ],
          [
            121.74031,
            25.12769
          ],
          [
            121.7407,
            25.12747
          ],
          [
            121.74076,
            25.12744
          ],
          [
            121.74095,
            25.12734
          ],
          [
            121.74158327593295,
            25.126948482501245
          ],
          [
            121.74161305895656,
            25.126935039466147
          ],
          [
            121.74164536766482,
            25.126929639928207
          ],
          [
            121.74167806506105,
            25.12693249482811
          ],
          [
            121.74170866263881,
            25.12694338688749
          ],
          [
            121.74173483170286,
            25.126961487142463
          ],
          [
            121.74175475206644,
            25.126985700994965
          ],
          [
            121.74219,
            25.1277
          ],
          [
            121.74234,
            25.12793
          ],
          [
            121.74239,
            25.12803
          ],
          [
            121.74257,
            25.1283
          ],
          [
            121.74279,
            25.12864
          ],
          [
            121.74342300459256,
            25.129593451806493
          ],
          [
            121.74272131930393,
            25.12994612245185
          ],
          [
            121.74270135576185,
            25.129958831066645
          ],
          [
            121.74268442968277,
            25.12997523351436
          ],
          [
            121.7426715798887,
            25.129994467193978
          ],
          [
            121.74266335940247,
            25.130015704336245
          ],
          [
            121.74266012201315,
            25.130038030947915
          ],
          [
            121.74266198080964,
            25.130060354073503
          ],
          [
            121.74271,
            25.1303
          ],
          [
            121.7433909044283,
            25.13047135633579
          ],
          [
            121.74307529922832,
            25.13116981136625
          ],
          [
            121.74344,
            25.13133
          ],
          [
            121.74413404043025,
            25.132334138212816
          ],
          [
            121.74487595067471,
            25.131770706947485
          ],
          [
            121.74534,
            25.13247
          ],
          [
            121.74549,
            25.1327
          ],
          [
            121.74582,
            25.13317
          ],
          [
            121.7461,
            25.1336
          ],
          [
            121.74636,
            25.13399
          ],
          [
            121.74654,
            25.13424
          ],
          [
            121.74672,
            25.13452
          ],
          [
            121.74701,
            25.13493
          ],
          [
            121.74706,
            25.135
          ],
          [
            121.74733,
            25.13543
          ],
          [
            121.74765,
            25.13592
          ],
          [
            121.74784,
            25.13622
          ],
          [
            121.74809,
            25.13662
          ],
          [
            121.74814,
            25.13673
          ],
          [
            121.74814000000002,
            25.13691539662856
          ],
          [
            121.74942561371181,
            25.137646257763247
          ],
          [
            121.74986706872221,
            25.13701808820431
          ],
          [
            121.74988498856118,
            25.13699810625234
          ],
          [
            121.74990724845387,
            25.13698272067586
          ],
          [
            121.74993282748197,
            25.136972486395372
          ],
          [
            121.74996031794333,
            25.13696796663861
          ],
          [
            121.74998820694312,
            25.136969410143383
          ],
          [
            121.75001524062957,
            25.13697684906412
          ],
          [
            121.7512665103675,
            25.137471560665574
          ],
          [
            121.75129425574701,
            25.137487016746192
          ],
          [
            121.75131655616616,
            25.137508967837707
          ],
          [
            121.75133143684478,
            25.13753563514451
          ],
          [
            121.75133776742621,
            25.137564992981584
          ],
          [
            121.75133506703087,
            25.137594811287553
          ],
          [
            121.7513237073294,
            25.13762254408112
          ],
          [
            121.7508510226744,
            25.138416083918028
          ],
          [
            121.75188,
            25.13898
          ],
          [
            121.75262879030716,
            25.1394315875467
          ],
          [
            121.75264895402519,
            25.139441434008116
          ],
          [
            121.75267043301507,
            25.13944751238563
          ],
          [
            121.7526927825392,
            25.13944980049019
          ],
          [
            121.7527152053475,
            25.13944821670076
          ],
          [
            121.75273690157559,
            25.13944281751412
          ],
          [
            121.75275741560077,
            25.139433616944707
          ],
          [
            121.75338308400197,
            25.139084000373185
          ],
          [
            121.75392,
            25.1393
          ],
          [
            121.75401,
            25.13933
          ],
          [
            121.75408,
            25.13935
          ],
          [
            121.75432,
            25.13943
          ],
          [
            121.75464,
            25.13957
          ],
          [
            121.7547,
            25.1396
          ],
          [
            121.75478,
            25.13966
          ],
          [
            121.75483,
            25.1397
          ],
          [
            121.75488,
            25.13975
          ],
          [
            121.75495,
            25.13981
          ],
          [
            121.75516,
            25.14003
          ],
          [
            121.75524,
            25.14011
          ],
          [
            121.75541,
            25.14034
          ],
          [
            121.75556,
            25.14046
          ],
          [
            121.75566,
            25.14052
          ],
          [
            121.75587,
            25.14064
          ],
          [
            121.75611,
            25.14073
          ],
          [
            121.75651,
            25.14087
          ],
          [
            121.75658,
            25.14089
          ],
          [
            121.75659,
            25.1409
          ],
          [
            121.75664,
            25.14091
          ],
          [
            121.75667,
            25.14091
          ],
          [
            121.75672,
            25.14092
          ],
          [
            121.75676,
            25.14092
          ],
          [
            121.75682,
            25.14092
          ],
          [
            121.75689,
            25.14091
          ],
          [
            121.75692,
            25.1409
          ],
          [
            121.75693,
            25.1409
          ],
          [
            121.757,
            25.14088
          ],
          [
            121.75711,
            25.14085
          ],
          [
            121.75713,
            25.14085
          ],
          [
            121.7573,
            25.1408
          ],
          [
            121.75773,
            25.14066
          ],
          [
            121.75783,
            25.14063
          ],
          [
            121.75795,
            25.1406
          ],
          [
            121.75811,
            25.1406
          ],
          [
            121.75816,
            25.1406
          ],
          [
            121.7582,
            25.14061
          ],
          [
            121.75823,
            25.14062
          ],
          [
            121.75862,
            25.1406
          ],
          [
            121.75878,
            25.14058
          ],
          [
            121.75894,
            25.14057
          ],
          [
            121.75947,
            25.14052
          ],
          [
            121.75954,
            25.14052
          ],
          [
            121.75977,
            25.14058
          ],
          [
            121.75998,
            25.14065
          ],
          [
            121.76095199830677,
            25.14095553382405
          ],
          [
            121.76098226015127,
            25.140969830362035
          ],
          [
            121.76100699880566,
            25.140991542947845
          ],
          [
            121.76102391222996,
            25.141018788607763
          ],
          [
            121.76103159383263,
            25.141049301478134
          ],
          [
            121.7610294047793,
            25.14108054398034
          ],
          [
            121.76101769406989,
            25.141109636749647
          ],
          [
            121.76049602906289,
            25.141983801656476
          ],
          [
            121.76130585029286,
            25.14341
          ],
          [
            121.76157874907452,
            25.14341
          ],
          [
            121.76160324479801,
            25.14341232166091
          ],
          [
            121.76162669277245,
            25.143419187339852
          ],
          [
            121.7616480900639,
            25.143430303372984
          ],
          [
            121.76166652145176,
            25.143445194297186
          ],
          [
            121.76168119857516,
            25.14346322318693
          ],
          [
            121.76169157519602,
            25.143483838616856
          ],
          [
            121.76197,
            25.14423
          ],
          [
            121.76203,
            25.14439
          ],
          [
            121.76207,
            25.14449
          ],
          [
            121.76209,
            25.14455
          ],
          [
            121.76211,
            25.1446
          ],
          [
            121.76212,
            25.14469
          ],
          [
            121.76214,
            25.14478
          ],
          [
            121.76215,
            25.14489
          ],
          [
            121.76216,
            25.14504
          ],
          [
            121.76217,
            25.14519
          ],
          [
            121.76218,
            25.14526
          ],
          [
            121.76218,
            25.14533
          ],
          [
            121.7622,
            25.1454
          ],
          [
            121.76226,
            25.14572
          ],
          [
            121.76229,
            25.14582
          ],
          [
            121.76231,
            25.14591
          ],
          [
            121.76233,
            25.14597
          ],
          [
            121.76235,
            25.14601
          ],
          [
            121.76237,
            25.14608
          ],
          [
            121.7624,
            25.14616
          ],
          [
            121.76241,
            25.14616
          ],
          [
            121.76243,
            25.14621
          ],
          [
            121.76245,
            25.14625
          ],
          [
            121.76246,
            25.14629
          ],
          [
            121.76247,
            25.14632
          ],
          [
            121.76248,
            25.14639
          ],
          [
            121.7625,
            25.1465
          ],
          [
            121.76251,
            25.14655
          ],
          [
            121.76252,
            25.14666
          ],
          [
            121.76254509679143,
            25.14733977700669
          ],
          [
            121.76255219228486,
            25.14737323566914
          ],
          [
            121.76257029978937,
            25.147403020314517
          ],
          [
            121.76259763850585,
            25.147426225714693
          ],
          [
            121.76263151836284,
            25.14744056850765
          ],
          [
            121.76266860565441,
            25.147444637393082
          ],
          [
            121.76270550640187,
            25.1474379460877
          ],
          [
            121.76306298376034,
            25.14731846374598
          ],
          [
            121.76308983213595,
            25.147305631150303
          ],
          [
            121.7631124324613,
            25.147286845205613
          ],
          [
            121.76312903846548,
            25.147263431200937
          ],
          [
            121.76313855474453,
            25.14723693362544
          ],
          [
            121.76314035356344,
            25.147209100373978
          ],
          [
            121.76313439787054,
            25.14718198701646
          ],
          [
            121.76288,
            25.1465
          ],
          [
            121.76287,
            25.14645
          ],
          [
            121.76286,
            25.1464
          ],
          [
            121.76285,
            25.14635
          ],
          [
            121.76284,
            25.1463
          ],
          [
            121.76284,
            25.14627
          ],
          [
            121.76284,
            25.14623
          ],
          [
            121.76285,
            25.1462
          ],
          [
            121.76286,
            25.14616
          ],
          [
            121.76288,
            25.14612
          ],
          [
            121.76288,
            25.14605
          ],
          [
            121.76287,
            25.14577
          ],
          [
            121.76287,
            25.14568
          ],
          [
            121.76287,
            25.14556
          ],
          [
            121.76286,
            25.14532
          ],
          [
            121.76285,
            25.14519
          ],
          [
            121.76284,
            25.14506
          ],
          [
            121.76283,
            25.14498
          ],
          [
            121.76283,
            25.14494
          ],
          [
            121.76282,
            25.14488
          ],
          [
            121.7628,
            25.14482
          ],
          [
            121.76279,
            25.14476
          ],
          [
            121.76271,
            25.14454
          ],
          [
            121.76269,
            25.1445
          ],
          [
            121.76258,
            25.14418
          ],
          [
            121.76231932512646,
            25.143393166681864
          ],
          [
            121.76231708938708,
            25.143381024442807
          ],
          [
            121.76231823889255,
            25.143368661597854
          ],
          [
            121.7623227314069,
            25.143356949864557
          ],
          [
            121.76233028350079,
            25.14334662812724
          ],
          [
            121.76234041871842,
            25.143338347576435
          ],
          [
            121.76235238141113,
            25.14333266978999
          ],
          [
            121.76245,
            25.1433
          ],
          [
            121.76246,
            25.14329
          ],
          [
            121.76247,
            25.14329
          ],
          [
            121.76251,
            25.14329
          ],
          [
            121.76310106007546,
            25.143527697133557
          ],
          [
            121.76312868424228,
            25.14353540148697
          ],
          [
            121.76315722111151,
            25.143536833844877
          ],
          [
            121.76318531044788,
            25.143532026257695
          ],
          [
            121.76321133422063,
            25.143521255656985
          ],
          [
            121.76323379338174,
            25.14350514246194
          ],
          [
            121.7632515849855,
            25.14348432596595
          ],
          [
            121.76348,
            25.14314
          ],
          [
            121.76351,
            25.14308
          ],
          [
            121.76353,
            25.14304
          ],
          [
            121.76356,
            25.14293
          ],
          [
            121.76358,
            25.1428
          ],
          [
            121.76374211314508,
            25.14209394683215
          ],
          [
            121.76374457142911,
            25.142069464898064
          ],
          [
            121.76374088288742,
            25.142044958762867
          ],
          [
            121.76373120488638,
            25.142021850010067
          ],
          [
            121.763716039899,
            25.142001338425104
          ],
          [
            121.76369617527763,
            25.141984488950815
          ],
          [
            121.76367292235248,
            25.14197228673951
          ],
          [
            121.76275,
            25.14161
          ],
          [
            121.76170675867202,
            25.141185643962743
          ],
          [
            121.76043843166354,
            25.14191513453424
          ],
          [
            121.76041745252093,
            25.141924785864656
          ],
          [
            121.76039517577355,
            25.141930434273988
          ],
          [
            121.76037212159218,
            25.141932051394214
          ],
          [
            121.76034915922173,
            25.14192957625273
          ],
          [
            121.7603271544454,
            25.141923102173333
          ],
          [
            121.76030661472912,
            25.141912669956064
          ],
          [
            121.75965,
            25.1415
          ],
          [
            121.75954,
            25.14143
          ],
          [
            121.7593,
            25.14128
          ],
          [
            121.75899,
            25.14108
          ],
          [
            121.75823696669353,
            25.140563533647235
          ],
          [
            121.75822048592703,
            25.140553977608924
          ],
          [
            121.7582028953251,
            25.140547122411935
          ],
          [
            121.75818432759004,
            25.140542923702867
          ],
          [
            121.7581652619529,
            25.14054148984989
          ],
          [
            121.7581461904955,
            25.140542857860584
          ],
          [
            121.75812736767969,
            25.140547064473612
          ],
          [
            121.757352,
            25.140781
          ],
          [
            121.757051,
            25.140859
          ],
          [
            121.756911,
            25.140905
          ],
          [
            121.75683,
            25.140918
          ],
          [
            121.756723,
            25.140915
          ],
          [
            121.756648,
            25.140909
          ],
          [
            121.756578,
            25.140889
          ],
          [
            121.756537,
            25.140877
          ],
          [
            121.756501,
            25.140866
          ],
          [
            121.756466,
            25.140853
          ],
          [
            121.756416,
            25.140848
          ],
          [
            121.756299,
            25.140863
          ],
          [
            121.75621,
            25.14087
          ],
          [
            121.7561,
            25.14087
          ],
          [
            121.75596,
            25.14085
          ],
          [
            121.75586,
            25.14083
          ],
          [
            121.75578,
            25.14081
          ],
          [
            121.75568,
            25.14078
          ],
          [
            121.75559,
            25.14075
          ],
          [
            121.75547,
            25.14069
          ],
          [
            121.75537,
            25.14064
          ],
          [
            121.75536,
            25.14063
          ],
          [
            121.75532,
            25.1406
          ],
          [
            121.75526,
            25.14055
          ],
          [
            121.75516,
            25.14046
          ],
          [
            121.75506,
            25.14035
          ],
          [
            121.75495,
            25.14024
          ],
          [
            121.75482,
            25.14011
          ],
          [
            121.75479,
            25.14007
          ],
          [
            121.75469,
            25.13998
          ],
          [
            121.75464,
            25.13994
          ],
          [
            121.75458,
            25.1399
          ],
          [
            121.75448,
            25.13984
          ],
          [
            121.75437,
            25.13978
          ],
          [
            121.75436,
            25.13978
          ],
          [
            121.75425,
            25.13973
          ],
          [
            121.75334048360868,
            25.139444248347523
          ],
          [
            121.75331956100953,
            25.13943950846036
          ],
          [
            121.75329830251829,
            25.139438279073687
          ],
          [
            121.7532771439035,
            25.13944052238632
          ],
          [
            121.75325676224807,
            25.13944616661148
          ],
          [
            121.75323780977199,
            25.139455031132037
          ],
          [
            121.7532205861431,
            25.13946709006126
          ],
          [
            121.75299825458497,
            25.139652457720757
          ],
          [
            121.75297723234816,
            25.13966661972638
          ],
          [
            121.75295372483194,
            25.13967614355296
          ],
          [
            121.75292852226352,
            25.13968084249502
          ],
          [
            121.75290280082596,
            25.1396804972568
          ],
          [
            121.75287776091761,
            25.139675123950283
          ],
          [
            121.75285425212331,
            25.139664792109453
          ],
          [
            121.75198,
            25.13917
          ],
          [
            121.75078376465876,
            25.138517561031716
          ],
          [
            121.75117604668023,
            25.13785949816551
          ],
          [
            121.74984201819811,
            25.13702555423708
          ],
          [
            121.74940163205521,
            25.13776365050352
          ],
          [
            121.74813454706533,
            25.137047032128685
          ],
          [
            121.74811998685549,
            25.137036600943777
          ],
          [
            121.74810805308685,
            25.137023370651747
          ],
          [
            121.74809954246892,
            25.13700809946652
          ],
          [
            121.74809485832185,
            25.13699151109301
          ],
          [
            121.74809422262838,
            25.136974391658015
          ],
          [
            121.74809761720482,
            25.136957698667818
          ],
          [
            121.74815,
            25.1368
          ],
          [
            121.74814,
            25.13676
          ],
          [
            121.74814,
            25.13673
          ],
          [
            121.74809,
            25.13662
          ],
          [
            121.74801,
            25.13649
          ],
          [
            121.74784,
            25.13622
          ],
          [
            121.74733,
            25.13543
          ],
          [
            121.74706,
            25.135
          ],
          [
            121.74701,
            25.13493
          ],
          [
            121.74699,
            25.1349
          ],
          [
            121.74672,
            25.13452
          ],
          [
            121.74636,
            25.13399
          ],
          [
            121.7461,
            25.1336
          ],
          [
            121.74582,
            25.13317
          ],
          [
            121.74549,
            25.1327
          ],
          [
            121.74534,
            25.13247
          ],
          [
            121.74533,
            25.13245
          ],
          [
            121.74518,
            25.13223
          ],
          [
            121.74507,
            25.13206
          ],
          [
            121.74503,
            25.13199
          ],
          [
            121.74498,
            25.13191
          ],
          [
            121.74489,
            25.13176
          ],
          [
            121.7443,
            25.13085
          ],
          [
            121.74413,
            25.13064
          ],
          [
            121.7441,
            25.13061
          ],
          [
            121.74398,
            25.13047
          ],
          [
            121.74350282847553,
            25.12965877790264
          ],
          [
            121.74348374033853,
            25.129634715855907
          ],
          [
            121.74345851415042,
            25.129616431628193
          ],
          [
            121.74342883404613,
            25.129604984843333
          ],
          [
            121.74339687423856,
            25.12960121403433
          ],
          [
            121.74336497593998,
            25.129605395431398
          ],
          [
            121.74333515765038,
            25.129617401334105
          ],
          [
            121.74265,
            25.13
          ],
          [
            121.74231,
            25.13021
          ],
          [
            121.7422,
            25.13028
          ],
          [
            121.74209,
            25.13035
          ],
          [
            121.74171,
            25.13055
          ],
          [
            121.7414,
            25.13073
          ],
          [
            121.74122,
            25.13083
          ],
          [
            121.74098,
            25.13095
          ],
          [
            121.74085,
            25.13102
          ],
          [
            121.74067,
            25.1311
          ],
          [
            121.74047,
            25.13121
          ],
          [
            121.74038,
            25.13126
          ],
          [
            121.74024,
            25.13133
          ],
          [
            121.74021,
            25.13135
          ],
          [
            121.73998,
            25.13148
          ],
          [
            121.73979,
            25.13158
          ],
          [
            121.73969,
            25.13162
          ],
          [
            121.7396,
            25.13166
          ],
          [
            121.73952,
            25.1317
          ],
          [
            121.73949,
            25.13172
          ],
          [
            121.73935,
            25.13179
          ],
          [
            121.73864465486302,
            25.13219732992673
          ],
          [
            121.73862238575855,
            25.132214077879112
          ],
          [
            121.73860500523536,
            25.132235520615843
          ],
          [
            121.73859388163805,
            25.132260179066876
          ],
          [
            121.73858968596996,
            25.132286565772628
          ],
          [
            121.73859267132427,
            25.132313089020865
          ],
          [
            121.73860250446762,
            25.132337873998882
          ],
          [
            121.73899,
            25.13303
          ],
          [
            121.739,
            25.13305
          ],
          [
            121.73904,
            25.1331
          ]
        ]
      }
    },
    {
      "type": "Feature",
      "properties": {
        "feature_type": "station",
        "ref": "KEE309534",
        "name": "基隆轉運站",
        "name_en": "Keelung Transit Station",
        "line": "105",
        "color": "#3730a3",
        "direction": 0
      },
      "geometry": {
        "type": "Point",
        "coordinates": [
          121.739089,
          25.133076
        ]
      }
    },
    {
      "type": "Feature",
      "properties": {
        "feature_type": "station",
        "ref": "KEE309535",
        "name": "民治里活動中心",
        "name_en": "Minzhi Village Activity Center",
        "line": "105",
        "color": "#3730a3",
        "direction": 0
      },
      "geometry": {
        "type": "Point",
        "coordinates": [
          121.740028,
          25.134482
        ]
      }
    },
    {
      "type": "Feature",
      "properties": {
        "feature_type": "station",
        "ref": "KEE306975",
        "name": "孝二路",
        "name_en": "Xiao 2nd Rd.",
        "line": "105",
        "color": "#3730a3",
        "direction": 0
      },
      "geometry": {
        "type": "Point",
        "coordinates": [
          121.74007,
          25.129453
        ]
      }
    },
    {
      "type": "Feature",
      "properties": {
        "feature_type": "station",
        "ref": "KEE306241",
        "name": "仁五路(東和大樓)",
        "name_en": "Ren 5th Rd.",
        "line": "105",
        "color": "#3730a3",
        "direction": 0
      },
      "geometry": {
        "type": "Point",
        "coordinates": [
          121.740671,
          25.127423
        ]
      }
    },
    {
      "type": "Feature",
      "properties": {
        "feature_type": "station",
        "ref": "KEE306232",
        "name": "仁二路(二信循環站)",
        "name_en": "Ren 2nd Rd. (Erxin Loop Station )",
        "line": "105",
        "color": "#3730a3",
        "direction": 0
      },
      "geometry": {
        "type": "Point",
        "coordinates": [
          121.743128,
          25.129771
        ]
      }
    },
    {
      "type": "Feature",
      "properties": {
        "feature_type": "station",
        "ref": "KEE306464",
        "name": "市政府(柯達飯店)",
        "name_en": "Keelung City Government (K Hotel)",
        "line": "105",
        "color": "#3730a3",
        "direction": 0
      },
      "geometry": {
        "type": "Point",
        "coordinates": [
          121.74541,
          25.13233
        ]
      }
    },
    {
      "type": "Feature",
      "properties": {
        "feature_type": "station",
        "ref": "KEE306460",
        "name": "信五路口",
        "name_en": "Xin 5th Rd. Intersection",
        "line": "105",
        "color": "#3730a3",
        "direction": 0
      },
      "geometry": {
        "type": "Point",
        "coordinates": [
          121.746636,
          25.134185
        ]
      }
    },
    {
      "type": "Feature",
      "properties": {
        "feature_type": "station",
        "ref": "KEE306457",
        "name": "信七路口",
        "name_en": "Xin 7th Rd. Intersection",
        "line": "105",
        "color": "#3730a3",
        "direction": 0
      },
      "geometry": {
        "type": "Point",
        "coordinates": [
          121.747736,
          25.135875
        ]
      }
    },
    {
      "type": "Feature",
      "properties": {
        "feature_type": "station",
        "ref": "KEE306454",
        "name": "就業中心",
        "name_en": "Keelung Employment Service Station",
        "line": "105",
        "color": "#3730a3",
        "direction": 0
      },
      "geometry": {
        "type": "Point",
        "coordinates": [
          121.74894,
          25.137223
        ]
      }
    },
    {
      "type": "Feature",
      "properties": {
        "feature_type": "station",
        "ref": "KEE306443",
        "name": "中船路",
        "name_en": "Zhongchuan Rd.",
        "line": "105",
        "color": "#3730a3",
        "direction": 0
      },
      "geometry": {
        "type": "Point",
        "coordinates": [
          121.75095,
          25.137353
        ]
      }
    },
    {
      "type": "Feature",
      "properties": {
        "feature_type": "station",
        "ref": "KEE306439",
        "name": "北屋新城",
        "name_en": "Beiwuxincheng",
        "line": "105",
        "color": "#3730a3",
        "direction": 0
      },
      "geometry": {
        "type": "Point",
        "coordinates": [
          121.752025,
          25.139078
        ]
      }
    },
    {
      "type": "Feature",
      "properties": {
        "feature_type": "station",
        "ref": "KEE306437",
        "name": "復興館",
        "name_en": "Fuxingguan",
        "line": "105",
        "color": "#3730a3",
        "direction": 0
      },
      "geometry": {
        "type": "Point",
        "coordinates": [
          121.754073,
          25.13937
        ]
      }
    },
    {
      "type": "Feature",
      "properties": {
        "feature_type": "station",
        "ref": "KEE306436",
        "name": "海門天險",
        "name_en": "Haimentiansian",
        "line": "105",
        "color": "#3730a3",
        "direction": 0
      },
      "geometry": {
        "type": "Point",
        "coordinates": [
          121.756108,
          25.140736
        ]
      }
    },
    {
      "type": "Feature",
      "properties": {
        "feature_type": "station",
        "ref": "KEE306345",
        "name": "中正區行政大樓",
        "name_en": "Administration Building of Zhongzheng District",
        "line": "105",
        "color": "#3730a3",
        "direction": 0
      },
      "geometry": {
        "type": "Point",
        "coordinates": [
          121.758783,
          25.140603
        ]
      }
    },
    {
      "type": "Feature",
      "properties": {
        "feature_type": "station",
        "ref": "KEE306343",
        "name": "正豐街",
        "name_en": "Zhengfeng St.",
        "line": "105",
        "color": "#3730a3",
        "direction": 0
      },
      "geometry": {
        "type": "Point",
        "coordinates": [
          121.760126,
          25.140762
        ]
      }
    },
    {
      "type": "Feature",
      "properties": {
        "feature_type": "station",
        "ref": "KEE307002",
        "name": "正榮街口",
        "name_en": "Zhengrong St. Intersection",
        "line": "105",
        "color": "#3730a3",
        "direction": 0
      },
      "geometry": {
        "type": "Point",
        "coordinates": [
          121.761113,
          25.142988
        ]
      }
    },
    {
      "type": "Feature",
      "properties": {
        "feature_type": "station",
        "ref": "KEE306589",
        "name": "正榮街",
        "name_en": "Zhengrong St.",
        "line": "105",
        "color": "#3730a3",
        "direction": 0
      },
      "geometry": {
        "type": "Point",
        "coordinates": [
          121.762495,
          25.14632
        ]
      }
    },
    {
      "type": "Feature",
      "properties": {
        "feature_type": "station",
        "ref": "KEE306599",
        "name": "正濱國中",
        "name_en": "Zhengbin Junior High School",
        "line": "105",
        "color": "#3730a3",
        "direction": 0
      },
      "geometry": {
        "type": "Point",
        "coordinates": [
          121.762833,
          25.145766
        ]
      }
    },
    {
      "type": "Feature",
      "properties": {
        "feature_type": "station",
        "ref": "KEE306600",
        "name": "三軍總醫院基隆分院",
        "name_en": "Tri-Service General Hospital of Keelung",
        "line": "105",
        "color": "#3730a3",
        "direction": 0
      },
      "geometry": {
        "type": "Point",
        "coordinates": [
          121.762738,
          25.144528
        ]
      }
    },
    {
      "type": "Feature",
      "properties": {
        "feature_type": "station",
        "ref": "KEE306601",
        "name": "建心新城",
        "name_en": "Jianxinxincheng",
        "line": "105",
        "color": "#3730a3",
        "direction": 0
      },
      "geometry": {
        "type": "Point",
        "coordinates": [
          121.763673,
          25.142248
        ]
      }
    },
    {
      "type": "Feature",
      "properties": {
        "feature_type": "station",
        "ref": "KEE306518",
        "name": "天主堂",
        "name_en": "Church",
        "line": "105",
        "color": "#3730a3",
        "direction": 0
      },
      "geometry": {
        "type": "Point",
        "coordinates": [
          121.761604,
          25.141437
        ]
      }
    },
    {
      "type": "Feature",
      "properties": {
        "feature_type": "station",
        "ref": "KEE306344",
        "name": "中正區行政大樓",
        "name_en": "Administration Building of Zhongzheng District",
        "line": "105",
        "color": "#3730a3",
        "direction": 0
      },
      "geometry": {
        "type": "Point",
        "coordinates": [
          121.758988,
          25.141083
        ]
      }
    },
    {
      "type": "Feature",
      "properties": {
        "feature_type": "station",
        "ref": "KEE306435",
        "name": "海門天險",
        "name_en": "Haimentiansian",
        "line": "105",
        "color": "#3730a3",
        "direction": 0
      },
      "geometry": {
        "type": "Point",
        "coordinates": [
          121.7563,
          25.140876
        ]
      }
    },
    {
      "type": "Feature",
      "properties": {
        "feature_type": "station",
        "ref": "KEE306441",
        "name": "中船路",
        "name_en": "Zhongchuan Rd.",
        "line": "105",
        "color": "#3730a3",
        "direction": 0
      },
      "geometry": {
        "type": "Point",
        "coordinates": [
          121.75072,
          25.137598
        ]
      }
    },
    {
      "type": "Feature",
      "properties": {
        "feature_type": "station",
        "ref": "KEE306456",
        "name": "信七路口",
        "name_en": "Xin 7th Rd. Intersection",
        "line": "105",
        "color": "#3730a3",
        "direction": 0
      },
      "geometry": {
        "type": "Point",
        "coordinates": [
          121.74798,
          25.1365
        ]
      }
    },
    {
      "type": "Feature",
      "properties": {
        "feature_type": "station",
        "ref": "KEE306459",
        "name": "信五路口",
        "name_en": "Xin 5th Rd. Intersection",
        "line": "105",
        "color": "#3730a3",
        "direction": 0
      },
      "geometry": {
        "type": "Point",
        "coordinates": [
          121.74691,
          25.13494
        ]
      }
    },
    {
      "type": "Feature",
      "properties": {
        "feature_type": "station",
        "ref": "KEE306463",
        "name": "市政府(柯達飯店)",
        "name_en": "Keelung City Government (K Hotel)",
        "line": "105",
        "color": "#3730a3",
        "direction": 0
      },
      "geometry": {
        "type": "Point",
        "coordinates": [
          121.745278,
          25.132476
        ]
      }
    }
  ]
}
