{
  "type": "FeatureCollection",
  "name": "紅3",
  "properties": {
    "id": "kaohsiung_hong3",
    "name": "紅3",
    "name_en": "紅3",
    "ref": "紅3",
    "color": "#86198f",
    "city_id": "Kaohsiung",
    "source": "TDX Bus Shape / StopOfRoute",
    "operator_id": "20090",
    "operator": "福倫交通",
    "operator_en": "Crown Taxi(Shuttle Taxi)",
    "official_map_url": "https://www.fuluntaxi.com.tw/wp-content/uploads/2025/07/%E7%B4%853%E8%B7%AF%E7%B7%9A%E5%9C%96.jpg"
  },
  "features": [
    {
      "type": "Feature",
      "properties": {
        "feature_type": "route",
        "ref": "紅3",
        "name": "紅3",
        "name_en": "紅3",
        "color": "#86198f",
        "direction": 0
      },
      "geometry": {
        "type": "LineString",
        "coordinates": [
          [
            120.39275,
            22.50007
          ],
          [
            120.39236,
            22.50001
          ],
          [
            120.39184,
            22.49997
          ],
          [
            120.39184,
            22.4999
          ],
          [
            120.39213,
            22.49993
          ],
          [
            120.39237,
            22.49996
          ],
          [
            120.39272,
            22.49999
          ],
          [
            120.39298,
            22.50002
          ],
          [
            120.39308,
            22.50002
          ],
          [
            120.39332,
            22.50006
          ],
          [
            120.39342,
            22.49971
          ],
          [
            120.39354,
            22.49923
          ],
          [
            120.39359,
            22.49894
          ],
          [
            120.39362,
            22.49878
          ],
          [
            120.39364,
            22.4986
          ],
          [
            120.39372,
            22.4982
          ],
          [
            120.39379,
            22.49763
          ],
          [
            120.39386,
            22.49716
          ],
          [
            120.39391,
            22.4964
          ],
          [
            120.39394,
            22.49578
          ],
          [
            120.3939,
            22.49468
          ],
          [
            120.39385,
            22.49362
          ],
          [
            120.39383,
            22.49317
          ],
          [
            120.39381,
            22.49273
          ],
          [
            120.39379,
            22.49235
          ],
          [
            120.39379,
            22.49223
          ],
          [
            120.39381,
            22.49204
          ],
          [
            120.39382,
            22.49192
          ],
          [
            120.39382,
            22.49181
          ],
          [
            120.39381,
            22.49174
          ],
          [
            120.39378,
            22.49164
          ],
          [
            120.39374,
            22.49154
          ],
          [
            120.3937,
            22.49145
          ],
          [
            120.39355,
            22.49118
          ],
          [
            120.39347,
            22.49101
          ],
          [
            120.39328,
            22.49065
          ],
          [
            120.39321,
            22.49048
          ],
          [
            120.39319,
            22.49043
          ],
          [
            120.39316,
            22.49033
          ],
          [
            120.39314,
            22.49024
          ],
          [
            120.39314,
            22.49024
          ],
          [
            120.3931,
            22.4901
          ],
          [
            120.39307,
            22.48996
          ],
          [
            120.39312,
            22.48986
          ],
          [
            120.39316,
            22.48981
          ],
          [
            120.39319,
            22.48977
          ],
          [
            120.39324,
            22.48974
          ],
          [
            120.3933,
            22.48971
          ],
          [
            120.3934,
            22.48967
          ],
          [
            120.39346,
            22.48965
          ],
          [
            120.39354,
            22.48963
          ],
          [
            120.39384,
            22.48954
          ],
          [
            120.39407,
            22.48946
          ],
          [
            120.39412,
            22.48944
          ],
          [
            120.39462,
            22.48917
          ],
          [
            120.39527,
            22.48872
          ],
          [
            120.39603,
            22.4882
          ],
          [
            120.39603,
            22.4882
          ],
          [
            120.39626,
            22.48804
          ],
          [
            120.39627,
            22.48796
          ],
          [
            120.39629,
            22.48789
          ],
          [
            120.39632,
            22.48783
          ],
          [
            120.39635,
            22.48777
          ],
          [
            120.39638,
            22.48774
          ],
          [
            120.39646,
            22.48766
          ],
          [
            120.39678,
            22.48746
          ],
          [
            120.39699,
            22.48732
          ],
          [
            120.39712,
            22.48723
          ],
          [
            120.39737,
            22.48714
          ],
          [
            120.39748,
            22.48709
          ],
          [
            120.39748,
            22.48709
          ],
          [
            120.3977,
            22.48696
          ],
          [
            120.3985,
            22.48653
          ],
          [
            120.39875,
            22.48635
          ],
          [
            120.3989,
            22.48624
          ],
          [
            120.39898,
            22.4862
          ],
          [
            120.39915,
            22.48612
          ],
          [
            120.39933,
            22.48603
          ],
          [
            120.39939,
            22.486
          ],
          [
            120.3995,
            22.48594
          ],
          [
            120.40003,
            22.48571
          ],
          [
            120.40003,
            22.48571
          ],
          [
            120.40013,
            22.48567
          ],
          [
            120.40018,
            22.48565
          ],
          [
            120.4003,
            22.48559
          ],
          [
            120.40076,
            22.48539
          ],
          [
            120.40158,
            22.48501
          ],
          [
            120.40171,
            22.48495
          ],
          [
            120.40225,
            22.48471
          ],
          [
            120.40359,
            22.48411
          ],
          [
            120.40385,
            22.48399
          ],
          [
            120.40662,
            22.48278
          ],
          [
            120.40665,
            22.48277
          ],
          [
            120.40744,
            22.48241
          ],
          [
            120.40778,
            22.48226
          ],
          [
            120.40807,
            22.48212
          ],
          [
            120.40848,
            22.48192
          ],
          [
            120.4088,
            22.48179
          ],
          [
            120.40896,
            22.48173
          ],
          [
            120.40902,
            22.48171
          ],
          [
            120.40907,
            22.48169
          ],
          [
            120.40927,
            22.48167
          ],
          [
            120.40958,
            22.48165
          ],
          [
            120.40958,
            22.48165
          ],
          [
            120.40963,
            22.48164
          ],
          [
            120.40997,
            22.48164
          ],
          [
            120.40994,
            22.48202
          ],
          [
            120.40988,
            22.48246
          ],
          [
            120.40985,
            22.48296
          ],
          [
            120.40985,
            22.48296
          ],
          [
            120.40983,
            22.48329
          ],
          [
            120.4098,
            22.48353
          ],
          [
            120.40974,
            22.48398
          ],
          [
            120.40972,
            22.48413
          ],
          [
            120.40965,
            22.48444
          ],
          [
            120.40958,
            22.48477
          ],
          [
            120.40936,
            22.4853
          ],
          [
            120.4091,
            22.48604
          ],
          [
            120.40843,
            22.48779
          ],
          [
            120.4077,
            22.4878
          ],
          [
            120.407,
            22.4878
          ],
          [
            120.4063,
            22.4878
          ],
          [
            120.40545,
            22.48781
          ],
          [
            120.40459,
            22.48781
          ],
          [
            120.40351,
            22.48782
          ],
          [
            120.40187,
            22.48783
          ],
          [
            120.40173,
            22.48783
          ],
          [
            120.40155,
            22.48784
          ],
          [
            120.40137,
            22.48788
          ],
          [
            120.40131,
            22.48791
          ],
          [
            120.40124,
            22.48794
          ],
          [
            120.40115,
            22.48801
          ],
          [
            120.40104,
            22.48811
          ],
          [
            120.40093,
            22.48826
          ],
          [
            120.40079,
            22.48849
          ],
          [
            120.40071,
            22.48861
          ],
          [
            120.4006,
            22.48877
          ],
          [
            120.40056,
            22.48883
          ],
          [
            120.4005,
            22.48889
          ],
          [
            120.40043,
            22.48893
          ],
          [
            120.40037,
            22.48897
          ],
          [
            120.4003,
            22.489
          ],
          [
            120.4002,
            22.48904
          ],
          [
            120.39945,
            22.48926
          ],
          [
            120.39917,
            22.48934
          ],
          [
            120.39898,
            22.48939
          ],
          [
            120.39876,
            22.48945
          ],
          [
            120.3982,
            22.48968
          ],
          [
            120.39752,
            22.48992
          ],
          [
            120.39735,
            22.48997
          ]
        ]
      }
    },
    {
      "type": "Feature",
      "properties": {
        "feature_type": "route",
        "ref": "紅3",
        "name": "紅3",
        "name_en": "紅3",
        "color": "#86198f",
        "direction": 1
      },
      "geometry": {
        "type": "LineString",
        "coordinates": [
          [
            120.39721,
            22.49052
          ],
          [
            120.39733,
            22.49087
          ],
          [
            120.39752,
            22.4914
          ],
          [
            120.39755,
            22.49147
          ],
          [
            120.39787,
            22.49238
          ],
          [
            120.39815,
            22.49316
          ],
          [
            120.39821,
            22.49334
          ],
          [
            120.39825,
            22.49346
          ],
          [
            120.39839,
            22.49388
          ],
          [
            120.3985,
            22.49426
          ],
          [
            120.39853,
            22.49439
          ],
          [
            120.39855,
            22.49454
          ],
          [
            120.39854,
            22.49466
          ],
          [
            120.39853,
            22.49479
          ],
          [
            120.3985,
            22.49502
          ],
          [
            120.39842,
            22.4954
          ],
          [
            120.39836,
            22.49567
          ],
          [
            120.39798,
            22.49719
          ],
          [
            120.39784,
            22.49774
          ],
          [
            120.39781,
            22.49791
          ],
          [
            120.39773,
            22.49829
          ],
          [
            120.39773,
            22.49837
          ],
          [
            120.39774,
            22.49847
          ],
          [
            120.39787,
            22.49984
          ],
          [
            120.39788,
            22.49994
          ],
          [
            120.39788,
            22.49994
          ],
          [
            120.39793,
            22.50047
          ],
          [
            120.39796,
            22.50097
          ],
          [
            120.39784,
            22.50218
          ],
          [
            120.39767,
            22.50217
          ],
          [
            120.39778,
            22.50138
          ],
          [
            120.39998,
            22.50139
          ],
          [
            120.4001,
            22.50082
          ],
          [
            120.40021,
            22.50083
          ],
          [
            120.40071,
            22.50087
          ],
          [
            120.40096,
            22.50088
          ],
          [
            120.40141,
            22.50082
          ],
          [
            120.40167,
            22.50075
          ],
          [
            120.40199,
            22.50065
          ],
          [
            120.40221,
            22.50057
          ],
          [
            120.40248,
            22.50048
          ],
          [
            120.40273,
            22.50039
          ],
          [
            120.40293,
            22.50033
          ],
          [
            120.40412,
            22.49991
          ],
          [
            120.40426,
            22.49986
          ],
          [
            120.40466,
            22.49968
          ],
          [
            120.40498,
            22.49956
          ],
          [
            120.40499,
            22.49956
          ],
          [
            120.40579,
            22.49926
          ],
          [
            120.40608,
            22.49915
          ],
          [
            120.40633,
            22.49907
          ],
          [
            120.40635,
            22.49914
          ],
          [
            120.40625,
            22.49917
          ],
          [
            120.4061,
            22.49922
          ],
          [
            120.40609,
            22.49926
          ],
          [
            120.40608,
            22.49928
          ],
          [
            120.40606,
            22.4993
          ],
          [
            120.40603,
            22.49932
          ],
          [
            120.40596,
            22.49935
          ],
          [
            120.40596,
            22.49935
          ],
          [
            120.40574,
            22.49945
          ],
          [
            120.40565,
            22.49948
          ],
          [
            120.40487,
            22.49976
          ],
          [
            120.4048,
            22.49979
          ],
          [
            120.40473,
            22.49981
          ],
          [
            120.40444,
            22.49994
          ],
          [
            120.40419,
            22.50004
          ],
          [
            120.40391,
            22.50058
          ],
          [
            120.40382,
            22.50075
          ],
          [
            120.40369,
            22.5011
          ],
          [
            120.40356,
            22.50138
          ],
          [
            120.40346,
            22.50158
          ],
          [
            120.40339,
            22.50175
          ],
          [
            120.40333,
            22.50196
          ],
          [
            120.40318,
            22.50231
          ],
          [
            120.4031,
            22.5025
          ],
          [
            120.40301,
            22.50261
          ],
          [
            120.40296,
            22.50267
          ],
          [
            120.40287,
            22.50273
          ],
          [
            120.4028,
            22.50277
          ],
          [
            120.40279,
            22.50278
          ],
          [
            120.40274,
            22.50281
          ],
          [
            120.40268,
            22.50284
          ],
          [
            120.40262,
            22.50286
          ],
          [
            120.4026,
            22.50287
          ],
          [
            120.40246,
            22.50292
          ],
          [
            120.40244,
            22.50293
          ],
          [
            120.40227,
            22.50301
          ],
          [
            120.40213,
            22.50308
          ],
          [
            120.40208,
            22.5031
          ],
          [
            120.40202,
            22.50314
          ],
          [
            120.40202,
            22.50314
          ],
          [
            120.40174,
            22.50331
          ],
          [
            120.40166,
            22.50336
          ],
          [
            120.40122,
            22.50369
          ],
          [
            120.40083,
            22.50394
          ],
          [
            120.4008,
            22.50396
          ],
          [
            120.40059,
            22.50401
          ],
          [
            120.40028,
            22.50401
          ],
          [
            120.40023,
            22.50401
          ],
          [
            120.40006,
            22.50396
          ],
          [
            120.39944,
            22.50379
          ],
          [
            120.39929,
            22.50377
          ],
          [
            120.39927,
            22.50377
          ],
          [
            120.39844,
            22.50377
          ],
          [
            120.39776,
            22.50382
          ],
          [
            120.39771,
            22.50402
          ],
          [
            120.39766,
            22.50418
          ],
          [
            120.39757,
            22.50442
          ],
          [
            120.39745,
            22.5047
          ],
          [
            120.39725,
            22.50512
          ],
          [
            120.39716,
            22.50532
          ],
          [
            120.39704,
            22.50558
          ],
          [
            120.39682,
            22.50611
          ],
          [
            120.39672,
            22.50636
          ],
          [
            120.39665,
            22.50658
          ],
          [
            120.39658,
            22.50686
          ],
          [
            120.39657,
            22.50691
          ],
          [
            120.39657,
            22.50691
          ],
          [
            120.39652,
            22.50718
          ],
          [
            120.39641,
            22.50766
          ],
          [
            120.39622,
            22.50848
          ],
          [
            120.39609,
            22.50915
          ],
          [
            120.39603,
            22.50948
          ],
          [
            120.396,
            22.50979
          ],
          [
            120.396,
            22.51007
          ],
          [
            120.39604,
            22.51079
          ],
          [
            120.39615,
            22.51228
          ],
          [
            120.39616,
            22.51255
          ],
          [
            120.39616,
            22.51258
          ],
          [
            120.39612,
            22.51297
          ],
          [
            120.3961,
            22.51319
          ],
          [
            120.39592,
            22.51316
          ],
          [
            120.39552,
            22.51312
          ],
          [
            120.39498,
            22.51306
          ],
          [
            120.39493,
            22.51263
          ],
          [
            120.39493,
            22.51263
          ],
          [
            120.39493,
            22.51259
          ],
          [
            120.39489,
            22.51221
          ],
          [
            120.39474,
            22.51091
          ],
          [
            120.39466,
            22.51036
          ],
          [
            120.39465,
            22.51024
          ],
          [
            120.39463,
            22.50995
          ],
          [
            120.39462,
            22.50987
          ],
          [
            120.39461,
            22.50979
          ],
          [
            120.39459,
            22.50966
          ],
          [
            120.39455,
            22.50935
          ],
          [
            120.39455,
            22.50918
          ],
          [
            120.39456,
            22.50898
          ],
          [
            120.3946,
            22.50883
          ],
          [
            120.39479,
            22.50804
          ],
          [
            120.3949,
            22.50759
          ],
          [
            120.3949,
            22.50759
          ],
          [
            120.39496,
            22.50743
          ],
          [
            120.39504,
            22.50721
          ],
          [
            120.39506,
            22.50714
          ],
          [
            120.39508,
            22.507
          ],
          [
            120.39579,
            22.50709
          ],
          [
            120.39618,
            22.50713
          ],
          [
            120.39638,
            22.50715
          ],
          [
            120.39643,
            22.50689
          ],
          [
            120.39652,
            22.50659
          ],
          [
            120.39671,
            22.50611
          ],
          [
            120.39671,
            22.50611
          ],
          [
            120.39673,
            22.50607
          ],
          [
            120.39694,
            22.50556
          ],
          [
            120.39718,
            22.50507
          ],
          [
            120.3974,
            22.50453
          ],
          [
            120.39753,
            22.5042
          ],
          [
            120.39762,
            22.50379
          ],
          [
            120.39768,
            22.50293
          ],
          [
            120.39774,
            22.50215
          ],
          [
            120.39781,
            22.50167
          ],
          [
            120.39781,
            22.50157
          ],
          [
            120.39781,
            22.50157
          ],
          [
            120.39783,
            22.50136
          ],
          [
            120.39786,
            22.50083
          ],
          [
            120.39787,
            22.50074
          ],
          [
            120.3973,
            22.5007
          ],
          [
            120.3965,
            22.50062
          ],
          [
            120.39632,
            22.5006
          ],
          [
            120.39506,
            22.50044
          ],
          [
            120.39499,
            22.50043
          ],
          [
            120.39499,
            22.50043
          ],
          [
            120.3948,
            22.5004
          ],
          [
            120.39458,
            22.50036
          ],
          [
            120.394,
            22.50028
          ],
          [
            120.39378,
            22.50026
          ]
        ]
      }
    },
    {
      "type": "Feature",
      "properties": {
        "feature_type": "station",
        "ref": "KHH115201327681",
        "name": "新光人壽",
        "name_en": "Shin Kong Life Insurance",
        "line": "紅3",
        "color": "#86198f",
        "direction": 0
      },
      "geometry": {
        "type": "Point",
        "coordinates": [
          120.392741,
          22.49993
        ]
      }
    },
    {
      "type": "Feature",
      "properties": {
        "feature_type": "station",
        "ref": "KHH115201327691",
        "name": "西溪路",
        "name_en": "Sisi Rd.",
        "line": "紅3",
        "color": "#86198f",
        "direction": 0
      },
      "geometry": {
        "type": "Point",
        "coordinates": [
          120.393091,
          22.490245
        ]
      }
    },
    {
      "type": "Feature",
      "properties": {
        "feature_type": "station",
        "ref": "KHH115201327701",
        "name": "中芸國小(側門)",
        "name_en": "Jhongyun Elementary School (Side Door)",
        "line": "紅3",
        "color": "#86198f",
        "direction": 0
      },
      "geometry": {
        "type": "Point",
        "coordinates": [
          120.396018,
          22.48818
        ]
      }
    },
    {
      "type": "Feature",
      "properties": {
        "feature_type": "station",
        "ref": "KHH115201327711",
        "name": "鳳芸站",
        "name_en": "Fongyun Station",
        "line": "紅3",
        "color": "#86198f",
        "direction": 0
      },
      "geometry": {
        "type": "Point",
        "coordinates": [
          120.397477,
          22.487041
        ]
      }
    },
    {
      "type": "Feature",
      "properties": {
        "feature_type": "station",
        "ref": "KHH115201327721",
        "name": "漁港公園",
        "name_en": "Fish Port Park",
        "line": "紅3",
        "color": "#86198f",
        "direction": 0
      },
      "geometry": {
        "type": "Point",
        "coordinates": [
          120.400029,
          22.485707
        ]
      }
    },
    {
      "type": "Feature",
      "properties": {
        "feature_type": "station",
        "ref": "KHH115201327731",
        "name": "北汕二路",
        "name_en": "Beishan 2nd Rd.",
        "line": "紅3",
        "color": "#86198f",
        "direction": 0
      },
      "geometry": {
        "type": "Point",
        "coordinates": [
          120.406623,
          22.482721
        ]
      }
    },
    {
      "type": "Feature",
      "properties": {
        "feature_type": "station",
        "ref": "KHH115201327741",
        "name": "汕尾",
        "name_en": "Shanwei",
        "line": "紅3",
        "color": "#86198f",
        "direction": 0
      },
      "geometry": {
        "type": "Point",
        "coordinates": [
          120.409576,
          22.481589
        ]
      }
    },
    {
      "type": "Feature",
      "properties": {
        "feature_type": "station",
        "ref": "KHH115201327751",
        "name": "北汕里",
        "name_en": "Beishan Village",
        "line": "紅3",
        "color": "#86198f",
        "direction": 0
      },
      "geometry": {
        "type": "Point",
        "coordinates": [
          120.409905,
          22.483267
        ]
      }
    },
    {
      "type": "Feature",
      "properties": {
        "feature_type": "station",
        "ref": "KHH115201327761",
        "name": "中芸",
        "name_en": "Jhongyun",
        "line": "紅3",
        "color": "#86198f",
        "direction": 0
      },
      "geometry": {
        "type": "Point",
        "coordinates": [
          120.397291,
          22.490039
        ]
      }
    },
    {
      "type": "Feature",
      "properties": {
        "feature_type": "station",
        "ref": "KHH115201327772",
        "name": "中芸",
        "name_en": "Jhongyun",
        "line": "紅3",
        "color": "#86198f",
        "direction": 1
      },
      "geometry": {
        "type": "Point",
        "coordinates": [
          120.397399,
          22.490108
        ]
      }
    },
    {
      "type": "Feature",
      "properties": {
        "feature_type": "station",
        "ref": "KHH115201327782",
        "name": "國泰人壽",
        "name_en": "Cathay Life Insurance Co., Ltd.",
        "line": "紅3",
        "color": "#86198f",
        "direction": 1
      },
      "geometry": {
        "type": "Point",
        "coordinates": [
          120.397878,
          22.501521
        ]
      }
    },
    {
      "type": "Feature",
      "properties": {
        "feature_type": "station",
        "ref": "KHH115201327792",
        "name": "林園工業區",
        "name_en": "Linyuan Industrial Zone",
        "line": "紅3",
        "color": "#86198f",
        "direction": 1
      },
      "geometry": {
        "type": "Point",
        "coordinates": [
          120.40601,
          22.499455
        ]
      }
    },
    {
      "type": "Feature",
      "properties": {
        "feature_type": "station",
        "ref": "KHH115201327802",
        "name": "五塊厝",
        "name_en": "Wukuaicuo",
        "line": "紅3",
        "color": "#86198f",
        "direction": 1
      },
      "geometry": {
        "type": "Point",
        "coordinates": [
          120.402045,
          22.503183
        ]
      }
    },
    {
      "type": "Feature",
      "properties": {
        "feature_type": "station",
        "ref": "KHH115201327812",
        "name": "鳳林路一段",
        "name_en": "Fonglin Rd. Sec. 1",
        "line": "紅3",
        "color": "#86198f",
        "direction": 1
      },
      "geometry": {
        "type": "Point",
        "coordinates": [
          120.396692,
          22.506928
        ]
      }
    },
    {
      "type": "Feature",
      "properties": {
        "feature_type": "station",
        "ref": "KHH115201327822",
        "name": "林園高中",
        "name_en": "Linyuan Senior High School",
        "line": "紅3",
        "color": "#86198f",
        "direction": 1
      },
      "geometry": {
        "type": "Point",
        "coordinates": [
          120.395516,
          22.513137
        ]
      }
    },
    {
      "type": "Feature",
      "properties": {
        "feature_type": "station",
        "ref": "KHH115201327832",
        "name": "林園區公所",
        "name_en": "Linyuan District Office",
        "line": "紅3",
        "color": "#86198f",
        "direction": 1
      },
      "geometry": {
        "type": "Point",
        "coordinates": [
          120.394776,
          22.507824
        ]
      }
    },
    {
      "type": "Feature",
      "properties": {
        "feature_type": "station",
        "ref": "KHH115201327842",
        "name": "鳳林路一段",
        "name_en": "Fonglin Rd. Sec. 1",
        "line": "紅3",
        "color": "#86198f",
        "direction": 1
      },
      "geometry": {
        "type": "Point",
        "coordinates": [
          120.39668,
          22.5061
        ]
      }
    },
    {
      "type": "Feature",
      "properties": {
        "feature_type": "station",
        "ref": "KHH115201327852",
        "name": "國泰人壽",
        "name_en": "Cathay Life Insurance Co., Ltd.",
        "line": "紅3",
        "color": "#86198f",
        "direction": 1
      },
      "geometry": {
        "type": "Point",
        "coordinates": [
          120.39771,
          22.50156
        ]
      }
    },
    {
      "type": "Feature",
      "properties": {
        "feature_type": "station",
        "ref": "KHH115201327862",
        "name": "幸福公園",
        "name_en": "SingFu Park",
        "line": "紅3",
        "color": "#86198f",
        "direction": 1
      },
      "geometry": {
        "type": "Point",
        "coordinates": [
          120.394982,
          22.500544
        ]
      }
    },
    {
      "type": "Feature",
      "properties": {
        "feature_type": "station",
        "ref": "KHH115201327872",
        "name": "新光人壽",
        "name_en": "Shin Kong Life Insurance",
        "line": "紅3",
        "color": "#86198f",
        "direction": 1
      },
      "geometry": {
        "type": "Point",
        "coordinates": [
          120.392958,
          22.500327
        ]
      }
    }
  ]
}
