{
  "type": "FeatureCollection",
  "name": "紅70A",
  "properties": {
    "id": "kaohsiung_hong70a",
    "name": "紅70A",
    "name_en": "紅70A",
    "ref": "紅70A",
    "color": "#9f1239",
    "city_id": "Kaohsiung",
    "source": "TDX Bus Shape / StopOfRoute",
    "official_map_url": "http://ibus.tbkc.gov.tw/cms/api/route/253/map/1804/image",
    "operator_id": "10360",
    "operator": "港都客運",
    "operator_en": "Great-City-Life Bus Co., Ltd."
  },
  "features": [
    {
      "type": "Feature",
      "properties": {
        "feature_type": "route",
        "ref": "紅70A",
        "name": "紅70A",
        "name_en": "紅70A",
        "color": "#9f1239",
        "direction": 0
      },
      "geometry": {
        "type": "LineString",
        "coordinates": [
          [
            120.30048,
            22.78059
          ],
          [
            120.30021,
            22.78115
          ],
          [
            120.30032,
            22.78177
          ],
          [
            120.30012,
            22.7823
          ],
          [
            120.2994,
            22.78245
          ],
          [
            120.29803,
            22.78217
          ],
          [
            120.29713,
            22.78456
          ],
          [
            120.29653,
            22.78893
          ],
          [
            120.29608,
            22.79191
          ],
          [
            120.2989,
            22.79227
          ],
          [
            120.29976,
            22.79236
          ],
          [
            120.29983,
            22.79241
          ],
          [
            120.29978,
            22.79294
          ],
          [
            120.29967,
            22.79298
          ],
          [
            120.29893,
            22.79291
          ],
          [
            120.29901,
            22.79226
          ],
          [
            120.29611,
            22.79197
          ],
          [
            120.29585,
            22.79418
          ],
          [
            120.29564,
            22.79642
          ],
          [
            120.29549,
            22.79731
          ],
          [
            120.29482,
            22.7996
          ],
          [
            120.29456,
            22.79981
          ],
          [
            120.29627,
            22.80299
          ],
          [
            120.2993,
            22.80911
          ],
          [
            120.30056,
            22.81227
          ],
          [
            120.30184,
            22.81565
          ],
          [
            120.30258,
            22.82021
          ],
          [
            120.30273,
            22.82071
          ],
          [
            120.30303,
            22.82123
          ],
          [
            120.30302,
            22.82135
          ],
          [
            120.30303,
            22.82123
          ],
          [
            120.30346,
            22.82163
          ],
          [
            120.30414,
            22.82191
          ],
          [
            120.30555,
            22.82205
          ],
          [
            120.30604,
            22.82227
          ],
          [
            120.31326,
            22.82909
          ],
          [
            120.31397,
            22.83015
          ],
          [
            120.31729,
            22.83589
          ],
          [
            120.31963,
            22.84119
          ],
          [
            120.32035,
            22.84223
          ],
          [
            120.32185,
            22.84382
          ],
          [
            120.32294,
            22.8452
          ],
          [
            120.32335,
            22.84586
          ],
          [
            120.32376,
            22.84677
          ],
          [
            120.32493,
            22.85086
          ],
          [
            120.32482,
            22.85331
          ],
          [
            120.3238,
            22.86785
          ],
          [
            120.32517,
            22.8712
          ],
          [
            120.32844,
            22.87872
          ],
          [
            120.32967,
            22.87897
          ],
          [
            120.33201,
            22.87914
          ],
          [
            120.33226,
            22.88004
          ],
          [
            120.33231,
            22.88065
          ],
          [
            120.33422,
            22.88081
          ],
          [
            120.34012,
            22.88171
          ],
          [
            120.34178,
            22.88171
          ],
          [
            120.34531,
            22.88087
          ],
          [
            120.34591,
            22.88063
          ],
          [
            120.35628,
            22.87441
          ],
          [
            120.35696,
            22.87413
          ]
        ]
      }
    },
    {
      "type": "Feature",
      "properties": {
        "feature_type": "route",
        "ref": "紅70A",
        "name": "紅70A",
        "name_en": "紅70A",
        "color": "#9f1239",
        "direction": 1
      },
      "geometry": {
        "type": "LineString",
        "coordinates": [
          [
            120.35928,
            22.871
          ],
          [
            120.35924,
            22.87117
          ],
          [
            120.35952,
            22.8718
          ],
          [
            120.35904,
            22.87293
          ],
          [
            120.35919,
            22.87264
          ],
          [
            120.35988,
            22.87283
          ],
          [
            120.36028,
            22.87303
          ],
          [
            120.36041,
            22.87335
          ],
          [
            120.36035,
            22.87389
          ],
          [
            120.35988,
            22.87506
          ],
          [
            120.3593,
            22.87405
          ],
          [
            120.35891,
            22.8738
          ],
          [
            120.35814,
            22.87381
          ]
        ]
      }
    },
    {
      "type": "Feature",
      "properties": {
        "feature_type": "route",
        "ref": "紅70A",
        "name": "紅70A",
        "name_en": "紅70A",
        "color": "#9f1239",
        "direction": 1
      },
      "geometry": {
        "type": "LineString",
        "coordinates": [
          [
            120.29934,
            22.77868
          ],
          [
            120.30096,
            22.77937
          ],
          [
            120.30101,
            22.77946
          ]
        ]
      }
    },
    {
      "type": "Feature",
      "properties": {
        "feature_type": "station",
        "ref": "KHH100253133261",
        "name": "捷運岡山高醫站",
        "name_en": "MRT Kaohsiung Medical University Gangshan Hospital",
        "line": "紅70A",
        "color": "#9f1239",
        "direction": 0
      },
      "geometry": {
        "type": "Point",
        "coordinates": [
          120.300583,
          22.780683
        ]
      }
    },
    {
      "type": "Feature",
      "properties": {
        "feature_type": "station",
        "ref": "KHH100253109531",
        "name": "岡山文化中心",
        "name_en": "Gangshan Cultural Center",
        "line": "紅70A",
        "color": "#9f1239",
        "direction": 0
      },
      "geometry": {
        "type": "Point",
        "coordinates": [
          120.297341,
          22.784204
        ]
      }
    },
    {
      "type": "Feature",
      "properties": {
        "feature_type": "station",
        "ref": "KHH100253179711",
        "name": "河堤路口(岡山路)",
        "name_en": "Heti Rd. Intersection(Gangshan Rd.)",
        "line": "紅70A",
        "color": "#9f1239",
        "direction": 0
      },
      "geometry": {
        "type": "Point",
        "coordinates": [
          120.296937,
          22.786144
        ]
      }
    },
    {
      "type": "Feature",
      "properties": {
        "feature_type": "station",
        "ref": "KHH100253109641",
        "name": "文化街口",
        "name_en": "Wunhua St. Intersection",
        "line": "紅70A",
        "color": "#9f1239",
        "direction": 0
      },
      "geometry": {
        "type": "Point",
        "coordinates": [
          120.296628,
          22.788517
        ]
      }
    },
    {
      "type": "Feature",
      "properties": {
        "feature_type": "station",
        "ref": "KHH10025384701",
        "name": "移民署",
        "name_en": "National Immigration Agency",
        "line": "紅70A",
        "color": "#9f1239",
        "direction": 0
      },
      "geometry": {
        "type": "Point",
        "coordinates": [
          120.296346,
          22.791317
        ]
      }
    },
    {
      "type": "Feature",
      "properties": {
        "feature_type": "station",
        "ref": "KHH100253173691",
        "name": "臺鐵岡山車站(捷運岡山車站)",
        "name_en": "TRA Gangshan Station(MRT Gangshan Station)",
        "line": "紅70A",
        "color": "#9f1239",
        "direction": 0
      },
      "geometry": {
        "type": "Point",
        "coordinates": [
          120.299489,
          22.792248
        ]
      }
    },
    {
      "type": "Feature",
      "properties": {
        "feature_type": "station",
        "ref": "KHH100253111441",
        "name": "岡山郵局(民有路)",
        "name_en": "Gangshan Post Office(Minyou Rd.)",
        "line": "紅70A",
        "color": "#9f1239",
        "direction": 0
      },
      "geometry": {
        "type": "Point",
        "coordinates": [
          120.29662,
          22.792084
        ]
      }
    },
    {
      "type": "Feature",
      "properties": {
        "feature_type": "station",
        "ref": "KHH100253119531",
        "name": "文賢市場",
        "name_en": "Wunsian Market",
        "line": "紅70A",
        "color": "#9f1239",
        "direction": 0
      },
      "geometry": {
        "type": "Point",
        "coordinates": [
          120.295893,
          22.794209
        ]
      }
    },
    {
      "type": "Feature",
      "properties": {
        "feature_type": "station",
        "ref": "KHH100253107781",
        "name": "岡山農會",
        "name_en": "Gangshan township Farmers' Association",
        "line": "紅70A",
        "color": "#9f1239",
        "direction": 0
      },
      "geometry": {
        "type": "Point",
        "coordinates": [
          120.295763,
          22.795534
        ]
      }
    },
    {
      "type": "Feature",
      "properties": {
        "feature_type": "station",
        "ref": "KHH100253107811",
        "name": "岡山區公所",
        "name_en": "Gangshan District Office",
        "line": "紅70A",
        "color": "#9f1239",
        "direction": 0
      },
      "geometry": {
        "type": "Point",
        "coordinates": [
          120.295142,
          22.798635
        ]
      }
    },
    {
      "type": "Feature",
      "properties": {
        "feature_type": "station",
        "ref": "KHH100253110141",
        "name": "成功路",
        "name_en": "Chenggong Rd.",
        "line": "紅70A",
        "color": "#9f1239",
        "direction": 0
      },
      "geometry": {
        "type": "Point",
        "coordinates": [
          120.29547,
          22.801444
        ]
      }
    },
    {
      "type": "Feature",
      "properties": {
        "feature_type": "station",
        "ref": "KHH100253110151",
        "name": "台上街",
        "name_en": "Taishang St.",
        "line": "紅70A",
        "color": "#9f1239",
        "direction": 0
      },
      "geometry": {
        "type": "Point",
        "coordinates": [
          120.297261,
          22.804892
        ]
      }
    },
    {
      "type": "Feature",
      "properties": {
        "feature_type": "station",
        "ref": "KHH100253110161",
        "name": "台上",
        "name_en": "Taishang",
        "line": "紅70A",
        "color": "#9f1239",
        "direction": 0
      },
      "geometry": {
        "type": "Point",
        "coordinates": [
          120.298804,
          22.808042
        ]
      }
    },
    {
      "type": "Feature",
      "properties": {
        "feature_type": "station",
        "ref": "KHH100253110171",
        "name": "五甲尾加油站",
        "name_en": "Wujiawei Gas Station",
        "line": "紅70A",
        "color": "#9f1239",
        "direction": 0
      },
      "geometry": {
        "type": "Point",
        "coordinates": [
          120.300815,
          22.81287
        ]
      }
    },
    {
      "type": "Feature",
      "properties": {
        "feature_type": "station",
        "ref": "KHH100253184911",
        "name": "聖母宮",
        "name_en": "Shengmu Temple",
        "line": "紅70A",
        "color": "#9f1239",
        "direction": 0
      },
      "geometry": {
        "type": "Point",
        "coordinates": [
          120.302087,
          22.816526
        ]
      }
    },
    {
      "type": "Feature",
      "properties": {
        "feature_type": "station",
        "ref": "KHH100253110181",
        "name": "南嘉興",
        "name_en": "South Jiasing",
        "line": "紅70A",
        "color": "#9f1239",
        "direction": 0
      },
      "geometry": {
        "type": "Point",
        "coordinates": [
          120.302445,
          22.819098
        ]
      }
    },
    {
      "type": "Feature",
      "properties": {
        "feature_type": "station",
        "ref": "KHH100253110191",
        "name": "五甲尾",
        "name_en": "Wujiawei",
        "line": "紅70A",
        "color": "#9f1239",
        "direction": 0
      },
      "geometry": {
        "type": "Point",
        "coordinates": [
          120.303176,
          22.821342
        ]
      }
    },
    {
      "type": "Feature",
      "properties": {
        "feature_type": "station",
        "ref": "KHH100253110201",
        "name": "嘉興國小",
        "name_en": "Jia Xing Elementary School",
        "line": "紅70A",
        "color": "#9f1239",
        "direction": 0
      },
      "geometry": {
        "type": "Point",
        "coordinates": [
          120.30554,
          22.822
        ]
      }
    },
    {
      "type": "Feature",
      "properties": {
        "feature_type": "station",
        "ref": "KHH100253110211",
        "name": "潭底",
        "name_en": "Tandi",
        "line": "紅70A",
        "color": "#9f1239",
        "direction": 0
      },
      "geometry": {
        "type": "Point",
        "coordinates": [
          120.309914,
          22.825909
        ]
      }
    },
    {
      "type": "Feature",
      "properties": {
        "feature_type": "station",
        "ref": "KHH100253179551",
        "name": "嘉峰里活動中心",
        "name_en": "Jiafong Village Community Center",
        "line": "紅70A",
        "color": "#9f1239",
        "direction": 0
      },
      "geometry": {
        "type": "Point",
        "coordinates": [
          120.312098,
          22.827928
        ]
      }
    },
    {
      "type": "Feature",
      "properties": {
        "feature_type": "station",
        "ref": "KHH100253110231",
        "name": "嘉峰",
        "name_en": "Jiafong",
        "line": "紅70A",
        "color": "#9f1239",
        "direction": 0
      },
      "geometry": {
        "type": "Point",
        "coordinates": [
          120.313815,
          22.829804
        ]
      }
    },
    {
      "type": "Feature",
      "properties": {
        "feature_type": "station",
        "ref": "KHH100253169731",
        "name": "田厝",
        "name_en": "Tiancuo",
        "line": "紅70A",
        "color": "#9f1239",
        "direction": 0
      },
      "geometry": {
        "type": "Point",
        "coordinates": [
          120.318015,
          22.83723
        ]
      }
    },
    {
      "type": "Feature",
      "properties": {
        "feature_type": "station",
        "ref": "KHH100253109381",
        "name": "土庫(阿蓮)",
        "name_en": "Tuku(Alian)",
        "line": "紅70A",
        "color": "#9f1239",
        "direction": 0
      },
      "geometry": {
        "type": "Point",
        "coordinates": [
          120.320733,
          22.842469
        ]
      }
    },
    {
      "type": "Feature",
      "properties": {
        "feature_type": "station",
        "ref": "KHH100253109391",
        "name": "瓦窯",
        "name_en": "Tile factory",
        "line": "紅70A",
        "color": "#9f1239",
        "direction": 0
      },
      "geometry": {
        "type": "Point",
        "coordinates": [
          120.323512,
          22.846146
        ]
      }
    },
    {
      "type": "Feature",
      "properties": {
        "feature_type": "station",
        "ref": "KHH100253110241",
        "name": "復安國小",
        "name_en": "Fu-An Elementary School",
        "line": "紅70A",
        "color": "#9f1239",
        "direction": 0
      },
      "geometry": {
        "type": "Point",
        "coordinates": [
          120.324396,
          22.848856
        ]
      }
    },
    {
      "type": "Feature",
      "properties": {
        "feature_type": "station",
        "ref": "KHH100253110251",
        "name": "九鬮",
        "name_en": "Jioujiou",
        "line": "紅70A",
        "color": "#9f1239",
        "direction": 0
      },
      "geometry": {
        "type": "Point",
        "coordinates": [
          120.324921,
          22.850694
        ]
      }
    },
    {
      "type": "Feature",
      "properties": {
        "feature_type": "station",
        "ref": "KHH100253110261",
        "name": "埤子尾(中山路)",
        "name_en": "Pizihwei(Jhongshan Rd.)",
        "line": "紅70A",
        "color": "#9f1239",
        "direction": 0
      },
      "geometry": {
        "type": "Point",
        "coordinates": [
          120.324464,
          22.859848
        ]
      }
    },
    {
      "type": "Feature",
      "properties": {
        "feature_type": "station",
        "ref": "KHH100253110271",
        "name": "中甲路口",
        "name_en": "Jhongjia Rd. Intersection",
        "line": "紅70A",
        "color": "#9f1239",
        "direction": 0
      },
      "geometry": {
        "type": "Point",
        "coordinates": [
          120.323875,
          22.86718
        ]
      }
    },
    {
      "type": "Feature",
      "properties": {
        "feature_type": "station",
        "ref": "KHH100253110281",
        "name": "光德寺",
        "name_en": "Guangde Temple",
        "line": "紅70A",
        "color": "#9f1239",
        "direction": 0
      },
      "geometry": {
        "type": "Point",
        "coordinates": [
          120.325226,
          22.871258
        ]
      }
    },
    {
      "type": "Feature",
      "properties": {
        "feature_type": "station",
        "ref": "KHH100253110291",
        "name": "南蓮",
        "name_en": "Nanlian",
        "line": "紅70A",
        "color": "#9f1239",
        "direction": 0
      },
      "geometry": {
        "type": "Point",
        "coordinates": [
          120.326874,
          22.87491
        ]
      }
    },
    {
      "type": "Feature",
      "properties": {
        "feature_type": "station",
        "ref": "KHH100253110311",
        "name": "阿蓮中山路",
        "name_en": "Alian Jhongshan Rd.",
        "line": "紅70A",
        "color": "#9f1239",
        "direction": 0
      },
      "geometry": {
        "type": "Point",
        "coordinates": [
          120.327923,
          22.877402
        ]
      }
    },
    {
      "type": "Feature",
      "properties": {
        "feature_type": "station",
        "ref": "KHH100253110321",
        "name": "阿蓮分駐所",
        "name_en": "Alian Police? Station",
        "line": "紅70A",
        "color": "#9f1239",
        "direction": 0
      },
      "geometry": {
        "type": "Point",
        "coordinates": [
          120.329304,
          22.878789
        ]
      }
    },
    {
      "type": "Feature",
      "properties": {
        "feature_type": "station",
        "ref": "KHH100253110331",
        "name": "阿蓮",
        "name_en": "Alian",
        "line": "紅70A",
        "color": "#9f1239",
        "direction": 0
      },
      "geometry": {
        "type": "Point",
        "coordinates": [
          120.331254,
          22.878983
        ]
      }
    },
    {
      "type": "Feature",
      "properties": {
        "feature_type": "station",
        "ref": "KHH100253110341",
        "name": "阿蓮中正路(和平路口)",
        "name_en": "Alian Jhongjheng Rd.(Heping Rd. Intersection)",
        "line": "紅70A",
        "color": "#9f1239",
        "direction": 0
      },
      "geometry": {
        "type": "Point",
        "coordinates": [
          120.33293,
          22.880617
        ]
      }
    },
    {
      "type": "Feature",
      "properties": {
        "feature_type": "station",
        "ref": "KHH100253110351",
        "name": "工業區(阿蓮)",
        "name_en": "Industrial Park(Alian)",
        "line": "紅70A",
        "color": "#9f1239",
        "direction": 0
      },
      "geometry": {
        "type": "Point",
        "coordinates": [
          120.337191,
          22.881188
        ]
      }
    },
    {
      "type": "Feature",
      "properties": {
        "feature_type": "station",
        "ref": "KHH100253110361",
        "name": "源勝社區",
        "name_en": "Yuansheng Community",
        "line": "紅70A",
        "color": "#9f1239",
        "direction": 0
      },
      "geometry": {
        "type": "Point",
        "coordinates": [
          120.339491,
          22.881556
        ]
      }
    },
    {
      "type": "Feature",
      "properties": {
        "feature_type": "station",
        "ref": "KHH100253110371",
        "name": "磚子窯",
        "name_en": "Brick Kiln",
        "line": "紅70A",
        "color": "#9f1239",
        "direction": 0
      },
      "geometry": {
        "type": "Point",
        "coordinates": [
          120.342167,
          22.881543
        ]
      }
    },
    {
      "type": "Feature",
      "properties": {
        "feature_type": "station",
        "ref": "KHH100253110381",
        "name": "大埤",
        "name_en": "Dabi",
        "line": "紅70A",
        "color": "#9f1239",
        "direction": 0
      },
      "geometry": {
        "type": "Point",
        "coordinates": [
          120.346325,
          22.880265
        ]
      }
    },
    {
      "type": "Feature",
      "properties": {
        "feature_type": "station",
        "ref": "KHH100253109401",
        "name": "南崗山",
        "name_en": "South Gangshan",
        "line": "紅70A",
        "color": "#9f1239",
        "direction": 0
      },
      "geometry": {
        "type": "Point",
        "coordinates": [
          120.349984,
          22.878157
        ]
      }
    },
    {
      "type": "Feature",
      "properties": {
        "feature_type": "station",
        "ref": "KHH100253109411",
        "name": "峰山里",
        "name_en": "Fongshan Village",
        "line": "紅70A",
        "color": "#9f1239",
        "direction": 0
      },
      "geometry": {
        "type": "Point",
        "coordinates": [
          120.353318,
          22.876096
        ]
      }
    },
    {
      "type": "Feature",
      "properties": {
        "feature_type": "station",
        "ref": "KHH100253109431",
        "name": "崗山頭",
        "name_en": "Gangshantou",
        "line": "紅70A",
        "color": "#9f1239",
        "direction": 0
      },
      "geometry": {
        "type": "Point",
        "coordinates": [
          120.355893,
          22.874567
        ]
      }
    },
    {
      "type": "Feature",
      "properties": {
        "feature_type": "station",
        "ref": "KHH100253109441",
        "name": "崗山頭溫泉",
        "name_en": "Gangshantou Hot Spring",
        "line": "紅70A",
        "color": "#9f1239",
        "direction": 0
      },
      "geometry": {
        "type": "Point",
        "coordinates": [
          120.356961,
          22.874065
        ]
      }
    },
    {
      "type": "Feature",
      "properties": {
        "feature_type": "station",
        "ref": "KHH100253109632",
        "name": "田寮區公所",
        "name_en": "Tianliao District Office",
        "line": "紅70A",
        "color": "#9f1239",
        "direction": 1
      },
      "geometry": {
        "type": "Point",
        "coordinates": [
          120.359418,
          22.87118
        ]
      }
    },
    {
      "type": "Feature",
      "properties": {
        "feature_type": "station",
        "ref": "KHH100253109652",
        "name": "崗安路",
        "name_en": "Gangan Rd.",
        "line": "紅70A",
        "color": "#9f1239",
        "direction": 1
      },
      "geometry": {
        "type": "Point",
        "coordinates": [
          120.359096,
          22.872936
        ]
      }
    },
    {
      "type": "Feature",
      "properties": {
        "feature_type": "station",
        "ref": "KHH100253190012",
        "name": "田寮教會(市場)",
        "name_en": "TianLiau Church(Market)",
        "line": "紅70A",
        "color": "#9f1239",
        "direction": 1
      },
      "geometry": {
        "type": "Point",
        "coordinates": [
          120.360384,
          22.873856
        ]
      }
    },
    {
      "type": "Feature",
      "properties": {
        "feature_type": "station",
        "ref": "KHH100253109662",
        "name": "崗山頭溫泉",
        "name_en": "Gangshantou Hot Spring",
        "line": "紅70A",
        "color": "#9f1239",
        "direction": 1
      },
      "geometry": {
        "type": "Point",
        "coordinates": [
          120.35699,
          22.874176
        ]
      }
    },
    {
      "type": "Feature",
      "properties": {
        "feature_type": "station",
        "ref": "KHH100253109672",
        "name": "崗山頭",
        "name_en": "Gangshantou",
        "line": "紅70A",
        "color": "#9f1239",
        "direction": 1
      },
      "geometry": {
        "type": "Point",
        "coordinates": [
          120.355918,
          22.874698
        ]
      }
    },
    {
      "type": "Feature",
      "properties": {
        "feature_type": "station",
        "ref": "KHH100253107742",
        "name": "峰山里",
        "name_en": "Fongshan Village",
        "line": "紅70A",
        "color": "#9f1239",
        "direction": 1
      },
      "geometry": {
        "type": "Point",
        "coordinates": [
          120.353519,
          22.876195
        ]
      }
    },
    {
      "type": "Feature",
      "properties": {
        "feature_type": "station",
        "ref": "KHH100253109682",
        "name": "南崗山",
        "name_en": "South Gangshan",
        "line": "紅70A",
        "color": "#9f1239",
        "direction": 1
      },
      "geometry": {
        "type": "Point",
        "coordinates": [
          120.349993,
          22.878303
        ]
      }
    },
    {
      "type": "Feature",
      "properties": {
        "feature_type": "station",
        "ref": "KHH100253109692",
        "name": "大埤",
        "name_en": "Dabi",
        "line": "紅70A",
        "color": "#9f1239",
        "direction": 1
      },
      "geometry": {
        "type": "Point",
        "coordinates": [
          120.346441,
          22.880566
        ]
      }
    },
    {
      "type": "Feature",
      "properties": {
        "feature_type": "station",
        "ref": "KHH100253109702",
        "name": "磚子窯",
        "name_en": "Brick Kiln",
        "line": "紅70A",
        "color": "#9f1239",
        "direction": 1
      },
      "geometry": {
        "type": "Point",
        "coordinates": [
          120.341818,
          22.881789
        ]
      }
    },
    {
      "type": "Feature",
      "properties": {
        "feature_type": "station",
        "ref": "KHH100253109712",
        "name": "源勝社區",
        "name_en": "Yuansheng Community",
        "line": "紅70A",
        "color": "#9f1239",
        "direction": 1
      },
      "geometry": {
        "type": "Point",
        "coordinates": [
          120.339396,
          22.881705
        ]
      }
    },
    {
      "type": "Feature",
      "properties": {
        "feature_type": "station",
        "ref": "KHH100253109722",
        "name": "工業區(阿蓮)",
        "name_en": "Industrial Park(Alian)",
        "line": "紅70A",
        "color": "#9f1239",
        "direction": 1
      },
      "geometry": {
        "type": "Point",
        "coordinates": [
          120.337077,
          22.881346
        ]
      }
    },
    {
      "type": "Feature",
      "properties": {
        "feature_type": "station",
        "ref": "KHH100253109732",
        "name": "阿蓮中正路(和平路口)",
        "name_en": "Alian Jhongjheng Rd.(Heping Rd. Intersection)",
        "line": "紅70A",
        "color": "#9f1239",
        "direction": 1
      },
      "geometry": {
        "type": "Point",
        "coordinates": [
          120.332959,
          22.880764
        ]
      }
    },
    {
      "type": "Feature",
      "properties": {
        "feature_type": "station",
        "ref": "KHH100253109752",
        "name": "阿蓮",
        "name_en": "Alian",
        "line": "紅70A",
        "color": "#9f1239",
        "direction": 1
      },
      "geometry": {
        "type": "Point",
        "coordinates": [
          120.331481,
          22.87917
        ]
      }
    },
    {
      "type": "Feature",
      "properties": {
        "feature_type": "station",
        "ref": "KHH100253109762",
        "name": "阿蓮分駐所",
        "name_en": "Alian Police? Station",
        "line": "紅70A",
        "color": "#9f1239",
        "direction": 1
      },
      "geometry": {
        "type": "Point",
        "coordinates": [
          120.329255,
          22.879008
        ]
      }
    },
    {
      "type": "Feature",
      "properties": {
        "feature_type": "station",
        "ref": "KHH100253111362",
        "name": "阿蓮中山路",
        "name_en": "Alian Jhongshan Rd.",
        "line": "紅70A",
        "color": "#9f1239",
        "direction": 1
      },
      "geometry": {
        "type": "Point",
        "coordinates": [
          120.327735,
          22.877412
        ]
      }
    },
    {
      "type": "Feature",
      "properties": {
        "feature_type": "station",
        "ref": "KHH100253111372",
        "name": "南蓮",
        "name_en": "Nanlian",
        "line": "紅70A",
        "color": "#9f1239",
        "direction": 1
      },
      "geometry": {
        "type": "Point",
        "coordinates": [
          120.326868,
          22.87539
        ]
      }
    },
    {
      "type": "Feature",
      "properties": {
        "feature_type": "station",
        "ref": "KHH100253111382",
        "name": "光德寺",
        "name_en": "Guangde Temple",
        "line": "紅70A",
        "color": "#9f1239",
        "direction": 1
      },
      "geometry": {
        "type": "Point",
        "coordinates": [
          120.32519,
          22.871424
        ]
      }
    },
    {
      "type": "Feature",
      "properties": {
        "feature_type": "station",
        "ref": "KHH100253111392",
        "name": "中甲路口",
        "name_en": "Jhongjia Rd. Intersection",
        "line": "紅70A",
        "color": "#9f1239",
        "direction": 1
      },
      "geometry": {
        "type": "Point",
        "coordinates": [
          120.323773,
          22.866782
        ]
      }
    },
    {
      "type": "Feature",
      "properties": {
        "feature_type": "station",
        "ref": "KHH100253111402",
        "name": "埤子尾(中山路)",
        "name_en": "Pizihwei(Jhongshan Rd.)",
        "line": "紅70A",
        "color": "#9f1239",
        "direction": 1
      },
      "geometry": {
        "type": "Point",
        "coordinates": [
          120.324267,
          22.859755
        ]
      }
    },
    {
      "type": "Feature",
      "properties": {
        "feature_type": "station",
        "ref": "KHH100253111412",
        "name": "九鬮",
        "name_en": "Jioujiou",
        "line": "紅70A",
        "color": "#9f1239",
        "direction": 1
      },
      "geometry": {
        "type": "Point",
        "coordinates": [
          120.324715,
          22.850428
        ]
      }
    },
    {
      "type": "Feature",
      "properties": {
        "feature_type": "station",
        "ref": "KHH100253111422",
        "name": "復安國小",
        "name_en": "Fu-An Elementary School",
        "line": "紅70A",
        "color": "#9f1239",
        "direction": 1
      },
      "geometry": {
        "type": "Point",
        "coordinates": [
          120.324232,
          22.848718
        ]
      }
    },
    {
      "type": "Feature",
      "properties": {
        "feature_type": "station",
        "ref": "KHH100253111432",
        "name": "瓦窯",
        "name_en": "Tile factory",
        "line": "紅70A",
        "color": "#9f1239",
        "direction": 1
      },
      "geometry": {
        "type": "Point",
        "coordinates": [
          120.323485,
          22.846443
        ]
      }
    },
    {
      "type": "Feature",
      "properties": {
        "feature_type": "station",
        "ref": "KHH100253111452",
        "name": "土庫(阿蓮)",
        "name_en": "Tuku(Alian)",
        "line": "紅70A",
        "color": "#9f1239",
        "direction": 1
      },
      "geometry": {
        "type": "Point",
        "coordinates": [
          120.320634,
          22.842691
        ]
      }
    },
    {
      "type": "Feature",
      "properties": {
        "feature_type": "station",
        "ref": "KHH10025368842",
        "name": "田厝",
        "name_en": "Tiancuo",
        "line": "紅70A",
        "color": "#9f1239",
        "direction": 1
      },
      "geometry": {
        "type": "Point",
        "coordinates": [
          120.317706,
          22.837186
        ]
      }
    },
    {
      "type": "Feature",
      "properties": {
        "feature_type": "station",
        "ref": "KHH100253111472",
        "name": "嘉峰",
        "name_en": "Jiafong",
        "line": "紅70A",
        "color": "#9f1239",
        "direction": 1
      },
      "geometry": {
        "type": "Point",
        "coordinates": [
          120.31362,
          22.829708
        ]
      }
    },
    {
      "type": "Feature",
      "properties": {
        "feature_type": "station",
        "ref": "KHH100253182262",
        "name": "嘉峰里活動中心",
        "name_en": "Jiafong Village Community Center",
        "line": "紅70A",
        "color": "#9f1239",
        "direction": 1
      },
      "geometry": {
        "type": "Point",
        "coordinates": [
          120.311942,
          22.827907
        ]
      }
    },
    {
      "type": "Feature",
      "properties": {
        "feature_type": "station",
        "ref": "KHH100253111502",
        "name": "潭底",
        "name_en": "Tandi",
        "line": "紅70A",
        "color": "#9f1239",
        "direction": 1
      },
      "geometry": {
        "type": "Point",
        "coordinates": [
          120.309651,
          22.825828
        ]
      }
    },
    {
      "type": "Feature",
      "properties": {
        "feature_type": "station",
        "ref": "KHH100253111512",
        "name": "嘉興國小",
        "name_en": "Jia Xing Elementary School",
        "line": "紅70A",
        "color": "#9f1239",
        "direction": 1
      },
      "geometry": {
        "type": "Point",
        "coordinates": [
          120.305638,
          22.822143
        ]
      }
    },
    {
      "type": "Feature",
      "properties": {
        "feature_type": "station",
        "ref": "KHH100253111522",
        "name": "五甲尾",
        "name_en": "Wujiawei",
        "line": "紅70A",
        "color": "#9f1239",
        "direction": 1
      },
      "geometry": {
        "type": "Point",
        "coordinates": [
          120.303053,
          22.821301
        ]
      }
    },
    {
      "type": "Feature",
      "properties": {
        "feature_type": "station",
        "ref": "KHH100253111532",
        "name": "南嘉興",
        "name_en": "South Jiasing",
        "line": "紅70A",
        "color": "#9f1239",
        "direction": 1
      },
      "geometry": {
        "type": "Point",
        "coordinates": [
          120.302407,
          22.819394
        ]
      }
    },
    {
      "type": "Feature",
      "properties": {
        "feature_type": "station",
        "ref": "KHH100253184922",
        "name": "聖母宮",
        "name_en": "Shengmu Temple",
        "line": "紅70A",
        "color": "#9f1239",
        "direction": 1
      },
      "geometry": {
        "type": "Point",
        "coordinates": [
          120.301933,
          22.816595
        ]
      }
    },
    {
      "type": "Feature",
      "properties": {
        "feature_type": "station",
        "ref": "KHH100253111542",
        "name": "五甲尾加油站",
        "name_en": "Wujiawei Gas Station",
        "line": "紅70A",
        "color": "#9f1239",
        "direction": 1
      },
      "geometry": {
        "type": "Point",
        "coordinates": [
          120.300698,
          22.812787
        ]
      }
    },
    {
      "type": "Feature",
      "properties": {
        "feature_type": "station",
        "ref": "KHH100253111552",
        "name": "台上",
        "name_en": "Taishang",
        "line": "紅70A",
        "color": "#9f1239",
        "direction": 1
      },
      "geometry": {
        "type": "Point",
        "coordinates": [
          120.298715,
          22.808025
        ]
      }
    },
    {
      "type": "Feature",
      "properties": {
        "feature_type": "station",
        "ref": "KHH100253111562",
        "name": "台上街",
        "name_en": "Taishang St.",
        "line": "紅70A",
        "color": "#9f1239",
        "direction": 1
      },
      "geometry": {
        "type": "Point",
        "coordinates": [
          120.297225,
          22.805109
        ]
      }
    },
    {
      "type": "Feature",
      "properties": {
        "feature_type": "station",
        "ref": "KHH100253110082",
        "name": "成功路",
        "name_en": "Chenggong Rd.",
        "line": "紅70A",
        "color": "#9f1239",
        "direction": 1
      },
      "geometry": {
        "type": "Point",
        "coordinates": [
          120.295429,
          22.801513
        ]
      }
    },
    {
      "type": "Feature",
      "properties": {
        "feature_type": "station",
        "ref": "KHH100253110092",
        "name": "岡山區公所",
        "name_en": "Gangshan District Office",
        "line": "紅70A",
        "color": "#9f1239",
        "direction": 1
      },
      "geometry": {
        "type": "Point",
        "coordinates": [
          120.295336,
          22.797414
        ]
      }
    },
    {
      "type": "Feature",
      "properties": {
        "feature_type": "station",
        "ref": "KHH100253110102",
        "name": "岡山農會",
        "name_en": "Gangshan township Farmers' Association",
        "line": "紅70A",
        "color": "#9f1239",
        "direction": 1
      },
      "geometry": {
        "type": "Point",
        "coordinates": [
          120.295571,
          22.795332
        ]
      }
    },
    {
      "type": "Feature",
      "properties": {
        "feature_type": "station",
        "ref": "KHH100253120202",
        "name": "文賢市場",
        "name_en": "Wunsian Market",
        "line": "紅70A",
        "color": "#9f1239",
        "direction": 1
      },
      "geometry": {
        "type": "Point",
        "coordinates": [
          120.295695,
          22.794254
        ]
      }
    },
    {
      "type": "Feature",
      "properties": {
        "feature_type": "station",
        "ref": "KHH100253110122",
        "name": "岡山郵局(民有路)",
        "name_en": "Gangshan Post Office(Minyou Rd.)",
        "line": "紅70A",
        "color": "#9f1239",
        "direction": 1
      },
      "geometry": {
        "type": "Point",
        "coordinates": [
          120.29672,
          22.791924
        ]
      }
    },
    {
      "type": "Feature",
      "properties": {
        "feature_type": "station",
        "ref": "KHH100253173782",
        "name": "臺鐵岡山車站(捷運岡山車站)",
        "name_en": "TRA Gangshan Station(MRT Gangshan Station)",
        "line": "紅70A",
        "color": "#9f1239",
        "direction": 1
      },
      "geometry": {
        "type": "Point",
        "coordinates": [
          120.299489,
          22.792248
        ]
      }
    },
    {
      "type": "Feature",
      "properties": {
        "feature_type": "station",
        "ref": "KHH10025384812",
        "name": "移民署",
        "name_en": "National Immigration Agency",
        "line": "紅70A",
        "color": "#9f1239",
        "direction": 1
      },
      "geometry": {
        "type": "Point",
        "coordinates": [
          120.295996,
          22.791308
        ]
      }
    },
    {
      "type": "Feature",
      "properties": {
        "feature_type": "station",
        "ref": "KHH100253110402",
        "name": "文化街口",
        "name_en": "Wunhua St. Intersection",
        "line": "紅70A",
        "color": "#9f1239",
        "direction": 1
      },
      "geometry": {
        "type": "Point",
        "coordinates": [
          120.296551,
          22.787696
        ]
      }
    },
    {
      "type": "Feature",
      "properties": {
        "feature_type": "station",
        "ref": "KHH100253182102",
        "name": "河堤路口(岡山路)",
        "name_en": "Heti Rd. Intersection(Gangshan Rd.)",
        "line": "紅70A",
        "color": "#9f1239",
        "direction": 1
      },
      "geometry": {
        "type": "Point",
        "coordinates": [
          120.296778,
          22.785919
        ]
      }
    },
    {
      "type": "Feature",
      "properties": {
        "feature_type": "station",
        "ref": "KHH100253110412",
        "name": "岡山文化中心",
        "name_en": "Gangshan Cultural Center",
        "line": "紅70A",
        "color": "#9f1239",
        "direction": 1
      },
      "geometry": {
        "type": "Point",
        "coordinates": [
          120.297123,
          22.783962
        ]
      }
    },
    {
      "type": "Feature",
      "properties": {
        "feature_type": "station",
        "ref": "KHH100253133642",
        "name": "捷運岡山高醫站",
        "name_en": "MRT Kaohsiung Medical University Gangshan Hospital",
        "line": "紅70A",
        "color": "#9f1239",
        "direction": 1
      },
      "geometry": {
        "type": "Point",
        "coordinates": [
          120.300583,
          22.780683
        ]
      }
    }
  ]
}
