{
  "type": "FeatureCollection",
  "name": "7512",
  "properties": {
    "id": "inter_city_7512",
    "name": "7512",
    "name_en": "7512",
    "ref": "7512",
    "color": "#115e59",
    "city_id": "InterCity",
    "source": "TDX Bus Shape / StopOfRoute",
    "official_map_url": "https://web.taiwanbus.tw/MISUploadData/Schematic/file/7512.jpg",
    "operator_id": "25",
    "operator": "和欣客運",
    "operator_en": "Ho-Hsin Bus Co., Ltd."
  },
  "features": [
    {
      "type": "Feature",
      "properties": {
        "feature_type": "route",
        "ref": "7512",
        "name": "7512",
        "name_en": "7512",
        "color": "#115e59",
        "direction": 0
      },
      "geometry": {
        "type": "LineString",
        "coordinates": [
          [
            120.29308,
            23.30487
          ],
          [
            120.29363,
            23.30648
          ],
          [
            120.29368,
            23.30661
          ],
          [
            120.29356,
            23.30665
          ],
          [
            120.29326,
            23.30675
          ],
          [
            120.29005,
            23.30759
          ],
          [
            120.2899,
            23.30769
          ],
          [
            120.28974,
            23.30784
          ],
          [
            120.28967,
            23.30798
          ],
          [
            120.28965,
            23.30818
          ],
          [
            120.28977,
            23.30841
          ],
          [
            120.28994,
            23.30857
          ],
          [
            120.29014,
            23.30868
          ],
          [
            120.29031,
            23.30874
          ],
          [
            120.29053,
            23.30877
          ],
          [
            120.29072,
            23.30873
          ],
          [
            120.29085,
            23.30867
          ],
          [
            120.29096,
            23.30857
          ],
          [
            120.29104,
            23.30843
          ],
          [
            120.29106,
            23.30822
          ],
          [
            120.29103,
            23.30808
          ],
          [
            120.29093,
            23.30783
          ],
          [
            120.29063,
            23.30739
          ],
          [
            120.29029,
            23.30688
          ],
          [
            120.2899,
            23.30633
          ],
          [
            120.28921,
            23.30547
          ],
          [
            120.28898,
            23.30518
          ],
          [
            120.28869,
            23.3048
          ],
          [
            120.28841,
            23.30442
          ],
          [
            120.28737,
            23.30295
          ],
          [
            120.28693,
            23.30233
          ],
          [
            120.28687,
            23.30217
          ],
          [
            120.28683,
            23.30203
          ],
          [
            120.2867,
            23.30187
          ],
          [
            120.28659,
            23.30172
          ],
          [
            120.28606,
            23.30101
          ],
          [
            120.28515,
            23.29973
          ],
          [
            120.28486,
            23.29923
          ],
          [
            120.28418,
            23.29824
          ],
          [
            120.283,
            23.29612
          ],
          [
            120.28134,
            23.29265
          ],
          [
            120.28051,
            23.2909
          ],
          [
            120.27911,
            23.28823
          ],
          [
            120.27839,
            23.28703
          ],
          [
            120.27793,
            23.28635
          ],
          [
            120.27758,
            23.28582
          ],
          [
            120.2771,
            23.28511
          ],
          [
            120.27597,
            23.28361
          ],
          [
            120.27539,
            23.2829
          ],
          [
            120.27504,
            23.28251
          ],
          [
            120.27292,
            23.28025
          ],
          [
            120.26914,
            23.27661
          ],
          [
            120.26706,
            23.27437
          ],
          [
            120.2661,
            23.27316
          ],
          [
            120.26595,
            23.27295
          ],
          [
            120.26481,
            23.27131
          ],
          [
            120.26403,
            23.27003
          ],
          [
            120.26302,
            23.26804
          ],
          [
            120.26233,
            23.26657
          ],
          [
            120.26225,
            23.2664
          ],
          [
            120.2614,
            23.26458
          ],
          [
            120.26033,
            23.26232
          ],
          [
            120.2581,
            23.25758
          ],
          [
            120.25699,
            23.25534
          ],
          [
            120.25619,
            23.25383
          ],
          [
            120.25525,
            23.25204
          ],
          [
            120.25371,
            23.24922
          ],
          [
            120.25281,
            23.24757
          ],
          [
            120.25121,
            23.24465
          ],
          [
            120.24743,
            23.2377
          ],
          [
            120.24447,
            23.23223
          ],
          [
            120.24332,
            23.23007
          ],
          [
            120.24298,
            23.22935
          ],
          [
            120.24205,
            23.22742
          ],
          [
            120.24115,
            23.22531
          ],
          [
            120.24036,
            23.22325
          ],
          [
            120.2397,
            23.22132
          ],
          [
            120.23926,
            23.2199
          ],
          [
            120.23889,
            23.2187
          ],
          [
            120.23819,
            23.2159
          ],
          [
            120.23775,
            23.2139
          ],
          [
            120.23759,
            23.21307
          ],
          [
            120.23747,
            23.21247
          ],
          [
            120.23712,
            23.21038
          ],
          [
            120.23681,
            23.20794
          ],
          [
            120.23656,
            23.20468
          ],
          [
            120.23643,
            23.20141
          ],
          [
            120.23639,
            23.1991
          ],
          [
            120.23639,
            23.19818
          ],
          [
            120.23633,
            23.19389
          ],
          [
            120.23626,
            23.19124
          ],
          [
            120.23618,
            23.18889
          ],
          [
            120.23604,
            23.1874
          ],
          [
            120.23604,
            23.18701
          ],
          [
            120.23588,
            23.18499
          ],
          [
            120.23586,
            23.18474
          ],
          [
            120.23563,
            23.18262
          ],
          [
            120.23555,
            23.18213
          ],
          [
            120.23503,
            23.17881
          ],
          [
            120.23427,
            23.17514
          ],
          [
            120.23392,
            23.17368
          ],
          [
            120.23363,
            23.17254
          ],
          [
            120.23325,
            23.17095
          ],
          [
            120.23309,
            23.1704
          ],
          [
            120.23256,
            23.1683
          ],
          [
            120.23245,
            23.1679
          ],
          [
            120.23227,
            23.16734
          ],
          [
            120.23174,
            23.16519
          ],
          [
            120.23144,
            23.16378
          ],
          [
            120.23122,
            23.16259
          ],
          [
            120.23113,
            23.16206
          ],
          [
            120.23086,
            23.16019
          ],
          [
            120.23063,
            23.15763
          ],
          [
            120.23057,
            23.15673
          ],
          [
            120.23058,
            23.15458
          ],
          [
            120.23063,
            23.1533
          ],
          [
            120.23072,
            23.1519
          ],
          [
            120.2308,
            23.15087
          ],
          [
            120.23112,
            23.14859
          ],
          [
            120.23152,
            23.14642
          ],
          [
            120.23174,
            23.14542
          ],
          [
            120.23196,
            23.14457
          ],
          [
            120.2324,
            23.14307
          ],
          [
            120.23309,
            23.14105
          ],
          [
            120.23348,
            23.13996
          ],
          [
            120.23423,
            23.13813
          ],
          [
            120.23488,
            23.13668
          ],
          [
            120.23542,
            23.13551
          ],
          [
            120.23626,
            23.13372
          ],
          [
            120.23721,
            23.13172
          ],
          [
            120.23809,
            23.12991
          ],
          [
            120.2386,
            23.12881
          ],
          [
            120.24002,
            23.12572
          ],
          [
            120.24082,
            23.12385
          ],
          [
            120.24153,
            23.12226
          ],
          [
            120.2421,
            23.12098
          ],
          [
            120.24293,
            23.11908
          ],
          [
            120.2435,
            23.11762
          ],
          [
            120.2442,
            23.1158
          ],
          [
            120.24508,
            23.11328
          ],
          [
            120.24577,
            23.11124
          ],
          [
            120.24704,
            23.10695
          ],
          [
            120.24785,
            23.10421
          ],
          [
            120.2483,
            23.10237
          ],
          [
            120.24864,
            23.101
          ],
          [
            120.24887,
            23.09966
          ],
          [
            120.25006,
            23.0935
          ],
          [
            120.25046,
            23.09161
          ],
          [
            120.25058,
            23.09109
          ],
          [
            120.25072,
            23.09019
          ],
          [
            120.25087,
            23.08927
          ],
          [
            120.25129,
            23.08619
          ],
          [
            120.25181,
            23.08192
          ],
          [
            120.25234,
            23.07737
          ],
          [
            120.25275,
            23.07287
          ],
          [
            120.25281,
            23.07192
          ],
          [
            120.25278,
            23.07187
          ],
          [
            120.25285,
            23.07116
          ],
          [
            120.25295,
            23.06953
          ],
          [
            120.25306,
            23.06655
          ],
          [
            120.25316,
            23.06264
          ],
          [
            120.2532,
            23.06106
          ],
          [
            120.25318,
            23.05696
          ],
          [
            120.25317,
            23.0555
          ],
          [
            120.25317,
            23.05503
          ],
          [
            120.25302,
            23.05228
          ],
          [
            120.25277,
            23.05
          ],
          [
            120.25265,
            23.04886
          ],
          [
            120.25244000000001,
            23.04751
          ],
          [
            120.25173,
            23.0438
          ],
          [
            120.25142,
            23.04218
          ],
          [
            120.25061,
            23.03812
          ],
          [
            120.25015,
            23.03587
          ],
          [
            120.24966,
            23.03314
          ],
          [
            120.24943,
            23.03164
          ],
          [
            120.24937,
            23.03113
          ],
          [
            120.2493,
            23.03056
          ],
          [
            120.24923,
            23.02891
          ],
          [
            120.2492,
            23.02817
          ],
          [
            120.24922,
            23.02663
          ],
          [
            120.24924,
            23.02622
          ],
          [
            120.24935,
            23.02498
          ],
          [
            120.24947,
            23.02421
          ],
          [
            120.24953,
            23.02389
          ],
          [
            120.24987,
            23.02238
          ],
          [
            120.25037,
            23.02033
          ],
          [
            120.25052,
            23.01962
          ],
          [
            120.2506,
            23.01899
          ],
          [
            120.25063,
            23.0186
          ],
          [
            120.25064,
            23.01801
          ],
          [
            120.25059,
            23.01715
          ],
          [
            120.25048,
            23.01631
          ],
          [
            120.25031,
            23.01559
          ],
          [
            120.25026,
            23.01544
          ],
          [
            120.25016,
            23.0151
          ],
          [
            120.2499,
            23.01418
          ],
          [
            120.24905,
            23.01131
          ],
          [
            120.24861,
            23.00962
          ],
          [
            120.24842,
            23.0086
          ],
          [
            120.24817,
            23.00687
          ],
          [
            120.24813,
            23.00644
          ],
          [
            120.24805,
            23.00538
          ],
          [
            120.24802,
            23.00481
          ],
          [
            120.24805,
            23.002
          ],
          [
            120.24816,
            22.99245
          ],
          [
            120.24813,
            22.99084
          ],
          [
            120.24817,
            22.98733
          ],
          [
            120.24819,
            22.98588
          ],
          [
            120.24824,
            22.98472
          ],
          [
            120.24822,
            22.98352
          ],
          [
            120.24824,
            22.98296
          ],
          [
            120.24822,
            22.98243
          ],
          [
            120.24827,
            22.98152
          ],
          [
            120.2483,
            22.98033
          ],
          [
            120.24837,
            22.97907
          ],
          [
            120.24857,
            22.97715
          ],
          [
            120.24879,
            22.97556
          ],
          [
            120.24927,
            22.97241
          ],
          [
            120.24951,
            22.97079
          ],
          [
            120.24976,
            22.96924
          ],
          [
            120.24992,
            22.96744
          ],
          [
            120.24995,
            22.96688
          ],
          [
            120.25001,
            22.9654
          ],
          [
            120.24993,
            22.96299
          ],
          [
            120.24988,
            22.96248
          ],
          [
            120.24978,
            22.96192
          ],
          [
            120.24971,
            22.96063
          ],
          [
            120.24956,
            22.95942
          ],
          [
            120.24953,
            22.95864
          ],
          [
            120.24932,
            22.95612
          ],
          [
            120.24917,
            22.95475
          ],
          [
            120.2489,
            22.95155
          ],
          [
            120.24882,
            22.95038
          ],
          [
            120.24876,
            22.94919
          ],
          [
            120.24874,
            22.94836
          ],
          [
            120.24879,
            22.94783
          ],
          [
            120.24882,
            22.94741
          ],
          [
            120.24882,
            22.94728
          ],
          [
            120.24886,
            22.94667
          ],
          [
            120.24912,
            22.94461
          ],
          [
            120.24941,
            22.94314
          ],
          [
            120.24948,
            22.94287
          ],
          [
            120.24968,
            22.94207
          ],
          [
            120.24998,
            22.94104
          ],
          [
            120.25036,
            22.94002
          ],
          [
            120.25103,
            22.93846
          ],
          [
            120.25139,
            22.93766
          ],
          [
            120.25212,
            22.93596
          ],
          [
            120.25228,
            22.93565
          ],
          [
            120.25305,
            22.93408
          ],
          [
            120.25331,
            22.9335
          ],
          [
            120.25509,
            22.92947
          ],
          [
            120.25597,
            22.92756
          ],
          [
            120.25679,
            22.92575
          ],
          [
            120.26061,
            22.91725
          ],
          [
            120.26501,
            22.90742
          ],
          [
            120.2674,
            22.90214
          ],
          [
            120.26908,
            22.89851
          ],
          [
            120.27003,
            22.89654
          ],
          [
            120.27054,
            22.89555
          ],
          [
            120.27225,
            22.89235
          ],
          [
            120.27493,
            22.88742
          ],
          [
            120.27709,
            22.88336
          ],
          [
            120.27914,
            22.87954
          ],
          [
            120.27992,
            22.87809
          ],
          [
            120.28168,
            22.87468
          ],
          [
            120.28243,
            22.87322
          ],
          [
            120.284,
            22.86965
          ],
          [
            120.28594,
            22.86488
          ],
          [
            120.28903,
            22.85709
          ],
          [
            120.29029,
            22.85398
          ],
          [
            120.29056,
            22.85339
          ],
          [
            120.2913,
            22.85196
          ],
          [
            120.29159,
            22.85137
          ],
          [
            120.29203,
            22.85063
          ],
          [
            120.29284,
            22.84931
          ],
          [
            120.29348,
            22.84835
          ],
          [
            120.29483,
            22.84636
          ],
          [
            120.29712,
            22.84303
          ],
          [
            120.29915,
            22.84005
          ],
          [
            120.30092,
            22.83753
          ],
          [
            120.30265,
            22.83499
          ],
          [
            120.30731,
            22.82817
          ],
          [
            120.30927,
            22.82528
          ],
          [
            120.30998,
            22.8241
          ],
          [
            120.31057,
            22.82299
          ],
          [
            120.31126,
            22.82163
          ],
          [
            120.31154,
            22.82099
          ],
          [
            120.31195,
            22.81999
          ],
          [
            120.31262,
            22.81813
          ],
          [
            120.31311,
            22.81641
          ],
          [
            120.31343,
            22.81512
          ],
          [
            120.31363,
            22.81428
          ],
          [
            120.31449,
            22.81066
          ],
          [
            120.31524,
            22.80779
          ],
          [
            120.31572,
            22.80624
          ],
          [
            120.31611,
            22.80479
          ],
          [
            120.31638,
            22.80381
          ],
          [
            120.31821,
            22.79654
          ],
          [
            120.32002,
            22.78967
          ],
          [
            120.32055,
            22.78784
          ],
          [
            120.32086,
            22.78686
          ],
          [
            120.32131,
            22.78556
          ],
          [
            120.3246,
            22.77664
          ],
          [
            120.32598,
            22.77292
          ],
          [
            120.32703,
            22.77007
          ],
          [
            120.32765,
            22.76849
          ],
          [
            120.32768,
            22.76839
          ],
          [
            120.32837,
            22.76672
          ],
          [
            120.3286,
            22.76623
          ],
          [
            120.32874,
            22.76593
          ],
          [
            120.33,
            22.76325
          ],
          [
            120.33114,
            22.76089
          ],
          [
            120.33206,
            22.75894
          ],
          [
            120.33259,
            22.75766
          ],
          [
            120.33319,
            22.75594
          ],
          [
            120.33359,
            22.75451
          ],
          [
            120.3339,
            22.75326
          ],
          [
            120.33407,
            22.7525
          ],
          [
            120.33447,
            22.75005
          ],
          [
            120.33464,
            22.74796
          ],
          [
            120.33469,
            22.74664
          ],
          [
            120.33468,
            22.74569
          ],
          [
            120.33454,
            22.74155
          ],
          [
            120.33452,
            22.74097
          ],
          [
            120.33442,
            22.74071
          ],
          [
            120.33429,
            22.73983
          ],
          [
            120.33428,
            22.73914
          ],
          [
            120.33428,
            22.73849
          ],
          [
            120.33422,
            22.73683
          ],
          [
            120.33419,
            22.73584
          ],
          [
            120.33406,
            22.73193
          ],
          [
            120.33394,
            22.73168
          ],
          [
            120.33391,
            22.73048
          ],
          [
            120.3339,
            22.72989
          ],
          [
            120.33379,
            22.72958
          ],
          [
            120.33373,
            22.72926
          ],
          [
            120.3337,
            22.72889
          ],
          [
            120.33361,
            22.72849
          ],
          [
            120.33349,
            22.72771
          ],
          [
            120.33314,
            22.7254
          ],
          [
            120.33258,
            22.72327
          ],
          [
            120.33248,
            22.72281
          ],
          [
            120.33248,
            22.72281
          ],
          [
            120.33216,
            22.72149
          ],
          [
            120.33206,
            22.72125
          ],
          [
            120.33207,
            22.72089
          ],
          [
            120.33164,
            22.71909
          ],
          [
            120.33143,
            22.71829
          ],
          [
            120.33144,
            22.71816
          ],
          [
            120.33123,
            22.71726
          ],
          [
            120.33108,
            22.71661
          ],
          [
            120.33101,
            22.71609
          ],
          [
            120.33088,
            22.71556
          ],
          [
            120.33089,
            22.71545
          ],
          [
            120.33085,
            22.7153
          ],
          [
            120.33083,
            22.71513
          ],
          [
            120.33074,
            22.71469
          ],
          [
            120.33063,
            22.71425
          ],
          [
            120.33054,
            22.71381
          ],
          [
            120.33038,
            22.71323
          ],
          [
            120.3302,
            22.71255
          ],
          [
            120.32994,
            22.71143
          ],
          [
            120.32976,
            22.71081
          ],
          [
            120.32962,
            22.71017
          ],
          [
            120.32947,
            22.70945
          ],
          [
            120.32932,
            22.70893
          ],
          [
            120.32925,
            22.70859
          ],
          [
            120.32906,
            22.70775
          ],
          [
            120.32879,
            22.7068
          ],
          [
            120.32866,
            22.70617
          ],
          [
            120.32862,
            22.70595
          ],
          [
            120.3285,
            22.70559
          ],
          [
            120.32839,
            22.7051
          ],
          [
            120.32826,
            22.7045
          ],
          [
            120.32815,
            22.70418
          ],
          [
            120.32803,
            22.70378
          ],
          [
            120.3279,
            22.70314
          ],
          [
            120.32785,
            22.70272
          ],
          [
            120.32784,
            22.70233
          ],
          [
            120.32781,
            22.70207
          ],
          [
            120.32769,
            22.70147
          ],
          [
            120.32753,
            22.70071
          ],
          [
            120.32748,
            22.70032
          ],
          [
            120.32748,
            22.70001
          ],
          [
            120.32747,
            22.6996
          ],
          [
            120.32744,
            22.69923
          ],
          [
            120.32734,
            22.69819
          ],
          [
            120.32731,
            22.69773
          ],
          [
            120.32731,
            22.69729
          ],
          [
            120.32734,
            22.69655
          ],
          [
            120.32737,
            22.69606
          ],
          [
            120.32734,
            22.69463
          ],
          [
            120.32741,
            22.6941
          ],
          [
            120.32746,
            22.69369
          ],
          [
            120.32748,
            22.69307
          ],
          [
            120.32751,
            22.69289
          ],
          [
            120.32755,
            22.69249
          ],
          [
            120.32756,
            22.69197
          ],
          [
            120.3276,
            22.69138
          ],
          [
            120.32769,
            22.69073
          ],
          [
            120.32773,
            22.69007
          ],
          [
            120.32772,
            22.68943
          ],
          [
            120.32781,
            22.6886
          ],
          [
            120.32782,
            22.68831
          ],
          [
            120.32786,
            22.68796
          ],
          [
            120.32795,
            22.68736
          ],
          [
            120.328,
            22.68672
          ],
          [
            120.32808,
            22.68593
          ],
          [
            120.32812,
            22.68498
          ],
          [
            120.32815,
            22.68401
          ],
          [
            120.32826,
            22.68313
          ],
          [
            120.32836,
            22.68175
          ],
          [
            120.32859,
            22.67917
          ],
          [
            120.32884,
            22.67618
          ],
          [
            120.32897,
            22.67468
          ],
          [
            120.32906,
            22.67297
          ],
          [
            120.32915,
            22.6722
          ],
          [
            120.32954,
            22.66684
          ],
          [
            120.32958,
            22.66593
          ],
          [
            120.32975,
            22.66474
          ],
          [
            120.32982,
            22.66429
          ],
          [
            120.33002,
            22.66357
          ],
          [
            120.33013,
            22.66319
          ],
          [
            120.33031,
            22.66258
          ],
          [
            120.33056,
            22.66183
          ],
          [
            120.33099,
            22.6608
          ],
          [
            120.33134,
            22.66005
          ],
          [
            120.33238,
            22.65809
          ],
          [
            120.3332,
            22.65646
          ],
          [
            120.33395,
            22.65478
          ],
          [
            120.33406,
            22.65463
          ],
          [
            120.33416,
            22.65449
          ],
          [
            120.33442,
            22.65381
          ],
          [
            120.33479,
            22.65279
          ],
          [
            120.33544,
            22.65092
          ],
          [
            120.33594,
            22.64909
          ],
          [
            120.33618,
            22.64809
          ],
          [
            120.33638,
            22.64716
          ],
          [
            120.33649,
            22.64645
          ],
          [
            120.33656,
            22.6461
          ],
          [
            120.33673,
            22.64521
          ],
          [
            120.3369,
            22.64372
          ],
          [
            120.33685,
            22.64356
          ],
          [
            120.33684,
            22.64339
          ],
          [
            120.33683,
            22.64259
          ],
          [
            120.33686,
            22.64162
          ],
          [
            120.33689,
            22.63994
          ],
          [
            120.33682,
            22.6381
          ],
          [
            120.33681,
            22.63795
          ],
          [
            120.33676,
            22.63772
          ],
          [
            120.33673,
            22.63768
          ],
          [
            120.33672,
            22.63756
          ],
          [
            120.33673,
            22.63744
          ],
          [
            120.33661,
            22.63599
          ],
          [
            120.33658,
            22.63576
          ],
          [
            120.33659,
            22.63573
          ],
          [
            120.33661,
            22.63566
          ],
          [
            120.33671,
            22.63558
          ],
          [
            120.33687,
            22.63552
          ],
          [
            120.33726,
            22.63547
          ],
          [
            120.33736,
            22.63548
          ],
          [
            120.33744,
            22.63553
          ],
          [
            120.33746,
            22.63559
          ],
          [
            120.33758,
            22.6374
          ],
          [
            120.33855,
            22.63721
          ],
          [
            120.33923,
            22.63711
          ],
          [
            120.33923,
            22.63711
          ],
          [
            120.33947,
            22.63707
          ],
          [
            120.34013,
            22.63695
          ],
          [
            120.34083,
            22.63682
          ],
          [
            120.34089,
            22.63682
          ],
          [
            120.34107,
            22.63678
          ],
          [
            120.34155,
            22.63668
          ],
          [
            120.34239,
            22.63656
          ],
          [
            120.34343,
            22.63636
          ],
          [
            120.34343,
            22.63636
          ],
          [
            120.34332,
            22.63603
          ],
          [
            120.3433,
            22.63599
          ],
          [
            120.34326,
            22.63586
          ],
          [
            120.34324,
            22.63579
          ],
          [
            120.34321,
            22.63573
          ],
          [
            120.34316,
            22.63567
          ],
          [
            120.34311,
            22.63561
          ],
          [
            120.34275,
            22.63521
          ],
          [
            120.3421,
            22.63451
          ],
          [
            120.34198,
            22.63436
          ],
          [
            120.34195,
            22.63432
          ],
          [
            120.34185,
            22.6342
          ],
          [
            120.3418,
            22.63414
          ],
          [
            120.34172,
            22.63406
          ],
          [
            120.34142,
            22.63371
          ],
          [
            120.34096,
            22.63307
          ],
          [
            120.34056,
            22.63259
          ],
          [
            120.34011,
            22.63202
          ],
          [
            120.34001,
            22.63191
          ],
          [
            120.33969,
            22.63154
          ],
          [
            120.33962,
            22.63145
          ],
          [
            120.33929,
            22.63107
          ],
          [
            120.33912,
            22.6309
          ],
          [
            120.33901,
            22.63075
          ],
          [
            120.33878,
            22.63047
          ],
          [
            120.33853,
            22.63014
          ],
          [
            120.33835,
            22.6299
          ],
          [
            120.33835,
            22.6299
          ],
          [
            120.33779,
            22.63006
          ],
          [
            120.33754,
            22.63014
          ],
          [
            120.33729,
            22.63023
          ],
          [
            120.33714,
            22.63026
          ],
          [
            120.33678,
            22.63036
          ],
          [
            120.33657,
            22.63041
          ],
          [
            120.33619,
            22.63053
          ],
          [
            120.336,
            22.63058
          ],
          [
            120.336,
            22.63058
          ],
          [
            120.33591,
            22.63018
          ],
          [
            120.33591,
            22.62984
          ],
          [
            120.33586,
            22.62888
          ],
          [
            120.33585,
            22.62868
          ],
          [
            120.33585,
            22.62853
          ],
          [
            120.33585,
            22.6284
          ],
          [
            120.33585,
            22.62829
          ],
          [
            120.33584,
            22.62816
          ],
          [
            120.33584,
            22.628
          ],
          [
            120.33584,
            22.62784
          ],
          [
            120.33584,
            22.62752
          ],
          [
            120.33584,
            22.62741
          ],
          [
            120.33584,
            22.62741
          ],
          [
            120.33567,
            22.62728
          ],
          [
            120.33564,
            22.62725
          ],
          [
            120.33561,
            22.62723
          ],
          [
            120.33557,
            22.6272
          ],
          [
            120.33552,
            22.62718
          ],
          [
            120.33544,
            22.62716
          ],
          [
            120.33541,
            22.62716
          ],
          [
            120.33533,
            22.62714
          ],
          [
            120.33526,
            22.62716
          ],
          [
            120.33399,
            22.62758
          ],
          [
            120.33373,
            22.62766
          ],
          [
            120.33373,
            22.62766
          ],
          [
            120.33361,
            22.62769
          ],
          [
            120.33342,
            22.62775
          ],
          [
            120.33271,
            22.62798
          ],
          [
            120.33236,
            22.6281
          ],
          [
            120.33213,
            22.62816
          ],
          [
            120.33039,
            22.62875
          ],
          [
            120.3293,
            22.62911
          ],
          [
            120.3281,
            22.62947
          ],
          [
            120.32771,
            22.62959
          ],
          [
            120.32771,
            22.62959
          ],
          [
            120.32763,
            22.62961
          ],
          [
            120.32746,
            22.62961
          ],
          [
            120.32663,
            22.62967
          ],
          [
            120.32663,
            22.62967
          ],
          [
            120.32636,
            22.62969
          ],
          [
            120.32546,
            22.62976
          ],
          [
            120.32461,
            22.62982
          ],
          [
            120.32451,
            22.62983
          ],
          [
            120.32392,
            22.62987
          ],
          [
            120.32373,
            22.62988
          ],
          [
            120.32334,
            22.62991
          ],
          [
            120.32315,
            22.62992
          ],
          [
            120.32252,
            22.62996
          ],
          [
            120.32237,
            22.62997
          ],
          [
            120.32043,
            22.63011
          ],
          [
            120.32043,
            22.63011
          ],
          [
            120.31992,
            22.63015
          ],
          [
            120.31973,
            22.63017
          ],
          [
            120.31914,
            22.63022
          ],
          [
            120.31804,
            22.63033
          ],
          [
            120.31796,
            22.63033
          ],
          [
            120.31737,
            22.63038
          ],
          [
            120.31683,
            22.63041
          ],
          [
            120.31566,
            22.63049
          ],
          [
            120.31524,
            22.63052
          ],
          [
            120.31453,
            22.63057
          ],
          [
            120.31429,
            22.63059
          ],
          [
            120.31403,
            22.63062
          ],
          [
            120.31402,
            22.63061
          ],
          [
            120.31385,
            22.63063
          ],
          [
            120.31345,
            22.63065
          ],
          [
            120.31345,
            22.63065
          ],
          [
            120.31331,
            22.63066
          ],
          [
            120.31332,
            22.63084
          ],
          [
            120.31334,
            22.63102
          ],
          [
            120.31337,
            22.63131
          ],
          [
            120.31338,
            22.63144
          ],
          [
            120.31339,
            22.63153
          ],
          [
            120.31344,
            22.63203
          ],
          [
            120.31346,
            22.63222
          ],
          [
            120.31351,
            22.63298
          ],
          [
            120.31352,
            22.63329
          ],
          [
            120.31353,
            22.63353
          ],
          [
            120.31355,
            22.6338
          ],
          [
            120.31356,
            22.63404
          ],
          [
            120.31357,
            22.63419
          ],
          [
            120.31358,
            22.63433
          ],
          [
            120.31359,
            22.6345
          ],
          [
            120.31364,
            22.63506
          ],
          [
            120.31366,
            22.63531
          ],
          [
            120.31366,
            22.63531
          ],
          [
            120.31378,
            22.63536
          ],
          [
            120.3138,
            22.63566
          ],
          [
            120.31382,
            22.63593
          ],
          [
            120.31385,
            22.63644
          ],
          [
            120.31385,
            22.63654
          ],
          [
            120.31386,
            22.63666
          ],
          [
            120.31388,
            22.63691
          ],
          [
            120.31389,
            22.63705
          ],
          [
            120.31389,
            22.63707
          ],
          [
            120.31389,
            22.63707
          ],
          [
            120.31386,
            22.6371
          ],
          [
            120.31378,
            22.63716
          ],
          [
            120.31366,
            22.63724
          ],
          [
            120.31359,
            22.63725
          ],
          [
            120.31329,
            22.63728
          ],
          [
            120.31326,
            22.63728
          ],
          [
            120.31319,
            22.63729
          ],
          [
            120.31211,
            22.63741
          ],
          [
            120.31114,
            22.63753
          ],
          [
            120.31078,
            22.63755
          ],
          [
            120.30866,
            22.63753
          ],
          [
            120.30769,
            22.63754
          ],
          [
            120.30758,
            22.63754
          ],
          [
            120.30736,
            22.63753
          ],
          [
            120.30651,
            22.63756
          ],
          [
            120.30629,
            22.63756
          ],
          [
            120.30598,
            22.63756
          ],
          [
            120.30516,
            22.63758
          ],
          [
            120.30396,
            22.63764
          ],
          [
            120.30379,
            22.63766
          ],
          [
            120.30374,
            22.63766
          ]
        ]
      }
    },
    {
      "type": "Feature",
      "properties": {
        "feature_type": "route",
        "ref": "7512",
        "name": "7512",
        "name_en": "7512",
        "color": "#115e59",
        "direction": 1
      },
      "geometry": {
        "type": "LineString",
        "coordinates": [
          [
            120.30433,
            22.63762
          ],
          [
            120.30516,
            22.63758
          ],
          [
            120.30598,
            22.63756
          ],
          [
            120.30629,
            22.63756
          ],
          [
            120.30651,
            22.63756
          ],
          [
            120.30736,
            22.63753
          ],
          [
            120.30758,
            22.63754
          ],
          [
            120.30769,
            22.63754
          ],
          [
            120.30866,
            22.63753
          ],
          [
            120.31078,
            22.63755
          ],
          [
            120.31114,
            22.63753
          ],
          [
            120.31211,
            22.63741
          ],
          [
            120.31319,
            22.63729
          ],
          [
            120.31326,
            22.63728
          ],
          [
            120.31329,
            22.63728
          ],
          [
            120.31337,
            22.63723
          ],
          [
            120.31341,
            22.63722
          ],
          [
            120.3135,
            22.6372
          ],
          [
            120.31354,
            22.63718
          ],
          [
            120.31359,
            22.63717
          ],
          [
            120.31359,
            22.63717
          ],
          [
            120.31356,
            22.63678
          ],
          [
            120.31358,
            22.63671
          ],
          [
            120.31356,
            22.63656
          ],
          [
            120.31356,
            22.63654
          ],
          [
            120.31351,
            22.6359
          ],
          [
            120.31349,
            22.6357
          ],
          [
            120.3134,
            22.63521
          ],
          [
            120.3134,
            22.63521
          ],
          [
            120.31356,
            22.63528
          ],
          [
            120.31351,
            22.63493
          ],
          [
            120.31349,
            22.63466
          ],
          [
            120.31348,
            22.63451
          ],
          [
            120.31345,
            22.63425
          ],
          [
            120.31342,
            22.63399
          ],
          [
            120.31341,
            22.63381
          ],
          [
            120.31336,
            22.63316
          ],
          [
            120.31335,
            22.633
          ],
          [
            120.31332,
            22.63243
          ],
          [
            120.3133,
            22.63224
          ],
          [
            120.31327,
            22.63159
          ],
          [
            120.31326,
            22.63145
          ],
          [
            120.31326,
            22.63138
          ],
          [
            120.31323,
            22.63111
          ],
          [
            120.31321,
            22.63089
          ],
          [
            120.3132,
            22.63085
          ],
          [
            120.31319,
            22.63068
          ],
          [
            120.31319,
            22.63068
          ],
          [
            120.31318,
            22.63056
          ],
          [
            120.31325,
            22.63055
          ],
          [
            120.31331,
            22.63055
          ],
          [
            120.31344,
            22.63054
          ],
          [
            120.31484,
            22.63042
          ],
          [
            120.31487,
            22.63042
          ],
          [
            120.31523,
            22.63039
          ],
          [
            120.31683,
            22.63028
          ],
          [
            120.31744,
            22.63024
          ],
          [
            120.31765,
            22.63023
          ],
          [
            120.318,
            22.63021
          ],
          [
            120.318,
            22.63021
          ],
          [
            120.31806,
            22.63021
          ],
          [
            120.3182,
            22.6302
          ],
          [
            120.31915,
            22.63013
          ],
          [
            120.31974,
            22.63008
          ],
          [
            120.32042,
            22.63002
          ],
          [
            120.32042,
            22.63002
          ],
          [
            120.32217,
            22.62991
          ],
          [
            120.32246,
            22.62989
          ],
          [
            120.32314,
            22.62984
          ],
          [
            120.32353,
            22.62981
          ],
          [
            120.32372,
            22.6298
          ],
          [
            120.32392,
            22.62979
          ],
          [
            120.3245,
            22.62975
          ],
          [
            120.32565,
            22.62967
          ],
          [
            120.32611,
            22.62964
          ],
          [
            120.32759,
            22.62952
          ],
          [
            120.32769,
            22.6295
          ],
          [
            120.32884,
            22.62913
          ],
          [
            120.32925,
            22.629
          ],
          [
            120.32952,
            22.62891
          ],
          [
            120.33005,
            22.62873
          ],
          [
            120.33026,
            22.62866
          ],
          [
            120.33102,
            22.62841
          ],
          [
            120.33102,
            22.62841
          ],
          [
            120.33231,
            22.62798
          ],
          [
            120.33441,
            22.62725
          ],
          [
            120.33543,
            22.62693
          ],
          [
            120.33597,
            22.62676
          ],
          [
            120.33656,
            22.62659
          ],
          [
            120.33656,
            22.6267
          ],
          [
            120.33655,
            22.62732
          ],
          [
            120.33662,
            22.62818
          ],
          [
            120.33668,
            22.62901
          ],
          [
            120.33672,
            22.62984
          ],
          [
            120.33678,
            22.63037
          ],
          [
            120.33689,
            22.63069
          ],
          [
            120.33692,
            22.63098
          ],
          [
            120.33694,
            22.63122
          ],
          [
            120.33705,
            22.63239
          ],
          [
            120.33711,
            22.63334
          ],
          [
            120.33715,
            22.63391
          ],
          [
            120.33731,
            22.63547
          ],
          [
            120.33748,
            22.6372
          ],
          [
            120.33754,
            22.63729
          ],
          [
            120.33758,
            22.63731
          ],
          [
            120.33758,
            22.6374
          ],
          [
            120.33758,
            22.63762
          ],
          [
            120.33758,
            22.63762
          ],
          [
            120.33758,
            22.63777
          ],
          [
            120.33755,
            22.63779
          ],
          [
            120.33753,
            22.63786
          ],
          [
            120.33757,
            22.63959
          ],
          [
            120.33757,
            22.64007
          ],
          [
            120.33741,
            22.64178
          ],
          [
            120.3373,
            22.6425
          ],
          [
            120.33726,
            22.64268
          ],
          [
            120.33715,
            22.64295
          ],
          [
            120.3371,
            22.64352
          ],
          [
            120.33699,
            22.6444
          ],
          [
            120.33684,
            22.64548
          ],
          [
            120.33672,
            22.64612
          ],
          [
            120.33665,
            22.64647
          ],
          [
            120.33614,
            22.64908
          ],
          [
            120.33594,
            22.64984
          ],
          [
            120.33564,
            22.65074
          ],
          [
            120.33471,
            22.65347
          ],
          [
            120.33429,
            22.65454
          ],
          [
            120.33409,
            22.655
          ],
          [
            120.33334,
            22.65668
          ],
          [
            120.33287,
            22.65762
          ],
          [
            120.33257,
            22.65818
          ],
          [
            120.33162,
            22.65996
          ],
          [
            120.33115,
            22.66093
          ],
          [
            120.33089,
            22.66155
          ],
          [
            120.33044,
            22.66298
          ],
          [
            120.33014,
            22.66406
          ],
          [
            120.32983,
            22.6658
          ],
          [
            120.32981,
            22.66602
          ],
          [
            120.32975,
            22.6662
          ],
          [
            120.3297,
            22.66662
          ],
          [
            120.32968,
            22.66687
          ],
          [
            120.32965,
            22.66729
          ],
          [
            120.32958,
            22.66807
          ],
          [
            120.32955,
            22.66878
          ],
          [
            120.32947,
            22.66974
          ],
          [
            120.32948,
            22.6702
          ],
          [
            120.32947,
            22.67041
          ],
          [
            120.32939,
            22.6708
          ],
          [
            120.32935,
            22.6712
          ],
          [
            120.32935,
            22.67176
          ],
          [
            120.32929,
            22.67231
          ],
          [
            120.32918,
            22.67324
          ],
          [
            120.32918,
            22.67378
          ],
          [
            120.32912,
            22.67472
          ],
          [
            120.32901,
            22.67588
          ],
          [
            120.32871,
            22.67944
          ],
          [
            120.32853,
            22.68196
          ],
          [
            120.32838,
            22.68354
          ],
          [
            120.32833,
            22.68416
          ],
          [
            120.3283,
            22.68517
          ],
          [
            120.32826,
            22.68626
          ],
          [
            120.3282,
            22.68675
          ],
          [
            120.32815,
            22.68743
          ],
          [
            120.32807,
            22.68795
          ],
          [
            120.32803,
            22.6883
          ],
          [
            120.32798,
            22.68901
          ],
          [
            120.32794,
            22.68946
          ],
          [
            120.32795,
            22.68988
          ],
          [
            120.32795,
            22.69032
          ],
          [
            120.3279,
            22.69082
          ],
          [
            120.32779,
            22.69166
          ],
          [
            120.32779,
            22.69237
          ],
          [
            120.32775,
            22.69277
          ],
          [
            120.32768,
            22.69356
          ],
          [
            120.32765,
            22.69404
          ],
          [
            120.32761,
            22.69432
          ],
          [
            120.3276,
            22.69446
          ],
          [
            120.32757,
            22.69473
          ],
          [
            120.32758,
            22.69502
          ],
          [
            120.32759,
            22.69577
          ],
          [
            120.32758,
            22.69626
          ],
          [
            120.32755,
            22.69691
          ],
          [
            120.32754,
            22.69764
          ],
          [
            120.32765,
            22.69919
          ],
          [
            120.3277,
            22.69963
          ],
          [
            120.32771,
            22.69998
          ],
          [
            120.3277,
            22.70025
          ],
          [
            120.32773,
            22.70042
          ],
          [
            120.3278,
            22.70092
          ],
          [
            120.32788,
            22.70145
          ],
          [
            120.328,
            22.70192
          ],
          [
            120.32806,
            22.7023
          ],
          [
            120.32811,
            22.70275
          ],
          [
            120.32813,
            22.70293
          ],
          [
            120.32825,
            22.70354
          ],
          [
            120.32837,
            22.70404
          ],
          [
            120.32853,
            22.70462
          ],
          [
            120.32875,
            22.70567
          ],
          [
            120.32897,
            22.70652
          ],
          [
            120.32912,
            22.70717
          ],
          [
            120.32924,
            22.70757
          ],
          [
            120.32931,
            22.70791
          ],
          [
            120.32942,
            22.7084
          ],
          [
            120.32961,
            22.70912
          ],
          [
            120.32981,
            22.70998
          ],
          [
            120.32995,
            22.71063
          ],
          [
            120.33006,
            22.71103
          ],
          [
            120.33021,
            22.71156
          ],
          [
            120.33047,
            22.71272
          ],
          [
            120.3306,
            22.7132
          ],
          [
            120.33068,
            22.71344
          ],
          [
            120.33081,
            22.7142
          ],
          [
            120.3309,
            22.71428
          ],
          [
            120.33104,
            22.71478
          ],
          [
            120.33116,
            22.71522
          ],
          [
            120.33123,
            22.71539
          ],
          [
            120.33141,
            22.71584
          ],
          [
            120.33153,
            22.7163
          ],
          [
            120.33154,
            22.71639
          ],
          [
            120.33157,
            22.71643
          ],
          [
            120.3317,
            22.71696
          ],
          [
            120.33194,
            22.71768
          ],
          [
            120.33212,
            22.71841
          ],
          [
            120.33219,
            22.71876
          ],
          [
            120.3325,
            22.7199
          ],
          [
            120.3327,
            22.72053
          ],
          [
            120.33274,
            22.72063
          ],
          [
            120.3324,
            22.72113
          ],
          [
            120.33176,
            22.72208
          ],
          [
            120.33152,
            22.72243
          ],
          [
            120.33182,
            22.72257
          ],
          [
            120.33211,
            22.72273
          ],
          [
            120.33211,
            22.72273
          ],
          [
            120.33285,
            22.72312
          ],
          [
            120.33339,
            22.72341
          ],
          [
            120.3334,
            22.7235
          ],
          [
            120.33357,
            22.72422
          ],
          [
            120.33389,
            22.72553
          ],
          [
            120.33406,
            22.72623
          ],
          [
            120.33417,
            22.72677
          ],
          [
            120.33431,
            22.72765
          ],
          [
            120.3344,
            22.72821
          ],
          [
            120.3344,
            22.72873
          ],
          [
            120.33447,
            22.72936
          ],
          [
            120.33452,
            22.72972
          ],
          [
            120.33459,
            22.73076
          ],
          [
            120.33458,
            22.7316
          ],
          [
            120.33456,
            22.73189
          ],
          [
            120.33454,
            22.73247
          ],
          [
            120.33454,
            22.73378
          ],
          [
            120.33464,
            22.73706
          ],
          [
            120.33469,
            22.73873
          ],
          [
            120.33472,
            22.73967
          ],
          [
            120.33478,
            22.7404
          ],
          [
            120.3348,
            22.74138
          ],
          [
            120.33481,
            22.74263
          ],
          [
            120.33474,
            22.74288
          ],
          [
            120.33482,
            22.74494
          ],
          [
            120.33484,
            22.74563
          ],
          [
            120.33482,
            22.74677
          ],
          [
            120.33476,
            22.7484
          ],
          [
            120.33467,
            22.74942
          ],
          [
            120.33459,
            22.75016
          ],
          [
            120.33443,
            22.75119
          ],
          [
            120.33411,
            22.75288
          ],
          [
            120.33382,
            22.7541
          ],
          [
            120.33352,
            22.75522
          ],
          [
            120.33312,
            22.75651
          ],
          [
            120.33248,
            22.75829
          ],
          [
            120.33205,
            22.7593
          ],
          [
            120.33111,
            22.76131
          ],
          [
            120.3296,
            22.76444
          ],
          [
            120.32874,
            22.7663
          ],
          [
            120.32781,
            22.7685
          ],
          [
            120.32641,
            22.77214
          ],
          [
            120.32392,
            22.77892
          ],
          [
            120.32263,
            22.78251
          ],
          [
            120.32228,
            22.78336
          ],
          [
            120.32152,
            22.78543
          ],
          [
            120.32118,
            22.78639
          ],
          [
            120.32065,
            22.78803
          ],
          [
            120.31943,
            22.7924
          ],
          [
            120.31548,
            22.80783
          ],
          [
            120.31477,
            22.81065
          ],
          [
            120.31397,
            22.81367
          ],
          [
            120.31331,
            22.81621
          ],
          [
            120.31279,
            22.81811
          ],
          [
            120.31212,
            22.81995
          ],
          [
            120.31143,
            22.82161
          ],
          [
            120.31068,
            22.82314
          ],
          [
            120.31015,
            22.82409
          ],
          [
            120.30939,
            22.82537
          ],
          [
            120.30838,
            22.82689
          ],
          [
            120.30746,
            22.82825
          ],
          [
            120.30601,
            22.83039
          ],
          [
            120.30287,
            22.83497
          ],
          [
            120.29883,
            22.84082
          ],
          [
            120.29357,
            22.84852
          ],
          [
            120.29338,
            22.84879
          ],
          [
            120.29279,
            22.84968
          ],
          [
            120.29204,
            22.85094
          ],
          [
            120.29125,
            22.85242
          ],
          [
            120.29079,
            22.85336
          ],
          [
            120.29049,
            22.85398
          ],
          [
            120.28609,
            22.86493
          ],
          [
            120.28396,
            22.87015
          ],
          [
            120.28275,
            22.87289
          ],
          [
            120.28173,
            22.87499
          ],
          [
            120.28121,
            22.87599
          ],
          [
            120.27928,
            22.8796
          ],
          [
            120.27797,
            22.88204
          ],
          [
            120.27724,
            22.88343
          ],
          [
            120.27533,
            22.887
          ],
          [
            120.27381,
            22.88977
          ],
          [
            120.27128,
            22.89448
          ],
          [
            120.27024,
            22.89651
          ],
          [
            120.26875,
            22.89957
          ],
          [
            120.26757,
            22.90207
          ],
          [
            120.26528,
            22.90723
          ],
          [
            120.26343,
            22.91138
          ],
          [
            120.26011,
            22.91876
          ],
          [
            120.25611,
            22.92762
          ],
          [
            120.2546,
            22.93094
          ],
          [
            120.25317,
            22.93415
          ],
          [
            120.25243,
            22.9357
          ],
          [
            120.2517,
            22.93737
          ],
          [
            120.25111,
            22.93866
          ],
          [
            120.25045,
            22.94028
          ],
          [
            120.25017,
            22.94114
          ],
          [
            120.24974,
            22.94273
          ],
          [
            120.24962,
            22.9432
          ],
          [
            120.24932,
            22.94451
          ],
          [
            120.2492,
            22.94517
          ],
          [
            120.249,
            22.94685
          ],
          [
            120.24896,
            22.94738
          ],
          [
            120.24894,
            22.94828
          ],
          [
            120.24895,
            22.95015
          ],
          [
            120.24898,
            22.95043
          ],
          [
            120.24907,
            22.95154
          ],
          [
            120.24935,
            22.95469
          ],
          [
            120.24977,
            22.95977
          ],
          [
            120.24988,
            22.96064
          ],
          [
            120.24992,
            22.96161
          ],
          [
            120.25004,
            22.96252
          ],
          [
            120.25009,
            22.96334
          ],
          [
            120.25015,
            22.96486
          ],
          [
            120.25013,
            22.96665
          ],
          [
            120.25009,
            22.96758
          ],
          [
            120.24992,
            22.96932
          ],
          [
            120.24969,
            22.97084
          ],
          [
            120.24961,
            22.97128
          ],
          [
            120.24946,
            22.97216
          ],
          [
            120.24918,
            22.97395
          ],
          [
            120.24873,
            22.97703
          ],
          [
            120.24852,
            22.97916
          ],
          [
            120.24844,
            22.98027
          ],
          [
            120.24841,
            22.98164
          ],
          [
            120.24838,
            22.9838
          ],
          [
            120.24838,
            22.98534
          ],
          [
            120.24834,
            22.98725
          ],
          [
            120.24829,
            22.99067
          ],
          [
            120.24835,
            22.99199
          ],
          [
            120.24831,
            22.99737
          ],
          [
            120.24826,
            22.99878
          ],
          [
            120.2482,
            23.00418
          ],
          [
            120.24825,
            23.00593
          ],
          [
            120.24839,
            23.00751
          ],
          [
            120.24854,
            23.00844
          ],
          [
            120.24883,
            23.00985
          ],
          [
            120.24905,
            23.01073
          ],
          [
            120.2496,
            23.01262
          ],
          [
            120.24998,
            23.0139
          ],
          [
            120.25035,
            23.01522
          ],
          [
            120.25041,
            23.01542
          ],
          [
            120.25056,
            23.01601
          ],
          [
            120.25066,
            23.01654
          ],
          [
            120.25074,
            23.01716
          ],
          [
            120.25079,
            23.01804
          ],
          [
            120.25079,
            23.01851
          ],
          [
            120.25076,
            23.01902
          ],
          [
            120.25067,
            23.01967
          ],
          [
            120.25007,
            23.02214
          ],
          [
            120.25,
            23.02242
          ],
          [
            120.2498,
            23.02325
          ],
          [
            120.24967,
            23.02392
          ],
          [
            120.24963,
            23.02424
          ],
          [
            120.24951,
            23.02493
          ],
          [
            120.24939,
            23.02618
          ],
          [
            120.24938,
            23.02657
          ],
          [
            120.24937,
            23.02684
          ],
          [
            120.24935,
            23.02809
          ],
          [
            120.24948,
            23.03061
          ],
          [
            120.24956,
            23.03136
          ],
          [
            120.24966,
            23.03215
          ],
          [
            120.24998,
            23.03409
          ],
          [
            120.2504,
            23.03635
          ],
          [
            120.25061,
            23.03739
          ],
          [
            120.25111,
            23.03998
          ],
          [
            120.25156,
            23.04212
          ],
          [
            120.25204,
            23.04482
          ],
          [
            120.25259,
            23.04753
          ],
          [
            120.2528,
            23.04887
          ],
          [
            120.25293,
            23.05001
          ],
          [
            120.2532,
            23.0523
          ],
          [
            120.25334,
            23.05504
          ],
          [
            120.25333,
            23.05548
          ],
          [
            120.25333,
            23.05695
          ],
          [
            120.25336,
            23.06062
          ],
          [
            120.25334,
            23.06246
          ],
          [
            120.2533,
            23.06461
          ],
          [
            120.25324,
            23.06624
          ],
          [
            120.2531,
            23.07044
          ],
          [
            120.25292,
            23.07276
          ],
          [
            120.25266,
            23.07585
          ],
          [
            120.25245,
            23.07745
          ],
          [
            120.25222,
            23.07987
          ],
          [
            120.25199,
            23.08201
          ],
          [
            120.25167,
            23.08457
          ],
          [
            120.25169,
            23.08476
          ],
          [
            120.25132,
            23.08676
          ],
          [
            120.251,
            23.08933
          ],
          [
            120.25087,
            23.09031
          ],
          [
            120.24926,
            23.09839
          ],
          [
            120.24892,
            23.10021
          ],
          [
            120.24885,
            23.10056
          ],
          [
            120.24839,
            23.10266
          ],
          [
            120.24809,
            23.10383
          ],
          [
            120.24751,
            23.10595
          ],
          [
            120.24699,
            23.10767
          ],
          [
            120.24694,
            23.10784
          ],
          [
            120.2459,
            23.11133
          ],
          [
            120.24557,
            23.11237
          ],
          [
            120.24482,
            23.11454
          ],
          [
            120.24402,
            23.11669
          ],
          [
            120.24362,
            23.11768
          ],
          [
            120.24353,
            23.11796
          ],
          [
            120.24324,
            23.11866
          ],
          [
            120.24177,
            23.12221
          ],
          [
            120.24139,
            23.12312
          ],
          [
            120.24054,
            23.12498
          ],
          [
            120.24031,
            23.12547
          ],
          [
            120.2401,
            23.12593
          ],
          [
            120.2388,
            23.12875
          ],
          [
            120.23769,
            23.13105
          ],
          [
            120.23532,
            23.13607
          ],
          [
            120.23485,
            23.13709
          ],
          [
            120.23385,
            23.13945
          ],
          [
            120.23342,
            23.14058
          ],
          [
            120.23312,
            23.14139
          ],
          [
            120.23254,
            23.14312
          ],
          [
            120.23208,
            23.14474
          ],
          [
            120.2319,
            23.14544
          ],
          [
            120.23171,
            23.1463
          ],
          [
            120.23132,
            23.14825
          ],
          [
            120.23116,
            23.14925
          ],
          [
            120.23092,
            23.15126
          ],
          [
            120.23073,
            23.1547
          ],
          [
            120.23075,
            23.15695
          ],
          [
            120.23083,
            23.15819
          ],
          [
            120.23092,
            23.15934
          ],
          [
            120.23101,
            23.16021
          ],
          [
            120.23136,
            23.16257
          ],
          [
            120.23151,
            23.16331
          ],
          [
            120.23156,
            23.16368
          ],
          [
            120.23183,
            23.16489
          ],
          [
            120.23208,
            23.16589
          ],
          [
            120.2326,
            23.16786
          ],
          [
            120.23333,
            23.17059
          ],
          [
            120.23378,
            23.17242
          ],
          [
            120.23445,
            23.17513
          ],
          [
            120.23517,
            23.17865
          ],
          [
            120.23524,
            23.17901
          ],
          [
            120.23574,
            23.1823
          ],
          [
            120.23591,
            23.18374
          ],
          [
            120.23606,
            23.18521
          ],
          [
            120.23618,
            23.18647
          ],
          [
            120.23626,
            23.18764
          ],
          [
            120.23628,
            23.188
          ],
          [
            120.23645,
            23.192
          ],
          [
            120.23649,
            23.19462
          ],
          [
            120.23651,
            23.19705
          ],
          [
            120.23654,
            23.19881
          ],
          [
            120.23657,
            23.20084
          ],
          [
            120.23657,
            23.20146
          ],
          [
            120.2366,
            23.202
          ],
          [
            120.23672,
            23.20473
          ],
          [
            120.23684,
            23.20632
          ],
          [
            120.23697,
            23.20796
          ],
          [
            120.23715,
            23.20945
          ],
          [
            120.23718,
            23.20974
          ],
          [
            120.23753,
            23.21194
          ],
          [
            120.2377,
            23.21279
          ],
          [
            120.23805,
            23.21464
          ],
          [
            120.23834,
            23.21592
          ],
          [
            120.23904,
            23.21863
          ],
          [
            120.23947,
            23.21995
          ],
          [
            120.24035,
            23.22275
          ],
          [
            120.24041,
            23.22292
          ],
          [
            120.24056,
            23.22338
          ],
          [
            120.24107,
            23.22462
          ],
          [
            120.24184,
            23.22653
          ],
          [
            120.24193,
            23.22671
          ],
          [
            120.24221,
            23.2274
          ],
          [
            120.24313,
            23.22932
          ],
          [
            120.24394,
            23.23096
          ],
          [
            120.24461,
            23.23217
          ],
          [
            120.24474,
            23.23241
          ],
          [
            120.24527,
            23.23344
          ],
          [
            120.24738,
            23.23734
          ],
          [
            120.25016,
            23.24245
          ],
          [
            120.25331,
            23.24818
          ],
          [
            120.25626,
            23.25367
          ],
          [
            120.25712,
            23.25528
          ],
          [
            120.25832,
            23.25773
          ],
          [
            120.25869,
            23.25854
          ],
          [
            120.26057,
            23.2625
          ],
          [
            120.2614,
            23.26427
          ],
          [
            120.26242,
            23.26648
          ],
          [
            120.26315,
            23.26802
          ],
          [
            120.26412,
            23.26988
          ],
          [
            120.26488,
            23.27114
          ],
          [
            120.26504,
            23.27137
          ],
          [
            120.2661,
            23.27289
          ],
          [
            120.26715,
            23.27422
          ],
          [
            120.26888,
            23.27615
          ],
          [
            120.26913,
            23.2764
          ],
          [
            120.27128,
            23.27849
          ],
          [
            120.27304,
            23.28021
          ],
          [
            120.27544,
            23.28276
          ],
          [
            120.27626,
            23.28376
          ],
          [
            120.27716,
            23.28495
          ],
          [
            120.27737,
            23.28524
          ],
          [
            120.27788,
            23.28599
          ],
          [
            120.27858,
            23.28709
          ],
          [
            120.27915,
            23.28804
          ],
          [
            120.27991,
            23.28938
          ],
          [
            120.28056,
            23.29071
          ],
          [
            120.28142,
            23.2925
          ],
          [
            120.283,
            23.29578
          ],
          [
            120.28438,
            23.29824
          ],
          [
            120.28531,
            23.29963
          ],
          [
            120.28634,
            23.30111
          ],
          [
            120.28662,
            23.30149
          ],
          [
            120.28673,
            23.30164
          ],
          [
            120.28693,
            23.30183
          ],
          [
            120.28708,
            23.30197
          ],
          [
            120.28896,
            23.30431
          ],
          [
            120.28918,
            23.30456
          ],
          [
            120.28923,
            23.3046
          ],
          [
            120.28958,
            23.30502
          ],
          [
            120.28987,
            23.3053
          ],
          [
            120.29014,
            23.30544
          ],
          [
            120.29092,
            23.30563
          ],
          [
            120.29135,
            23.30575
          ],
          [
            120.2918,
            23.306
          ],
          [
            120.29219,
            23.30641
          ],
          [
            120.29243,
            23.30661
          ],
          [
            120.29272,
            23.30669
          ],
          [
            120.29287,
            23.30672
          ],
          [
            120.29335,
            23.30657
          ],
          [
            120.2935,
            23.30652
          ],
          [
            120.29345000000001,
            23.30633
          ],
          [
            120.29323,
            23.30571
          ],
          [
            120.292932,
            23.30488
          ],
          [
            120.29308,
            23.30487
          ]
        ]
      }
    },
    {
      "type": "Feature",
      "properties": {
        "feature_type": "station",
        "ref": "THB178344",
        "name": "新營站",
        "name_en": "Xinying Station",
        "line": "7512",
        "color": "#115e59",
        "direction": 0
      },
      "geometry": {
        "type": "Point",
        "coordinates": [
          120.293149,
          23.304849
        ]
      }
    },
    {
      "type": "Feature",
      "properties": {
        "feature_type": "station",
        "ref": "THB178499",
        "name": "楠梓站",
        "name_en": "Nanzi Station",
        "line": "7512",
        "color": "#115e59",
        "direction": 0
      },
      "geometry": {
        "type": "Point",
        "coordinates": [
          120.33242,
          22.72282
        ]
      }
    },
    {
      "type": "Feature",
      "properties": {
        "feature_type": "station",
        "ref": "THB295248",
        "name": "九如站",
        "name_en": "Jiuru Station",
        "line": "7512",
        "color": "#115e59",
        "direction": 0
      },
      "geometry": {
        "type": "Point",
        "coordinates": [
          120.33922,
          22.63705
        ]
      }
    },
    {
      "type": "Feature",
      "properties": {
        "feature_type": "station",
        "ref": "THB310064",
        "name": "捷運苓雅運動園區站",
        "name_en": "MRT Lingya Sports Park Station",
        "line": "7512",
        "color": "#115e59",
        "direction": 0
      },
      "geometry": {
        "type": "Point",
        "coordinates": [
          120.333743,
          22.627704
        ]
      }
    },
    {
      "type": "Feature",
      "properties": {
        "feature_type": "station",
        "ref": "THB308680",
        "name": "建國客運站",
        "name_en": "Jianguo Bus Terminal",
        "line": "7512",
        "color": "#115e59",
        "direction": 0
      },
      "geometry": {
        "type": "Point",
        "coordinates": [
          120.3037391,
          22.63778089
        ]
      }
    },
    {
      "type": "Feature",
      "properties": {
        "feature_type": "station",
        "ref": "THB279706",
        "name": "建國客運站",
        "name_en": "Kaohsiung Bus Terminal",
        "line": "7512",
        "color": "#115e59",
        "direction": 1
      },
      "geometry": {
        "type": "Point",
        "coordinates": [
          120.3043279,
          22.63754951
        ]
      }
    },
    {
      "type": "Feature",
      "properties": {
        "feature_type": "station",
        "ref": "THB278272",
        "name": "中正站",
        "name_en": "JhongJheng Station",
        "line": "7512",
        "color": "#115e59",
        "direction": 1
      },
      "geometry": {
        "type": "Point",
        "coordinates": [
          120.33187,
          22.628077
        ]
      }
    },
    {
      "type": "Feature",
      "properties": {
        "feature_type": "station",
        "ref": "THB295249",
        "name": "九如站",
        "name_en": "Jiuru Station",
        "line": "7512",
        "color": "#115e59",
        "direction": 1
      },
      "geometry": {
        "type": "Point",
        "coordinates": [
          120.33783,
          22.63774
        ]
      }
    },
    {
      "type": "Feature",
      "properties": {
        "feature_type": "station",
        "ref": "THB178510",
        "name": "楠梓站",
        "name_en": "Nanzi Station",
        "line": "7512",
        "color": "#115e59",
        "direction": 1
      },
      "geometry": {
        "type": "Point",
        "coordinates": [
          120.3321689,
          22.72273242
        ]
      }
    },
    {
      "type": "Feature",
      "properties": {
        "feature_type": "station",
        "ref": "THB178344",
        "name": "新營站",
        "name_en": "Xinying Station",
        "line": "7512",
        "color": "#115e59",
        "direction": 1
      },
      "geometry": {
        "type": "Point",
        "coordinates": [
          120.293149,
          23.304849
        ]
      }
    }
  ]
}
