{
  "type": "FeatureCollection",
  "name": "內科通勤專車20",
  "properties": {
    "id": "taipei_neiketongqinzhuanche20",
    "name": "內科通勤專車20",
    "name_en": "內科通勤專車20",
    "ref": "內科通勤專車20",
    "color": "#9a3412",
    "city_id": "Taipei",
    "source": "TDX Bus Shape / StopOfRoute",
    "official_map_url": "https://ebus.gov.taipei/File/Get/4695ce88-9f28-40b4-bcde-373d20933681?v=639248448847281800",
    "operator_id": "1100",
    "operator": "大南汽車",
    "operator_en": "Danan Bus Co., Ltd."
  },
  "features": [
    {
      "type": "Feature",
      "properties": {
        "feature_type": "route",
        "ref": "內科通勤專車20",
        "name": "內科通勤專車20",
        "name_en": "內科通勤專車20",
        "color": "#9a3412",
        "direction": 0
      },
      "geometry": {
        "type": "LineString",
        "coordinates": [
          [
            121.565311393449,
            25.0410851100822
          ],
          [
            121.566074732863,
            25.0410551188426
          ],
          [
            121.566046076755,
            25.0391643130474
          ],
          [
            121.56370899595845,
            25.039209987570633
          ],
          [
            121.5636695838522,
            25.039216943931397
          ],
          [
            121.56363493667348,
            25.039235473695978
          ],
          [
            121.56360901991201,
            25.039263465331995
          ],
          [
            121.56359478638109,
            25.039297729626355
          ],
          [
            121.56359385777095,
            25.039334362693772
          ],
          [
            121.56360617952193,
            25.03936891240535
          ],
          [
            121.565022362021,
            25.0418160883269
          ],
          [
            121.565875622323,
            25.0432623649609
          ],
          [
            121.566126116228,
            25.0438353203464
          ],
          [
            121.567428486904,
            25.0459606033466
          ],
          [
            121.568246668178,
            25.0473481945269
          ],
          [
            121.568854375284,
            25.0483870871917
          ],
          [
            121.569937872587,
            25.0502061352655
          ],
          [
            121.570001113652,
            25.0504764836105
          ],
          [
            121.570250125344,
            25.0509079654954
          ],
          [
            121.570378583757,
            25.051194425659
          ],
          [
            121.570435895972,
            25.051566822871
          ],
          [
            121.570394394023,
            25.0519195249564
          ],
          [
            121.570204670829,
            25.0530098513815
          ],
          [
            121.570034710468,
            25.0539820061728
          ],
          [
            121.570066331,
            25.0544385402925
          ],
          [
            121.570267911894,
            25.0547983954002
          ],
          [
            121.570811389793,
            25.0553533937437
          ],
          [
            121.571823246828,
            25.0563040463572
          ],
          [
            121.572801507048,
            25.0572493207404
          ],
          [
            121.573163166886,
            25.0577094232471
          ],
          [
            121.573307435565,
            25.0581945878325
          ],
          [
            121.573341032381,
            25.0585777053729
          ],
          [
            121.573297554149,
            25.0588981625826
          ],
          [
            121.573066329006,
            25.0603070902048
          ],
          [
            121.572991230242,
            25.0607188449007
          ],
          [
            121.57283312758,
            25.0616873581
          ],
          [
            121.57251443349277,
            25.063564274002097
          ],
          [
            121.5725136442197,
            25.063577179332317
          ],
          [
            121.57251561121113,
            25.063590050760705
          ],
          [
            121.57252027191704,
            25.06360233151576
          ],
          [
            121.57252745008026,
            25.06361355716767
          ],
          [
            121.57253687423922,
            25.06362330318819
          ],
          [
            121.57254799176312,
            25.063631089422113
          ],
          [
            121.572684906334,
            25.0637085005431
          ],
          [
            121.5725974989592,
            25.064667938895873
          ],
          [
            121.5725981737153,
            25.06469143688603
          ],
          [
            121.5726044011962,
            25.064714310425938
          ],
          [
            121.57261589353853,
            25.064735418852063
          ],
          [
            121.57263210905799,
            25.064753767232094
          ],
          [
            121.57265228344637,
            25.064768490726742
          ],
          [
            121.57267521281861,
            25.06477881120246
          ],
          [
            121.575101900775,
            25.0655828163059
          ],
          [
            121.57580545762,
            25.0658280684914
          ],
          [
            121.577665140178,
            25.0663418433758
          ],
          [
            121.579040633335,
            25.0667499974973
          ],
          [
            121.580007035855,
            25.0670937051764
          ],
          [
            121.581599920171,
            25.0678831551003
          ],
          [
            121.582095967272,
            25.0680657482357
          ],
          [
            121.58426874758439,
            25.06867574520448
          ],
          [
            121.58430427097507,
            25.06869215672799
          ],
          [
            121.5843320035262,
            25.068718517188152
          ],
          [
            121.58434857852737,
            25.068751777231935
          ],
          [
            121.58435211857947,
            25.06878816959707
          ],
          [
            121.58434222271177,
            25.06882357223294
          ],
          [
            121.58432029801553,
            25.068853697762428
          ],
          [
            121.580496443878,
            25.0725456000941
          ],
          [
            121.579687155878,
            25.0733457551803
          ],
          [
            121.578940120802,
            25.073968691091
          ],
          [
            121.575151585771,
            25.0762993025122
          ],
          [
            121.572931231516,
            25.0773464521869
          ],
          [
            121.567666412882,
            25.0797145884224
          ],
          [
            121.56520570458689,
            25.08083156518166
          ],
          [
            121.56518317596174,
            25.080844966864216
          ],
          [
            121.56516431883476,
            25.08086288284332
          ],
          [
            121.56515041946687,
            25.08088423902339
          ],
          [
            121.56514220533951,
            25.080907917639607
          ],
          [
            121.56514010637332,
            25.080932679372765
          ],
          [
            121.56514417674846,
            25.08095704148465
          ],
          [
            121.565529062524,
            25.0822410868936
          ],
          [
            121.565606137572,
            25.0826626123812
          ],
          [
            121.565601829892,
            25.0856228567225
          ]
        ]
      }
    },
    {
      "type": "Feature",
      "properties": {
        "feature_type": "route",
        "ref": "內科通勤專車20",
        "name": "內科通勤專車20",
        "name_en": "內科通勤專車20",
        "color": "#9a3412",
        "direction": 1
      },
      "geometry": {
        "type": "LineString",
        "coordinates": [
          [
            121.565470839366,
            25.0851810794612
          ],
          [
            121.565497704467,
            25.0825815628082
          ],
          [
            121.5650037489517,
            25.0808460677769
          ],
          [
            121.5650012298992,
            25.080826473316325
          ],
          [
            121.56500459211637,
            25.08080685957813
          ],
          [
            121.56501362133716,
            25.08078879639149
          ],
          [
            121.56502765036325,
            25.080773618503617
          ],
          [
            121.56504564254462,
            25.08076244745767
          ],
          [
            121.56506616619025,
            25.080756126569444
          ],
          [
            121.565207190826,
            25.0807316714218
          ],
          [
            121.567611339425,
            25.07966038627
          ],
          [
            121.56937813667,
            25.0788441627194
          ],
          [
            121.574832678498,
            25.076379349366
          ],
          [
            121.575235840285,
            25.0761618634526
          ],
          [
            121.57714789435,
            25.0749858218214
          ],
          [
            121.578553031756,
            25.0741400314741
          ],
          [
            121.579326746656,
            25.0735869082781
          ],
          [
            121.580788208135,
            25.0721477022356
          ],
          [
            121.581976942523,
            25.0710199543387
          ],
          [
            121.583331684705,
            25.0696881244017
          ],
          [
            121.58410753112892,
            25.068938401219345
          ],
          [
            121.58412937630021,
            25.068908359397145
          ],
          [
            121.58413926701905,
            25.06887306897158
          ],
          [
            121.5841358037572,
            25.06883678075906
          ],
          [
            121.58411937643152,
            25.068803580325838
          ],
          [
            121.58409183453864,
            25.068777205595595
          ],
          [
            121.58405650755725,
            25.068760691645345
          ],
          [
            121.581656784633,
            25.0680743352544
          ],
          [
            121.580800065835,
            25.0676876671432
          ],
          [
            121.579940382612,
            25.0672204415469
          ],
          [
            121.579323782232,
            25.0669975689393
          ],
          [
            121.578200265192,
            25.0667881220228
          ],
          [
            121.575944337838,
            25.0662027428442
          ],
          [
            121.57381291633,
            25.0655851379261
          ],
          [
            121.57234605797555,
            25.06505334808277
          ],
          [
            121.57232418688359,
            25.065042836901725
          ],
          [
            121.5723049673084,
            25.065028242309456
          ],
          [
            121.57228951544933,
            25.065010306116882
          ],
          [
            121.57227851362316,
            25.064989820342944
          ],
          [
            121.57227244764394,
            25.06496768958994
          ],
          [
            121.57227158114628,
            25.064944944617018
          ],
          [
            121.5723810991,
            25.0635362784438
          ],
          [
            121.572935446558,
            25.0605663112082
          ],
          [
            121.573234853473,
            25.0588315592479
          ],
          [
            121.573273390997,
            25.058404580928
          ],
          [
            121.5731785294,
            25.0579641740584
          ],
          [
            121.573000663906,
            25.0576016428256
          ],
          [
            121.572561929019,
            25.0571102098866
          ],
          [
            121.570747700977,
            25.0553834654091
          ],
          [
            121.570353432464,
            25.0550665796437
          ],
          [
            121.570089598647,
            25.054693297903
          ],
          [
            121.569965092801,
            25.0544059507527
          ],
          [
            121.569923590852,
            25.0538795934777
          ],
          [
            121.570352691358,
            25.0518500084878
          ],
          [
            121.570394193306,
            25.0515653402247
          ],
          [
            121.570349726933,
            25.0512672435048
          ],
          [
            121.570280062947,
            25.0510470274444
          ],
          [
            121.569980656032,
            25.0505273696847
          ],
          [
            121.569887276647,
            25.0502118141563
          ],
          [
            121.56883787023,
            25.0484164891613
          ],
          [
            121.568212376575,
            25.047381177605
          ],
          [
            121.567807732575,
            25.0467084218297
          ],
          [
            121.567285993792,
            25.0458234939412
          ],
          [
            121.566875420942,
            25.0451601295452
          ],
          [
            121.566458919243,
            25.0444618473566
          ],
          [
            121.566018702144,
            25.0437205896053
          ],
          [
            121.565566627346,
            25.0432505868982
          ],
          [
            121.56437662129927,
            25.041257756805653
          ],
          [
            121.56436375489302,
            25.041223039742835
          ],
          [
            121.56436434699272,
            25.041186080229075
          ],
          [
            121.56437849624388,
            25.041151444461363
          ],
          [
            121.56440456222607,
            25.041123148003415
          ],
          [
            121.56443952293003,
            25.041104471459
          ],
          [
            121.5644793113112,
            25.041097580334924
          ],
          [
            121.565311393446,
            25.0410851100823
          ]
        ]
      }
    },
    {
      "type": "Feature",
      "properties": {
        "feature_type": "station",
        "ref": "TPE54948",
        "name": "捷運市政府站",
        "name_en": "MRT Taipei City Hall Sta.",
        "line": "內科通勤專車20",
        "color": "#9a3412",
        "direction": 0,
        "station_id": "2150"
      },
      "geometry": {
        "type": "Point",
        "coordinates": [
          121.565249,
          25.040991000000002
        ]
      }
    },
    {
      "type": "Feature",
      "properties": {
        "feature_type": "station",
        "ref": "TPE54950",
        "name": "時報廣場",
        "name_en": "China Times Daily News Square",
        "line": "內科通勤專車20",
        "color": "#9a3412",
        "direction": 0,
        "station_id": "1077"
      },
      "geometry": {
        "type": "Point",
        "coordinates": [
          121.58212115754,
          25.0680848776157
        ]
      }
    },
    {
      "type": "Feature",
      "properties": {
        "feature_type": "station",
        "ref": "TPE54951",
        "name": "麗寶大樓",
        "name_en": "Libao Building",
        "line": "內科通勤專車20",
        "color": "#9a3412",
        "direction": 0,
        "station_id": "8603"
      },
      "geometry": {
        "type": "Point",
        "coordinates": [
          121.582711,
          25.070517
        ]
      }
    },
    {
      "type": "Feature",
      "properties": {
        "feature_type": "station",
        "ref": "TPE54952",
        "name": "公館山",
        "name_en": "Gongguanshan",
        "line": "內科通勤專車20",
        "color": "#9a3412",
        "direction": 0,
        "station_id": "8621"
      },
      "geometry": {
        "type": "Point",
        "coordinates": [
          121.581177,
          25.071952
        ]
      }
    },
    {
      "type": "Feature",
      "properties": {
        "feature_type": "station",
        "ref": "TPE54953",
        "name": "瑞光路",
        "name_en": "Ruiguang Rd.",
        "line": "內科通勤專車20",
        "color": "#9a3412",
        "direction": 0,
        "station_id": "1000897"
      },
      "geometry": {
        "type": "Point",
        "coordinates": [
          121.57766690657958,
          25.07478024553194
        ]
      }
    },
    {
      "type": "Feature",
      "properties": {
        "feature_type": "station",
        "ref": "TPE54954",
        "name": "瑞光港墘路口",
        "name_en": "Ruiguang &Gangqian Roads",
        "line": "內科通勤專車20",
        "color": "#9a3412",
        "direction": 0,
        "station_id": "1000895"
      },
      "geometry": {
        "type": "Point",
        "coordinates": [
          121.5731066,
          25.07729684
        ]
      }
    },
    {
      "type": "Feature",
      "properties": {
        "feature_type": "station",
        "ref": "TPE54955",
        "name": "仁寶大樓",
        "name_en": "Renbao Bldg.",
        "line": "內科通勤專車20",
        "color": "#9a3412",
        "direction": 0,
        "station_id": "1000896"
      },
      "geometry": {
        "type": "Point",
        "coordinates": [
          121.568256,
          25.079478
        ]
      }
    },
    {
      "type": "Feature",
      "properties": {
        "feature_type": "station",
        "ref": "TPE54956",
        "name": "基湖路口",
        "name_en": "Jihu Rd. Entrance",
        "line": "內科通勤專車20",
        "color": "#9a3412",
        "direction": 0,
        "station_id": "8403"
      },
      "geometry": {
        "type": "Point",
        "coordinates": [
          121.565903409458,
          25.0805158061818
        ]
      }
    },
    {
      "type": "Feature",
      "properties": {
        "feature_type": "station",
        "ref": "TPE54957",
        "name": "內湖基湖路口",
        "name_en": "Neihu and Jihu Intersection",
        "line": "內科通勤專車20",
        "color": "#9a3412",
        "direction": 0,
        "station_id": "8402"
      },
      "geometry": {
        "type": "Point",
        "coordinates": [
          121.5653587,
          25.08167506
        ]
      }
    },
    {
      "type": "Feature",
      "properties": {
        "feature_type": "station",
        "ref": "TPE125489",
        "name": "西湖國中",
        "name_en": "Xihu Junior High School",
        "line": "內科通勤專車20",
        "color": "#9a3412",
        "direction": 0,
        "station_id": "1039"
      },
      "geometry": {
        "type": "Point",
        "coordinates": [
          121.5656019,
          25.08562294
        ]
      }
    },
    {
      "type": "Feature",
      "properties": {
        "feature_type": "station",
        "ref": "TPE125490",
        "name": "西湖國中",
        "name_en": "Xihu Junior High School",
        "line": "內科通勤專車20",
        "color": "#9a3412",
        "direction": 1,
        "station_id": "50511"
      },
      "geometry": {
        "type": "Point",
        "coordinates": [
          121.56545,
          25.08514
        ]
      }
    },
    {
      "type": "Feature",
      "properties": {
        "feature_type": "station",
        "ref": "TPE54958",
        "name": "內湖基湖路口",
        "name_en": "Neihu and Jihu Intersection",
        "line": "內科通勤專車20",
        "color": "#9a3412",
        "direction": 1,
        "station_id": "1001"
      },
      "geometry": {
        "type": "Point",
        "coordinates": [
          121.5652273,
          25.08198997
        ]
      }
    },
    {
      "type": "Feature",
      "properties": {
        "feature_type": "station",
        "ref": "TPE54959",
        "name": "基湖路口",
        "name_en": "Jihu Rd. Entrance",
        "line": "內科通勤專車20",
        "color": "#9a3412",
        "direction": 1,
        "station_id": "8404"
      },
      "geometry": {
        "type": "Point",
        "coordinates": [
          121.5662362,
          25.08025003
        ]
      }
    },
    {
      "type": "Feature",
      "properties": {
        "feature_type": "station",
        "ref": "TPE54960",
        "name": "仁寶大樓",
        "name_en": "Renbao Bldg.",
        "line": "內科通勤專車20",
        "color": "#9a3412",
        "direction": 1,
        "station_id": "1007"
      },
      "geometry": {
        "type": "Point",
        "coordinates": [
          121.5684974,
          25.07921316
        ]
      }
    },
    {
      "type": "Feature",
      "properties": {
        "feature_type": "station",
        "ref": "TPE54961",
        "name": "瑞光港墘路口",
        "name_en": "Ruiguang & Gangqian Intersection",
        "line": "內科通勤專車20",
        "color": "#9a3412",
        "direction": 1,
        "station_id": "1013"
      },
      "geometry": {
        "type": "Point",
        "coordinates": [
          121.571868,
          25.077753
        ]
      }
    },
    {
      "type": "Feature",
      "properties": {
        "feature_type": "station",
        "ref": "TPE54962",
        "name": "瑞光路",
        "name_en": "Ruiguang Rd.",
        "line": "內科通勤專車20",
        "color": "#9a3412",
        "direction": 1,
        "station_id": "1132"
      },
      "geometry": {
        "type": "Point",
        "coordinates": [
          121.577343,
          25.074821
        ]
      }
    },
    {
      "type": "Feature",
      "properties": {
        "feature_type": "station",
        "ref": "TPE54963",
        "name": "公館山",
        "name_en": "Gongguanshan",
        "line": "內科通勤專車20",
        "color": "#9a3412",
        "direction": 1,
        "station_id": "1006"
      },
      "geometry": {
        "type": "Point",
        "coordinates": [
          121.5809507,
          25.07198833
        ]
      }
    },
    {
      "type": "Feature",
      "properties": {
        "feature_type": "station",
        "ref": "TPE54964",
        "name": "麗寶大樓",
        "name_en": "Libao Building",
        "line": "內科通勤專車20",
        "color": "#9a3412",
        "direction": 1,
        "station_id": "1165610352"
      },
      "geometry": {
        "type": "Point",
        "coordinates": [
          121.5820136022182,
          25.070960172287336
        ]
      }
    },
    {
      "type": "Feature",
      "properties": {
        "feature_type": "station",
        "ref": "TPE54965",
        "name": "時報廣場",
        "name_en": "China Times Daily News Square",
        "line": "內科通勤專車20",
        "color": "#9a3412",
        "direction": 1,
        "station_id": "8601"
      },
      "geometry": {
        "type": "Point",
        "coordinates": [
          121.583129808238,
          25.0685609459737
        ]
      }
    },
    {
      "type": "Feature",
      "properties": {
        "feature_type": "station",
        "ref": "TPE58407",
        "name": "松山高中(基隆路)",
        "name_en": "Songshan High School (Keelung Rd.)",
        "line": "內科通勤專車20",
        "color": "#9a3412",
        "direction": 1,
        "station_id": "2095"
      },
      "geometry": {
        "type": "Point",
        "coordinates": [
          121.56628044728,
          25.0444493988665
        ]
      }
    },
    {
      "type": "Feature",
      "properties": {
        "feature_type": "station",
        "ref": "TPE54967",
        "name": "捷運市政府站",
        "name_en": "MRT Taipei City Hall Sta.",
        "line": "內科通勤專車20",
        "color": "#9a3412",
        "direction": 1,
        "station_id": "2150"
      },
      "geometry": {
        "type": "Point",
        "coordinates": [
          121.565249,
          25.040991000000002
        ]
      }
    }
  ]
}
