{
  "type": "FeatureCollection",
  "name": "內科通勤專車16",
  "properties": {
    "id": "taipei_neiketongqinzhuanche16",
    "name": "內科通勤專車16",
    "name_en": "內科通勤專車16",
    "ref": "內科通勤專車16",
    "color": "#9a3412",
    "city_id": "Taipei",
    "source": "TDX Bus Shape / StopOfRoute",
    "official_map_url": "https://ebus.gov.taipei/File/Get/d95563a1-2641-48f4-8d2e-08ef9f29df46?v=639248448847281800",
    "operator_id": "1100",
    "operator": "大南汽車",
    "operator_en": "Danan Bus Co., Ltd."
  },
  "features": [
    {
      "type": "Feature",
      "properties": {
        "feature_type": "route",
        "ref": "內科通勤專車16",
        "name": "內科通勤專車16",
        "name_en": "內科通勤專車16",
        "color": "#9a3412",
        "direction": 0
      },
      "geometry": {
        "type": "LineString",
        "coordinates": [
          [
            121.492619977685,
            25.1450599158923
          ],
          [
            121.4927672029588,
            25.14537095345137
          ],
          [
            121.49277981401535,
            25.145391390301796
          ],
          [
            121.49279671970629,
            25.145408696153503
          ],
          [
            121.4928172694307,
            25.145422336653336
          ],
          [
            121.49284052678277,
            25.145431690233682
          ],
          [
            121.49286543197609,
            25.14543633067244
          ],
          [
            121.49289094863248,
            25.14543603573186
          ],
          [
            121.494982636648,
            25.1452077306433
          ],
          [
            121.495273329999,
            25.1451710417217
          ],
          [
            121.497257076659,
            25.1445149799474
          ],
          [
            121.497432500915,
            25.1444712147862
          ],
          [
            121.497561791351,
            25.1444072004984
          ],
          [
            121.49767969572,
            25.1442850801749
          ],
          [
            121.498126405658,
            25.1434275337408
          ],
          [
            121.498189723294,
            25.1432753287506
          ],
          [
            121.498621390697,
            25.1423928428577
          ],
          [
            121.498965262595,
            25.1418105597362
          ],
          [
            121.499409095285,
            25.1413006947984
          ],
          [
            121.50097608129,
            25.1397378701119
          ],
          [
            121.501874120117,
            25.1388646878554
          ],
          [
            121.503168684202,
            25.1376000695725
          ],
          [
            121.503748519388,
            25.1372453108864
          ],
          [
            121.50447015852681,
            25.13670505745761
          ],
          [
            121.50449420620835,
            25.136680394109923
          ],
          [
            121.50450912363483,
            25.136649921901004
          ],
          [
            121.5045131842462,
            25.136616758506296
          ],
          [
            121.50450600436693,
            25.136584037440215
          ],
          [
            121.50448826240326,
            25.13655485042281
          ],
          [
            121.50446195688325,
            25.13653215764335
          ],
          [
            121.503164104768,
            25.1357200581025
          ],
          [
            121.502820733838,
            25.1354658478528
          ],
          [
            121.502586923695,
            25.1352166544512
          ],
          [
            121.502495366919,
            25.1350329608976
          ],
          [
            121.502235761183,
            25.1339056466355
          ],
          [
            121.501684525189,
            25.1332959610816
          ],
          [
            121.50153725520933,
            25.133230713395683
          ],
          [
            121.5015274900008,
            25.133225420044457
          ],
          [
            121.50151864490111,
            25.13321864028371
          ],
          [
            121.50151113315908,
            25.133210634435343
          ],
          [
            121.5015051565204,
            25.133201617515464
          ],
          [
            121.5015008755019,
            25.133191831694912
          ],
          [
            121.50149839641738,
            25.133181480930283
          ],
          [
            121.501116104324,
            25.1305847596581
          ],
          [
            121.500996946054,
            25.1299244807201
          ],
          [
            121.501005879956,
            25.1295914726914
          ],
          [
            121.501155001703,
            25.1286055754847
          ],
          [
            121.501247574356,
            25.127845301273
          ],
          [
            121.501382226196,
            25.1268887734831
          ],
          [
            121.50146617053,
            25.1263478857459
          ],
          [
            121.50173663739,
            25.1253502217334
          ],
          [
            121.501870628435,
            25.1248127121539
          ],
          [
            121.502068237868,
            25.1240303011295
          ],
          [
            121.502218054689,
            25.1233494659325
          ],
          [
            121.502317417298,
            25.1231170135257
          ],
          [
            121.502438654035,
            25.1229200001622
          ],
          [
            121.502655092807,
            25.1227614678997
          ],
          [
            121.50282326013746,
            25.122688067437128
          ],
          [
            121.50283871156063,
            25.122679351032907
          ],
          [
            121.5028520142187,
            25.122667748279934
          ],
          [
            121.5028623636692,
            25.122653866849728
          ],
          [
            121.50286930283262,
            25.122638319810275
          ],
          [
            121.50287252524352,
            25.122621793790536
          ],
          [
            121.50287190039852,
            25.122605095167756
          ],
          [
            121.5026982018845,
            25.121480714315677
          ],
          [
            121.50269758878262,
            25.12145543308289
          ],
          [
            121.5027034441503,
            25.121430609040253
          ],
          [
            121.50271546364993,
            25.121407704248693
          ],
          [
            121.50273298970622,
            25.121387971807394
          ],
          [
            121.50275506348538,
            25.121372491259297
          ],
          [
            121.5027802486239,
            25.121362175168557
          ],
          [
            121.503870540061,
            25.1210504981344
          ],
          [
            121.507962327241,
            25.120306517773
          ],
          [
            121.508865262595,
            25.1201257576964
          ],
          [
            121.510433716004,
            25.1198504940014
          ],
          [
            121.511013111901,
            25.1196438343114
          ],
          [
            121.511712284439,
            25.1192583369088
          ],
          [
            121.512125813195,
            25.1189117804781
          ],
          [
            121.512556813195,
            25.1183757804781
          ],
          [
            121.513491949621,
            25.1170475697024
          ],
          [
            121.514883971465,
            25.115062110959
          ],
          [
            121.516291291573,
            25.1130011067956
          ],
          [
            121.51663985644,
            25.1124377225978
          ],
          [
            121.517078331251,
            25.1116810678334
          ],
          [
            121.517325372916,
            25.1112806283556
          ],
          [
            121.517494507839,
            25.1112175823285
          ],
          [
            121.51898046615327,
            25.109169979134336
          ],
          [
            121.51899302118044,
            25.109147036550585
          ],
          [
            121.51899936593611,
            25.10912169993019
          ],
          [
            121.51899892502986,
            25.109095714217034
          ],
          [
            121.51899172373118,
            25.10907056871838
          ],
          [
            121.51897817476477,
            25.109047704586633
          ],
          [
            121.51895936718927,
            25.109028680710033
          ],
          [
            121.518752687753,
            25.1088653413286
          ],
          [
            121.518645923165,
            25.1087483390827
          ],
          [
            121.518454038701,
            25.1081842929091
          ],
          [
            121.518381779603,
            25.1080256503436
          ],
          [
            121.518153773477,
            25.1077208717684
          ],
          [
            121.51754949857,
            25.1070814247514
          ],
          [
            121.516542406459,
            25.106078938354
          ],
          [
            121.517523364816,
            25.1053305056335
          ],
          [
            121.517653098056,
            25.1052020242154
          ],
          [
            121.518626205082,
            25.1044890818008
          ],
          [
            121.518983938921,
            25.1041707589576
          ],
          [
            121.519573010372,
            25.1032101429884
          ],
          [
            121.519735835505,
            25.1029820714105
          ],
          [
            121.520689995171,
            25.1022007053036
          ],
          [
            121.52112658119,
            25.1018088395016
          ],
          [
            121.521467208829,
            25.1015297447686
          ],
          [
            121.521750718714,
            25.1013931789323
          ],
          [
            121.522627525986,
            25.1006651602441
          ],
          [
            121.522863148301,
            25.1004551923875
          ],
          [
            121.523141001037,
            25.1001675809013
          ],
          [
            121.523250935303,
            25.0999690725464
          ],
          [
            121.523407117033,
            25.0994633869853
          ],
          [
            121.524224821909,
            25.096400683302
          ],
          [
            121.524597787784,
            25.0949874852991
          ],
          [
            121.52792315827,
            25.0957504841898
          ],
          [
            121.529617196699,
            25.0960606896904
          ],
          [
            121.531922890374,
            25.0964740467501
          ],
          [
            121.532227341496,
            25.0965283006952
          ],
          [
            121.532539156314,
            25.0966850080047
          ],
          [
            121.533888546533,
            25.097557979398
          ],
          [
            121.53446993071,
            25.0979434981448
          ],
          [
            121.535401437212,
            25.0985547237077
          ],
          [
            121.53636483177348,
            25.099148313388945
          ],
          [
            121.53639022679093,
            25.099160292470042
          ],
          [
            121.53641763523103,
            25.099166362066214
          ],
          [
            121.5364458401593,
            25.0991663804984
          ],
          [
            121.53647325810987,
            25.099160346731782
          ],
          [
            121.53649834979889,
            25.099148599510848
          ],
          [
            121.53651998710961,
            25.099131517414552
          ],
          [
            121.53760668346,
            25.0980472267449
          ],
          [
            121.537857838163,
            25.0979038743806
          ],
          [
            121.539904431565,
            25.0973080793984
          ],
          [
            121.542905759898,
            25.0970838564308
          ],
          [
            121.544136262595,
            25.096996526195
          ],
          [
            121.544453636135,
            25.0971018040802
          ],
          [
            121.546526474811,
            25.0980963167249
          ],
          [
            121.547091679002,
            25.096744314339
          ],
          [
            121.54736026057,
            25.0963497377653
          ],
          [
            121.547628816612,
            25.0961603007944
          ],
          [
            121.54831813892571,
            25.095855201092316
          ],
          [
            121.5483355945766,
            25.09584564839603
          ],
          [
            121.54835124012303,
            25.09583330748367
          ],
          [
            121.54836430677645,
            25.0958186827144
          ],
          [
            121.54837439993652,
            25.095802215742147
          ],
          [
            121.54838121479952,
            25.095784403853603
          ],
          [
            121.54838455026193,
            25.095765728483872
          ],
          [
            121.54847746822,
            25.0946342247258
          ],
          [
            121.548589004243,
            25.0936682534933
          ],
          [
            121.549014132973,
            25.0867724221796
          ],
          [
            121.549099856311,
            25.0865098685172
          ],
          [
            121.549375622004,
            25.0859880002538
          ],
          [
            121.54966209551306,
            25.08523080540511
          ],
          [
            121.54967583115958,
            25.085205527773912
          ],
          [
            121.54969605115902,
            25.085184486648707
          ],
          [
            121.5497214958689,
            25.085168857907032
          ],
          [
            121.54975047506073,
            25.08515967972716
          ],
          [
            121.54978106371918,
            25.08515756179265
          ],
          [
            121.54981146313489,
            25.08516271366021
          ],
          [
            121.550343108221,
            25.0853188318199
          ],
          [
            121.550522417866,
            25.0854553511046
          ],
          [
            121.551126337504,
            25.0857633269235
          ],
          [
            121.55139075096,
            25.0858700086732
          ],
          [
            121.551710217727,
            25.085920285788
          ],
          [
            121.552323999914,
            25.0858676730954
          ],
          [
            121.553229121032,
            25.08546853766
          ],
          [
            121.554443477288,
            25.0851219789395
          ],
          [
            121.556784808155,
            25.0844222409102
          ],
          [
            121.557232102796,
            25.0843679340434
          ],
          [
            121.557688822622,
            25.0844157112965
          ],
          [
            121.558076725525,
            25.0845542069397
          ],
          [
            121.558858951392,
            25.084896027626
          ],
          [
            121.559128957056,
            25.0849165486707
          ],
          [
            121.560631827034,
            25.0845497165791
          ],
          [
            121.561139931073,
            25.0843747866858
          ],
          [
            121.563193278822,
            25.0833121317023
          ],
          [
            121.564571496652,
            25.0826331326951
          ],
          [
            121.5653619358354,
            25.082334726211265
          ],
          [
            121.56538662641711,
            25.082321990654552
          ],
          [
            121.56540750216008,
            25.08230408045048
          ],
          [
            121.56542307870154,
            25.082282137938027
          ],
          [
            121.56543245286832,
            25.082257435407875
          ],
          [
            121.56543508111892,
            25.082231405184572
          ],
          [
            121.56543086824776,
            25.082205745291738
          ],
          [
            121.5650406025461,
            25.080918204730906
          ],
          [
            121.5650364498269,
            25.08089363449301
          ],
          [
            121.56503857529455,
            25.080868655115843
          ],
          [
            121.56504692258949,
            25.080844785447805
          ],
          [
            121.5650610470872,
            25.08082329692354
          ],
          [
            121.56508019643638,
            25.080805334144404
          ],
          [
            121.56510305424106,
            25.08079198575598
          ],
          [
            121.567510309269,
            25.0797249917601
          ],
          [
            121.568788282957,
            25.0791601709697
          ],
          [
            121.570251039734,
            25.0784786491611
          ],
          [
            121.572808030145,
            25.0773460602437
          ],
          [
            121.574043573409,
            25.0767940600623
          ],
          [
            121.57492552687,
            25.0763748535873
          ],
          [
            121.575396800732,
            25.0760789143177
          ],
          [
            121.576942072169,
            25.0751185044571
          ],
          [
            121.577556824975,
            25.0747529412575
          ],
          [
            121.578060050899,
            25.074426986046
          ],
          [
            121.579204890152,
            25.0737197548617
          ],
          [
            121.580645729633,
            25.0723365536462
          ],
          [
            121.581744168939,
            25.0712494770577
          ],
          [
            121.58406904258001,
            25.068996254045345
          ],
          [
            121.58409069880231,
            25.068966504439683
          ],
          [
            121.5841006379676,
            25.06893157519645
          ],
          [
            121.58409747617746,
            25.068895603909535
          ],
          [
            121.58408156281703,
            25.068862565489663
          ],
          [
            121.58405465634961,
            25.068836110758955
          ],
          [
            121.5840199688358,
            25.068819235916752
          ],
          [
            121.58231177599,
            25.0682999598895
          ],
          [
            121.58149135079,
            25.0680254633746
          ],
          [
            121.579904779468,
            25.0672380337944
          ],
          [
            121.5792823875,
            25.0669967608114
          ],
          [
            121.578991421219,
            25.0669422555925
          ]
        ]
      }
    },
    {
      "type": "Feature",
      "properties": {
        "feature_type": "route",
        "ref": "內科通勤專車16",
        "name": "內科通勤專車16",
        "name_en": "內科通勤專車16",
        "color": "#9a3412",
        "direction": 1
      },
      "geometry": {
        "type": "LineString",
        "coordinates": [
          [
            121.579477870198,
            25.0668768014583
          ],
          [
            121.579854509774,
            25.0670664762974
          ],
          [
            121.581511928982,
            25.0679254315556
          ],
          [
            121.582497773727,
            25.0682392700466
          ],
          [
            121.58418059426558,
            25.068714403381552
          ],
          [
            121.5842159408076,
            25.06873076920249
          ],
          [
            121.58424356778676,
            25.068756995460387
          ],
          [
            121.58426014742265,
            25.068790073882976
          ],
          [
            121.58426381856208,
            25.068826291239585
          ],
          [
            121.58425416909992,
            25.068861581937323
          ],
          [
            121.58423256587149,
            25.0688917053064
          ],
          [
            121.581802203866,
            25.0712735203017
          ],
          [
            121.580658456051,
            25.0723728772976
          ],
          [
            121.579237115095,
            25.073748936435
          ],
          [
            121.578076304289,
            25.0744535198089
          ],
          [
            121.577594235329,
            25.0747699672372
          ],
          [
            121.576953761232,
            25.0751499467546
          ],
          [
            121.575434100758,
            25.0761031977928
          ],
          [
            121.574918377689,
            25.0764267302683
          ],
          [
            121.574043919146,
            25.0768389177596
          ],
          [
            121.572818776641,
            25.077384967903
          ],
          [
            121.570269683022,
            25.0785141712361
          ],
          [
            121.5688051927,
            25.0791961418898
          ],
          [
            121.567524633081,
            25.0797574168951
          ],
          [
            121.56513724978913,
            25.080801380726577
          ],
          [
            121.56511422243264,
            25.08081468556753
          ],
          [
            121.56509491725868,
            25.080832655702014
          ],
          [
            121.56508066582482,
            25.080854196580766
          ],
          [
            121.56507223359169,
            25.080878151218805
          ],
          [
            121.56507007346407,
            25.080903232985417
          ],
          [
            121.56507424449663,
            25.080927906084657
          ],
          [
            121.565544007134,
            25.0824753225772
          ],
          [
            121.564896777327,
            25.0826734542313
          ],
          [
            121.563975541989,
            25.0831094417302
          ],
          [
            121.561252058829,
            25.084516994226
          ],
          [
            121.560523660161,
            25.0847528510142
          ],
          [
            121.559695350024,
            25.0849892734015
          ],
          [
            121.558978732681,
            25.0851322116557
          ],
          [
            121.558671381954,
            25.0850556686161
          ],
          [
            121.558036849965,
            25.0847172139801
          ],
          [
            121.557593699695,
            25.0845919758096
          ],
          [
            121.557143483406,
            25.0845495724078
          ],
          [
            121.556727374661,
            25.0846296856407
          ],
          [
            121.555327760958,
            25.0850815927178
          ],
          [
            121.55416345001,
            25.0854222866336
          ],
          [
            121.553059589836,
            25.0857161105338
          ],
          [
            121.552707995957,
            25.0858375615934
          ],
          [
            121.551968988478,
            25.0860152021497
          ],
          [
            121.550581186049,
            25.0861585391353
          ],
          [
            121.54983143164337,
            25.086331139247243
          ],
          [
            121.54981127776689,
            25.08633762001959
          ],
          [
            121.54979255588624,
            25.08634738731456
          ],
          [
            121.54977607397201,
            25.086360075738273
          ],
          [
            121.54976237323137,
            25.086375268648247
          ],
          [
            121.54975190354764,
            25.086392467163627
          ],
          [
            121.54974496506972,
            25.086411273956305
          ],
          [
            121.549597503345,
            25.0869734184968
          ],
          [
            121.549593760756,
            25.0871718209559
          ],
          [
            121.548992358413,
            25.0933923320222
          ],
          [
            121.548886704354,
            25.094439132382
          ],
          [
            121.54877187813558,
            25.09568917044725
          ],
          [
            121.5487684067362,
            25.095707667785256
          ],
          [
            121.54876152298719,
            25.09572528597393
          ],
          [
            121.54875142544364,
            25.09574156508803
          ],
          [
            121.54873841383389,
            25.095756021909782
          ],
          [
            121.54872287438545,
            25.09576822731305
          ],
          [
            121.54870556470189,
            25.0957776872295
          ],
          [
            121.54764337762,
            25.0962481049764
          ],
          [
            121.547471226483,
            25.0963529765317
          ],
          [
            121.547148111458,
            25.0967844515487
          ],
          [
            121.546544895676,
            25.0982718841028
          ],
          [
            121.545391935778,
            25.0977387230268
          ],
          [
            121.544361997599,
            25.0972135508988
          ],
          [
            121.54401946411,
            25.0971525439911
          ],
          [
            121.543223157827,
            25.0972222719241
          ],
          [
            121.539899014267,
            25.0974701664201
          ],
          [
            121.538052284188,
            25.0979807375266
          ],
          [
            121.537796653136,
            25.0981327862715
          ],
          [
            121.53664307072249,
            25.099284381815526
          ],
          [
            121.53661966928884,
            25.099302535877715
          ],
          [
            121.53659234819013,
            25.099314504367655
          ],
          [
            121.5365625983,
            25.099319792347114
          ],
          [
            121.53653234839122,
            25.09931805698085
          ],
          [
            121.53650355965424,
            25.09930941077776
          ],
          [
            121.53647778350533,
            25.099294171016503
          ],
          [
            121.536261334818,
            25.0991280105859
          ],
          [
            121.535383845297,
            25.0985936216792
          ],
          [
            121.534448893561,
            25.0979780052966
          ],
          [
            121.533759216226,
            25.0975274010698
          ],
          [
            121.532496213965,
            25.0967174516969
          ],
          [
            121.532208211884,
            25.0965989353201
          ],
          [
            121.531926739394,
            25.0965455628247
          ],
          [
            121.529582735744,
            25.0961241481095
          ],
          [
            121.527921,
            25.0958228252869
          ],
          [
            121.524614419956,
            25.0950880330199
          ],
          [
            121.524261824192,
            25.0964242560747
          ],
          [
            121.523443294976,
            25.0994710877999
          ],
          [
            121.523290749999,
            25.0999846846387
          ],
          [
            121.523173472886,
            25.100204771592
          ],
          [
            121.52287094209,
            25.1005009971225
          ],
          [
            121.52264669128,
            25.1006981113888
          ],
          [
            121.521777777844,
            25.1014238200421
          ],
          [
            121.521623817237,
            25.101629133787
          ],
          [
            121.521172598451,
            25.1020084926225
          ],
          [
            121.520206961448,
            25.1028353881399
          ],
          [
            121.519861530776,
            25.1031077206211
          ],
          [
            121.519672312974,
            25.10330799981
          ],
          [
            121.5194675509,
            25.1037116994552
          ],
          [
            121.519031384753,
            25.1043754203059
          ],
          [
            121.518345387287,
            25.1049274155408
          ],
          [
            121.516713145878,
            25.1061823084915
          ],
          [
            121.517587717966,
            25.1070494107658
          ],
          [
            121.51819932967,
            25.1076951910995
          ],
          [
            121.518424737405,
            25.108004989135
          ],
          [
            121.518504599511,
            25.1081644338058
          ],
          [
            121.518688360045,
            25.1087077208242
          ],
          [
            121.518770315797,
            25.1088183478867
          ],
          [
            121.519399965656,
            25.1093235893569
          ],
          [
            121.518764434017,
            25.1102292623768
          ],
          [
            121.518181042802,
            25.1111842560536
          ],
          [
            121.517596046369,
            25.1121467338018
          ],
          [
            121.516820028535,
            25.1131229833901
          ],
          [
            121.515302812752,
            25.1152564262777
          ],
          [
            121.514119531636,
            25.1169378572436
          ],
          [
            121.513107499778,
            25.1183902417452
          ],
          [
            121.512646816319,
            25.1190041284197
          ],
          [
            121.512075157827,
            25.1195288559
          ],
          [
            121.511729872005,
            25.1197358836834
          ],
          [
            121.51105591351,
            25.1200829343548
          ],
          [
            121.51062830183,
            25.1202383239917
          ],
          [
            121.508965427999,
            25.120542708088198
          ],
          [
            121.507714003567,
            25.1207780384289
          ],
          [
            121.504369630796,
            25.1214020447119
          ],
          [
            121.503742871533,
            25.121522904241
          ],
          [
            121.50288960730074,
            25.121855564386944
          ],
          [
            121.50286716255047,
            25.121867157184028
          ],
          [
            121.50284778104357,
            25.12188309229053
          ],
          [
            121.50283267288305,
            25.121902494872185
          ],
          [
            121.50282256397043,
            25.121924432693554
          ],
          [
            121.5028179400084,
            25.121947851708587
          ],
          [
            121.5028190045571,
            25.121971514599952
          ],
          [
            121.50293015421819,
            25.122635029658085
          ],
          [
            121.50293104243671,
            25.12265531086997
          ],
          [
            121.50292700482355,
            25.12267536881153
          ],
          [
            121.50291822362063,
            25.12269412429882
          ],
          [
            121.50290512964605,
            25.12271065716132
          ],
          [
            121.50288836530864,
            25.122724156273602
          ],
          [
            121.50286898464272,
            25.122733872124044
          ],
          [
            121.5024412329869,
            25.122894757738052
          ],
          [
            121.502424277379,
            25.12290269662497
          ],
          [
            121.50240870504746,
            25.122913178100593
          ],
          [
            121.50239520114609,
            25.122925821710442
          ],
          [
            121.50238412257134,
            25.122940293294814
          ],
          [
            121.50237576212041,
            25.122956210382217
          ],
          [
            121.50237030787542,
            25.122973299176525
          ],
          [
            121.502132096863,
            25.1240307112495
          ],
          [
            121.501924388147,
            25.1248368377816
          ],
          [
            121.50180307542,
            25.1253797911433
          ],
          [
            121.501524779091,
            25.1263604424391
          ],
          [
            121.501440516096,
            25.1268849118219
          ],
          [
            121.501325069239,
            25.1278437491004
          ],
          [
            121.501207675132,
            25.1286107212573
          ],
          [
            121.50107404744,
            25.1295923491645
          ],
          [
            121.501059357482,
            25.1299210378039
          ],
          [
            121.501171133749,
            25.1305847596578
          ],
          [
            121.50154835586768,
            25.13316934923318
          ],
          [
            121.5015504827601,
            25.13317820815882
          ],
          [
            121.50155418233649,
            25.133186573133337
          ],
          [
            121.50155935837874,
            25.13319425948933
          ],
          [
            121.5015658662918,
            25.133201052504933
          ],
          [
            121.5015735242741,
            25.133206762414172
          ],
          [
            121.50158197400758,
            25.133211168396322
          ],
          [
            121.501706,
            25.133263558372
          ],
          [
            121.502290790608,
            25.1338756741446
          ],
          [
            121.502556883416,
            25.1350264804481
          ],
          [
            121.502623735422,
            25.1351709101716
          ],
          [
            121.502856972655,
            25.1354123840631
          ],
          [
            121.503193409048,
            25.1356665943717
          ],
          [
            121.50455412377235,
            25.1365424812635
          ],
          [
            121.50458001605075,
            25.136565393918104
          ],
          [
            121.50459732401066,
            25.136594664571124
          ],
          [
            121.50460410141602,
            25.13662733845566
          ],
          [
            121.50459971234872,
            25.136660349809333
          ],
          [
            121.50458456863117,
            25.136690601205313
          ],
          [
            121.50456040909553,
            25.136715018287404
          ],
          [
            121.50377495204,
            25.1372950698081
          ],
          [
            121.503220134492,
            25.1376468495554
          ],
          [
            121.501941816263,
            25.1389000539717
          ],
          [
            121.501012351092,
            25.1397914537342
          ],
          [
            121.499467789433,
            25.1413231558814
          ],
          [
            121.499008659682,
            25.1418368851591
          ],
          [
            121.498676643855,
            25.1424191681415
          ],
          [
            121.498254873591,
            25.1432942566225
          ],
          [
            121.498180520852,
            25.143461835719
          ],
          [
            121.497709,
            25.144320719933
          ],
          [
            121.497579687026,
            25.1444363602786
          ],
          [
            121.497433515352,
            25.1445130698326
          ],
          [
            121.497275018971,
            25.1445522141009
          ],
          [
            121.49528954643,
            25.1452154261868
          ],
          [
            121.494983083817,
            25.1452711125331
          ],
          [
            121.493179008917,
            25.1454651499379
          ],
          [
            121.493014837505,
            25.1454432463522
          ],
          [
            121.492779208649,
            25.1453192399511
          ],
          [
            121.492437896606,
            25.1449806560764
          ],
          [
            121.492071,
            25.1445949999996
          ]
        ]
      }
    },
    {
      "type": "Feature",
      "properties": {
        "feature_type": "station",
        "ref": "TPE54747",
        "name": "貴子坑水土保持園區",
        "name_en": "Guizikeng Soil and Water Conservation Park",
        "line": "內科通勤專車16",
        "color": "#9a3412",
        "direction": 0,
        "station_id": "437"
      },
      "geometry": {
        "type": "Point",
        "coordinates": [
          121.49262,
          25.14506
        ]
      }
    },
    {
      "type": "Feature",
      "properties": {
        "feature_type": "station",
        "ref": "TPE54748",
        "name": "秀山里",
        "name_en": "Xiushan Li",
        "line": "內科通勤專車16",
        "color": "#9a3412",
        "direction": 0,
        "station_id": "1000928"
      },
      "geometry": {
        "type": "Point",
        "coordinates": [
          121.493826634438,
          25.1452880512553
        ]
      }
    },
    {
      "type": "Feature",
      "properties": {
        "feature_type": "station",
        "ref": "TPE54749",
        "name": "慈航寺",
        "name_en": "Cihang Temple",
        "line": "內科通勤專車16",
        "color": "#9a3412",
        "direction": 0,
        "station_id": "454"
      },
      "geometry": {
        "type": "Point",
        "coordinates": [
          121.497011,
          25.144571
        ]
      }
    },
    {
      "type": "Feature",
      "properties": {
        "feature_type": "station",
        "ref": "TPE54750",
        "name": "國泰新村",
        "name_en": "Guotai New Village",
        "line": "內科通勤專車16",
        "color": "#9a3412",
        "direction": 0,
        "station_id": "343"
      },
      "geometry": {
        "type": "Point",
        "coordinates": [
          121.498005120919,
          25.1435377973513
        ]
      }
    },
    {
      "type": "Feature",
      "properties": {
        "feature_type": "station",
        "ref": "TPE54751",
        "name": "中和里",
        "name_en": "Zhonghe Village",
        "line": "內科通勤專車16",
        "color": "#9a3412",
        "direction": 0,
        "station_id": "63"
      },
      "geometry": {
        "type": "Point",
        "coordinates": [
          121.49875524785,
          25.1420654536477
        ]
      }
    },
    {
      "type": "Feature",
      "properties": {
        "feature_type": "station",
        "ref": "TPE54752",
        "name": "復興中學",
        "name_en": "Fuxing High School",
        "line": "內科通勤專車16",
        "color": "#9a3412",
        "direction": 0,
        "station_id": "414"
      },
      "geometry": {
        "type": "Point",
        "coordinates": [
          121.500142024239,
          25.1404257952951
        ]
      }
    },
    {
      "type": "Feature",
      "properties": {
        "feature_type": "station",
        "ref": "TPE54753",
        "name": "中和街",
        "name_en": "Zhonghe St.",
        "line": "內科通勤專車16",
        "color": "#9a3412",
        "direction": 0,
        "station_id": "64"
      },
      "geometry": {
        "type": "Point",
        "coordinates": [
          121.501520744986,
          25.1391571863191
        ]
      }
    },
    {
      "type": "Feature",
      "properties": {
        "feature_type": "station",
        "ref": "TPE54754",
        "name": "新北投",
        "name_en": "Xinbeitou",
        "line": "內科通勤專車16",
        "color": "#9a3412",
        "direction": 0,
        "station_id": "456"
      },
      "geometry": {
        "type": "Point",
        "coordinates": [
          121.502937,
          25.137791
        ]
      }
    },
    {
      "type": "Feature",
      "properties": {
        "feature_type": "station",
        "ref": "TPE54755",
        "name": "北投公園",
        "name_en": "Beitou Park",
        "line": "內科通勤專車16",
        "color": "#9a3412",
        "direction": 0,
        "station_id": "112"
      },
      "geometry": {
        "type": "Point",
        "coordinates": [
          121.504124469582,
          25.1363484992167
        ]
      }
    },
    {
      "type": "Feature",
      "properties": {
        "feature_type": "station",
        "ref": "TPE54756",
        "name": "第一銀行",
        "name_en": "First Commercial Bank",
        "line": "內科通勤專車16",
        "color": "#9a3412",
        "direction": 0,
        "station_id": "399"
      },
      "geometry": {
        "type": "Point",
        "coordinates": [
          121.50235879653,
          25.1345133895389
        ]
      }
    },
    {
      "type": "Feature",
      "properties": {
        "feature_type": "station",
        "ref": "TPE54757",
        "name": "中央南路",
        "name_en": "Zhongyang S. Rd.",
        "line": "內科通勤專車16",
        "color": "#9a3412",
        "direction": 0,
        "station_id": "7241"
      },
      "geometry": {
        "type": "Point",
        "coordinates": [
          121.50131769692,
          25.1321537676007
        ]
      }
    },
    {
      "type": "Feature",
      "properties": {
        "feature_type": "station",
        "ref": "TPE54758",
        "name": "中央南大興街口",
        "name_en": "Zhongyang S. & Daxing St. Intersection",
        "line": "內科通勤專車16",
        "color": "#9a3412",
        "direction": 0,
        "station_id": "357"
      },
      "geometry": {
        "type": "Point",
        "coordinates": [
          121.501062,
          25.130163
        ]
      }
    },
    {
      "type": "Feature",
      "properties": {
        "feature_type": "station",
        "ref": "TPE58313",
        "name": "慈后宮",
        "name_en": "Cihou Temple",
        "line": "內科通勤專車16",
        "color": "#9a3412",
        "direction": 0,
        "station_id": "50086"
      },
      "geometry": {
        "type": "Point",
        "coordinates": [
          121.501189626271,
          25.1278841376109
        ]
      }
    },
    {
      "type": "Feature",
      "properties": {
        "feature_type": "station",
        "ref": "TPE54759",
        "name": "忠義新村",
        "name_en": "Zhongyi New Village",
        "line": "內科通勤專車16",
        "color": "#9a3412",
        "direction": 0,
        "station_id": "222"
      },
      "geometry": {
        "type": "Point",
        "coordinates": [
          121.5015983,
          25.12583115
        ]
      }
    },
    {
      "type": "Feature",
      "properties": {
        "feature_type": "station",
        "ref": "TPE54760",
        "name": "崇仁路口",
        "name_en": "Chongren Rd. Entrance",
        "line": "內科通勤專車16",
        "color": "#9a3412",
        "direction": 0,
        "station_id": "7234"
      },
      "geometry": {
        "type": "Point",
        "coordinates": [
          121.50284,
          25.12247
        ]
      }
    },
    {
      "type": "Feature",
      "properties": {
        "feature_type": "station",
        "ref": "TPE54761",
        "name": "捷運唭哩岸站二(西安)",
        "name_en": "MRT Qilian 2 (Xian)",
        "line": "內科通勤專車16",
        "color": "#9a3412",
        "direction": 0,
        "station_id": "382"
      },
      "geometry": {
        "type": "Point",
        "coordinates": [
          121.50419,
          25.12098
        ]
      }
    },
    {
      "type": "Feature",
      "properties": {
        "feature_type": "station",
        "ref": "TPE54762",
        "name": "捷運唭哩岸站一(西安)",
        "name_en": "MRT Qilian Sta. 1(Xi’an)",
        "line": "內科通勤專車16",
        "color": "#9a3412",
        "direction": 0,
        "station_id": "384"
      },
      "geometry": {
        "type": "Point",
        "coordinates": [
          121.507204221793,
          25.120365436068
        ]
      }
    },
    {
      "type": "Feature",
      "properties": {
        "feature_type": "station",
        "ref": "TPE54763",
        "name": "健行新村(西安)",
        "name_en": "Jianxing New Village (Xi’an)",
        "line": "內科通勤專車16",
        "color": "#9a3412",
        "direction": 0,
        "station_id": "333"
      },
      "geometry": {
        "type": "Point",
        "coordinates": [
          121.508648,
          25.120154
        ]
      }
    },
    {
      "type": "Feature",
      "properties": {
        "feature_type": "station",
        "ref": "TPE54764",
        "name": "陽明交大(西安)",
        "name_en": "NYCU (Xi'an)",
        "line": "內科通勤專車16",
        "color": "#9a3412",
        "direction": 0,
        "station_id": "441"
      },
      "geometry": {
        "type": "Point",
        "coordinates": [
          121.511691191756,
          25.1191852593947
        ]
      }
    },
    {
      "type": "Feature",
      "properties": {
        "feature_type": "station",
        "ref": "TPE54765",
        "name": "石牌國中",
        "name_en": "Shipai Junior High School",
        "line": "內科通勤專車16",
        "color": "#9a3412",
        "direction": 0,
        "station_id": "4662"
      },
      "geometry": {
        "type": "Point",
        "coordinates": [
          121.51367,
          25.11668
        ]
      }
    },
    {
      "type": "Feature",
      "properties": {
        "feature_type": "station",
        "ref": "TPE54766",
        "name": "捷運石牌站(西安)",
        "name_en": "MRT Shipai Sta. (Xi’an)",
        "line": "內科通勤專車16",
        "color": "#9a3412",
        "direction": 0,
        "station_id": "1001371"
      },
      "geometry": {
        "type": "Point",
        "coordinates": [
          121.51501,
          25.114729
        ]
      }
    },
    {
      "type": "Feature",
      "properties": {
        "feature_type": "station",
        "ref": "TPE54767",
        "name": "自強街口(西安)",
        "name_en": "Ziqiang St. Entrance (Xi'an)",
        "line": "內科通勤專車16",
        "color": "#9a3412",
        "direction": 0,
        "station_id": "172"
      },
      "geometry": {
        "type": "Point",
        "coordinates": [
          121.51664,
          25.11229
        ]
      }
    },
    {
      "type": "Feature",
      "properties": {
        "feature_type": "station",
        "ref": "TPE54768",
        "name": "捷運明德站(西安)",
        "name_en": "MRT Mingde Sta. (Xi'an)",
        "line": "內科通勤專車16",
        "color": "#9a3412",
        "direction": 0,
        "station_id": "374"
      },
      "geometry": {
        "type": "Point",
        "coordinates": [
          121.518827,
          25.109208
        ]
      }
    },
    {
      "type": "Feature",
      "properties": {
        "feature_type": "station",
        "ref": "TPE54769",
        "name": "明德國中",
        "name_en": "Mingde Junior High School",
        "line": "內科通勤專車16",
        "color": "#9a3412",
        "direction": 0,
        "station_id": "239"
      },
      "geometry": {
        "type": "Point",
        "coordinates": [
          121.517707662365,
          25.107279457424
        ]
      }
    },
    {
      "type": "Feature",
      "properties": {
        "feature_type": "station",
        "ref": "TPE54770",
        "name": "中正高中",
        "name_en": "Zhongzheng High School",
        "line": "內科通勤專車16",
        "color": "#9a3412",
        "direction": 0,
        "station_id": "60"
      },
      "geometry": {
        "type": "Point",
        "coordinates": [
          121.517803,
          25.105059
        ]
      }
    },
    {
      "type": "Feature",
      "properties": {
        "feature_type": "station",
        "ref": "TPE58314",
        "name": "捷運芝山站(戲曲中心)",
        "name_en": "MRT Zhishan Sta. (Taiwan Traditional Theatre Center)",
        "line": "內科通勤專車16",
        "color": "#9a3412",
        "direction": 0,
        "station_id": "800"
      },
      "geometry": {
        "type": "Point",
        "coordinates": [
          121.520473605143,
          25.1022630440787
        ]
      }
    },
    {
      "type": "Feature",
      "properties": {
        "feature_type": "station",
        "ref": "TPE54771",
        "name": "捷運芝山站一",
        "name_en": "MRT Zhishan Sta. 1",
        "line": "內科通勤專車16",
        "color": "#9a3412",
        "direction": 0,
        "station_id": "1000347"
      },
      "geometry": {
        "type": "Point",
        "coordinates": [
          121.522307508871,
          25.1008497293525
        ]
      }
    },
    {
      "type": "Feature",
      "properties": {
        "feature_type": "station",
        "ref": "TPE54772",
        "name": "士林",
        "name_en": "Shilin",
        "line": "內科通勤專車16",
        "color": "#9a3412",
        "direction": 0,
        "station_id": "569"
      },
      "geometry": {
        "type": "Point",
        "coordinates": [
          121.524279381093,
          25.0959118891448
        ]
      }
    },
    {
      "type": "Feature",
      "properties": {
        "feature_type": "station",
        "ref": "TPE54773",
        "name": "捷運士林站(中正)",
        "name_en": "MRT Shilin Sta. (Zhongzheng)",
        "line": "內科通勤專車16",
        "color": "#9a3412",
        "direction": 0,
        "station_id": "10210"
      },
      "geometry": {
        "type": "Point",
        "coordinates": [
          121.5267653,
          25.09543483
        ]
      }
    },
    {
      "type": "Feature",
      "properties": {
        "feature_type": "station",
        "ref": "TPE54774",
        "name": "福林國小",
        "name_en": "Fulin Elementary School",
        "line": "內科通勤專車16",
        "color": "#9a3412",
        "direction": 0,
        "station_id": "896"
      },
      "geometry": {
        "type": "Point",
        "coordinates": [
          121.5290055,
          25.09583325
        ]
      }
    },
    {
      "type": "Feature",
      "properties": {
        "feature_type": "station",
        "ref": "TPE54775",
        "name": "士林官邸(中正)",
        "name_en": "Chiang Kai-Shek Shilin Residence (Zhongzheng)",
        "line": "內科通勤專車16",
        "color": "#9a3412",
        "direction": 0,
        "station_id": "1000618"
      },
      "geometry": {
        "type": "Point",
        "coordinates": [
          121.531395,
          25.096324
        ]
      }
    },
    {
      "type": "Feature",
      "properties": {
        "feature_type": "station",
        "ref": "TPE54776",
        "name": "泰北中學",
        "name_en": "Taibei High School",
        "line": "內科通勤專車16",
        "color": "#9a3412",
        "direction": 0,
        "station_id": "777"
      },
      "geometry": {
        "type": "Point",
        "coordinates": [
          121.533481875716,
          25.0972847950979
        ]
      }
    },
    {
      "type": "Feature",
      "properties": {
        "feature_type": "station",
        "ref": "TPE177484",
        "name": "東吳大學(錢穆故居)",
        "name_en": "Soochow University",
        "line": "內科通勤專車16",
        "color": "#9a3412",
        "direction": 0,
        "station_id": "729"
      },
      "geometry": {
        "type": "Point",
        "coordinates": [
          121.541888,
          25.097131
        ]
      }
    },
    {
      "type": "Feature",
      "properties": {
        "feature_type": "station",
        "ref": "TPE149132",
        "name": "外雙溪(故宮)",
        "name_en": "Waishuangxi",
        "line": "內科通勤專車16",
        "color": "#9a3412",
        "direction": 0,
        "station_id": "660"
      },
      "geometry": {
        "type": "Point",
        "coordinates": [
          121.54679912183309,
          25.09735486763365
        ]
      }
    },
    {
      "type": "Feature",
      "properties": {
        "feature_type": "station",
        "ref": "TPE54777",
        "name": "捷運劍南路站",
        "name_en": "MRT Jiannan Rd. Station ",
        "line": "內科通勤專車16",
        "color": "#9a3412",
        "direction": 0,
        "station_id": "1000117"
      },
      "geometry": {
        "type": "Point",
        "coordinates": [
          121.555253,
          25.08484
        ]
      }
    },
    {
      "type": "Feature",
      "properties": {
        "feature_type": "station",
        "ref": "TPE149133",
        "name": "治磐新村",
        "name_en": "Zhipan New Village",
        "line": "內科通勤專車16",
        "color": "#9a3412",
        "direction": 0,
        "station_id": "8521"
      },
      "geometry": {
        "type": "Point",
        "coordinates": [
          121.56384168984,
          25.0829452709661
        ]
      }
    },
    {
      "type": "Feature",
      "properties": {
        "feature_type": "station",
        "ref": "TPE54778",
        "name": "內湖基湖路口",
        "name_en": "Neihu and Jihu Intersection",
        "line": "內科通勤專車16",
        "color": "#9a3412",
        "direction": 0,
        "station_id": "1001"
      },
      "geometry": {
        "type": "Point",
        "coordinates": [
          121.5652273,
          25.08198997
        ]
      }
    },
    {
      "type": "Feature",
      "properties": {
        "feature_type": "station",
        "ref": "TPE54779",
        "name": "基湖路口",
        "name_en": "Jihu Rd. Entrance",
        "line": "內科通勤專車16",
        "color": "#9a3412",
        "direction": 0,
        "station_id": "8404"
      },
      "geometry": {
        "type": "Point",
        "coordinates": [
          121.5662362,
          25.08025003
        ]
      }
    },
    {
      "type": "Feature",
      "properties": {
        "feature_type": "station",
        "ref": "TPE54780",
        "name": "仁寶大樓",
        "name_en": "Renbao Bldg.",
        "line": "內科通勤專車16",
        "color": "#9a3412",
        "direction": 0,
        "station_id": "1007"
      },
      "geometry": {
        "type": "Point",
        "coordinates": [
          121.5684974,
          25.07921316
        ]
      }
    },
    {
      "type": "Feature",
      "properties": {
        "feature_type": "station",
        "ref": "TPE54781",
        "name": "瑞光港墘路口",
        "name_en": "Ruiguang & Gangqian Intersection",
        "line": "內科通勤專車16",
        "color": "#9a3412",
        "direction": 0,
        "station_id": "1013"
      },
      "geometry": {
        "type": "Point",
        "coordinates": [
          121.571868,
          25.077753
        ]
      }
    },
    {
      "type": "Feature",
      "properties": {
        "feature_type": "station",
        "ref": "TPE54782",
        "name": "瑞光路",
        "name_en": "Ruiguang Rd.",
        "line": "內科通勤專車16",
        "color": "#9a3412",
        "direction": 0,
        "station_id": "1132"
      },
      "geometry": {
        "type": "Point",
        "coordinates": [
          121.577343,
          25.074821
        ]
      }
    },
    {
      "type": "Feature",
      "properties": {
        "feature_type": "station",
        "ref": "TPE54783",
        "name": "公館山",
        "name_en": "Gongguanshan",
        "line": "內科通勤專車16",
        "color": "#9a3412",
        "direction": 0,
        "station_id": "1006"
      },
      "geometry": {
        "type": "Point",
        "coordinates": [
          121.5809507,
          25.07198833
        ]
      }
    },
    {
      "type": "Feature",
      "properties": {
        "feature_type": "station",
        "ref": "TPE121564",
        "name": "麗寶大樓",
        "name_en": "Libao Building",
        "line": "內科通勤專車16",
        "color": "#9a3412",
        "direction": 0,
        "station_id": "1165610352"
      },
      "geometry": {
        "type": "Point",
        "coordinates": [
          121.5820136022182,
          25.070960172287336
        ]
      }
    },
    {
      "type": "Feature",
      "properties": {
        "feature_type": "station",
        "ref": "TPE182108",
        "name": "時報廣場",
        "name_en": "China Times Daily News Square",
        "line": "內科通勤專車16",
        "color": "#9a3412",
        "direction": 0,
        "station_id": "8601"
      },
      "geometry": {
        "type": "Point",
        "coordinates": [
          121.583129808238,
          25.0685609459737
        ]
      }
    },
    {
      "type": "Feature",
      "properties": {
        "feature_type": "station",
        "ref": "TPE182109",
        "name": "民權大橋",
        "name_en": "Minquan Bridge",
        "line": "內科通勤專車16",
        "color": "#9a3412",
        "direction": 0,
        "station_id": "8602"
      },
      "geometry": {
        "type": "Point",
        "coordinates": [
          121.57895384595646,
          25.066982973174284
        ]
      }
    },
    {
      "type": "Feature",
      "properties": {
        "feature_type": "station",
        "ref": "TPE182110",
        "name": "民權大橋",
        "name_en": "MinQuan Bridge",
        "line": "內科通勤專車16",
        "color": "#9a3412",
        "direction": 1,
        "station_id": "1017"
      },
      "geometry": {
        "type": "Point",
        "coordinates": [
          121.579477870198,
          25.066876801458
        ]
      }
    },
    {
      "type": "Feature",
      "properties": {
        "feature_type": "station",
        "ref": "TPE182111",
        "name": "時報廣場",
        "name_en": "China Times Daily News Square",
        "line": "內科通勤專車16",
        "color": "#9a3412",
        "direction": 1,
        "station_id": "1077"
      },
      "geometry": {
        "type": "Point",
        "coordinates": [
          121.58212115754,
          25.0680848776157
        ]
      }
    },
    {
      "type": "Feature",
      "properties": {
        "feature_type": "station",
        "ref": "TPE121565",
        "name": "麗寶大樓",
        "name_en": "Libao Building",
        "line": "內科通勤專車16",
        "color": "#9a3412",
        "direction": 1,
        "station_id": "8603"
      },
      "geometry": {
        "type": "Point",
        "coordinates": [
          121.582711,
          25.070517
        ]
      }
    },
    {
      "type": "Feature",
      "properties": {
        "feature_type": "station",
        "ref": "TPE121566",
        "name": "公館山",
        "name_en": "Gongguanshan",
        "line": "內科通勤專車16",
        "color": "#9a3412",
        "direction": 1,
        "station_id": "8621"
      },
      "geometry": {
        "type": "Point",
        "coordinates": [
          121.581177,
          25.071952
        ]
      }
    },
    {
      "type": "Feature",
      "properties": {
        "feature_type": "station",
        "ref": "TPE121567",
        "name": "瑞光路",
        "name_en": "Ruiguang Rd.",
        "line": "內科通勤專車16",
        "color": "#9a3412",
        "direction": 1,
        "station_id": "1000897"
      },
      "geometry": {
        "type": "Point",
        "coordinates": [
          121.57766690657958,
          25.07478024553194
        ]
      }
    },
    {
      "type": "Feature",
      "properties": {
        "feature_type": "station",
        "ref": "TPE121568",
        "name": "瑞光港墘路口",
        "name_en": "Ruiguang &Gangqian Roads",
        "line": "內科通勤專車16",
        "color": "#9a3412",
        "direction": 1,
        "station_id": "1000895"
      },
      "geometry": {
        "type": "Point",
        "coordinates": [
          121.5731066,
          25.07729684
        ]
      }
    },
    {
      "type": "Feature",
      "properties": {
        "feature_type": "station",
        "ref": "TPE121569",
        "name": "仁寶大樓",
        "name_en": "Renbao Bldg.",
        "line": "內科通勤專車16",
        "color": "#9a3412",
        "direction": 1,
        "station_id": "1000896"
      },
      "geometry": {
        "type": "Point",
        "coordinates": [
          121.568256,
          25.079478
        ]
      }
    },
    {
      "type": "Feature",
      "properties": {
        "feature_type": "station",
        "ref": "TPE121570",
        "name": "基湖路口",
        "name_en": "Jihu Rd. Entrance",
        "line": "內科通勤專車16",
        "color": "#9a3412",
        "direction": 1,
        "station_id": "8403"
      },
      "geometry": {
        "type": "Point",
        "coordinates": [
          121.565903409458,
          25.0805158061818
        ]
      }
    },
    {
      "type": "Feature",
      "properties": {
        "feature_type": "station",
        "ref": "TPE149134",
        "name": "治磐新村",
        "name_en": "Zhipan New Village",
        "line": "內科通勤專車16",
        "color": "#9a3412",
        "direction": 1,
        "station_id": "194"
      },
      "geometry": {
        "type": "Point",
        "coordinates": [
          121.564098538475,
          25.0830692818289
        ]
      }
    },
    {
      "type": "Feature",
      "properties": {
        "feature_type": "station",
        "ref": "TPE121572",
        "name": "捷運劍南路站",
        "name_en": "MRT Jiannan Rd. Station ",
        "line": "內科通勤專車16",
        "color": "#9a3412",
        "direction": 1,
        "station_id": "1000695"
      },
      "geometry": {
        "type": "Point",
        "coordinates": [
          121.55468793143969,
          25.085303158353604
        ]
      }
    },
    {
      "type": "Feature",
      "properties": {
        "feature_type": "station",
        "ref": "TPE149135",
        "name": "外雙溪(故宮)",
        "name_en": "Waishuangxi",
        "line": "內科通勤專車16",
        "color": "#9a3412",
        "direction": 1,
        "station_id": "3948"
      },
      "geometry": {
        "type": "Point",
        "coordinates": [
          121.54728315713145,
          25.096654067919133
        ]
      }
    },
    {
      "type": "Feature",
      "properties": {
        "feature_type": "station",
        "ref": "TPE177485",
        "name": "東吳大學(錢穆故居)",
        "name_en": "Soochow University",
        "line": "內科通勤專車16",
        "color": "#9a3412",
        "direction": 1,
        "station_id": "728"
      },
      "geometry": {
        "type": "Point",
        "coordinates": [
          121.541307,
          25.097411
        ]
      }
    },
    {
      "type": "Feature",
      "properties": {
        "feature_type": "station",
        "ref": "TPE121573",
        "name": "泰北中學",
        "name_en": "Taibei High School",
        "line": "內科通勤專車16",
        "color": "#9a3412",
        "direction": 1,
        "station_id": "778"
      },
      "geometry": {
        "type": "Point",
        "coordinates": [
          121.534030294965,
          25.0977513146504
        ]
      }
    },
    {
      "type": "Feature",
      "properties": {
        "feature_type": "station",
        "ref": "TPE121574",
        "name": "士林官邸(中正)",
        "name_en": "Chiang Kai-Shek Shilin Residence (Zhongzheng)",
        "line": "內科通勤專車16",
        "color": "#9a3412",
        "direction": 1,
        "station_id": "3953"
      },
      "geometry": {
        "type": "Point",
        "coordinates": [
          121.53144,
          25.0965
        ]
      }
    },
    {
      "type": "Feature",
      "properties": {
        "feature_type": "station",
        "ref": "TPE121575",
        "name": "福林國小",
        "name_en": "Fulin Elementary School",
        "line": "內科通勤專車16",
        "color": "#9a3412",
        "direction": 1,
        "station_id": "3954"
      },
      "geometry": {
        "type": "Point",
        "coordinates": [
          121.52976,
          25.0962
        ]
      }
    },
    {
      "type": "Feature",
      "properties": {
        "feature_type": "station",
        "ref": "TPE121576",
        "name": "捷運士林站(中正)",
        "name_en": "MRT Shilin Sta. (Zhongzheng)",
        "line": "內科通勤專車16",
        "color": "#9a3412",
        "direction": 1,
        "station_id": "797"
      },
      "geometry": {
        "type": "Point",
        "coordinates": [
          121.526622,
          25.095583
        ]
      }
    },
    {
      "type": "Feature",
      "properties": {
        "feature_type": "station",
        "ref": "TPE121577",
        "name": "士林",
        "name_en": "Shilin",
        "line": "內科通勤專車16",
        "color": "#9a3412",
        "direction": 1,
        "station_id": "10209"
      },
      "geometry": {
        "type": "Point",
        "coordinates": [
          121.524405,
          25.096111
        ]
      }
    },
    {
      "type": "Feature",
      "properties": {
        "feature_type": "station",
        "ref": "TPE121578",
        "name": "捷運芝山站一",
        "name_en": "MRT Zhishan Sta. 1",
        "line": "內科通勤專車16",
        "color": "#9a3412",
        "direction": 1,
        "station_id": "801"
      },
      "geometry": {
        "type": "Point",
        "coordinates": [
          121.522657043885,
          25.1007959524461
        ]
      }
    },
    {
      "type": "Feature",
      "properties": {
        "feature_type": "station",
        "ref": "TPE121579",
        "name": "捷運芝山站(戲曲中心)",
        "name_en": "MRT Zhishan Sta. (Taiwan Traditional Theatre Center)",
        "line": "內科通勤專車16",
        "color": "#9a3412",
        "direction": 1,
        "station_id": "1000388"
      },
      "geometry": {
        "type": "Point",
        "coordinates": [
          121.52067,
          25.1025
        ]
      }
    },
    {
      "type": "Feature",
      "properties": {
        "feature_type": "station",
        "ref": "TPE121580",
        "name": "中正高中",
        "name_en": "Zhongzheng High School",
        "line": "內科通勤專車16",
        "color": "#9a3412",
        "direction": 1,
        "station_id": "1000348"
      },
      "geometry": {
        "type": "Point",
        "coordinates": [
          121.517290935039,
          25.1058289859016
        ]
      }
    },
    {
      "type": "Feature",
      "properties": {
        "feature_type": "station",
        "ref": "TPE121581",
        "name": "明德國中",
        "name_en": "Mingde Junior High School",
        "line": "內科通勤專車16",
        "color": "#9a3412",
        "direction": 1,
        "station_id": "7246"
      },
      "geometry": {
        "type": "Point",
        "coordinates": [
          121.517862336613,
          25.1072816355752
        ]
      }
    },
    {
      "type": "Feature",
      "properties": {
        "feature_type": "station",
        "ref": "TPE121582",
        "name": "捷運明德站(東華)",
        "name_en": "MRT Mingde Sta. (Donghua)",
        "line": "內科通勤專車16",
        "color": "#9a3412",
        "direction": 1,
        "station_id": "375"
      },
      "geometry": {
        "type": "Point",
        "coordinates": [
          121.51904,
          25.10987
        ]
      }
    },
    {
      "type": "Feature",
      "properties": {
        "feature_type": "station",
        "ref": "TPE121583",
        "name": "自強街口(東華)",
        "name_en": "Ziqiang St. Entrance (Donghua)",
        "line": "內科通勤專車16",
        "color": "#9a3412",
        "direction": 1,
        "station_id": "173"
      },
      "geometry": {
        "type": "Point",
        "coordinates": [
          121.51761,
          25.11225
        ]
      }
    },
    {
      "type": "Feature",
      "properties": {
        "feature_type": "station",
        "ref": "TPE121584",
        "name": "捷運石牌站(東華)",
        "name_en": "MRT Shipai Sta. (Donghua)",
        "line": "內科通勤專車16",
        "color": "#9a3412",
        "direction": 1,
        "station_id": "364"
      },
      "geometry": {
        "type": "Point",
        "coordinates": [
          121.5154878,
          25.11515658
        ]
      }
    },
    {
      "type": "Feature",
      "properties": {
        "feature_type": "station",
        "ref": "TPE121585",
        "name": "義理街口",
        "name_en": "Yili St. Entrance",
        "line": "內科通勤專車16",
        "color": "#9a3412",
        "direction": 1,
        "station_id": "4663"
      },
      "geometry": {
        "type": "Point",
        "coordinates": [
          121.51478635582,
          25.116067992916
        ]
      }
    },
    {
      "type": "Feature",
      "properties": {
        "feature_type": "station",
        "ref": "TPE121586",
        "name": "陽明交大(東華)",
        "name_en": "NYCU (Donghua)",
        "line": "內科通勤專車16",
        "color": "#9a3412",
        "direction": 1,
        "station_id": "442"
      },
      "geometry": {
        "type": "Point",
        "coordinates": [
          121.511973,
          25.119636
        ]
      }
    },
    {
      "type": "Feature",
      "properties": {
        "feature_type": "station",
        "ref": "TPE121587",
        "name": "健行新村(東華)",
        "name_en": "Jianxing New Village (Donghua)",
        "line": "內科通勤專車16",
        "color": "#9a3412",
        "direction": 1,
        "station_id": "334"
      },
      "geometry": {
        "type": "Point",
        "coordinates": [
          121.50914,
          25.12051
        ]
      }
    },
    {
      "type": "Feature",
      "properties": {
        "feature_type": "station",
        "ref": "TPE121588",
        "name": "捷運唭哩岸站一(東華)",
        "name_en": "MRT Qilian 1",
        "line": "內科通勤專車16",
        "color": "#9a3412",
        "direction": 1,
        "station_id": "385"
      },
      "geometry": {
        "type": "Point",
        "coordinates": [
          121.50736,
          25.120913
        ]
      }
    },
    {
      "type": "Feature",
      "properties": {
        "feature_type": "station",
        "ref": "TPE121589",
        "name": "捷運唭哩岸站二(東華)",
        "name_en": "MRT Qilian 2",
        "line": "內科通勤專車16",
        "color": "#9a3412",
        "direction": 1,
        "station_id": "387"
      },
      "geometry": {
        "type": "Point",
        "coordinates": [
          121.505229693995,
          25.1213471298747
        ]
      }
    },
    {
      "type": "Feature",
      "properties": {
        "feature_type": "station",
        "ref": "TPE121590",
        "name": "崇仁路口",
        "name_en": "Chongren Rd. Entrance",
        "line": "內科通勤專車16",
        "color": "#9a3412",
        "direction": 1,
        "station_id": "345"
      },
      "geometry": {
        "type": "Point",
        "coordinates": [
          121.502948188139,
          25.1223766584811
        ]
      }
    },
    {
      "type": "Feature",
      "properties": {
        "feature_type": "station",
        "ref": "TPE121591",
        "name": "忠義新村",
        "name_en": "Zhongyi New Village",
        "line": "內科通勤專車16",
        "color": "#9a3412",
        "direction": 1,
        "station_id": "50085"
      },
      "geometry": {
        "type": "Point",
        "coordinates": [
          121.5017756,
          25.12552173
        ]
      }
    },
    {
      "type": "Feature",
      "properties": {
        "feature_type": "station",
        "ref": "TPE152695",
        "name": "慈后宮",
        "name_en": "Cihou Temple",
        "line": "內科通勤專車16",
        "color": "#9a3412",
        "direction": 1,
        "station_id": "453"
      },
      "geometry": {
        "type": "Point",
        "coordinates": [
          121.5013728,
          25.12750085
        ]
      }
    },
    {
      "type": "Feature",
      "properties": {
        "feature_type": "station",
        "ref": "TPE121593",
        "name": "清江里",
        "name_en": "Qingjiang Village",
        "line": "內科通勤專車16",
        "color": "#9a3412",
        "direction": 1,
        "station_id": "395"
      },
      "geometry": {
        "type": "Point",
        "coordinates": [
          121.50117,
          25.12874
        ]
      }
    },
    {
      "type": "Feature",
      "properties": {
        "feature_type": "station",
        "ref": "TPE121594",
        "name": "中央南路",
        "name_en": "Zhongyang S. Rd.",
        "line": "內科通勤專車16",
        "color": "#9a3412",
        "direction": 1,
        "station_id": "56"
      },
      "geometry": {
        "type": "Point",
        "coordinates": [
          121.501443570835,
          25.1322245985598
        ]
      }
    },
    {
      "type": "Feature",
      "properties": {
        "feature_type": "station",
        "ref": "TPE121595",
        "name": "第一銀行",
        "name_en": "First Commercial Bank",
        "line": "內科通勤專車16",
        "color": "#9a3412",
        "direction": 1,
        "station_id": "7239"
      },
      "geometry": {
        "type": "Point",
        "coordinates": [
          121.50256846263959,
          25.13489933134952
        ]
      }
    },
    {
      "type": "Feature",
      "properties": {
        "feature_type": "station",
        "ref": "TPE121596",
        "name": "北投公園",
        "name_en": "Beitou Park",
        "line": "內科通勤專車16",
        "color": "#9a3412",
        "direction": 1,
        "station_id": "113"
      },
      "geometry": {
        "type": "Point",
        "coordinates": [
          121.50444128215462,
          25.13658039419034
        ]
      }
    },
    {
      "type": "Feature",
      "properties": {
        "feature_type": "station",
        "ref": "TPE121597",
        "name": "新北投",
        "name_en": "Xinbeitou",
        "line": "內科通勤專車16",
        "color": "#9a3412",
        "direction": 1,
        "station_id": "4113"
      },
      "geometry": {
        "type": "Point",
        "coordinates": [
          121.503116860832,
          25.1377878885811
        ]
      }
    },
    {
      "type": "Feature",
      "properties": {
        "feature_type": "station",
        "ref": "TPE121598",
        "name": "中和街",
        "name_en": "Zhonghe St.",
        "line": "內科通勤專車16",
        "color": "#9a3412",
        "direction": 1,
        "station_id": "7238"
      },
      "geometry": {
        "type": "Point",
        "coordinates": [
          121.501688456724,
          25.1392080991718
        ]
      }
    },
    {
      "type": "Feature",
      "properties": {
        "feature_type": "station",
        "ref": "TPE121599",
        "name": "復興中學",
        "name_en": "Fuxing High School",
        "line": "內科通勤專車16",
        "color": "#9a3412",
        "direction": 1,
        "station_id": "3990"
      },
      "geometry": {
        "type": "Point",
        "coordinates": [
          121.50003982457,
          25.140779616914
        ]
      }
    },
    {
      "type": "Feature",
      "properties": {
        "feature_type": "station",
        "ref": "TPE121600",
        "name": "中和里",
        "name_en": "Zhonghe Village",
        "line": "內科通勤專車16",
        "color": "#9a3412",
        "direction": 1,
        "station_id": "7237"
      },
      "geometry": {
        "type": "Point",
        "coordinates": [
          121.498822886077,
          25.1422718056895
        ]
      }
    },
    {
      "type": "Feature",
      "properties": {
        "feature_type": "station",
        "ref": "TPE121601",
        "name": "國泰新村",
        "name_en": "Guotai New Village",
        "line": "內科通勤專車16",
        "color": "#9a3412",
        "direction": 1,
        "station_id": "3991"
      },
      "geometry": {
        "type": "Point",
        "coordinates": [
          121.498191201655,
          25.1434882184522
        ]
      }
    },
    {
      "type": "Feature",
      "properties": {
        "feature_type": "station",
        "ref": "TPE121602",
        "name": "慈航寺",
        "name_en": "Cihang Temple",
        "line": "內科通勤專車16",
        "color": "#9a3412",
        "direction": 1,
        "station_id": "3995"
      },
      "geometry": {
        "type": "Point",
        "coordinates": [
          121.496498,
          25.144813
        ]
      }
    },
    {
      "type": "Feature",
      "properties": {
        "feature_type": "station",
        "ref": "TPE121603",
        "name": "秀山里",
        "name_en": "Xiushan Li",
        "line": "內科通勤專車16",
        "color": "#9a3412",
        "direction": 1,
        "station_id": "7236"
      },
      "geometry": {
        "type": "Point",
        "coordinates": [
          121.494135327259,
          25.1454283711567
        ]
      }
    },
    {
      "type": "Feature",
      "properties": {
        "feature_type": "station",
        "ref": "TPE121604",
        "name": "貴子坑水土保持園區",
        "name_en": "Guizikeng Soil and Water Conservation Park",
        "line": "內科通勤專車16",
        "color": "#9a3412",
        "direction": 1,
        "station_id": "1000350"
      },
      "geometry": {
        "type": "Point",
        "coordinates": [
          121.492633753399,
          25.1452633730156
        ]
      }
    },
    {
      "type": "Feature",
      "properties": {
        "feature_type": "station",
        "ref": "TPE121605",
        "name": "北投站",
        "name_en": "Beitou Stop",
        "line": "內科通勤專車16",
        "color": "#9a3412",
        "direction": 1,
        "station_id": "1000351"
      },
      "geometry": {
        "type": "Point",
        "coordinates": [
          121.492071,
          25.144595
        ]
      }
    }
  ]
}
