{
  "type": "FeatureCollection",
  "name": "內科通勤專車22",
  "properties": {
    "id": "taipei_neiketongqinzhuanche22",
    "name": "內科通勤專車22",
    "name_en": "內科通勤專車22",
    "ref": "內科通勤專車22",
    "color": "#9f1239",
    "city_id": "Taipei",
    "source": "TDX Bus Shape / StopOfRoute",
    "official_map_url": "https://ebus.gov.taipei/File/Get/b2d888b4-d4b9-4753-a014-9505fc2798a0?v=639248448858775394",
    "operator_id": "200",
    "operator": "首都客運",
    "operator_en": "Capital Bus Co., Ltd."
  },
  "features": [
    {
      "type": "Feature",
      "properties": {
        "feature_type": "route",
        "ref": "內科通勤專車22",
        "name": "內科通勤專車22",
        "name_en": "內科通勤專車22",
        "color": "#9f1239",
        "direction": 0
      },
      "geometry": {
        "type": "LineString",
        "coordinates": [
          [
            121.520193837619,
            25.0697454539308
          ],
          [
            121.52020824240714,
            25.069973423592526
          ],
          [
            121.52020448433295,
            25.070003731658574
          ],
          [
            121.52018986527041,
            25.07003120310841
          ],
          [
            121.52016605173016,
            25.070052665901233
          ],
          [
            121.52013576203952,
            25.07006567004869
          ],
          [
            121.52010245378158,
            25.07006873112096
          ],
          [
            121.52006969545823,
            25.070061407098226
          ],
          [
            121.51995278845575,
            25.070015637285525
          ],
          [
            121.51994707662091,
            25.07001263723218
          ],
          [
            121.51994219083899,
            25.070008500578073
          ],
          [
            121.51993845109355,
            25.07000346697841
          ],
          [
            121.51993604929214,
            25.069997794735684
          ],
          [
            121.51993510868475,
            25.06999177492479
          ],
          [
            121.51993566966422,
            25.06998575219035
          ],
          [
            121.520046108739,
            25.0694862343509
          ],
          [
            121.520040904778,
            25.0693535767388
          ],
          [
            121.51995460010566,
            25.068604024941717
          ],
          [
            121.51995567859505,
            25.068574390997387
          ],
          [
            121.5199655439161,
            25.068546057298597
          ],
          [
            121.51998346524692,
            25.06852122719066
          ],
          [
            121.52000809861076,
            25.068501762761155
          ],
          [
            121.52003759667447,
            25.06848912370863
          ],
          [
            121.52006972458189,
            25.06848425843503
          ],
          [
            121.521353789799,
            25.068452578597
          ],
          [
            121.52287277078831,
            25.068429824911096
          ],
          [
            121.52289929113473,
            25.068432145346115
          ],
          [
            121.52292456849776,
            25.068439784085466
          ],
          [
            121.52294735114292,
            25.0684523584841
          ],
          [
            121.52296649844477,
            25.06846923899795
          ],
          [
            121.52298105178325,
            25.06848958049494
          ],
          [
            121.5229903287568,
            25.06851253643995
          ],
          [
            121.5230926562,
            25.0688902840529
          ],
          [
            121.523320143639,
            25.0696485208789
          ],
          [
            121.523471801931,
            25.0702767899326
          ],
          [
            121.523603387802,
            25.0707697061625
          ],
          [
            121.523588519342,
            25.0708525320556
          ],
          [
            121.523595210149,
            25.0709117895707
          ],
          [
            121.523749098711,
            25.0714807949332
          ],
          [
            121.523951309767,
            25.072168984869
          ],
          [
            121.52405836268,
            25.0725810889284
          ],
          [
            121.524134191826,
            25.0729029600887
          ],
          [
            121.524233810508,
            25.0732746596229
          ],
          [
            121.5243111265,
            25.0734807099656
          ],
          [
            121.524433047872,
            25.0736409711036
          ],
          [
            121.524654587927,
            25.073803925491
          ],
          [
            121.52505157581,
            25.0740180553068
          ],
          [
            121.525420313619,
            25.0742523856195
          ],
          [
            121.525671590593,
            25.0743803243941
          ],
          [
            121.525912459646,
            25.0744597810395
          ],
          [
            121.52674361735744,
            25.074893350029242
          ],
          [
            121.5267593450521,
            25.074903228729298
          ],
          [
            121.52677337788188,
            25.074915521332894
          ],
          [
            121.52678502745597,
            25.074929735180884
          ],
          [
            121.52679398244173,
            25.07494549041088
          ],
          [
            121.52680000351887,
            25.074962365967345
          ],
          [
            121.52680293365589,
            25.074979963164775
          ],
          [
            121.526843225244,
            25.0755102199793
          ],
          [
            121.526847685782,
            25.0757270402283
          ],
          [
            121.526884856932,
            25.0759990750287
          ],
          [
            121.526947304464,
            25.0762778427368
          ],
          [
            121.527103423294,
            25.0764758078252
          ],
          [
            121.527262515817,
            25.0766239447569
          ],
          [
            121.527623819396,
            25.076887897391
          ],
          [
            121.528217070951,
            25.0773255726986
          ],
          [
            121.528706243286,
            25.077643391326
          ],
          [
            121.528950086031,
            25.0777268859133
          ],
          [
            121.529454126826,
            25.0778534743726
          ],
          [
            121.530096444299,
            25.0779450489211
          ],
          [
            121.531040591512,
            25.0780904907104
          ],
          [
            121.53131268433,
            25.0781079975807
          ],
          [
            121.531745356517,
            25.0780756772027
          ],
          [
            121.532575016587,
            25.0780096897377
          ],
          [
            121.532799530334,
            25.077986796119
          ],
          [
            121.533015123004,
            25.0779167685531
          ],
          [
            121.53316529445,
            25.077887141494
          ],
          [
            121.533438874115,
            25.07796524918
          ],
          [
            121.533624729865,
            25.0779639024961
          ],
          [
            121.534188244501,
            25.0779275420274
          ],
          [
            121.53637985551,
            25.0778130738147
          ],
          [
            121.537822096133,
            25.0777282325997
          ],
          [
            121.538864375181,
            25.0776770585052
          ],
          [
            121.539304481598,
            25.0776555115115
          ],
          [
            121.540874590978,
            25.0775693234992
          ],
          [
            121.542548779578,
            25.0774858288045
          ],
          [
            121.54413673111,
            25.0774023340528
          ],
          [
            121.54451587684,
            25.0773942539125
          ],
          [
            121.544912864723,
            25.0773982939827
          ],
          [
            121.545784156481,
            25.0773915605323
          ],
          [
            121.546606382321,
            25.0773713601788
          ],
          [
            121.549193494367,
            25.0773094124073
          ],
          [
            121.550466234546,
            25.0772784385098
          ],
          [
            121.551600698047,
            25.0772541980628
          ],
          [
            121.552805043309,
            25.0772084105388
          ],
          [
            121.553486018779,
            25.0771868634627
          ],
          [
            121.554553574209,
            25.0771787833082
          ],
          [
            121.556102867745,
            25.0771370358348
          ],
          [
            121.55652513201,
            25.077127608984
          ],
          [
            121.557408318536,
            25.0770791280255
          ],
          [
            121.557875188181,
            25.0770158334119
          ],
          [
            121.558458031814,
            25.0768771238252
          ],
          [
            121.559864588134,
            25.0765902772881
          ],
          [
            121.561428750129,
            25.0762509086864
          ],
          [
            121.562132028289,
            25.0760893042597
          ],
          [
            121.56312322767681,
            25.07608798429197
          ],
          [
            121.56315418898656,
            25.07609167899514
          ],
          [
            121.56318303008956,
            25.07610259131966
          ],
          [
            121.56320776711065,
            25.07611997018026
          ],
          [
            121.5632266974271,
            25.076142619408554
          ],
          [
            121.56323851808547,
            25.07616898008235
          ],
          [
            121.56324241541094,
            25.076197232949866
          ],
          [
            121.563235268023,
            25.0772137973072
          ],
          [
            121.563259057559,
            25.0775437364214
          ],
          [
            121.563376518394,
            25.0776837919399
          ],
          [
            121.563717006128,
            25.0780635570587
          ],
          [
            121.564127375625,
            25.0785766421038
          ],
          [
            121.564216586386,
            25.0786682161114
          ],
          [
            121.564409876366,
            25.0788082703435
          ],
          [
            121.564472323898,
            25.0788823374208
          ],
          [
            121.564762258869,
            25.0798546319887
          ],
          [
            121.56499884783094,
            25.080688877192237
          ],
          [
            121.56501253919612,
            25.080718450113622
          ],
          [
            121.56503496323366,
            25.080742955378057
          ],
          [
            121.56506423173299,
            25.080760452927993
          ],
          [
            121.56509781434478,
            25.080769430047926
          ],
          [
            121.56513280775187,
            25.080769110638993
          ],
          [
            121.56516648315171,
            25.080759390420102
          ],
          [
            121.56638738155,
            25.0802182304666
          ],
          [
            121.567444529059,
            25.0797347789204
          ],
          [
            121.568632519016,
            25.0792243920689
          ],
          [
            121.569871488643,
            25.078626968536
          ],
          [
            121.57268253469562,
            25.07738678859943
          ],
          [
            121.57268982521619,
            25.077384196689874
          ],
          [
            121.57269734926912,
            25.077382735726278
          ],
          [
            121.57270503260104,
            25.077382390487987
          ],
          [
            121.57271267764978,
            25.077383169852137
          ],
          [
            121.5727200878376,
            25.07738505377888
          ],
          [
            121.57272719839074,
            25.07738805862069
          ],
          [
            121.572824681322,
            25.0774380213326
          ],
          [
            121.572878207778,
            25.0774952556277
          ],
          [
            121.573125767638,
            25.0781079975807
          ],
          [
            121.573407524956,
            25.0787523833374
          ],
          [
            121.573527216059,
            25.0790291247687
          ],
          [
            121.573619400511,
            25.0792365120979
          ],
          [
            121.57409099256617,
            25.080269140031213
          ],
          [
            121.57410632249147,
            25.080293471324467
          ],
          [
            121.57412774451707,
            25.08031323945098
          ],
          [
            121.57415396783628,
            25.08032739803088
          ],
          [
            121.57418327337355,
            25.08033501889531
          ],
          [
            121.57421373999779,
            25.080335602456774
          ],
          [
            121.57424363128182,
            25.08032901952377
          ],
          [
            121.575431865789,
            25.0799162418068
          ],
          [
            121.576344789235,
            25.0795479290996
          ],
          [
            121.576580454327,
            25.0794637624205
          ],
          [
            121.577144712385,
            25.0792543554718
          ],
          [
            121.57818104405,
            25.0788274604542
          ],
          [
            121.578517071246,
            25.0786948129611
          ],
          [
            121.57938943301319,
            25.078331328655764
          ],
          [
            121.57941791077876,
            25.078323131280264
          ],
          [
            121.57944741287531,
            25.078321637459993
          ],
          [
            121.5794764092486,
            25.078326818607948
          ],
          [
            121.5795031127295,
            25.078338355388087
          ],
          [
            121.57952587746954,
            25.078355536739853
          ],
          [
            121.57954347154923,
            25.078377586554623
          ],
          [
            121.5796597124,
            25.0785682253717
          ],
          [
            121.57970660306209,
            25.078751731883738
          ],
          [
            121.57971114985429,
            25.078764653175234
          ],
          [
            121.57971791478484,
            25.078776598727742
          ],
          [
            121.57972674427987,
            25.078787364913772
          ],
          [
            121.5797373971946,
            25.07879665769504
          ],
          [
            121.57974958258433,
            25.078804223273817
          ],
          [
            121.57976277764944,
            25.078809791638903
          ],
          [
            121.581284835082,
            25.0793156289248
          ],
          [
            121.581988856664,
            25.0795364824347
          ],
          [
            121.582731536243,
            25.0797829221614
          ],
          [
            121.583221452001,
            25.0799431750509
          ],
          [
            121.583770841599,
            25.0801364209033
          ],
          [
            121.584338816773,
            25.0804306657442
          ],
          [
            121.584777436344,
            25.0806622904763
          ],
          [
            121.58514320046,
            25.0807902225532
          ],
          [
            121.586780961333,
            25.0811437183865
          ],
          [
            121.587501338222,
            25.0813187826116
          ],
          [
            121.58801355667,
            25.0814379608063
          ],
          [
            121.588713861138,
            25.0816110046452
          ],
          [
            121.588937631461,
            25.0816635237386
          ],
          [
            121.589709886071,
            25.0818300143346
          ]
        ]
      }
    },
    {
      "type": "Feature",
      "properties": {
        "feature_type": "route",
        "ref": "內科通勤專車22",
        "name": "內科通勤專車22",
        "name_en": "內科通勤專車22",
        "color": "#9f1239",
        "direction": 1
      },
      "geometry": {
        "type": "LineString",
        "coordinates": [
          [
            121.59028612447,
            25.0802397887858
          ],
          [
            121.590028601675,
            25.0799735148066
          ],
          [
            121.589867835999,
            25.0798076831244
          ],
          [
            121.589644550338,
            25.0796041008333
          ],
          [
            121.58944880324201,
            25.0794382686507
          ],
          [
            121.589261987572,
            25.0793297360844
          ],
          [
            121.588976181927,
            25.0791787340929
          ],
          [
            121.588802019111,
            25.0791079518453
          ],
          [
            121.58852216775,
            25.0790284060325
          ],
          [
            121.588246037816,
            25.0789549272273
          ],
          [
            121.587714617943,
            25.0788362824578
          ],
          [
            121.587072299525,
            25.0787129187404
          ],
          [
            121.58609281976,
            25.078638091507
          ],
          [
            121.58540584421,
            25.0786266314763
          ],
          [
            121.584621367255,
            25.0785976443348
          ],
          [
            121.583854008867,
            25.0785909031381
          ],
          [
            121.582964587651,
            25.0785807913424
          ],
          [
            121.581868999342,
            25.0785713536657
          ],
          [
            121.580320885427,
            25.0785605677485
          ],
          [
            121.579816259834,
            25.0785609048084
          ],
          [
            121.57957101775,
            25.0785737130849
          ],
          [
            121.579046296447,
            25.0786606745057
          ],
          [
            121.578590049413,
            25.0788177442022
          ],
          [
            121.5769159793661,
            25.079474336072785
          ],
          [
            121.57688700600706,
            25.0794819856572
          ],
          [
            121.57685715784628,
            25.079482773423372
          ],
          [
            121.57682803412837,
            25.079476759863347
          ],
          [
            121.57680146809044,
            25.079464323509875
          ],
          [
            121.57677913197246,
            25.079446247188304
          ],
          [
            121.57676228054157,
            25.07942339497348
          ],
          [
            121.576509027054,
            25.0789667242861
          ],
          [
            121.576236618548,
            25.0785838248812
          ],
          [
            121.575563784423,
            25.0774930943082
          ],
          [
            121.57487506207171,
            25.076485260932568
          ],
          [
            121.57487231501264,
            25.076481922210224
          ],
          [
            121.57486902309378,
            25.07647912870835
          ],
          [
            121.57486524560011,
            25.076476904374097
          ],
          [
            121.57486109934425,
            25.076475317991257
          ],
          [
            121.57485671254219,
            25.07647441861604
          ],
          [
            121.57485221310309,
            25.07647423436541
          ],
          [
            121.574794193179,
            25.0764765084868
          ],
          [
            121.573564633473,
            25.0770414292358
          ],
          [
            121.572920082199,
            25.0773407417984
          ],
          [
            121.572640230837,
            25.0774796117928
          ],
          [
            121.571761973905,
            25.0778719523824
          ],
          [
            121.57083905984,
            25.0782831671148
          ],
          [
            121.569649691553,
            25.07881437361
          ],
          [
            121.568619600371,
            25.0792929967777
          ],
          [
            121.56768775488,
            25.0797136443267
          ],
          [
            121.566610029424,
            25.0802111390816
          ],
          [
            121.56513442448443,
            25.080868556958777
          ],
          [
            121.56510091986061,
            25.08087831565381
          ],
          [
            121.5650660790517,
            25.08087875715981
          ],
          [
            121.56503259113344,
            25.08086997652039
          ],
          [
            121.56500332630296,
            25.08085272631043
          ],
          [
            121.5649807928031,
            25.080828485018465
          ],
          [
            121.56496686769698,
            25.08079914613295
          ],
          [
            121.564808858426,
            25.08026371971
          ],
          [
            121.564691261312,
            25.0798579045315
          ],
          [
            121.564530495636,
            25.0793765871109
          ],
          [
            121.564432249945,
            25.0790489666077
          ],
          [
            121.564293812835,
            25.0788521242377
          ],
          [
            121.564025870042,
            25.0785662977671
          ],
          [
            121.563591207289,
            25.0780714928185
          ],
          [
            121.563268187367,
            25.0776899388632
          ],
          [
            121.563195247384,
            25.0775685963667
          ],
          [
            121.56316101025,
            25.0774728705346
          ],
          [
            121.563155055965,
            25.0772113094287
          ],
          [
            121.56312886409445,
            25.076238956969686
          ],
          [
            121.56312402750204,
            25.07621086035539
          ],
          [
            121.563111367088,
            25.07618488972906
          ],
          [
            121.56309175020388,
            25.076162806674656
          ],
          [
            121.56306652155308,
            25.076146124947275
          ],
          [
            121.56303741051589,
            25.0761359880504
          ],
          [
            121.56300638812742,
            25.076133091507465
          ],
          [
            121.562209813334,
            25.0761542732884
          ],
          [
            121.561030865045,
            25.0764090953355
          ],
          [
            121.559799816768,
            25.0766666133735
          ],
          [
            121.558671479896,
            25.0769160413233
          ],
          [
            121.557948034355,
            25.0770656978493
          ],
          [
            121.557528257312,
            25.077143896682
          ],
          [
            121.557080197419,
            25.0771681652751
          ],
          [
            121.556003960534,
            25.0772018716464
          ],
          [
            121.554271263806,
            25.0772436675339
          ],
          [
            121.55274994417,
            25.0772841151535
          ],
          [
            121.551301564517,
            25.0773340005325
          ],
          [
            121.550371207597,
            25.0773488313169
          ],
          [
            121.549239893582,
            25.0773865823965
          ],
          [
            121.547882316764,
            25.0774108509415
          ],
          [
            121.546742071323,
            25.0774472537499
          ],
          [
            121.545149300276,
            25.0774917460567
          ],
          [
            121.5443916176,
            25.0774971390625
          ],
          [
            121.543370457844,
            25.0775483726056
          ],
          [
            121.54223914383,
            25.0776009543775
          ],
          [
            121.541575241131,
            25.0776292676299
          ],
          [
            121.540131327191,
            25.0777061178536
          ],
          [
            121.538502830438,
            25.0778112812394
          ],
          [
            121.537081245064,
            25.0778652111458
          ],
          [
            121.535632865411,
            25.077952847193
          ],
          [
            121.53413238577,
            25.0780485726498
          ],
          [
            121.533633714461,
            25.0780768857987
          ],
          [
            121.533338977389,
            25.0781537357414
          ],
          [
            121.533182677426,
            25.0781807006222
          ],
          [
            121.533051683172,
            25.0781820488661
          ],
          [
            121.532935574628,
            25.0781267708548
          ],
          [
            121.532765877526,
            25.0781200296322
          ],
          [
            121.532365451908,
            25.0781240743658
          ],
          [
            121.53160479209,
            25.0781833971099
          ],
          [
            121.531182037905,
            25.0782278891492
          ],
          [
            121.531001920805,
            25.0782009242788
          ],
          [
            121.530265078125,
            25.0780863235136
          ],
          [
            121.529519304017,
            25.07796498141
          ],
          [
            121.529306438354,
            25.0779231857686
          ],
          [
            121.5288152099,
            25.0778031917514
          ],
          [
            121.528520472828,
            25.0776589291255
          ],
          [
            121.528300164309,
            25.0775119698272
          ],
          [
            121.527536527349,
            25.0769403099615
          ],
          [
            121.5269937578695,
            25.07654948547484
          ],
          [
            121.5269768723197,
            25.07653924609135
          ],
          [
            121.52695871130717,
            25.076531891114133
          ],
          [
            121.52693946184618,
            25.076527394701586
          ],
          [
            121.52691966051721,
            25.076525882191614
          ],
          [
            121.52689985928409,
            25.076527395745575
          ],
          [
            121.52688036449375,
            25.076531971290706
          ],
          [
            121.52540024791459,
            25.07700137015961
          ],
          [
            121.52536486184887,
            25.077007239741413
          ],
          [
            121.52532945910151,
            25.077002921844503
          ],
          [
            121.52529721433709,
            25.076988908263715
          ],
          [
            121.52527123544243,
            25.07696654968726
          ],
          [
            121.52525402637339,
            25.076938001129356
          ],
          [
            121.52524724467037,
            25.07690598842677
          ],
          [
            121.525241150756,
            25.0767488572401
          ],
          [
            121.525291762172,
            25.0766072898945
          ],
          [
            121.525507604978,
            25.0761138252956
          ],
          [
            121.525686233506,
            25.0755731691761
          ],
          [
            121.52592604511237,
            25.07483186544918
          ],
          [
            121.52593041652123,
            25.074810517918237
          ],
          [
            121.52593001574444,
            25.07478859881933
          ],
          [
            121.52592479528418,
            25.074767200091294
          ],
          [
            121.5259149680286,
            25.07474719436497
          ],
          [
            121.5259009347289,
            25.074729397465212
          ],
          [
            121.5258835889072,
            25.074714755813424
          ],
          [
            121.525084850793,
            25.0741682610663
          ],
          [
            121.524553430921,
            25.0738419749187
          ],
          [
            121.524423925237,
            25.0737570325145
          ],
          [
            121.524364382394,
            25.0737233251949
          ],
          [
            121.52420937279217,
            25.073732499908676
          ],
          [
            121.52419191276188,
            25.073731713966207
          ],
          [
            121.52417513876456,
            25.07372733781408
          ],
          [
            121.52415989207617,
            25.07371960209344
          ],
          [
            121.52414696903169,
            25.073708910841223
          ],
          [
            121.52413704460217,
            25.073695822461875
          ],
          [
            121.52413060264969,
            25.073680902764313
          ],
          [
            121.523855291088,
            25.0727431122836
          ],
          [
            121.523765976823,
            25.0722995195428
          ],
          [
            121.523550134018,
            25.071522891301
          ],
          [
            121.523356619778,
            25.0706909767663
          ],
          [
            121.523170548394,
            25.0700302950711
          ],
          [
            121.522999362721,
            25.0693520813791
          ],
          [
            121.52279262088673,
            25.068572106351418
          ],
          [
            121.52278333137274,
            25.06854886613009
          ],
          [
            121.52276863676613,
            25.068528281434702
          ],
          [
            121.5227492449085,
            25.06851123735566
          ],
          [
            121.52272614869855,
            25.068498606581137
          ],
          [
            121.52270053070472,
            25.06849103583
          ],
          [
            121.52267368009225,
            25.06848891329429
          ],
          [
            121.521287505988,
            25.0685228488
          ],
          [
            121.52012223854096,
            25.06855048235095
          ],
          [
            121.52008898597119,
            25.068555638805144
          ],
          [
            121.52005863686546,
            25.068569109572145
          ],
          [
            121.52003365408875,
            25.06858981065176
          ],
          [
            121.52001604705491,
            25.06861607701544
          ],
          [
            121.52000723193227,
            25.068645796007928
          ],
          [
            121.52000789634121,
            25.06867645731258
          ],
          [
            121.520149865546,
            25.0694650048936
          ],
          [
            121.520193837619,
            25.0697454539298
          ]
        ]
      }
    },
    {
      "type": "Feature",
      "properties": {
        "feature_type": "station",
        "ref": "TPE203501",
        "name": "捷運圓山站",
        "name_en": "MRT Yuanshan Sta.",
        "line": "內科通勤專車22",
        "color": "#9f1239",
        "direction": 0,
        "station_id": "1462"
      },
      "geometry": {
        "type": "Point",
        "coordinates": [
          121.520216,
          25.069744
        ]
      }
    },
    {
      "type": "Feature",
      "properties": {
        "feature_type": "station",
        "ref": "TPE203502",
        "name": "臺北市立美術館",
        "name_en": "Taipei Fine Arts Museum",
        "line": "內科通勤專車22",
        "color": "#9f1239",
        "direction": 0,
        "station_id": "101"
      },
      "geometry": {
        "type": "Point",
        "coordinates": [
          121.523964286473,
          25.0721395085303
        ]
      }
    },
    {
      "type": "Feature",
      "properties": {
        "feature_type": "station",
        "ref": "TPE203503",
        "name": "圓山大飯店",
        "name_en": "The Grand Hotel",
        "line": "內科通勤專車22",
        "color": "#9f1239",
        "direction": 0,
        "station_id": "1356"
      },
      "geometry": {
        "type": "Point",
        "coordinates": [
          121.528167347349,
          25.0772703676354
        ]
      }
    },
    {
      "type": "Feature",
      "properties": {
        "feature_type": "station",
        "ref": "TPE203504",
        "name": "中央電台",
        "name_en": "Radio Taiwan International",
        "line": "內科通勤專車22",
        "color": "#9f1239",
        "direction": 0,
        "station_id": "1195"
      },
      "geometry": {
        "type": "Point",
        "coordinates": [
          121.53000062511,
          25.0779258290758
        ]
      }
    },
    {
      "type": "Feature",
      "properties": {
        "feature_type": "station",
        "ref": "TPE203505",
        "name": "忠烈祠",
        "name_en": "Martyr Shrine",
        "line": "內科通勤專車22",
        "color": "#9f1239",
        "direction": 0,
        "station_id": "1260"
      },
      "geometry": {
        "type": "Point",
        "coordinates": [
          121.5319142,
          25.07800478
        ]
      }
    },
    {
      "type": "Feature",
      "properties": {
        "feature_type": "station",
        "ref": "TPE203506",
        "name": "經國七海文化園區",
        "name_en": "CHING-KUO Chihai Cultural Park",
        "line": "內科通勤專車22",
        "color": "#9f1239",
        "direction": 0,
        "station_id": "4740"
      },
      "geometry": {
        "type": "Point",
        "coordinates": [
          121.535397,
          25.07778224
        ]
      }
    },
    {
      "type": "Feature",
      "properties": {
        "feature_type": "station",
        "ref": "TPE203507",
        "name": "堤頂大道口",
        "name_en": "Tiding Blvd. Entrance",
        "line": "內科通勤專車22",
        "color": "#9f1239",
        "direction": 0,
        "station_id": "20418"
      },
      "geometry": {
        "type": "Point",
        "coordinates": [
          121.56405,
          25.07839
        ]
      }
    },
    {
      "type": "Feature",
      "properties": {
        "feature_type": "station",
        "ref": "TPE203508",
        "name": "基湖站",
        "name_en": "Jihu Stop",
        "line": "內科通勤專車22",
        "color": "#9f1239",
        "direction": 0,
        "station_id": "8405"
      },
      "geometry": {
        "type": "Point",
        "coordinates": [
          121.56489,
          25.0801
        ]
      }
    },
    {
      "type": "Feature",
      "properties": {
        "feature_type": "station",
        "ref": "TPE203509",
        "name": "基湖路口",
        "name_en": "Jihu Rd. Entrance",
        "line": "內科通勤專車22",
        "color": "#9f1239",
        "direction": 0,
        "station_id": "8404"
      },
      "geometry": {
        "type": "Point",
        "coordinates": [
          121.5662362,
          25.08025003
        ]
      }
    },
    {
      "type": "Feature",
      "properties": {
        "feature_type": "station",
        "ref": "TPE203510",
        "name": "仁寶大樓",
        "name_en": "Renbao Bldg.",
        "line": "內科通勤專車22",
        "color": "#9f1239",
        "direction": 0,
        "station_id": "1007"
      },
      "geometry": {
        "type": "Point",
        "coordinates": [
          121.5684974,
          25.07921316
        ]
      }
    },
    {
      "type": "Feature",
      "properties": {
        "feature_type": "station",
        "ref": "TPE223842",
        "name": "瑞光港墘路口",
        "name_en": "Ruiguang & Gangqian Intersection",
        "line": "內科通勤專車22",
        "color": "#9f1239",
        "direction": 0,
        "station_id": "1165608385"
      },
      "geometry": {
        "type": "Point",
        "coordinates": [
          121.570459,
          25.078319
        ]
      }
    },
    {
      "type": "Feature",
      "properties": {
        "feature_type": "station",
        "ref": "TPE203512",
        "name": "捷運港墘站(內湖高工)",
        "name_en": "MRT Gangqian Station (Neihu Vocational High School)",
        "line": "內科通勤專車22",
        "color": "#9f1239",
        "direction": 0,
        "station_id": "997"
      },
      "geometry": {
        "type": "Point",
        "coordinates": [
          121.574618145655,
          25.0801493693391
        ]
      }
    },
    {
      "type": "Feature",
      "properties": {
        "feature_type": "station",
        "ref": "TPE203513",
        "name": "西湖圖書館(湖光教會)",
        "name_en": "Xihu Library (Huguang Church)",
        "line": "內科通勤專車22",
        "color": "#9f1239",
        "direction": 0,
        "station_id": "1165604813"
      },
      "geometry": {
        "type": "Point",
        "coordinates": [
          121.57768,
          25.078956
        ]
      }
    },
    {
      "type": "Feature",
      "properties": {
        "feature_type": "station",
        "ref": "TPE203514",
        "name": "內湖國小",
        "name_en": "Neihu Elementary School",
        "line": "內科通勤專車22",
        "color": "#9f1239",
        "direction": 0,
        "station_id": "999"
      },
      "geometry": {
        "type": "Point",
        "coordinates": [
          121.5812755,
          25.07929048
        ]
      }
    },
    {
      "type": "Feature",
      "properties": {
        "feature_type": "station",
        "ref": "TPE203515",
        "name": "達人高中(臺灣戲曲學院)",
        "name_en": "Da Ren Catholic High School (National Taiwan College of Performing Arts)",
        "line": "內科通勤專車22",
        "color": "#9f1239",
        "direction": 0,
        "station_id": "1133"
      },
      "geometry": {
        "type": "Point",
        "coordinates": [
          121.5868,
          25.08114
        ]
      }
    },
    {
      "type": "Feature",
      "properties": {
        "feature_type": "station",
        "ref": "TPE203516",
        "name": "內湖派出所",
        "name_en": "Neihu Police Substation",
        "line": "內科通勤專車22",
        "color": "#9f1239",
        "direction": 0,
        "station_id": "993"
      },
      "geometry": {
        "type": "Point",
        "coordinates": [
          121.5894925,
          25.08178839
        ]
      }
    },
    {
      "type": "Feature",
      "properties": {
        "feature_type": "station",
        "ref": "TPE203533",
        "name": "成功路三段",
        "name_en": "Chenggong Rd. Sec. 3",
        "line": "內科通勤專車22",
        "color": "#9f1239",
        "direction": 1,
        "station_id": "1029"
      },
      "geometry": {
        "type": "Point",
        "coordinates": [
          121.589838083526,
          25.0798544258006
        ]
      }
    },
    {
      "type": "Feature",
      "properties": {
        "feature_type": "station",
        "ref": "TPE203534",
        "name": "內湖高中",
        "name_en": "Neihu High School",
        "line": "內科通勤專車22",
        "color": "#9f1239",
        "direction": 1,
        "station_id": "8523"
      },
      "geometry": {
        "type": "Point",
        "coordinates": [
          121.5883097,
          25.07901319
        ]
      }
    },
    {
      "type": "Feature",
      "properties": {
        "feature_type": "station",
        "ref": "TPE203535",
        "name": "捷運文德站(碧湖公園)",
        "name_en": "MRT Wende Sta. (Bihu Park)",
        "line": "內科通勤專車22",
        "color": "#9f1239",
        "direction": 1,
        "station_id": "1109"
      },
      "geometry": {
        "type": "Point",
        "coordinates": [
          121.584351,
          25.078655
        ]
      }
    },
    {
      "type": "Feature",
      "properties": {
        "feature_type": "station",
        "ref": "TPE203536",
        "name": "湖光國宅",
        "name_en": "Huguang Public Housing",
        "line": "內科通勤專車22",
        "color": "#9f1239",
        "direction": 1,
        "station_id": "8415"
      },
      "geometry": {
        "type": "Point",
        "coordinates": [
          121.58078,
          25.07859
        ]
      }
    },
    {
      "type": "Feature",
      "properties": {
        "feature_type": "station",
        "ref": "TPE203517",
        "name": "西湖圖書館(湖光教會)",
        "name_en": "Xihu Library (Huguang Church)",
        "line": "內科通勤專車22",
        "color": "#9f1239",
        "direction": 1,
        "station_id": "1165604812"
      },
      "geometry": {
        "type": "Point",
        "coordinates": [
          121.578499,
          25.07889
        ]
      }
    },
    {
      "type": "Feature",
      "properties": {
        "feature_type": "station",
        "ref": "TPE203518",
        "name": "港墘派出所",
        "name_en": "Gangqian Police Station",
        "line": "內科通勤專車22",
        "color": "#9f1239",
        "direction": 1,
        "station_id": "4657"
      },
      "geometry": {
        "type": "Point",
        "coordinates": [
          121.57619,
          25.078636
        ]
      }
    },
    {
      "type": "Feature",
      "properties": {
        "feature_type": "station",
        "ref": "TPE203519",
        "name": "瑞光港墘路口",
        "name_en": "Ruiguang &Gangqian Roads",
        "line": "內科通勤專車22",
        "color": "#9f1239",
        "direction": 1,
        "station_id": "1000895"
      },
      "geometry": {
        "type": "Point",
        "coordinates": [
          121.5731066,
          25.07729684
        ]
      }
    },
    {
      "type": "Feature",
      "properties": {
        "feature_type": "station",
        "ref": "TPE203520",
        "name": "仁寶大樓",
        "name_en": "Renbao Bldg.",
        "line": "內科通勤專車22",
        "color": "#9f1239",
        "direction": 1,
        "station_id": "1000896"
      },
      "geometry": {
        "type": "Point",
        "coordinates": [
          121.568256,
          25.079478
        ]
      }
    },
    {
      "type": "Feature",
      "properties": {
        "feature_type": "station",
        "ref": "TPE203521",
        "name": "基湖路口",
        "name_en": "Jihu Rd. Entrance",
        "line": "內科通勤專車22",
        "color": "#9f1239",
        "direction": 1,
        "station_id": "8403"
      },
      "geometry": {
        "type": "Point",
        "coordinates": [
          121.565903409458,
          25.0805158061818
        ]
      }
    },
    {
      "type": "Feature",
      "properties": {
        "feature_type": "station",
        "ref": "TPE203522",
        "name": "基湖站",
        "name_en": "Jihu Stop",
        "line": "內科通勤專車22",
        "color": "#9f1239",
        "direction": 1,
        "station_id": "1083"
      },
      "geometry": {
        "type": "Point",
        "coordinates": [
          121.5646071,
          25.07973077
        ]
      }
    },
    {
      "type": "Feature",
      "properties": {
        "feature_type": "station",
        "ref": "TPE203523",
        "name": "堤頂大道口",
        "name_en": "Tiding Blvd. Entrance",
        "line": "內科通勤專車22",
        "color": "#9f1239",
        "direction": 1,
        "station_id": "1102"
      },
      "geometry": {
        "type": "Point",
        "coordinates": [
          121.56305,
          25.07666
        ]
      }
    },
    {
      "type": "Feature",
      "properties": {
        "feature_type": "station",
        "ref": "TPE203524",
        "name": "明水路三",
        "name_en": "Mingshui Rd. 3",
        "line": "內科通勤專車22",
        "color": "#9f1239",
        "direction": 1,
        "station_id": "1268"
      },
      "geometry": {
        "type": "Point",
        "coordinates": [
          121.54947,
          25.07742
        ]
      }
    },
    {
      "type": "Feature",
      "properties": {
        "feature_type": "station",
        "ref": "TPE203525",
        "name": "大直抽水站",
        "name_en": "Dazhi Pumping Sta.",
        "line": "內科通勤專車22",
        "color": "#9f1239",
        "direction": 1,
        "station_id": "1177"
      },
      "geometry": {
        "type": "Point",
        "coordinates": [
          121.54534,
          25.07757
        ]
      }
    },
    {
      "type": "Feature",
      "properties": {
        "feature_type": "station",
        "ref": "TPE203526",
        "name": "北安國中",
        "name_en": "Beian Jr. High School",
        "line": "內科通勤專車22",
        "color": "#9f1239",
        "direction": 1,
        "station_id": "1213"
      },
      "geometry": {
        "type": "Point",
        "coordinates": [
          121.54181,
          25.07768
        ]
      }
    },
    {
      "type": "Feature",
      "properties": {
        "feature_type": "station",
        "ref": "TPE203527",
        "name": "忠烈祠",
        "name_en": "Martyr Shrine",
        "line": "內科通勤專車22",
        "color": "#9f1239",
        "direction": 1,
        "station_id": "9436"
      },
      "geometry": {
        "type": "Point",
        "coordinates": [
          121.535552182321,
          25.0780024350627
        ]
      }
    },
    {
      "type": "Feature",
      "properties": {
        "feature_type": "station",
        "ref": "TPE203528",
        "name": "中央電台",
        "name_en": "Radio Taiwan International",
        "line": "內科通勤專車22",
        "color": "#9f1239",
        "direction": 1,
        "station_id": "9434"
      },
      "geometry": {
        "type": "Point",
        "coordinates": [
          121.530144788528,
          25.0781282212443
        ]
      }
    },
    {
      "type": "Feature",
      "properties": {
        "feature_type": "station",
        "ref": "TPE203529",
        "name": "圓山大飯店",
        "name_en": "The Grand Hotel",
        "line": "內科通勤專車22",
        "color": "#9f1239",
        "direction": 1,
        "station_id": "1357"
      },
      "geometry": {
        "type": "Point",
        "coordinates": [
          121.527964269875,
          25.077322358349
        ]
      }
    },
    {
      "type": "Feature",
      "properties": {
        "feature_type": "station",
        "ref": "TPE203530",
        "name": "臺北市立美術館",
        "name_en": "Taipei Fine Arts Museum",
        "line": "內科通勤專車22",
        "color": "#9f1239",
        "direction": 1,
        "station_id": "4121"
      },
      "geometry": {
        "type": "Point",
        "coordinates": [
          121.523095139749,
          25.070066233009
        ]
      }
    },
    {
      "type": "Feature",
      "properties": {
        "feature_type": "station",
        "ref": "TPE203531",
        "name": "花博公園",
        "name_en": "Taipei Expo Park",
        "line": "內科通勤專車22",
        "color": "#9f1239",
        "direction": 1,
        "station_id": "1407"
      },
      "geometry": {
        "type": "Point",
        "coordinates": [
          121.520798366208,
          25.0685957947607
        ]
      }
    },
    {
      "type": "Feature",
      "properties": {
        "feature_type": "station",
        "ref": "TPE203532",
        "name": "捷運圓山站",
        "name_en": "MRT Yuanshan Sta.",
        "line": "內科通勤專車22",
        "color": "#9f1239",
        "direction": 1,
        "station_id": "1001373"
      },
      "geometry": {
        "type": "Point",
        "coordinates": [
          121.5199738,
          25.06919565
        ]
      }
    }
  ]
}
