{
  "type": "FeatureCollection",
  "name": "東山咖啡線",
  "properties": {
    "id": "tainan_f692a640f4",
    "name": "東山咖啡線",
    "name_en": "東山咖啡線",
    "ref": "東山咖啡線",
    "color": "#d97706",
    "city_id": "Tainan",
    "source": "TDX Bus Shape / StopOfRoute",
    "official_map_url": "http://busmap.tainan.gov.tw/ebus/resources/PathPic/zh_TW/1821.jpg",
    "operator_id": "10190",
    "operator": "新營客運",
    "operator_en": "Sinying Bus Co., Ltd."
  },
  "features": [
    {
      "type": "Feature",
      "properties": {
        "feature_type": "route",
        "ref": "東山咖啡線",
        "name": "東山咖啡線",
        "name_en": "東山咖啡線",
        "color": "#d97706",
        "direction": 0
      },
      "geometry": {
        "type": "LineString",
        "coordinates": [
          [
            120.50421,
            23.33654
          ],
          [
            120.50396,
            23.33641
          ],
          [
            120.50401,
            23.33628
          ],
          [
            120.50398,
            23.33618
          ],
          [
            120.50305,
            23.33436
          ],
          [
            120.50341,
            23.33371
          ],
          [
            120.50301,
            23.33312
          ],
          [
            120.50351,
            23.33263
          ],
          [
            120.50392,
            23.33261
          ],
          [
            120.50511,
            23.33158
          ],
          [
            120.50501,
            23.33141
          ],
          [
            120.50396,
            23.33169
          ],
          [
            120.50355,
            23.33158
          ],
          [
            120.50351,
            23.33139
          ],
          [
            120.50365,
            23.33048
          ],
          [
            120.50389,
            23.32977
          ],
          [
            120.50371,
            23.32954
          ],
          [
            120.50315,
            23.32963
          ],
          [
            120.50303,
            23.32944
          ],
          [
            120.50318,
            23.32875
          ],
          [
            120.50305,
            23.32837
          ],
          [
            120.50273,
            23.32831
          ],
          [
            120.50248,
            23.32835
          ],
          [
            120.50222,
            23.32869
          ],
          [
            120.50189,
            23.32871
          ],
          [
            120.50178,
            23.32901
          ],
          [
            120.50179,
            23.32958
          ],
          [
            120.50158,
            23.32976
          ],
          [
            120.50134,
            23.32964
          ],
          [
            120.50114,
            23.32944
          ],
          [
            120.50048,
            23.32927
          ],
          [
            120.49982,
            23.32962
          ],
          [
            120.49922,
            23.32951
          ],
          [
            120.49891,
            23.32903
          ],
          [
            120.49877,
            23.32838
          ],
          [
            120.49827,
            23.32822
          ],
          [
            120.49783,
            23.32828
          ],
          [
            120.49757,
            23.32821
          ],
          [
            120.49795,
            23.32772
          ],
          [
            120.49835,
            23.32678
          ],
          [
            120.49935,
            23.32639
          ],
          [
            120.49989,
            23.32605
          ],
          [
            120.49988,
            23.32561
          ],
          [
            120.49972,
            23.32521
          ],
          [
            120.49996,
            23.32434
          ],
          [
            120.50006,
            23.32396
          ],
          [
            120.49932,
            23.32343
          ],
          [
            120.49848,
            23.32301
          ],
          [
            120.49738,
            23.32165
          ],
          [
            120.49691,
            23.32133
          ],
          [
            120.49641,
            23.32108
          ],
          [
            120.49536,
            23.32098
          ],
          [
            120.49495,
            23.32068
          ],
          [
            120.49487,
            23.31977
          ],
          [
            120.49489,
            23.31911
          ],
          [
            120.49422,
            23.31871
          ],
          [
            120.49401,
            23.31851
          ],
          [
            120.49398,
            23.31818
          ],
          [
            120.49396,
            23.31763
          ],
          [
            120.49339,
            23.31668
          ],
          [
            120.49347,
            23.31639
          ],
          [
            120.49413,
            23.31601
          ],
          [
            120.49417,
            23.31567
          ],
          [
            120.49407,
            23.31548
          ],
          [
            120.49397,
            23.31512
          ],
          [
            120.49311,
            23.31446
          ],
          [
            120.49264,
            23.31401
          ],
          [
            120.49236,
            23.31362
          ],
          [
            120.49149,
            23.31336
          ],
          [
            120.49083,
            23.31201
          ],
          [
            120.49121,
            23.31135
          ],
          [
            120.49168,
            23.31051
          ],
          [
            120.49191,
            23.31011
          ],
          [
            120.49277,
            23.30933
          ],
          [
            120.49294,
            23.30894
          ],
          [
            120.49292,
            23.30825
          ],
          [
            120.49296,
            23.30734
          ],
          [
            120.49322,
            23.30656
          ],
          [
            120.49467,
            23.30538
          ],
          [
            120.49507,
            23.30457
          ],
          [
            120.49572,
            23.30392
          ],
          [
            120.49626,
            23.30318
          ],
          [
            120.49701,
            23.30268
          ],
          [
            120.49803,
            23.30253
          ],
          [
            120.49891,
            23.30249
          ],
          [
            120.49941,
            23.30147
          ],
          [
            120.50015,
            23.30112
          ],
          [
            120.50086,
            23.30073
          ],
          [
            120.50141,
            23.30025
          ],
          [
            120.50145,
            23.29991
          ],
          [
            120.50125,
            23.29968
          ],
          [
            120.50071,
            23.29962
          ],
          [
            120.49965,
            23.29964
          ],
          [
            120.49947,
            23.29954
          ],
          [
            120.49941,
            23.29842
          ],
          [
            120.49948,
            23.29763
          ],
          [
            120.50034,
            23.29623
          ],
          [
            120.50035,
            23.29599
          ],
          [
            120.50008,
            23.29561
          ],
          [
            120.50003,
            23.29544
          ],
          [
            120.50014,
            23.29524
          ],
          [
            120.50072,
            23.29479
          ],
          [
            120.50091,
            23.29426
          ],
          [
            120.50172,
            23.29325
          ],
          [
            120.50174,
            23.29278
          ],
          [
            120.50146,
            23.29231
          ],
          [
            120.50087,
            23.29189
          ],
          [
            120.50053,
            23.29165
          ],
          [
            120.50027,
            23.29141
          ],
          [
            120.50088,
            23.28981
          ],
          [
            120.50091,
            23.28945
          ],
          [
            120.50092,
            23.28898
          ],
          [
            120.50129,
            23.28871
          ],
          [
            120.50165,
            23.28873
          ],
          [
            120.50196,
            23.28883
          ],
          [
            120.50239,
            23.28872
          ],
          [
            120.50271,
            23.28845
          ],
          [
            120.50316,
            23.28858
          ],
          [
            120.50372,
            23.28907
          ],
          [
            120.50441,
            23.28888
          ],
          [
            120.50552,
            23.29012
          ],
          [
            120.50594,
            23.29051
          ],
          [
            120.50637,
            23.29072
          ],
          [
            120.50669,
            23.29065
          ],
          [
            120.50664,
            23.29007
          ],
          [
            120.50626,
            23.28983
          ],
          [
            120.50577,
            23.28827
          ],
          [
            120.50591,
            23.28743
          ],
          [
            120.50609,
            23.28713
          ],
          [
            120.50631,
            23.28704
          ],
          [
            120.50662,
            23.28704
          ],
          [
            120.50673,
            23.28697
          ],
          [
            120.50679,
            23.28685
          ],
          [
            120.50672,
            23.28655
          ],
          [
            120.50611,
            23.28595
          ],
          [
            120.50598,
            23.28566
          ],
          [
            120.50598,
            23.28531
          ],
          [
            120.50651,
            23.28455
          ],
          [
            120.50644,
            23.28425
          ],
          [
            120.50624,
            23.28412
          ],
          [
            120.50468,
            23.28424
          ],
          [
            120.50441,
            23.28411
          ],
          [
            120.50409,
            23.28365
          ],
          [
            120.50375,
            23.28348
          ],
          [
            120.50333,
            23.28363
          ],
          [
            120.50262,
            23.28414
          ],
          [
            120.50191,
            23.28431
          ],
          [
            120.50102,
            23.28413
          ],
          [
            120.50052,
            23.28401
          ],
          [
            120.50014,
            23.28376
          ],
          [
            120.49984,
            23.28347
          ],
          [
            120.50001,
            23.28314
          ],
          [
            120.50047,
            23.28281
          ],
          [
            120.50071,
            23.28259
          ],
          [
            120.50078,
            23.28239
          ],
          [
            120.50076,
            23.28221
          ],
          [
            120.49991,
            23.28145
          ],
          [
            120.49908,
            23.28058
          ],
          [
            120.49871,
            23.28044
          ],
          [
            120.49824,
            23.28037
          ],
          [
            120.49811,
            23.28013
          ],
          [
            120.49811,
            23.27989
          ],
          [
            120.49839,
            23.27943
          ],
          [
            120.49874,
            23.27896
          ],
          [
            120.49903,
            23.27893
          ],
          [
            120.50021,
            23.27949
          ],
          [
            120.50055,
            23.27982
          ],
          [
            120.50056,
            23.28007
          ],
          [
            120.50051,
            23.28032
          ],
          [
            120.50062,
            23.28053
          ],
          [
            120.50095,
            23.28061
          ],
          [
            120.50148,
            23.28053
          ],
          [
            120.50201,
            23.28028
          ],
          [
            120.50211,
            23.28001
          ],
          [
            120.50202,
            23.27967
          ],
          [
            120.50219,
            23.27914
          ],
          [
            120.50241,
            23.27875
          ],
          [
            120.50272,
            23.27861
          ],
          [
            120.50312,
            23.27854
          ],
          [
            120.50366,
            23.27895
          ],
          [
            120.50431,
            23.27891
          ],
          [
            120.50493,
            23.27873
          ],
          [
            120.50486,
            23.27839
          ],
          [
            120.50476,
            23.27841
          ],
          [
            120.50475,
            23.27829
          ],
          [
            120.50447,
            23.27808
          ],
          [
            120.50255,
            23.27701
          ],
          [
            120.50181,
            23.27635
          ],
          [
            120.50183,
            23.27611
          ],
          [
            120.50232,
            23.27566
          ],
          [
            120.50239,
            23.27484
          ],
          [
            120.50281,
            23.27443
          ],
          [
            120.50246,
            23.27422
          ],
          [
            120.50155,
            23.27451
          ],
          [
            120.50022,
            23.27446
          ],
          [
            120.49944,
            23.27467
          ],
          [
            120.49811,
            23.27414
          ],
          [
            120.49356,
            23.27229
          ],
          [
            120.49205,
            23.27138
          ],
          [
            120.49196,
            23.27077
          ],
          [
            120.49228,
            23.27048
          ],
          [
            120.49239,
            23.27008
          ],
          [
            120.49141,
            23.26957
          ],
          [
            120.49127,
            23.26941
          ],
          [
            120.49131,
            23.26907
          ],
          [
            120.49143,
            23.26891
          ],
          [
            120.49205,
            23.26859
          ],
          [
            120.49214,
            23.26826
          ],
          [
            120.49044,
            23.26757
          ],
          [
            120.49028,
            23.26671
          ],
          [
            120.48865,
            23.26581
          ],
          [
            120.48846,
            23.26491
          ],
          [
            120.48741,
            23.26424
          ],
          [
            120.48687,
            23.26327
          ],
          [
            120.48711,
            23.26275
          ],
          [
            120.48773,
            23.26255
          ],
          [
            120.48931,
            23.26227
          ],
          [
            120.48952,
            23.26215
          ],
          [
            120.48955,
            23.26195
          ],
          [
            120.48937,
            23.26178
          ],
          [
            120.48894,
            23.26163
          ],
          [
            120.48764,
            23.26121
          ],
          [
            120.48537,
            23.26032
          ],
          [
            120.48484,
            23.25977
          ],
          [
            120.48485,
            23.25956
          ],
          [
            120.48537,
            23.25923
          ],
          [
            120.48555,
            23.25816
          ],
          [
            120.48486,
            23.25793
          ],
          [
            120.48324,
            23.25797
          ],
          [
            120.48285,
            23.25778
          ],
          [
            120.48233,
            23.25701
          ],
          [
            120.48262,
            23.25602
          ],
          [
            120.48239,
            23.25506
          ],
          [
            120.48339,
            23.25494
          ],
          [
            120.48354,
            23.25471
          ],
          [
            120.48295,
            23.25314
          ],
          [
            120.48142,
            23.25067
          ],
          [
            120.48255,
            23.24971
          ],
          [
            120.48084,
            23.24843
          ],
          [
            120.48079,
            23.24795
          ],
          [
            120.48121,
            23.24711
          ],
          [
            120.48128,
            23.24605
          ],
          [
            120.48093,
            23.24573
          ],
          [
            120.47983,
            23.24597
          ],
          [
            120.47942,
            23.24544
          ],
          [
            120.48004,
            23.24443
          ],
          [
            120.47898,
            23.24248
          ],
          [
            120.47768,
            23.24194
          ],
          [
            120.47712,
            23.24082
          ],
          [
            120.47639,
            23.24017
          ],
          [
            120.47666,
            23.23921
          ],
          [
            120.47619,
            23.23817
          ],
          [
            120.47593,
            23.23737
          ],
          [
            120.47545,
            23.23669
          ],
          [
            120.47461,
            23.23546
          ],
          [
            120.47442,
            23.23464
          ],
          [
            120.47387,
            23.23445
          ],
          [
            120.47386,
            23.23419
          ]
        ]
      }
    },
    {
      "type": "Feature",
      "properties": {
        "feature_type": "station",
        "ref": "TNN29596",
        "name": "關子嶺勞工育樂中心",
        "name_en": "Guanzihling Labor Recreation Center",
        "line": "東山咖啡線",
        "color": "#d97706",
        "direction": 0
      },
      "geometry": {
        "type": "Point",
        "coordinates": [
          120.50421,
          23.33654
        ]
      }
    },
    {
      "type": "Feature",
      "properties": {
        "feature_type": "station",
        "ref": "TNN29355",
        "name": "關子嶺教會",
        "name_en": "Guanzihling Church",
        "line": "東山咖啡線",
        "color": "#d97706",
        "direction": 0
      },
      "geometry": {
        "type": "Point",
        "coordinates": [
          120.50305,
          23.33436
        ]
      }
    },
    {
      "type": "Feature",
      "properties": {
        "feature_type": "station",
        "ref": "TNN29356",
        "name": "頂關子嶺",
        "name_en": "Dingguanzihling",
        "line": "東山咖啡線",
        "color": "#d97706",
        "direction": 0
      },
      "geometry": {
        "type": "Point",
        "coordinates": [
          120.50332,
          23.33366
        ]
      }
    },
    {
      "type": "Feature",
      "properties": {
        "feature_type": "station",
        "ref": "TNN29357",
        "name": "南寮路口",
        "name_en": "Nanliao Rd. Intersection",
        "line": "東山咖啡線",
        "color": "#d97706",
        "direction": 0
      },
      "geometry": {
        "type": "Point",
        "coordinates": [
          120.49783,
          23.32828
        ]
      }
    },
    {
      "type": "Feature",
      "properties": {
        "feature_type": "station",
        "ref": "TNN29358",
        "name": "坪頂",
        "name_en": "Pingding",
        "line": "東山咖啡線",
        "color": "#d97706",
        "direction": 0
      },
      "geometry": {
        "type": "Point",
        "coordinates": [
          120.49996,
          23.32434
        ]
      }
    },
    {
      "type": "Feature",
      "properties": {
        "feature_type": "station",
        "ref": "TNN29359",
        "name": "後坑",
        "name_en": "Houkeng",
        "line": "東山咖啡線",
        "color": "#d97706",
        "direction": 0
      },
      "geometry": {
        "type": "Point",
        "coordinates": [
          120.49398,
          23.31818
        ]
      }
    },
    {
      "type": "Feature",
      "properties": {
        "feature_type": "station",
        "ref": "TNN29360",
        "name": "石埤",
        "name_en": "Shihbi",
        "line": "東山咖啡線",
        "color": "#d97706",
        "direction": 0
      },
      "geometry": {
        "type": "Point",
        "coordinates": [
          120.49407,
          23.31548
        ]
      }
    },
    {
      "type": "Feature",
      "properties": {
        "feature_type": "station",
        "ref": "TNN29361",
        "name": "南寮",
        "name_en": "Nanliao",
        "line": "東山咖啡線",
        "color": "#d97706",
        "direction": 0
      },
      "geometry": {
        "type": "Point",
        "coordinates": [
          120.49261,
          23.31402
        ]
      }
    },
    {
      "type": "Feature",
      "properties": {
        "feature_type": "station",
        "ref": "TNN29362",
        "name": "過溪園",
        "name_en": "Guosiyuan",
        "line": "東山咖啡線",
        "color": "#d97706",
        "direction": 0
      },
      "geometry": {
        "type": "Point",
        "coordinates": [
          120.49121,
          23.31135
        ]
      }
    },
    {
      "type": "Feature",
      "properties": {
        "feature_type": "station",
        "ref": "TNN29363",
        "name": "淨蓮寺",
        "name_en": "Jinglian Temple",
        "line": "東山咖啡線",
        "color": "#d97706",
        "direction": 0
      },
      "geometry": {
        "type": "Point",
        "coordinates": [
          120.49373,
          23.30606
        ]
      }
    },
    {
      "type": "Feature",
      "properties": {
        "feature_type": "station",
        "ref": "TNN29364",
        "name": "普照寺",
        "name_en": "Pujhao Temple",
        "line": "東山咖啡線",
        "color": "#d97706",
        "direction": 0
      },
      "geometry": {
        "type": "Point",
        "coordinates": [
          120.50054,
          23.30084
        ]
      }
    },
    {
      "type": "Feature",
      "properties": {
        "feature_type": "station",
        "ref": "TNN29365",
        "name": "崁頂福安宮",
        "name_en": "Kanding Fuan Temple",
        "line": "東山咖啡線",
        "color": "#d97706",
        "direction": 0
      },
      "geometry": {
        "type": "Point",
        "coordinates": [
          120.50134,
          23.29995
        ]
      }
    },
    {
      "type": "Feature",
      "properties": {
        "feature_type": "station",
        "ref": "TNN29366",
        "name": "穆聖",
        "name_en": "Musheng",
        "line": "東山咖啡線",
        "color": "#d97706",
        "direction": 0
      },
      "geometry": {
        "type": "Point",
        "coordinates": [
          120.50062,
          23.29031
        ]
      }
    },
    {
      "type": "Feature",
      "properties": {
        "feature_type": "station",
        "ref": "TNN29367",
        "name": "李子園小舖",
        "name_en": "Lizihyuan Shop",
        "line": "東山咖啡線",
        "color": "#d97706",
        "direction": 0
      },
      "geometry": {
        "type": "Point",
        "coordinates": [
          120.50621,
          23.28706
        ]
      }
    },
    {
      "type": "Feature",
      "properties": {
        "feature_type": "station",
        "ref": "TNN29368",
        "name": "大鋤花間",
        "name_en": "Daichu Farm",
        "line": "東山咖啡線",
        "color": "#d97706",
        "direction": 0
      },
      "geometry": {
        "type": "Point",
        "coordinates": [
          120.50101,
          23.28417
        ]
      }
    },
    {
      "type": "Feature",
      "properties": {
        "feature_type": "station",
        "ref": "TNN29369",
        "name": "龍湖山農莊",
        "name_en": "Longhushan Grange",
        "line": "東山咖啡線",
        "color": "#d97706",
        "direction": 0
      },
      "geometry": {
        "type": "Point",
        "coordinates": [
          120.50477,
          23.27841
        ]
      }
    },
    {
      "type": "Feature",
      "properties": {
        "feature_type": "station",
        "ref": "TNN29370",
        "name": "檳榔宅",
        "name_en": "Binlangjhai",
        "line": "東山咖啡線",
        "color": "#d97706",
        "direction": 0
      },
      "geometry": {
        "type": "Point",
        "coordinates": [
          120.50227,
          23.27561
        ]
      }
    },
    {
      "type": "Feature",
      "properties": {
        "feature_type": "station",
        "ref": "TNN29598",
        "name": "芝喜香咖啡",
        "name_en": "Zhixixiang Coffee",
        "line": "東山咖啡線",
        "color": "#d97706",
        "direction": 0
      },
      "geometry": {
        "type": "Point",
        "coordinates": [
          120.49143,
          23.26891
        ]
      }
    },
    {
      "type": "Feature",
      "properties": {
        "feature_type": "station",
        "ref": "TNN29599",
        "name": "冷水坑",
        "name_en": "Lengshuikeng",
        "line": "東山咖啡線",
        "color": "#d97706",
        "direction": 0
      },
      "geometry": {
        "type": "Point",
        "coordinates": [
          120.48894,
          23.26163
        ]
      }
    },
    {
      "type": "Feature",
      "properties": {
        "feature_type": "station",
        "ref": "TNN31230",
        "name": "碧蓮寺",
        "name_en": "Bilian Temple",
        "line": "東山咖啡線",
        "color": "#d97706",
        "direction": 0
      },
      "geometry": {
        "type": "Point",
        "coordinates": [
          120.48121,
          23.24711
        ]
      }
    },
    {
      "type": "Feature",
      "properties": {
        "feature_type": "station",
        "ref": "TNN29486",
        "name": "橫路",
        "name_en": "Henglu",
        "line": "東山咖啡線",
        "color": "#d97706",
        "direction": 0
      },
      "geometry": {
        "type": "Point",
        "coordinates": [
          120.47617,
          23.23817
        ]
      }
    },
    {
      "type": "Feature",
      "properties": {
        "feature_type": "station",
        "ref": "TNN29487",
        "name": "橫路休息站",
        "name_en": "Henglu Rest Area",
        "line": "東山咖啡線",
        "color": "#d97706",
        "direction": 0
      },
      "geometry": {
        "type": "Point",
        "coordinates": [
          120.47386,
          23.23419
        ]
      }
    },
    {
      "type": "Feature",
      "properties": {
        "feature_type": "station",
        "ref": "TNN29488",
        "name": "橫路休息站",
        "name_en": "Henglu Rest Area",
        "line": "東山咖啡線",
        "color": "#d97706",
        "direction": 1
      },
      "geometry": {
        "type": "Point",
        "coordinates": [
          120.47386,
          23.23419
        ]
      }
    },
    {
      "type": "Feature",
      "properties": {
        "feature_type": "station",
        "ref": "TNN29489",
        "name": "橫路",
        "name_en": "Henglu",
        "line": "東山咖啡線",
        "color": "#d97706",
        "direction": 1
      },
      "geometry": {
        "type": "Point",
        "coordinates": [
          120.47623,
          23.23809
        ]
      }
    },
    {
      "type": "Feature",
      "properties": {
        "feature_type": "station",
        "ref": "TNN31231",
        "name": "碧蓮寺",
        "name_en": "Bilian Temple",
        "line": "東山咖啡線",
        "color": "#d97706",
        "direction": 1
      },
      "geometry": {
        "type": "Point",
        "coordinates": [
          120.48126,
          23.24711
        ]
      }
    },
    {
      "type": "Feature",
      "properties": {
        "feature_type": "station",
        "ref": "TNN29600",
        "name": "冷水坑",
        "name_en": "Lengshuikeng",
        "line": "東山咖啡線",
        "color": "#d97706",
        "direction": 1
      },
      "geometry": {
        "type": "Point",
        "coordinates": [
          120.48898,
          23.26156
        ]
      }
    },
    {
      "type": "Feature",
      "properties": {
        "feature_type": "station",
        "ref": "TNN29601",
        "name": "芝喜香咖啡",
        "name_en": "Zhixixiang Coffee",
        "line": "東山咖啡線",
        "color": "#d97706",
        "direction": 1
      },
      "geometry": {
        "type": "Point",
        "coordinates": [
          120.49151,
          23.26899
        ]
      }
    },
    {
      "type": "Feature",
      "properties": {
        "feature_type": "station",
        "ref": "TNN29377",
        "name": "檳榔宅",
        "name_en": "Binlangjhai",
        "line": "東山咖啡線",
        "color": "#d97706",
        "direction": 1
      },
      "geometry": {
        "type": "Point",
        "coordinates": [
          120.50233,
          23.27565
        ]
      }
    },
    {
      "type": "Feature",
      "properties": {
        "feature_type": "station",
        "ref": "TNN29378",
        "name": "龍湖山農莊",
        "name_en": "Longhushan Grange",
        "line": "東山咖啡線",
        "color": "#d97706",
        "direction": 1
      },
      "geometry": {
        "type": "Point",
        "coordinates": [
          120.50489,
          23.27839
        ]
      }
    },
    {
      "type": "Feature",
      "properties": {
        "feature_type": "station",
        "ref": "TNN29379",
        "name": "大鋤花間",
        "name_en": "Daichu Farm",
        "line": "東山咖啡線",
        "color": "#d97706",
        "direction": 1
      },
      "geometry": {
        "type": "Point",
        "coordinates": [
          120.50155,
          23.28421
        ]
      }
    },
    {
      "type": "Feature",
      "properties": {
        "feature_type": "station",
        "ref": "TNN29380",
        "name": "李子園小舖",
        "name_en": "Lizihyuan Shop",
        "line": "東山咖啡線",
        "color": "#d97706",
        "direction": 1
      },
      "geometry": {
        "type": "Point",
        "coordinates": [
          120.50667,
          23.28706
        ]
      }
    },
    {
      "type": "Feature",
      "properties": {
        "feature_type": "station",
        "ref": "TNN29381",
        "name": "穆聖",
        "name_en": "Musheng",
        "line": "東山咖啡線",
        "color": "#d97706",
        "direction": 1
      },
      "geometry": {
        "type": "Point",
        "coordinates": [
          120.50059,
          23.29052
        ]
      }
    },
    {
      "type": "Feature",
      "properties": {
        "feature_type": "station",
        "ref": "TNN29382",
        "name": "崁頂福安宮",
        "name_en": "Kanding Fuan Temple",
        "line": "東山咖啡線",
        "color": "#d97706",
        "direction": 1
      },
      "geometry": {
        "type": "Point",
        "coordinates": [
          120.50146,
          23.30006
        ]
      }
    },
    {
      "type": "Feature",
      "properties": {
        "feature_type": "station",
        "ref": "TNN29383",
        "name": "普照寺",
        "name_en": "Pujhao Temple",
        "line": "東山咖啡線",
        "color": "#d97706",
        "direction": 1
      },
      "geometry": {
        "type": "Point",
        "coordinates": [
          120.50069,
          23.30087
        ]
      }
    },
    {
      "type": "Feature",
      "properties": {
        "feature_type": "station",
        "ref": "TNN29384",
        "name": "淨蓮寺",
        "name_en": "Jinglian Temple",
        "line": "東山咖啡線",
        "color": "#d97706",
        "direction": 1
      },
      "geometry": {
        "type": "Point",
        "coordinates": [
          120.49387,
          23.30608
        ]
      }
    },
    {
      "type": "Feature",
      "properties": {
        "feature_type": "station",
        "ref": "TNN29385",
        "name": "過溪園",
        "name_en": "Guosiyuan",
        "line": "東山咖啡線",
        "color": "#d97706",
        "direction": 1
      },
      "geometry": {
        "type": "Point",
        "coordinates": [
          120.49121,
          23.31135
        ]
      }
    },
    {
      "type": "Feature",
      "properties": {
        "feature_type": "station",
        "ref": "TNN29386",
        "name": "南寮",
        "name_en": "Nanliao",
        "line": "東山咖啡線",
        "color": "#d97706",
        "direction": 1
      },
      "geometry": {
        "type": "Point",
        "coordinates": [
          120.49245,
          23.31366
        ]
      }
    },
    {
      "type": "Feature",
      "properties": {
        "feature_type": "station",
        "ref": "TNN29387",
        "name": "石埤",
        "name_en": "Shihbi",
        "line": "東山咖啡線",
        "color": "#d97706",
        "direction": 1
      },
      "geometry": {
        "type": "Point",
        "coordinates": [
          120.49411,
          23.31539
        ]
      }
    },
    {
      "type": "Feature",
      "properties": {
        "feature_type": "station",
        "ref": "TNN29388",
        "name": "後坑",
        "name_en": "Houkeng",
        "line": "東山咖啡線",
        "color": "#d97706",
        "direction": 1
      },
      "geometry": {
        "type": "Point",
        "coordinates": [
          120.49403,
          23.31795
        ]
      }
    },
    {
      "type": "Feature",
      "properties": {
        "feature_type": "station",
        "ref": "TNN29389",
        "name": "坪頂",
        "name_en": "Pingding",
        "line": "東山咖啡線",
        "color": "#d97706",
        "direction": 1
      },
      "geometry": {
        "type": "Point",
        "coordinates": [
          120.50001,
          23.32442
        ]
      }
    },
    {
      "type": "Feature",
      "properties": {
        "feature_type": "station",
        "ref": "TNN29390",
        "name": "南寮路口",
        "name_en": "Nanliao Rd. Intersection",
        "line": "東山咖啡線",
        "color": "#d97706",
        "direction": 1
      },
      "geometry": {
        "type": "Point",
        "coordinates": [
          120.49793,
          23.32822
        ]
      }
    },
    {
      "type": "Feature",
      "properties": {
        "feature_type": "station",
        "ref": "TNN29391",
        "name": "頂關子嶺",
        "name_en": "Dingguanzihling",
        "line": "東山咖啡線",
        "color": "#d97706",
        "direction": 1
      },
      "geometry": {
        "type": "Point",
        "coordinates": [
          120.50337,
          23.33386
        ]
      }
    },
    {
      "type": "Feature",
      "properties": {
        "feature_type": "station",
        "ref": "TNN29392",
        "name": "關子嶺教會",
        "name_en": "Guanzihling Church",
        "line": "東山咖啡線",
        "color": "#d97706",
        "direction": 1
      },
      "geometry": {
        "type": "Point",
        "coordinates": [
          120.50323,
          23.33476
        ]
      }
    },
    {
      "type": "Feature",
      "properties": {
        "feature_type": "station",
        "ref": "TNN29597",
        "name": "關子嶺勞工育樂中心",
        "name_en": "Guanzihling Labor Recreation Center",
        "line": "東山咖啡線",
        "color": "#d97706",
        "direction": 1
      },
      "geometry": {
        "type": "Point",
        "coordinates": [
          120.50421,
          23.33654
        ]
      }
    }
  ]
}
