{
  "type": "FeatureCollection",
  "name": "939跳蛙",
  "properties": {
    "id": "new_taipei_939tiaowa",
    "name": "939跳蛙",
    "name_en": "939跳蛙",
    "ref": "939跳蛙",
    "color": "#0891b2",
    "city_id": "NewTaipei",
    "source": "TDX Bus Shape / StopOfRoute",
    "official_map_url": "https://ebus.gov.taipei/File/Get/12eefa6d-a646-4435-b1d0-f7e6104d1c49?v=639234358951552212",
    "operator_id": "16176",
    "operator": "臺北客運",
    "operator_en": "Taipei Bus Co., Ltd."
  },
  "features": [
    {
      "type": "Feature",
      "properties": {
        "feature_type": "route",
        "ref": "939跳蛙",
        "name": "939跳蛙",
        "name_en": "939跳蛙",
        "color": "#0891b2",
        "direction": 0
      },
      "geometry": {
        "type": "LineString",
        "coordinates": [
          [
            121.382994649953,
            24.9464114337655
          ],
          [
            121.382202364296,
            24.9462710287125
          ],
          [
            121.380276809284,
            24.9456642783048
          ],
          [
            121.379407635146,
            24.9452932078075
          ],
          [
            121.378491659324,
            24.9448803500921
          ],
          [
            121.377468708223,
            24.9442869715943
          ],
          [
            121.376696480432,
            24.943830655172
          ],
          [
            121.376034570896,
            24.9433024647345
          ],
          [
            121.375406091135,
            24.9427909891842
          ],
          [
            121.374281119828,
            24.9442464405314
          ],
          [
            121.373437994521,
            24.9454051973631
          ],
          [
            121.375128568854,
            24.9462937217247
          ],
          [
            121.377268810017,
            24.9471930553852
          ],
          [
            121.379482554412,
            24.9479140356153
          ],
          [
            121.381737374143,
            24.948404777781
          ],
          [
            121.383780331616,
            24.9486404204949
          ],
          [
            121.385399564577,
            24.9486814958303
          ],
          [
            121.386301060097,
            24.9504401687456
          ],
          [
            121.386413476805,
            24.9506152793862
          ],
          [
            121.386966912904,
            24.951042246689
          ],
          [
            121.3873646951,
            24.9515589311718
          ],
          [
            121.38781652379,
            24.9514875897997
          ],
          [
            121.389515745561,
            24.9514248958666
          ],
          [
            121.39106796087,
            24.9512065480308
          ],
          [
            121.391716518798,
            24.9512087098905
          ],
          [
            121.392741240324,
            24.9512260047686
          ],
          [
            121.395904041154,
            24.9509492867193
          ],
          [
            121.397009832422,
            24.9508357890818
          ],
          [
            121.399168449393,
            24.9507049965663
          ],
          [
            121.399837544989,
            24.9506779733193
          ],
          [
            121.400421247124,
            24.950708239356
          ],
          [
            121.402015871167,
            24.9505803641363
          ],
          [
            121.403949704954,
            24.9504038812385
          ],
          [
            121.405360820327,
            24.950293205523
          ],
          [
            121.407939265377,
            24.9500658716207
          ],
          [
            121.409116316568,
            24.9500180118518
          ],
          [
            121.410184187662,
            24.9500449329718
          ],
          [
            121.410912553519,
            24.9500479242074
          ],
          [
            121.411657371173,
            24.9501316788029
          ],
          [
            121.412586149813,
            24.9502961967585
          ],
          [
            121.41330691346,
            24.9504998820994
          ],
          [
            121.414806307011,
            24.9511310578736
          ],
          [
            121.416107581871,
            24.9519279157544
          ],
          [
            121.417162496876,
            24.9527494425123
          ],
          [
            121.417682467392,
            24.9532949104035
          ],
          [
            121.419054588738,
            24.9549018611245
          ],
          [
            121.419637239828,
            24.9555817099861
          ],
          [
            121.420515167463,
            24.9565089930085
          ],
          [
            121.422146886459,
            24.9576770704931
          ],
          [
            121.422942555117,
            24.9580943478532
          ],
          [
            121.423753179953,
            24.9584622698266
          ],
          [
            121.424804599251,
            24.9588257049467
          ],
          [
            121.425557642802,
            24.9590380826712
          ],
          [
            121.426609568742,
            24.959255134129
          ],
          [
            121.428988071011,
            24.9595949742426
          ],
          [
            121.430683813717,
            24.9598215337972
          ],
          [
            121.432503291763,
            24.9601687697114
          ],
          [
            121.433646900972,
            24.9605173926789
          ],
          [
            121.435699642143,
            24.9613427085786
          ],
          [
            121.437502394186,
            24.9623389111073
          ],
          [
            121.439442958253,
            24.9637522699076
          ],
          [
            121.441095615898,
            24.9653645458723
          ],
          [
            121.442354178258,
            24.9669813086903
          ],
          [
            121.44393738171,
            24.9695793816686
          ],
          [
            121.444990527181,
            24.9711813424512
          ],
          [
            121.445659899301,
            24.9719418619857
          ],
          [
            121.446074527481,
            24.9723909581935
          ],
          [
            121.446998643543,
            24.9731554472509
          ],
          [
            121.447715220184,
            24.9736233472426
          ],
          [
            121.448622986556,
            24.9741263068435
          ],
          [
            121.449933221348,
            24.9746388717139
          ],
          [
            121.450550778264,
            24.9748220848383
          ],
          [
            121.452054755167,
            24.9750800789584
          ],
          [
            121.454059630798,
            24.9751518686118
          ],
          [
            121.457208799627,
            24.9750324355503
          ],
          [
            121.459126036021,
            24.9750232454829
          ],
          [
            121.460202133012,
            24.9751817809673
          ],
          [
            121.46209967859,
            24.9756958469784
          ],
          [
            121.46319935104,
            24.9761359851097
          ],
          [
            121.464643370004,
            24.9769196888254
          ],
          [
            121.466627306987,
            24.978377916159
          ],
          [
            121.470223519934,
            24.9813033445329
          ],
          [
            121.472109023037,
            24.9827989792199
          ],
          [
            121.472915631935,
            24.9835078851377
          ],
          [
            121.475399853064,
            24.9855897850847
          ],
          [
            121.476687579971,
            24.986605309556
          ],
          [
            121.477291809553,
            24.987056986125
          ],
          [
            121.478720124531,
            24.9879064970229
          ],
          [
            121.479873739639,
            24.988364700465
          ],
          [
            121.481051834572,
            24.9887691762
          ],
          [
            121.482112185652,
            24.988990819912
          ],
          [
            121.483747643692,
            24.9890551314765
          ],
          [
            121.485295608092,
            24.9889354820542
          ],
          [
            121.485819074315,
            24.9888038676898
          ],
          [
            121.487195790479,
            24.9884224851564
          ],
          [
            121.48835339864,
            24.9878930364629
          ],
          [
            121.48963215184,
            24.9871571925161
          ],
          [
            121.491124030573,
            24.9859801413248
          ],
          [
            121.494249871729,
            24.9828393439909
          ],
          [
            121.496467125085,
            24.9811597652262
          ],
          [
            121.499237757019,
            24.979563941057
          ],
          [
            121.500878449722,
            24.9788939042924
          ],
          [
            121.503497276451,
            24.9780892619279
          ],
          [
            121.504862027674,
            24.9778125726389
          ],
          [
            121.505796788785,
            24.9776749758033
          ],
          [
            121.506753984163,
            24.9776121598567
          ],
          [
            121.510053316981,
            24.9776989056878
          ],
          [
            121.511207186097,
            24.9777348005145
          ],
          [
            121.512947337382,
            24.9776660020967
          ],
          [
            121.514126632,
            24.9775403702033
          ],
          [
            121.514948838772,
            24.9773624501469
          ],
          [
            121.516203297284,
            24.9769600705054
          ],
          [
            121.517416991111,
            24.9764366042831
          ],
          [
            121.51883109772,
            24.9755676503541
          ],
          [
            121.519906446903,
            24.9746553235095
          ],
          [
            121.520880841885,
            24.9735814699448
          ],
          [
            121.521779298181,
            24.9724689153208
          ],
          [
            121.522011336364,
            24.9719804138826
          ],
          [
            121.522129390878,
            24.9715692585055
          ],
          [
            121.522174170177,
            24.9709118169866
          ],
          [
            121.522096824116,
            24.9702706588489
          ],
          [
            121.522194524404,
            24.9698595034718
          ],
          [
            121.522414350051,
            24.9695786151448
          ],
          [
            121.522960861035,
            24.9692936559725
          ],
          [
            121.523595912904,
            24.9692244516021
          ],
          [
            121.524507661774,
            24.9693136202821
          ],
          [
            121.525222622681,
            24.9694128247889
          ],
          [
            121.525729661283,
            24.9695616313991
          ],
          [
            121.52630965508,
            24.969773267157
          ],
          [
            121.527062917464,
            24.9700841065165
          ],
          [
            121.527912345512,
            24.9706473578412
          ],
          [
            121.528126239426,
            24.9708645082561
          ],
          [
            121.52846548108,
            24.9712051057688
          ],
          [
            121.528852143612,
            24.9717275739072
          ],
          [
            121.529114782312,
            24.972137610639
          ],
          [
            121.528554942748,
            24.9725567466829
          ],
          [
            121.528046219937,
            24.9728803689734
          ],
          [
            121.527350072931,
            24.9734952489799
          ],
          [
            121.526778875388,
            24.9740615831091
          ],
          [
            121.525028937793,
            24.9757216989852
          ],
          [
            121.523999952761,
            24.9767237628965
          ],
          [
            121.523773366668,
            24.9770662593677
          ],
          [
            121.523653717246,
            24.9773997821322
          ],
          [
            121.523546032766,
            24.9776181423278
          ],
          [
            121.523285795272,
            24.978856513848
          ],
          [
            121.522981304222,
            24.9806551385677
          ],
          [
            121.523010601601,
            24.9810520807462
          ],
          [
            121.523177653377,
            24.9815126793135
          ],
          [
            121.523291777743,
            24.9817954027818
          ],
          [
            121.523623901458,
            24.9820627966434
          ],
          [
            121.525273471299,
            24.9834002006577
          ],
          [
            121.526479889174,
            24.9844250372043
          ],
          [
            121.527836483339,
            24.9855252433449
          ],
          [
            121.528537092825,
            24.9863342121676
          ],
          [
            121.529334821376,
            24.9874383686584
          ],
          [
            121.529945033429,
            24.9880575544185
          ],
          [
            121.530782509485,
            24.9885598649461
          ],
          [
            121.532228093967,
            24.9904565253345
          ],
          [
            121.533223427599,
            24.991551317548
          ],
          [
            121.534249068256,
            24.9931616969752
          ],
          [
            121.535128176975,
            24.9944397858771
          ],
          [
            121.535413759835,
            24.994947117713
          ],
          [
            121.535538643919,
            24.9952267982375
          ],
          [
            121.535637354692,
            24.9957128740154
          ],
          [
            121.535649319635,
            24.9961884804688
          ],
          [
            121.535643337163,
            24.9968286048778
          ],
          [
            121.535484801679,
            24.9980445421314
          ],
          [
            121.5353780759,
            24.9989049035296
          ],
          [
            121.535324526131,
            24.999616718886
          ],
          [
            121.535305327546,
            25.0004330437229
          ],
          [
            121.535445915617,
            25.0014867064475
          ],
          [
            121.535538725209,
            25.0026742424949
          ],
          [
            121.535467325516,
            25.003531629635
          ],
          [
            121.535266441483,
            25.0042565905725
          ],
          [
            121.53503312511,
            25.0047232233192
          ],
          [
            121.534592679279,
            25.00539197738
          ],
          [
            121.534046765185,
            25.0063983152306
          ],
          [
            121.533971984296,
            25.006873921684
          ],
          [
            121.533985781889,
            25.0074140625394
          ],
          [
            121.534146431198,
            25.0093714092665
          ],
          [
            121.534396330123,
            25.0097919920951
          ],
          [
            121.535015177697,
            25.0101478290002
          ],
          [
            121.535645824749,
            25.0106493295545
          ],
          [
            121.536166055577,
            25.0108821773292
          ],
          [
            121.537073818607,
            25.0110860840724
          ],
          [
            121.537395117225,
            25.0112640206529
          ],
          [
            121.539492309515,
            25.0130044589562
          ],
          [
            121.54262960721,
            25.015712351373
          ],
          [
            121.545404486592,
            25.0180387083971
          ],
          [
            121.547877484637,
            25.0200958214466
          ],
          [
            121.548964804712,
            25.0211735232599
          ],
          [
            121.548961813477,
            25.0244429437227
          ],
          [
            121.548991725832,
            25.0281341283989
          ],
          [
            121.549024629424,
            25.030936916115
          ],
          [
            121.548835433775,
            25.0309892627372
          ],
          [
            121.548862354895,
            25.0341868935467
          ],
          [
            121.548889276015,
            25.0365813776093
          ],
          [
            121.548894930261,
            25.0371106131203
          ],
          [
            121.549037729647,
            25.0374340653927
          ],
          [
            121.549269778649,
            25.037660481476
          ],
          [
            121.549758229944,
            25.0377614200362
          ],
          [
            121.551441547753,
            25.037749455094
          ],
          [
            121.552956608562,
            25.0377285164451
          ],
          [
            121.555476724518,
            25.0376716829695
          ],
          [
            121.558186783932,
            25.0376327969073
          ],
          [
            121.563116640927,
            25.0375243823834
          ],
          [
            121.563608398377,
            25.0375026781606
          ],
          [
            121.563647284439,
            25.0390670943564
          ],
          [
            121.568357732631,
            25.0390416688542
          ],
          [
            121.568318095927,
            25.0358343985058
          ],
          [
            121.563623276657,
            25.0359398199001
          ]
        ]
      }
    },
    {
      "type": "Feature",
      "properties": {
        "feature_type": "station",
        "ref": "NWT213183",
        "name": "學成大成路口",
        "name_en": "Xuecheng & Dacheng Rd.",
        "line": "939跳蛙",
        "color": "#0891b2",
        "direction": 0
      },
      "geometry": {
        "type": "Point",
        "coordinates": [
          121.382497,
          24.94639
        ]
      }
    },
    {
      "type": "Feature",
      "properties": {
        "feature_type": "station",
        "ref": "NWT188597",
        "name": "大學學成路口",
        "name_en": "Daxue and Xuecheng Rd. Intersection",
        "line": "939跳蛙",
        "color": "#0891b2",
        "direction": 0
      },
      "geometry": {
        "type": "Point",
        "coordinates": [
          121.3753109,
          24.94310583
        ]
      }
    },
    {
      "type": "Feature",
      "properties": {
        "feature_type": "station",
        "ref": "NWT188596",
        "name": "臺北大學正門",
        "name_en": "Nat'l Taipei U. (Main Gate)",
        "line": "939跳蛙",
        "color": "#0891b2",
        "direction": 0
      },
      "geometry": {
        "type": "Point",
        "coordinates": [
          121.373877,
          24.944914
        ]
      }
    },
    {
      "type": "Feature",
      "properties": {
        "feature_type": "station",
        "ref": "NWT188595",
        "name": "學勤路",
        "name_en": "Xuechin Rd.",
        "line": "939跳蛙",
        "color": "#0891b2",
        "direction": 0
      },
      "geometry": {
        "type": "Point",
        "coordinates": [
          121.37486,
          24.94605
        ]
      }
    },
    {
      "type": "Feature",
      "properties": {
        "feature_type": "station",
        "ref": "NWT212733",
        "name": "大學風呂(學勤路)",
        "name_en": "Daxue Fenglu Community(Xuechin Rd.)",
        "line": "939跳蛙",
        "color": "#0891b2",
        "direction": 0
      },
      "geometry": {
        "type": "Point",
        "coordinates": [
          121.3777681,
          24.947308
        ]
      }
    },
    {
      "type": "Feature",
      "properties": {
        "feature_type": "station",
        "ref": "NWT212734",
        "name": "森林公園",
        "name_en": "Shinrin Park",
        "line": "939跳蛙",
        "color": "#0891b2",
        "direction": 0
      },
      "geometry": {
        "type": "Point",
        "coordinates": [
          121.379996,
          24.947989
        ]
      }
    },
    {
      "type": "Feature",
      "properties": {
        "feature_type": "station",
        "ref": "NWT212735",
        "name": "桃子腳國中小",
        "name_en": "Tur ya Kar Elementary and Junior High School",
        "line": "939跳蛙",
        "color": "#0891b2",
        "direction": 0
      },
      "geometry": {
        "type": "Point",
        "coordinates": [
          121.3827943,
          24.948492
        ]
      }
    },
    {
      "type": "Feature",
      "properties": {
        "feature_type": "station",
        "ref": "NWT212736",
        "name": "上善若水社區",
        "name_en": "Shangsham Ruoshui Community",
        "line": "939跳蛙",
        "color": "#0891b2",
        "direction": 0
      },
      "geometry": {
        "type": "Point",
        "coordinates": [
          121.384652,
          24.948611
        ]
      }
    },
    {
      "type": "Feature",
      "properties": {
        "feature_type": "station",
        "ref": "NWT188604",
        "name": "敦化和平路口",
        "name_en": "Dunhua & Heping Intersection",
        "line": "939跳蛙",
        "color": "#0891b2",
        "direction": 0
      },
      "geometry": {
        "type": "Point",
        "coordinates": [
          121.54898,
          25.02391
        ]
      }
    },
    {
      "type": "Feature",
      "properties": {
        "feature_type": "station",
        "ref": "NWT188607",
        "name": "信義敦化路口",
        "name_en": "Xinyi & Dunhua Intersection",
        "line": "939跳蛙",
        "color": "#0891b2",
        "direction": 0
      },
      "geometry": {
        "type": "Point",
        "coordinates": [
          121.54906,
          25.03196
        ]
      }
    },
    {
      "type": "Feature",
      "properties": {
        "feature_type": "station",
        "ref": "NWT188608",
        "name": "仁愛國中(外交學院)",
        "name_en": "Renai Junior High School(Institute of Diplomacy)",
        "line": "939跳蛙",
        "color": "#0891b2",
        "direction": 0
      },
      "geometry": {
        "type": "Point",
        "coordinates": [
          121.5490897913242,
          25.035951071734246
        ]
      }
    },
    {
      "type": "Feature",
      "properties": {
        "feature_type": "station",
        "ref": "NWT188609",
        "name": "仁愛安和路口",
        "name_en": "Renai & Anhe Intersection",
        "line": "939跳蛙",
        "color": "#0891b2",
        "direction": 0
      },
      "geometry": {
        "type": "Point",
        "coordinates": [
          121.5508834,
          25.03772123
        ]
      }
    },
    {
      "type": "Feature",
      "properties": {
        "feature_type": "station",
        "ref": "NWT188610",
        "name": "仁愛國泰醫院",
        "name_en": "Cathay General Hospital",
        "line": "939跳蛙",
        "color": "#0891b2",
        "direction": 0
      },
      "geometry": {
        "type": "Point",
        "coordinates": [
          121.552717,
          25.037669
        ]
      }
    },
    {
      "type": "Feature",
      "properties": {
        "feature_type": "station",
        "ref": "NWT188611",
        "name": "仁愛延吉街口",
        "name_en": "Renai & Yanji Intersection",
        "line": "939跳蛙",
        "color": "#0891b2",
        "direction": 0
      },
      "geometry": {
        "type": "Point",
        "coordinates": [
          121.5552985,
          25.03762585
        ]
      }
    },
    {
      "type": "Feature",
      "properties": {
        "feature_type": "station",
        "ref": "NWT188612",
        "name": "仁愛光復路口",
        "name_en": "Renai & Guangfu Intersection",
        "line": "939跳蛙",
        "color": "#0891b2",
        "direction": 0
      },
      "geometry": {
        "type": "Point",
        "coordinates": [
          121.55728,
          25.03754
        ]
      }
    },
    {
      "type": "Feature",
      "properties": {
        "feature_type": "station",
        "ref": "NWT188613",
        "name": "國父紀念館",
        "name_en": "Dr. Sun Yat-sen Memorial Hall",
        "line": "939跳蛙",
        "color": "#0891b2",
        "direction": 0
      },
      "geometry": {
        "type": "Point",
        "coordinates": [
          121.56118,
          25.037543
        ]
      }
    },
    {
      "type": "Feature",
      "properties": {
        "feature_type": "station",
        "ref": "NWT188614",
        "name": "市政府(市府)",
        "name_en": "Taipei City Hall",
        "line": "939跳蛙",
        "color": "#0891b2",
        "direction": 0
      },
      "geometry": {
        "type": "Point",
        "coordinates": [
          121.563754,
          25.038332
        ]
      }
    },
    {
      "type": "Feature",
      "properties": {
        "feature_type": "station",
        "ref": "NWT188615",
        "name": "市政府(松高)",
        "name_en": "Taipei City Hall (Songgao Rd.)",
        "line": "939跳蛙",
        "color": "#0891b2",
        "direction": 0
      },
      "geometry": {
        "type": "Point",
        "coordinates": [
          121.56453,
          25.03902
        ]
      }
    },
    {
      "type": "Feature",
      "properties": {
        "feature_type": "station",
        "ref": "NWT188616",
        "name": "興雅國中",
        "name_en": "Xingya Junior High School",
        "line": "939跳蛙",
        "color": "#0891b2",
        "direction": 0
      },
      "geometry": {
        "type": "Point",
        "coordinates": [
          121.568268559011,
          25.0372323905063
        ]
      }
    },
    {
      "type": "Feature",
      "properties": {
        "feature_type": "station",
        "ref": "NWT188617",
        "name": "松壽路口",
        "name_en": "Songshou Rd. Entrance",
        "line": "939跳蛙",
        "color": "#0891b2",
        "direction": 0
      },
      "geometry": {
        "type": "Point",
        "coordinates": [
          121.566640146973,
          25.0358810435418
        ]
      }
    },
    {
      "type": "Feature",
      "properties": {
        "feature_type": "station",
        "ref": "NWT188618",
        "name": "市政府(松壽)",
        "name_en": "Taipei City Hall (SongShou)",
        "line": "939跳蛙",
        "color": "#0891b2",
        "direction": 0
      },
      "geometry": {
        "type": "Point",
        "coordinates": [
          121.564528,
          25.035992
        ]
      }
    }
  ]
}
