{
  "type": "FeatureCollection",
  "name": "T320",
  "properties": {
    "id": "taoyuan_t320",
    "name": "T320",
    "name_en": "T320",
    "ref": "T320",
    "color": "#7c2d12",
    "city_id": "Taoyuan",
    "source": "TDX Bus Shape / StopOfRoute",
    "operator_id": "29",
    "operator": "九億租車"
  },
  "features": [
    {
      "type": "Feature",
      "properties": {
        "feature_type": "route",
        "ref": "T320",
        "name": "T320",
        "name_en": "T320",
        "color": "#7c2d12",
        "direction": 0
      },
      "geometry": {
        "type": "LineString",
        "coordinates": [
          [
            121.29981,
            25.04688
          ],
          [
            121.30004,
            25.04679
          ],
          [
            121.30061,
            25.0465
          ],
          [
            121.30105,
            25.04635
          ],
          [
            121.30202,
            25.04605
          ],
          [
            121.30326,
            25.04571
          ],
          [
            121.30325,
            25.04564
          ],
          [
            121.3032557873782,
            25.04568030358672
          ],
          [
            121.30325794745461,
            25.04568726899369
          ],
          [
            121.30326221150176,
            25.045693347531664
          ],
          [
            121.30326821884306,
            25.045698042582618
          ],
          [
            121.30327545693025,
            25.045700953563347
          ],
          [
            121.3032833082075,
            25.045701832108062
          ],
          [
            121.30329115661131,
            25.045700587061773
          ],
          [
            121.30476,
            25.04526
          ],
          [
            121.30543,
            25.04509
          ],
          [
            121.30551,
            25.04507
          ],
          [
            121.30636,
            25.04503
          ],
          [
            121.30669,
            25.04506
          ],
          [
            121.30701,
            25.04507
          ],
          [
            121.30744,
            25.04507
          ],
          [
            121.30785,
            25.04504
          ],
          [
            121.30945,
            25.0448
          ],
          [
            121.30966,
            25.04479
          ],
          [
            121.30994,
            25.0448
          ],
          [
            121.31189019555521,
            25.044976324726818
          ],
          [
            121.31192062589943,
            25.04498286242207
          ],
          [
            121.31194820620502,
            25.044996450095375
          ],
          [
            121.31197094049212,
            25.04501613737067
          ],
          [
            121.31198725109195,
            25.045040558029612
          ],
          [
            121.31199600611397,
            25.045068017375915
          ],
          [
            121.31199660843794,
            25.045096524983357
          ],
          [
            121.31194144665086,
            25.045538239991245
          ],
          [
            121.31194135071277,
            25.045561840457076
          ],
          [
            121.3119468771235,
            25.045584983222216
          ],
          [
            121.31195777336305,
            25.045606481596803
          ],
          [
            121.31197352072222,
            25.04562531216312
          ],
          [
            121.31199336955707,
            25.04564057850294
          ],
          [
            121.3120161102669,
            25.045651459152616
          ],
          [
            121.31277,
            25.04592
          ],
          [
            121.313,
            25.04605
          ],
          [
            121.31277,
            25.04592
          ],
          [
            121.3120077956127,
            25.045642875416913
          ],
          [
            121.31198483632757,
            25.045631659901453
          ],
          [
            121.31196490490154,
            25.045615962885318
          ],
          [
            121.31194924529701,
            25.04559665085504
          ],
          [
            121.31193862433425,
            25.045574669483052
          ],
          [
            121.31193356210106,
            25.045551095154238
          ],
          [
            121.31193429057822,
            25.04552718573879
          ],
          [
            121.31196741722772,
            25.045312631436378
          ],
          [
            121.31197901867758,
            25.045278725993537
          ],
          [
            121.31200191264136,
            25.045250125211577
          ],
          [
            121.31203367827247,
            25.04522976961703
          ],
          [
            121.31207093464847,
            25.045219825723947
          ],
          [
            121.31210971644859,
            25.04522135189415
          ],
          [
            121.31214621179828,
            25.045234357055115
          ],
          [
            121.31298704413909,
            25.045688303878972
          ],
          [
            121.31302005974626,
            25.045700592307153
          ],
          [
            121.31305521683895,
            25.045703424800443
          ],
          [
            121.3130897379747,
            25.04569672338447
          ],
          [
            121.31312058578774,
            25.045681077687906
          ],
          [
            121.31314504611211,
            25.04565786430808
          ],
          [
            121.31316104468164,
            25.045628910365693
          ],
          [
            121.31338382124646,
            25.045014877091134
          ],
          [
            121.31339572520842,
            25.044991601301355
          ],
          [
            121.31341311242623,
            25.04497168846754
          ],
          [
            121.31343510472486,
            25.044956017926285
          ],
          [
            121.31346049251509,
            25.04494545156651
          ],
          [
            121.31348787945359,
            25.04494057054417
          ],
          [
            121.31351588932755,
            25.044941662515072
          ],
          [
            121.31439,
            25.04507
          ],
          [
            121.31492,
            25.04521
          ],
          [
            121.31521,
            25.04528
          ],
          [
            121.31571,
            25.0453
          ],
          [
            121.31598,
            25.04534
          ],
          [
            121.31646,
            25.04548
          ],
          [
            121.31675,
            25.04558
          ],
          [
            121.31722,
            25.0458
          ],
          [
            121.31751,
            25.04589
          ],
          [
            121.31779,
            25.04595
          ],
          [
            121.31835,
            25.04603
          ],
          [
            121.31872,
            25.04605
          ],
          [
            121.31889,
            25.04609
          ],
          [
            121.31929,
            25.04625
          ],
          [
            121.31954,
            25.04633
          ],
          [
            121.32052576513762,
            25.046376018872266
          ],
          [
            121.32054574593953,
            25.04637852016767
          ],
          [
            121.32056501632884,
            25.04638407922296
          ],
          [
            121.32058297751242,
            25.04639253364357
          ],
          [
            121.32059911128107,
            25.046403639505805
          ],
          [
            121.3206129521495,
            25.046417076387595
          ],
          [
            121.320624268321,
            25.046432738026954
          ],
          [
            121.32093702274541,
            25.046955401881693
          ],
          [
            121.320962168841,
            25.04698450079775
          ],
          [
            121.32099625251388,
            25.04700406660139
          ],
          [
            121.3210355374417,
            25.047012139595548
          ],
          [
            121.3210755240272,
            25.047007795119686
          ],
          [
            121.32111163230695,
            25.04699153077919
          ],
          [
            121.32113994710971,
            25.04696491597537
          ],
          [
            121.32186,
            25.04601
          ],
          [
            121.32207,
            25.04586
          ],
          [
            121.32232,
            25.04573
          ],
          [
            121.3227076704153,
            25.045428376093007
          ],
          [
            121.32272424867816,
            25.04541748452212
          ],
          [
            121.32274223899093,
            25.04540947653379
          ],
          [
            121.32276144609743,
            25.04540433341046
          ],
          [
            121.32278132639203,
            25.045402200714445
          ],
          [
            121.32280131721623,
            25.045403138805995
          ],
          [
            121.32282108138504,
            25.04540718682439
          ],
          [
            121.32353,
            25.04561
          ],
          [
            121.32367,
            25.04562
          ],
          [
            121.32379,
            25.04562
          ],
          [
            121.32436,
            25.04548
          ],
          [
            121.32463,
            25.04534
          ],
          [
            121.3248,
            25.0453
          ],
          [
            121.32494,
            25.04529
          ],
          [
            121.32547,
            25.04515
          ],
          [
            121.32561,
            25.04513
          ],
          [
            121.32674,
            25.04486
          ],
          [
            121.32702,
            25.04478
          ],
          [
            121.32719,
            25.04476
          ],
          [
            121.32792,
            25.04476
          ],
          [
            121.32816,
            25.04473
          ],
          [
            121.32886,
            25.04454
          ],
          [
            121.32975845375537,
            25.044694635292995
          ],
          [
            121.329777980079,
            25.044696516824732
          ],
          [
            121.32979742825145,
            25.044695462618982
          ],
          [
            121.32981642715566,
            25.04469152690927
          ],
          [
            121.3298344674183,
            25.044684815214612
          ],
          [
            121.32985106536779,
            25.044675507480047
          ],
          [
            121.32986606775977,
            25.044663579932593
          ],
          [
            121.33032,
            25.04424
          ],
          [
            121.3306,
            25.04382
          ],
          [
            121.33098922096791,
            25.04326136587521
          ],
          [
            121.33101097144512,
            25.043238002540114
          ],
          [
            121.33103867164719,
            25.043221266061263
          ],
          [
            121.33107036389761,
            25.043212169880416
          ],
          [
            121.33110357721252,
            25.04321142320932
          ],
          [
            121.33113572201354,
            25.04321908426449
          ],
          [
            121.33116461033345,
            25.043234789480056
          ],
          [
            121.33161,
            25.04356
          ],
          [
            121.33186,
            25.04383
          ],
          [
            121.33214,
            25.04404
          ],
          [
            121.33248,
            25.04424
          ],
          [
            121.33362,
            25.04482
          ],
          [
            121.33383,
            25.04484
          ],
          [
            121.33439,
            25.04483
          ],
          [
            121.3346,
            25.04488
          ],
          [
            121.33487,
            25.04502
          ],
          [
            121.33499,
            25.04511
          ],
          [
            121.33532,
            25.04528
          ],
          [
            121.33551,
            25.04534
          ],
          [
            121.33588,
            25.04552
          ],
          [
            121.33618,
            25.04562
          ],
          [
            121.3369,
            25.04594
          ],
          [
            121.33714,
            25.04603
          ],
          [
            121.33725,
            25.0461
          ],
          [
            121.33741,
            25.04624
          ],
          [
            121.33755,
            25.04631
          ],
          [
            121.33778,
            25.04635
          ],
          [
            121.33789,
            25.04638
          ],
          [
            121.33864,
            25.04663
          ],
          [
            121.33892,
            25.0467
          ],
          [
            121.33926,
            25.04686
          ],
          [
            121.33955,
            25.04695
          ],
          [
            121.33997,
            25.04698
          ],
          [
            121.3405,
            25.04702
          ],
          [
            121.34122,
            25.04715
          ],
          [
            121.34148,
            25.04716
          ],
          [
            121.3418,
            25.04709
          ],
          [
            121.34205,
            25.04701
          ],
          [
            121.34309,
            25.04684
          ],
          [
            121.34327,
            25.04684
          ],
          [
            121.34385,
            25.04684
          ],
          [
            121.3443,
            25.04673
          ],
          [
            121.34475158279872,
            25.04649826252924
          ],
          [
            121.34477370535521,
            25.046489390788825
          ],
          [
            121.3447969801801,
            25.04648481605401
          ],
          [
            121.34482078734841,
            25.046484560630816
          ],
          [
            121.34484417364945,
            25.046488634746083
          ],
          [
            121.34486620272357,
            25.046496875277086
          ],
          [
            121.34488630908105,
            25.046509191423784
          ],
          [
            121.3454043594833,
            25.046899013189286
          ],
          [
            121.34542778703356,
            25.046912889203078
          ],
          [
            121.34545371395123,
            25.04692131661022
          ],
          [
            121.34548106954757,
            25.046924083660212
          ],
          [
            121.34550839013535,
            25.04692104229941
          ],
          [
            121.34553421390046,
            25.046912355258716
          ],
          [
            121.34555747403321,
            25.046898244097882
          ],
          [
            121.34627,
            25.04635
          ],
          [
            121.347,
            25.04571
          ],
          [
            121.3473254463644,
            25.04533683589558
          ],
          [
            121.34734284385303,
            25.04532056498405
          ],
          [
            121.34736321338211,
            25.045308129271938
          ],
          [
            121.34738594345794,
            25.045299765144946
          ],
          [
            121.34741006964686,
            25.045295827491714
          ],
          [
            121.3474345682783,
            25.04529648338627
          ],
          [
            121.34745864783133,
            25.045301785042845
          ],
          [
            121.34863939310775,
            25.045681490720074
          ],
          [
            121.34865926375399,
            25.045689874252258
          ],
          [
            121.34867731388137,
            25.045701593889415
          ],
          [
            121.34869266980247,
            25.045716163333577
          ],
          [
            121.34870479916246,
            25.045733077495242
          ],
          [
            121.34871328146396,
            25.04575174999888
          ],
          [
            121.34871783309814,
            25.045771618365073
          ],
          [
            121.34878,
            25.04627
          ],
          [
            121.34885,
            25.04642
          ],
          [
            121.34923733392145,
            25.046697049030744
          ],
          [
            121.34925670994576,
            25.046714687396836
          ],
          [
            121.34927132840866,
            25.046736234537896
          ],
          [
            121.34928007329407,
            25.046760286678342
          ],
          [
            121.34928246808931,
            25.046785533206375
          ],
          [
            121.34927838230094,
            25.04681059842748
          ],
          [
            121.34926820576347,
            25.04683383527104
          ],
          [
            121.3489689493178,
            25.047334681666253
          ],
          [
            121.34896395352301,
            25.047346291048218
          ],
          [
            121.34896224339218,
            25.047358813869245
          ],
          [
            121.34896400479133,
            25.047371330773778
          ],
          [
            121.34896912676959,
            25.047383053319553
          ],
          [
            121.34897728669252,
            25.04739324310112
          ],
          [
            121.3489878226121,
            25.047401172881944
          ],
          [
            121.34956,
            25.04773
          ],
          [
            121.34962,
            25.04783
          ],
          [
            121.34981436196672,
            25.048342009657297
          ],
          [
            121.34982421378334,
            25.048361590295347
          ],
          [
            121.3498379385378,
            25.048378834580713
          ],
          [
            121.3498550913823,
            25.048393300329845
          ],
          [
            121.34987501128901,
            25.048404430068853
          ],
          [
            121.34989693059441,
            25.04841179488537
          ],
          [
            121.34991995614021,
            25.048415108382653
          ],
          [
            121.35058,
            25.04845
          ],
          [
            121.35079,
            25.04843
          ],
          [
            121.35118,
            25.04836
          ],
          [
            121.35209169792763,
            25.048276839285837
          ],
          [
            121.35211187150833,
            25.048276553727685
          ],
          [
            121.35213172716855,
            25.048279363946758
          ],
          [
            121.35215078143611,
            25.048285182228785
          ],
          [
            121.35216849095858,
            25.04829384265935
          ],
          [
            121.35218435073043,
            25.048305098277222
          ],
          [
            121.35219815437372,
            25.048318920637936
          ],
          [
            121.35252,
            25.0487
          ],
          [
            121.3527,
            25.04907
          ],
          [
            121.35278,
            25.04931
          ],
          [
            121.3529,
            25.04987
          ],
          [
            121.35314,
            25.05085
          ],
          [
            121.35309,
            25.05134
          ],
          [
            121.35302,
            25.05247
          ],
          [
            121.35293,
            25.05305
          ],
          [
            121.35284,
            25.0533
          ],
          [
            121.35276,
            25.05344
          ],
          [
            121.35268,
            25.05368
          ],
          [
            121.35261,
            25.05402
          ],
          [
            121.35258,
            25.05446
          ],
          [
            121.35244,
            25.05537
          ],
          [
            121.35239,
            25.05596
          ],
          [
            121.35243,
            25.05616
          ],
          [
            121.35256,
            25.05645
          ],
          [
            121.35285,
            25.05694
          ],
          [
            121.35303,
            25.05716
          ],
          [
            121.35353,
            25.05755
          ],
          [
            121.35403,
            25.05786
          ],
          [
            121.35545,
            25.05854
          ],
          [
            121.35619,
            25.05892
          ],
          [
            121.35676,
            25.05932
          ],
          [
            121.35747,
            25.05989
          ],
          [
            121.35769,
            25.06003
          ],
          [
            121.35773,
            25.06004
          ],
          [
            121.35854,
            25.06065
          ],
          [
            121.35866,
            25.06075
          ],
          [
            121.35916,
            25.06124
          ],
          [
            121.35984,
            25.06211
          ],
          [
            121.36001,
            25.06235
          ],
          [
            121.36014,
            25.0626
          ],
          [
            121.3603,
            25.06286
          ],
          [
            121.36066,
            25.0632
          ],
          [
            121.36108,
            25.06357
          ],
          [
            121.36121,
            25.06358
          ],
          [
            121.36113,
            25.06423
          ],
          [
            121.36212,
            25.06422
          ],
          [
            121.36223,
            25.06427
          ],
          [
            121.36297,
            25.06428
          ],
          [
            121.36398,
            25.0643
          ],
          [
            121.36652,
            25.06441
          ],
          [
            121.36687,
            25.06431
          ],
          [
            121.36709,
            25.06419
          ],
          [
            121.36908,
            25.06277
          ],
          [
            121.36925,
            25.06263
          ],
          [
            121.36942124806804,
            25.06220668986189
          ],
          [
            121.36942847482197,
            25.062169897824766
          ],
          [
            121.36942150294824,
            25.06213281830012
          ],
          [
            121.3694010766184,
            25.06210013611404
          ],
          [
            121.36936964900383,
            25.062075776347672
          ],
          [
            121.36933099451352,
            25.062062664572135
          ],
          [
            121.3692896202162,
            25.062062396328468
          ],
          [
            121.36787859716001,
            25.062278758095136
          ],
          [
            121.3678558190702,
            25.062285124670282
          ],
          [
            121.36783550705088,
            25.06229666397279
          ],
          [
            121.36781913397553,
            25.062312582703857
          ],
          [
            121.3678078025355,
            25.06233180877123
          ],
          [
            121.36780227587882,
            25.0623530473407
          ],
          [
            121.36780291065676,
            25.06237477794625
          ],
          [
            121.36783051789462,
            25.062532756409357
          ],
          [
            121.36783130628945,
            25.062560986808652
          ],
          [
            121.36782404007121,
            25.062588557222508
          ],
          [
            121.36780919495516,
            25.062613470507184
          ],
          [
            121.3677877838054,
            25.06263402685979
          ],
          [
            121.36776126747844,
            25.062648823745565
          ],
          [
            121.36773158247425,
            25.062656833239306
          ],
          [
            121.36743,
            25.0627
          ],
          [
            121.36721,
            25.06287
          ]
        ]
      }
    },
    {
      "type": "Feature",
      "properties": {
        "feature_type": "route",
        "ref": "T320",
        "name": "T320",
        "name_en": "T320",
        "color": "#7c2d12",
        "direction": 1
      },
      "geometry": {
        "type": "LineString",
        "coordinates": [
          [
            121.36721,
            25.06287
          ],
          [
            121.36690019817352,
            25.06308973520701
          ],
          [
            121.36687965774352,
            25.06309943380254
          ],
          [
            121.36685685997712,
            25.063101600116287
          ],
          [
            121.3668347591525,
            25.063096056384264
          ],
          [
            121.36681638066,
            25.06308356149007
          ],
          [
            121.36680424033845,
            25.063065825864538
          ],
          [
            121.3668,
            25.063045277344223
          ],
          [
            121.36679999999998,
            25.06282115395011
          ],
          [
            121.36680209985128,
            25.062801316292248
          ],
          [
            121.36680832181106,
            25.062782211678588
          ],
          [
            121.36681843596453,
            25.06276454606577
          ],
          [
            121.36683206857195,
            25.062748972236257
          ],
          [
            121.36684871587904,
            25.062736065676603
          ],
          [
            121.36686749217506,
            25.062726412611145
          ],
          [
            121.36760068297879,
            25.06243144475365
          ],
          [
            121.36760799988846,
            25.06242756536633
          ],
          [
            121.3676142938977,
            25.062422267746555
          ],
          [
            121.36761916877182,
            25.062415844744628
          ],
          [
            121.3676223894824,
            25.062408606027635
          ],
          [
            121.3676238007519,
            25.062400900590067
          ],
          [
            121.36762334175201,
            25.06239313966235
          ],
          [
            121.36761,
            25.06232
          ],
          [
            121.36649859131566,
            25.062501394918026
          ],
          [
            121.36646946737628,
            25.062509821060292
          ],
          [
            121.36644354331143,
            25.062524819297835
          ],
          [
            121.36642268757494,
            25.06254536808008
          ],
          [
            121.36640828800408,
            25.062570099995934
          ],
          [
            121.36640130281293,
            25.06259736926924
          ],
          [
            121.36640217647606,
            25.06262524418779
          ],
          [
            121.36651,
            25.06324
          ],
          [
            121.3664331718672,
            25.06436323740098
          ],
          [
            121.3664356472493,
            25.0643929508599
          ],
          [
            121.36644691024962,
            25.064420972582887
          ],
          [
            121.36646611273738,
            25.064445137340027
          ],
          [
            121.3664918032551,
            25.064463618591
          ],
          [
            121.36652203993488,
            25.064475019394408
          ],
          [
            121.36655455553986,
            25.064478477636793
          ],
          [
            121.36831208471921,
            25.06444358333608
          ],
          [
            121.36834625098871,
            25.06444744433858
          ],
          [
            121.36837776046256,
            25.06446005670699
          ],
          [
            121.36840399705031,
            25.06448036562204
          ],
          [
            121.36842276724492,
            25.06450667315916
          ],
          [
            121.36843250176639,
            25.06453677987965
          ],
          [
            121.3684324046314,
            25.06456805865125
          ],
          [
            121.3682340088104,
            25.065777805160057
          ],
          [
            121.36822558856736,
            25.065804798918204
          ],
          [
            121.3682099390969,
            25.065828833852702
          ],
          [
            121.36818808010479,
            25.06584842635243
          ],
          [
            121.36816146109813,
            25.065862277205277
          ],
          [
            121.36813184722874,
            25.06586946793753
          ],
          [
            121.36810109745515,
            25.06586950946609
          ],
          [
            121.36639,
            25.06567
          ],
          [
            121.36569,
            25.06561
          ],
          [
            121.36519,
            25.06561
          ],
          [
            121.36511,
            25.06562
          ],
          [
            121.36465,
            25.0656
          ],
          [
            121.36407,
            25.0656
          ],
          [
            121.36394,
            25.06563
          ],
          [
            121.36101,
            25.06571
          ],
          [
            121.361,
            25.06423
          ],
          [
            121.36103,
            25.06395
          ],
          [
            121.36108,
            25.06357
          ],
          [
            121.36066,
            25.0632
          ],
          [
            121.3603,
            25.06286
          ],
          [
            121.36014,
            25.0626
          ],
          [
            121.36001,
            25.06235
          ],
          [
            121.35989,
            25.06218
          ],
          [
            121.35977,
            25.062
          ],
          [
            121.3591,
            25.06118
          ],
          [
            121.35866,
            25.06075
          ],
          [
            121.35839,
            25.06054
          ],
          [
            121.35773,
            25.06004
          ],
          [
            121.35757,
            25.05996
          ],
          [
            121.35735,
            25.05981
          ],
          [
            121.35665,
            25.05924
          ],
          [
            121.35619,
            25.05892
          ],
          [
            121.35541,
            25.05851
          ],
          [
            121.3549,
            25.05827
          ],
          [
            121.35381487119946,
            25.05776628000375
          ],
          [
            121.35381056660482,
            25.05776478481152
          ],
          [
            121.35380606820767,
            25.057764182779877
          ],
          [
            121.35380153313346,
            25.057764477232418
          ],
          [
            121.35379717354104,
            25.057765654394125
          ],
          [
            121.35379319337993,
            25.057767659195264
          ],
          [
            121.35378972925702,
            25.05777044744959
          ],
          [
            121.35376,
            25.0578
          ],
          [
            121.35379449208996,
            25.05776568794263
          ],
          [
            121.35303,
            25.05716
          ],
          [
            121.35285,
            25.05694
          ],
          [
            121.35256,
            25.05644
          ],
          [
            121.35241,
            25.05611
          ],
          [
            121.35239,
            25.05591
          ],
          [
            121.35246,
            25.0552
          ],
          [
            121.35258,
            25.05446
          ],
          [
            121.35261,
            25.05402
          ],
          [
            121.35268,
            25.05368
          ],
          [
            121.35276,
            25.05344
          ],
          [
            121.35284,
            25.0533
          ],
          [
            121.35293,
            25.05305
          ],
          [
            121.35302,
            25.05247
          ],
          [
            121.35309,
            25.05134
          ],
          [
            121.35314,
            25.05085
          ],
          [
            121.35277,
            25.04926
          ],
          [
            121.3524483084528,
            25.04848991283811
          ],
          [
            121.35243938264047,
            25.04847297966226
          ],
          [
            121.35242757042549,
            25.048457896881846
          ],
          [
            121.35241311775773,
            25.048444867509325
          ],
          [
            121.35239644605674,
            25.04843427146288
          ],
          [
            121.35237804144585,
            25.048426417708356
          ],
          [
            121.35235858680775,
            25.048421559751723
          ],
          [
            121.35175,
            25.04832
          ],
          [
            121.35137,
            25.04834
          ],
          [
            121.35118,
            25.04836
          ],
          [
            121.35068,
            25.04845
          ],
          [
            121.35047,
            25.04845
          ],
          [
            121.34989779557633,
            25.048378096343214
          ],
          [
            121.34987673731062,
            25.048373619504595
          ],
          [
            121.34985681519768,
            25.048365689872732
          ],
          [
            121.34983880650526,
            25.048354586243413
          ],
          [
            121.34982331215214,
            25.04834067912547
          ],
          [
            121.34981084915798,
            25.048324432575292
          ],
          [
            121.3498017478282,
            25.048306164827903
          ],
          [
            121.349590800268,
            25.04775602920121
          ],
          [
            121.34958132086346,
            25.047737189191416
          ],
          [
            121.3495682598445,
            25.047720515834676
          ],
          [
            121.3495519969317,
            25.04770637910679
          ],
          [
            121.34953311171424,
            25.047695282822513
          ],
          [
            121.34951227723704,
            25.047687622439124
          ],
          [
            121.34949031858314,
            25.04768367850483
          ],
          [
            121.34906668442902,
            25.047645151587528
          ],
          [
            121.34903367724455,
            25.04763766451661
          ],
          [
            121.34900427533793,
            25.047621916401265
          ],
          [
            121.34898097533114,
            25.047599207770322
          ],
          [
            121.34896569023141,
            25.04757140307705
          ],
          [
            121.34895967499564,
            25.04754078517818
          ],
          [
            121.34896337262762,
            25.047510047026577
          ],
          [
            121.34918569528864,
            25.0467291624092
          ],
          [
            121.3491892848538,
            25.04670807250212
          ],
          [
            121.34918825369607,
            25.04668656607598
          ],
          [
            121.34918259144784,
            25.046665668132526
          ],
          [
            121.34917252076396,
            25.04664620043503
          ],
          [
            121.34915843765074,
            25.046628928505648
          ],
          [
            121.34914121757119,
            25.04661474770841
          ],
          [
            121.34885,
            25.04642
          ],
          [
            121.34847384510248,
            25.04562185301257
          ],
          [
            121.34846674719272,
            25.045609632026707
          ],
          [
            121.34845766730419,
            25.045598819285765
          ],
          [
            121.34844676204942,
            25.045589516115314
          ],
          [
            121.34843432837997,
            25.045581975841976
          ],
          [
            121.34842070486638,
            25.04557640378843
          ],
          [
            121.34840636944321,
            25.045572968856376
          ],
          [
            121.3482,
            25.04554
          ],
          [
            121.34745869596506,
            25.045307519817555
          ],
          [
            121.34743505299117,
            25.045302441047262
          ],
          [
            121.34741102957017,
            25.045301831079062
          ],
          [
            121.34738736183628,
            25.04530563796081
          ],
          [
            121.34736501534358,
            25.045313706386114
          ],
          [
            121.34734490174442,
            25.045325707193744
          ],
          [
            121.34732758171357,
            25.045341440298305
          ],
          [
            121.34695,
            25.04576
          ],
          [
            121.34571467135954,
            25.046812840929224
          ],
          [
            121.34569934163187,
            25.04682397977534
          ],
          [
            121.3456825958253,
            25.046832514108225
          ],
          [
            121.34566456456737,
            25.046838482640293
          ],
          [
            121.34564571644177,
            25.046841730265534
          ],
          [
            121.3456265412603,
            25.046842172586942
          ],
          [
            121.34560736517469,
            25.046839763402538
          ],
          [
            121.34521,
            25.04676
          ],
          [
            121.34489635054233,
            25.046507905937556
          ],
          [
            121.34487612816751,
            25.046494687777304
          ],
          [
            121.34485373087686,
            25.046485710053936
          ],
          [
            121.34482979455264,
            25.04648110111633
          ],
          [
            121.34480533101515,
            25.04648105579043
          ],
          [
            121.34478137437073,
            25.04648557599222
          ],
          [
            121.34475862533225,
            25.046494631546516
          ],
          [
            121.3443,
            25.04673
          ],
          [
            121.34385,
            25.04684
          ],
          [
            121.34309,
            25.04684
          ],
          [
            121.34196,
            25.04704
          ],
          [
            121.34167,
            25.04713
          ],
          [
            121.34141,
            25.04716
          ],
          [
            121.34111,
            25.04714
          ],
          [
            121.3405,
            25.04702
          ],
          [
            121.33981,
            25.04697
          ],
          [
            121.33955,
            25.04695
          ],
          [
            121.33919,
            25.04683
          ],
          [
            121.33899,
            25.04673
          ],
          [
            121.33879,
            25.04666
          ],
          [
            121.33859,
            25.04662
          ],
          [
            121.33784,
            25.04636
          ],
          [
            121.33761,
            25.04633
          ],
          [
            121.33745,
            25.04626
          ],
          [
            121.33728,
            25.04613
          ],
          [
            121.33718,
            25.04605
          ],
          [
            121.3371,
            25.04601
          ],
          [
            121.33673,
            25.04587
          ],
          [
            121.33606,
            25.04557
          ],
          [
            121.33577,
            25.04548
          ],
          [
            121.33543,
            25.04531
          ],
          [
            121.33531,
            25.04528
          ],
          [
            121.33499,
            25.04511
          ],
          [
            121.33482,
            25.04499
          ],
          [
            121.33455,
            25.04487
          ],
          [
            121.33431,
            25.04483
          ],
          [
            121.33376,
            25.04484
          ],
          [
            121.33362,
            25.04482
          ],
          [
            121.33237,
            25.04418
          ],
          [
            121.33137230753456,
            25.043527871806557
          ],
          [
            121.33135530949527,
            25.04351853954372
          ],
          [
            121.33133722791445,
            25.04351201828948
          ],
          [
            121.33131822367812,
            25.043508270894126
          ],
          [
            121.33129880424913,
            25.043507397422914
          ],
          [
            121.33127948817706,
            25.04350942119982
          ],
          [
            121.33126053267823,
            25.043514377243216
          ],
          [
            121.33069,
            25.04371
          ],
          [
            121.33061,
            25.04378
          ],
          [
            121.33014633293288,
            25.04457770413464
          ],
          [
            121.33013512658083,
            25.044593597401608
          ],
          [
            121.33012132446692,
            25.044607264389704
          ],
          [
            121.3301051696601,
            25.04461858330731
          ],
          [
            121.33008713558662,
            25.044627222446803
          ],
          [
            121.33006775074578,
            25.044632928633035
          ],
          [
            121.3300476292296,
            25.044635532321823
          ],
          [
            121.32956,
            25.04466
          ],
          [
            121.32894,
            25.04455
          ],
          [
            121.32886,
            25.04454
          ],
          [
            121.32815,
            25.04474
          ],
          [
            121.32781,
            25.04477
          ],
          [
            121.3275,
            25.04476
          ],
          [
            121.32731,
            25.04477
          ],
          [
            121.32711,
            25.04476
          ],
          [
            121.32694,
            25.04479
          ],
          [
            121.32613,
            25.04501
          ],
          [
            121.32561,
            25.04513
          ],
          [
            121.32525,
            25.0452
          ],
          [
            121.32494,
            25.04529
          ],
          [
            121.32467,
            25.04533
          ],
          [
            121.32448,
            25.04542
          ],
          [
            121.32432,
            25.04549
          ],
          [
            121.32334827139985,
            25.045729014189586
          ],
          [
            121.32332221037095,
            25.04573157051505
          ],
          [
            121.32329670901962,
            25.045726649585752
          ],
          [
            121.3232741288287,
            25.04571476975505
          ],
          [
            121.32325668688553,
            25.04569709747111
          ],
          [
            121.32324609576689,
            25.04567536792727
          ],
          [
            121.32324339365215,
            25.045651743059654
          ],
          [
            121.32326068904868,
            25.045357950959414
          ],
          [
            121.32325549575614,
            25.045319985330632
          ],
          [
            121.3232361616151,
            25.04528598931111
          ],
          [
            121.32320509083583,
            25.0452602349353
          ],
          [
            121.32316615088664,
            25.045245927923684
          ],
          [
            121.32312418873387,
            25.045244849110734
          ],
          [
            121.32308411749612,
            25.04525728940522
          ],
          [
            121.32264,
            25.04548
          ],
          [
            121.32227,
            25.04577
          ],
          [
            121.32199,
            25.0459
          ],
          [
            121.32182,
            25.04605
          ],
          [
            121.32114499436184,
            25.04696918529861
          ],
          [
            121.3211169303756,
            25.046996190213022
          ],
          [
            121.32108088823168,
            25.047012858170522
          ],
          [
            121.32104081030604,
            25.04701756000358
          ],
          [
            121.32100131871952,
            25.047009753457584
          ],
          [
            121.32096696797134,
            25.04699033884855
          ],
          [
            121.32094154920779,
            25.04696127292755
          ],
          [
            121.32062087951722,
            25.04643206806706
          ],
          [
            121.32060953578613,
            25.046416540178637
          ],
          [
            121.32059570914124,
            25.046403228376988
          ],
          [
            121.32057962371734,
            25.046392230039014
          ],
          [
            121.32056173859111,
            25.0463838590564
          ],
          [
            121.32054256420264,
            25.046378354336294
          ],
          [
            121.32052269059872,
            25.046375874987667
          ],
          [
            121.31954,
            25.04633
          ],
          [
            121.31938,
            25.04628
          ],
          [
            121.3192,
            25.04621
          ],
          [
            121.31881,
            25.04607
          ],
          [
            121.31852,
            25.04603
          ],
          [
            121.31822,
            25.04602
          ],
          [
            121.31779,
            25.04595
          ],
          [
            121.31734,
            25.04584
          ],
          [
            121.31722,
            25.0458
          ],
          [
            121.31674,
            25.04558
          ],
          [
            121.31625,
            25.04541
          ],
          [
            121.31598,
            25.04534
          ],
          [
            121.31554,
            25.04529
          ],
          [
            121.31513,
            25.04527
          ],
          [
            121.31488,
            25.0452
          ],
          [
            121.31439,
            25.04507
          ],
          [
            121.31351793044867,
            25.04493690815523
          ],
          [
            121.31348998561731,
            25.044935653358444
          ],
          [
            121.31346262264537,
            25.044940349608083
          ],
          [
            121.3134372050598,
            25.04495071908236
          ],
          [
            121.31341512467019,
            25.04496619397227
          ],
          [
            121.31339759054883,
            25.044985926907767
          ],
          [
            121.31338548057063,
            25.045009057947645
          ],
          [
            121.313153458403,
            25.045628820650062
          ],
          [
            121.31313722479682,
            25.04565755610587
          ],
          [
            121.3131126396331,
            25.045680515726662
          ],
          [
            121.31308177023087,
            25.045695912432553
          ],
          [
            121.31304731531476,
            25.04570240018294
          ],
          [
            121.31301228706907,
            25.045699411793166
          ],
          [
            121.31297943131375,
            25.045687035569333
          ],
          [
            121.31214893623041,
            25.045234928586787
          ],
          [
            121.31211191974641,
            25.045221690670807
          ],
          [
            121.31207255549324,
            25.04522027509597
          ],
          [
            121.3120348421968,
            25.04523066401539
          ],
          [
            121.31200291401694,
            25.04525171858791
          ],
          [
            121.31198027094474,
            25.04528113079549
          ],
          [
            121.31196938477538,
            25.045315761449782
          ],
          [
            121.31194144665086,
            25.045538239991245
          ],
          [
            121.31194135071277,
            25.045561840457076
          ],
          [
            121.3119468771235,
            25.045584983222216
          ],
          [
            121.31195777336305,
            25.045606481596803
          ],
          [
            121.31197352072222,
            25.04562531216312
          ],
          [
            121.31199336955707,
            25.04564057850294
          ],
          [
            121.3120161102669,
            25.045651459152616
          ],
          [
            121.31277,
            25.04592
          ],
          [
            121.313,
            25.04605
          ],
          [
            121.31277,
            25.04592
          ],
          [
            121.3120077956127,
            25.045642875416913
          ],
          [
            121.31198483632757,
            25.045631659901453
          ],
          [
            121.31196490490154,
            25.045615962885318
          ],
          [
            121.31194924529701,
            25.04559665085504
          ],
          [
            121.31193862433425,
            25.045574669483052
          ],
          [
            121.31193356210106,
            25.045551095154238
          ],
          [
            121.31193429057822,
            25.04552718573879
          ],
          [
            121.31200023514718,
            25.045097923554515
          ],
          [
            121.3120003628665,
            25.045068915865567
          ],
          [
            121.31199202213988,
            25.045040816719716
          ],
          [
            121.31197579695703,
            25.04501575015808
          ],
          [
            121.31195285410332,
            25.044995518767298
          ],
          [
            121.31192484344533,
            25.04498157742719
          ],
          [
            121.31189385896447,
            25.044974935699116
          ],
          [
            121.31047,
            25.04485
          ],
          [
            121.30976,
            25.04479
          ],
          [
            121.30966,
            25.04479
          ],
          [
            121.30929,
            25.04482
          ],
          [
            121.30785,
            25.04504
          ],
          [
            121.30744,
            25.04507
          ],
          [
            121.30679,
            25.04506
          ],
          [
            121.30550702707781,
            25.044987103218762
          ],
          [
            121.30548343638512,
            25.044989050864732
          ],
          [
            121.30546161209357,
            25.04499737217644
          ],
          [
            121.30544353979494,
            25.045011295175723
          ],
          [
            121.30543089186666,
            25.045029531453732
          ],
          [
            121.30542483872483,
            25.045050393458695
          ],
          [
            121.30542591969595,
            25.04507185605996
          ],
          [
            121.30545,
            25.04518
          ],
          [
            121.30543378659243,
            25.045107244209113
          ],
          [
            121.30542935788246,
            25.045095814145387
          ],
          [
            121.3054216521892,
            25.04508600888806
          ],
          [
            121.30541126371861,
            25.045078543267117
          ],
          [
            121.30539901066251,
            25.04507400527191
          ],
          [
            121.30538585806676,
            25.045072752313143
          ],
          [
            121.30537274805508,
            25.045074911371913
          ],
          [
            121.30326,
            25.04571
          ],
          [
            121.30151,
            25.0462
          ],
          [
            121.30098,
            25.04637
          ],
          [
            121.30061,
            25.0465
          ],
          [
            121.30004,
            25.04679
          ],
          [
            121.29972,
            25.04691
          ]
        ]
      }
    },
    {
      "type": "Feature",
      "properties": {
        "feature_type": "station",
        "ref": "TAO7993",
        "name": "黃昏市場",
        "name_en": "Evening Market",
        "line": "T320",
        "color": "#7c2d12",
        "direction": 0,
        "station_id": "1890"
      },
      "geometry": {
        "type": "Point",
        "coordinates": [
          121.299781,
          25.046823
        ]
      }
    },
    {
      "type": "Feature",
      "properties": {
        "feature_type": "station",
        "ref": "TAO7994",
        "name": "南上路250巷口",
        "name_en": "Nanshan Rd., Ln. 250 Intersection",
        "line": "T320",
        "color": "#7c2d12",
        "direction": 0,
        "station_id": "6156"
      },
      "geometry": {
        "type": "Point",
        "coordinates": [
          121.301127,
          25.046259
        ]
      }
    },
    {
      "type": "Feature",
      "properties": {
        "feature_type": "station",
        "ref": "TAO7995",
        "name": "南上路350巷口",
        "name_en": "Nanshan Rd., Ln. 350 Intersection",
        "line": "T320",
        "color": "#7c2d12",
        "direction": 0,
        "station_id": "6154"
      },
      "geometry": {
        "type": "Point",
        "coordinates": [
          121.303246,
          25.045637
        ]
      }
    },
    {
      "type": "Feature",
      "properties": {
        "feature_type": "station",
        "ref": "TAO7996",
        "name": "南上路441號",
        "name_en": "Nanshang Rd., No 441",
        "line": "T320",
        "color": "#7c2d12",
        "direction": 0,
        "station_id": "6152"
      },
      "geometry": {
        "type": "Point",
        "coordinates": [
          121.305397,
          25.045015
        ]
      }
    },
    {
      "type": "Feature",
      "properties": {
        "feature_type": "station",
        "ref": "TAO7997",
        "name": "南上路493巷口",
        "name_en": "Nanshan Rd., Ln. 493 Intersection",
        "line": "T320",
        "color": "#7c2d12",
        "direction": 0,
        "station_id": "6150"
      },
      "geometry": {
        "type": "Point",
        "coordinates": [
          121.307006,
          25.045024
        ]
      }
    },
    {
      "type": "Feature",
      "properties": {
        "feature_type": "station",
        "ref": "TAO7998",
        "name": "南上路566巷口",
        "name_en": "Nanshan Rd., Ln. 566 Intersection",
        "line": "T320",
        "color": "#7c2d12",
        "direction": 0,
        "station_id": "6148"
      },
      "geometry": {
        "type": "Point",
        "coordinates": [
          121.309946,
          25.044757
        ]
      }
    },
    {
      "type": "Feature",
      "properties": {
        "feature_type": "station",
        "ref": "TAO7999",
        "name": "慈慧慈惠堂",
        "name_en": "Cihui Cihuitang",
        "line": "T320",
        "color": "#7c2d12",
        "direction": 0,
        "station_id": "6442"
      },
      "geometry": {
        "type": "Point",
        "coordinates": [
          121.313038,
          25.046028
        ]
      }
    },
    {
      "type": "Feature",
      "properties": {
        "feature_type": "station",
        "ref": "TAO8000",
        "name": "大坑派出所",
        "name_en": "Dakeng Police Station",
        "line": "T320",
        "color": "#7c2d12",
        "direction": 0,
        "station_id": "6146"
      },
      "geometry": {
        "type": "Point",
        "coordinates": [
          121.314924,
          25.045187
        ]
      }
    },
    {
      "type": "Feature",
      "properties": {
        "feature_type": "station",
        "ref": "TAO8001",
        "name": "大坑社區",
        "name_en": "Dakeng Community",
        "line": "T320",
        "color": "#7c2d12",
        "direction": 0,
        "station_id": "6144"
      },
      "geometry": {
        "type": "Point",
        "coordinates": [
          121.319307,
          25.046205
        ]
      }
    },
    {
      "type": "Feature",
      "properties": {
        "feature_type": "station",
        "ref": "TAO10195",
        "name": "員林坑土地廟",
        "name_en": "Yuanlinkeng Earth God Temple",
        "line": "T320",
        "color": "#7c2d12",
        "direction": 0,
        "station_id": "7807"
      },
      "geometry": {
        "type": "Point",
        "coordinates": [
          121.32367,
          25.04569
        ]
      }
    },
    {
      "type": "Feature",
      "properties": {
        "feature_type": "station",
        "ref": "TAO10196",
        "name": "曾厝",
        "name_en": "Zeng Residence",
        "line": "T320",
        "color": "#7c2d12",
        "direction": 0,
        "station_id": "7819"
      },
      "geometry": {
        "type": "Point",
        "coordinates": [
          121.32719,
          25.04477
        ]
      }
    },
    {
      "type": "Feature",
      "properties": {
        "feature_type": "station",
        "ref": "TAO10197",
        "name": "綠園花藝",
        "name_en": "Luyuan Florist",
        "line": "T320",
        "color": "#7c2d12",
        "direction": 0,
        "station_id": "7827"
      },
      "geometry": {
        "type": "Point",
        "coordinates": [
          121.33551,
          25.04535
        ]
      }
    },
    {
      "type": "Feature",
      "properties": {
        "feature_type": "station",
        "ref": "TAO10198",
        "name": "游厝",
        "name_en": "You Residence",
        "line": "T320",
        "color": "#7c2d12",
        "direction": 0,
        "station_id": "7822"
      },
      "geometry": {
        "type": "Point",
        "coordinates": [
          121.33926,
          25.04686
        ]
      }
    },
    {
      "type": "Feature",
      "properties": {
        "feature_type": "station",
        "ref": "TAO10199",
        "name": "吳厝",
        "name_en": "Wu Residence",
        "line": "T320",
        "color": "#7c2d12",
        "direction": 0,
        "station_id": "7805"
      },
      "geometry": {
        "type": "Point",
        "coordinates": [
          121.34327,
          25.04687
        ]
      }
    },
    {
      "type": "Feature",
      "properties": {
        "feature_type": "station",
        "ref": "TAO10200",
        "name": "潘厝",
        "name_en": "Pan Residence",
        "line": "T320",
        "color": "#7c2d12",
        "direction": 0,
        "station_id": "7825"
      },
      "geometry": {
        "type": "Point",
        "coordinates": [
          121.34523,
          25.04675
        ]
      }
    },
    {
      "type": "Feature",
      "properties": {
        "feature_type": "station",
        "ref": "TAO10201",
        "name": "三興宮",
        "name_en": "Sanxing Temple",
        "line": "T320",
        "color": "#7c2d12",
        "direction": 0,
        "station_id": "7801"
      },
      "geometry": {
        "type": "Point",
        "coordinates": [
          121.35319,
          25.05135
        ]
      }
    },
    {
      "type": "Feature",
      "properties": {
        "feature_type": "station",
        "ref": "TAO10202",
        "name": "大湖路",
        "name_en": "Dahu Road",
        "line": "T320",
        "color": "#7c2d12",
        "direction": 0,
        "station_id": "7809"
      },
      "geometry": {
        "type": "Point",
        "coordinates": [
          121.35401,
          25.05788
        ]
      }
    },
    {
      "type": "Feature",
      "properties": {
        "feature_type": "station",
        "ref": "TAO10203",
        "name": "忠義路復興街口",
        "name_en": "Zhongyi Road Fuxing Street Intersection",
        "line": "T320",
        "color": "#7c2d12",
        "direction": 0,
        "station_id": "7813"
      },
      "geometry": {
        "type": "Point",
        "coordinates": [
          121.35546,
          25.05852
        ]
      }
    },
    {
      "type": "Feature",
      "properties": {
        "feature_type": "station",
        "ref": "TAO17818",
        "name": "復興街",
        "name_en": "Fuxing St.",
        "line": "T320",
        "color": "#7c2d12",
        "direction": 0,
        "station_id": "5519"
      },
      "geometry": {
        "type": "Point",
        "coordinates": [
          121.358591,
          25.060595
        ]
      }
    },
    {
      "type": "Feature",
      "properties": {
        "feature_type": "station",
        "ref": "TAO5482",
        "name": "公西",
        "name_en": "Gongxi",
        "line": "T320",
        "color": "#7c2d12",
        "direction": 0,
        "station_id": "4891"
      },
      "geometry": {
        "type": "Point",
        "coordinates": [
          121.359902,
          25.062179
        ]
      }
    },
    {
      "type": "Feature",
      "properties": {
        "feature_type": "station",
        "ref": "TAO8355",
        "name": "捷運林口站(龜山一路)",
        "name_en": "MRT Linkou Station (Guishan 1st Rd.)",
        "line": "T320",
        "color": "#7c2d12",
        "direction": 0,
        "station_id": "5332"
      },
      "geometry": {
        "type": "Point",
        "coordinates": [
          121.362969,
          25.064165
        ]
      }
    },
    {
      "type": "Feature",
      "properties": {
        "feature_type": "station",
        "ref": "TAO8837",
        "name": "桃園長庚轉運站",
        "name_en": "Taoyuan Chang Gung Bus Terminal",
        "line": "T320",
        "color": "#7c2d12",
        "direction": 0,
        "station_id": "6713"
      },
      "geometry": {
        "type": "Point",
        "coordinates": [
          121.367301,
          25.062964
        ]
      }
    },
    {
      "type": "Feature",
      "properties": {
        "feature_type": "station",
        "ref": "TAO8837",
        "name": "桃園長庚轉運站",
        "name_en": "Taoyuan Chang Gung Bus Terminal",
        "line": "T320",
        "color": "#7c2d12",
        "direction": 1,
        "station_id": "6713"
      },
      "geometry": {
        "type": "Point",
        "coordinates": [
          121.367301,
          25.062964
        ]
      }
    },
    {
      "type": "Feature",
      "properties": {
        "feature_type": "station",
        "ref": "TAO8051",
        "name": "上公西",
        "name_en": "Shanggongxi",
        "line": "T320",
        "color": "#7c2d12",
        "direction": 1,
        "station_id": "6555"
      },
      "geometry": {
        "type": "Point",
        "coordinates": [
          121.361008,
          25.06395
        ]
      }
    },
    {
      "type": "Feature",
      "properties": {
        "feature_type": "station",
        "ref": "TAO5472",
        "name": "公西",
        "name_en": "Gongxi",
        "line": "T320",
        "color": "#7c2d12",
        "direction": 1,
        "station_id": "4892"
      },
      "geometry": {
        "type": "Point",
        "coordinates": [
          121.359938,
          25.062054
        ]
      }
    },
    {
      "type": "Feature",
      "properties": {
        "feature_type": "station",
        "ref": "TAO196033",
        "name": "復興街",
        "name_en": "Fuxing Street",
        "line": "T320",
        "color": "#7c2d12",
        "direction": 1,
        "station_id": "7812"
      },
      "geometry": {
        "type": "Point",
        "coordinates": [
          121.35845499998298,
          25.060534999986512
        ]
      }
    },
    {
      "type": "Feature",
      "properties": {
        "feature_type": "station",
        "ref": "TAO10204",
        "name": "忠義路復興街口",
        "name_en": "Zhongyi Road Fuxing Street Intersection",
        "line": "T320",
        "color": "#7c2d12",
        "direction": 1,
        "station_id": "7814"
      },
      "geometry": {
        "type": "Point",
        "coordinates": [
          121.35489,
          25.05829
        ]
      }
    },
    {
      "type": "Feature",
      "properties": {
        "feature_type": "station",
        "ref": "TAO10205",
        "name": "大湖路",
        "name_en": "Dahu Road",
        "line": "T320",
        "color": "#7c2d12",
        "direction": 1,
        "station_id": "7810"
      },
      "geometry": {
        "type": "Point",
        "coordinates": [
          121.35379,
          25.05783
        ]
      }
    },
    {
      "type": "Feature",
      "properties": {
        "feature_type": "station",
        "ref": "TAO10206",
        "name": "三興宮",
        "name_en": "Sanxing Temple",
        "line": "T320",
        "color": "#7c2d12",
        "direction": 1,
        "station_id": "7801"
      },
      "geometry": {
        "type": "Point",
        "coordinates": [
          121.35319,
          25.05135
        ]
      }
    },
    {
      "type": "Feature",
      "properties": {
        "feature_type": "station",
        "ref": "TAO10207",
        "name": "潘厝",
        "name_en": "Pan Residence",
        "line": "T320",
        "color": "#7c2d12",
        "direction": 1,
        "station_id": "7824"
      },
      "geometry": {
        "type": "Point",
        "coordinates": [
          121.34504,
          25.04682
        ]
      }
    },
    {
      "type": "Feature",
      "properties": {
        "feature_type": "station",
        "ref": "TAO10208",
        "name": "吳厝",
        "name_en": "Wu Residence",
        "line": "T320",
        "color": "#7c2d12",
        "direction": 1,
        "station_id": "7806"
      },
      "geometry": {
        "type": "Point",
        "coordinates": [
          121.34504,
          25.04682
        ]
      }
    },
    {
      "type": "Feature",
      "properties": {
        "feature_type": "station",
        "ref": "TAO10209",
        "name": "游厝",
        "name_en": "You Residence",
        "line": "T320",
        "color": "#7c2d12",
        "direction": 1,
        "station_id": "7823"
      },
      "geometry": {
        "type": "Point",
        "coordinates": [
          121.33896,
          25.04678
        ]
      }
    },
    {
      "type": "Feature",
      "properties": {
        "feature_type": "station",
        "ref": "TAO10210",
        "name": "綠園花藝",
        "name_en": "Luyuan Florist",
        "line": "T320",
        "color": "#7c2d12",
        "direction": 1,
        "station_id": "7828"
      },
      "geometry": {
        "type": "Point",
        "coordinates": [
          121.3353,
          25.04531
        ]
      }
    },
    {
      "type": "Feature",
      "properties": {
        "feature_type": "station",
        "ref": "TAO10211",
        "name": "曾厝",
        "name_en": "Zeng Residence",
        "line": "T320",
        "color": "#7c2d12",
        "direction": 1,
        "station_id": "7818"
      },
      "geometry": {
        "type": "Point",
        "coordinates": [
          121.3273,
          25.04492
        ]
      }
    },
    {
      "type": "Feature",
      "properties": {
        "feature_type": "station",
        "ref": "TAO10212",
        "name": "員林坑土地廟",
        "name_en": "Yuanlinkeng Earth God Temple",
        "line": "T320",
        "color": "#7c2d12",
        "direction": 1,
        "station_id": "7808"
      },
      "geometry": {
        "type": "Point",
        "coordinates": [
          121.32333,
          25.04573
        ]
      }
    },
    {
      "type": "Feature",
      "properties": {
        "feature_type": "station",
        "ref": "TAO8011",
        "name": "大坑社區",
        "name_en": "Dakeng Community",
        "line": "T320",
        "color": "#7c2d12",
        "direction": 1,
        "station_id": "6143"
      },
      "geometry": {
        "type": "Point",
        "coordinates": [
          121.319181,
          25.046252
        ]
      }
    },
    {
      "type": "Feature",
      "properties": {
        "feature_type": "station",
        "ref": "TAO8012",
        "name": "大坑派出所",
        "name_en": "Dakeng Police Station",
        "line": "T320",
        "color": "#7c2d12",
        "direction": 1,
        "station_id": "6145"
      },
      "geometry": {
        "type": "Point",
        "coordinates": [
          121.314868,
          25.045245
        ]
      }
    },
    {
      "type": "Feature",
      "properties": {
        "feature_type": "station",
        "ref": "TAO8013",
        "name": "慈慧慈惠堂",
        "name_en": "Cihui Cihuitang",
        "line": "T320",
        "color": "#7c2d12",
        "direction": 1,
        "station_id": "6442"
      },
      "geometry": {
        "type": "Point",
        "coordinates": [
          121.313038,
          25.046028
        ]
      }
    },
    {
      "type": "Feature",
      "properties": {
        "feature_type": "station",
        "ref": "TAO8014",
        "name": "南上路566巷口",
        "name_en": "Nanshan Rd., Ln. 566 Intersection",
        "line": "T320",
        "color": "#7c2d12",
        "direction": 1,
        "station_id": "6147"
      },
      "geometry": {
        "type": "Point",
        "coordinates": [
          121.309756,
          25.044842
        ]
      }
    },
    {
      "type": "Feature",
      "properties": {
        "feature_type": "station",
        "ref": "TAO8015",
        "name": "南上路493巷口",
        "name_en": "Nanshan Rd., Ln. 493 Intersection",
        "line": "T320",
        "color": "#7c2d12",
        "direction": 1,
        "station_id": "6149"
      },
      "geometry": {
        "type": "Point",
        "coordinates": [
          121.306789,
          25.045122
        ]
      }
    },
    {
      "type": "Feature",
      "properties": {
        "feature_type": "station",
        "ref": "TAO8016",
        "name": "南上路441號",
        "name_en": "Nanshang Rd., No 441",
        "line": "T320",
        "color": "#7c2d12",
        "direction": 1,
        "station_id": "6151"
      },
      "geometry": {
        "type": "Point",
        "coordinates": [
          121.305441,
          25.045178
        ]
      }
    },
    {
      "type": "Feature",
      "properties": {
        "feature_type": "station",
        "ref": "TAO8017",
        "name": "南上路350巷口",
        "name_en": "Nanshan Rd., Ln. 350 Intersection",
        "line": "T320",
        "color": "#7c2d12",
        "direction": 1,
        "station_id": "6153"
      },
      "geometry": {
        "type": "Point",
        "coordinates": [
          121.303289,
          25.045741
        ]
      }
    },
    {
      "type": "Feature",
      "properties": {
        "feature_type": "station",
        "ref": "TAO8018",
        "name": "南上路250巷口",
        "name_en": "Nanshan Rd., Ln. 250 Intersection",
        "line": "T320",
        "color": "#7c2d12",
        "direction": 1,
        "station_id": "6155"
      },
      "geometry": {
        "type": "Point",
        "coordinates": [
          121.301002,
          25.046436
        ]
      }
    },
    {
      "type": "Feature",
      "properties": {
        "feature_type": "station",
        "ref": "TAO8019",
        "name": "黃昏市場",
        "name_en": "Evening Market",
        "line": "T320",
        "color": "#7c2d12",
        "direction": 1,
        "station_id": "1889"
      },
      "geometry": {
        "type": "Point",
        "coordinates": [
          121.299733,
          25.046941
        ]
      }
    }
  ]
}
