{
  "type": "FeatureCollection",
  "name": "渡輪淡水－八里渡輪",
  "properties": {
    "source": "Pier-to-pier fallback geometry. © OpenStreetMap contributors, ODbL.",
    "network": "渡輪",
    "ref": "TB",
    "osm_relations": [],
    "osm_ways": []
  },
  "features": [
    {
      "type": "Feature",
      "properties": {
        "feature_type": "route",
        "ref": "TB",
        "name": "淡水－八里渡輪",
        "name_en": "Tamsui–Bali Ferry",
        "color": "#0891b2"
      },
      "geometry": {
        "type": "LineString",
        "coordinates": [
          [
            121.439,
            25.1696
          ],
          [
            121.4359,
            25.1593
          ]
        ]
      }
    },
    {
      "type": "Feature",
      "properties": {
        "feature_type": "station",
        "ref": "TB01",
        "name": "淡水渡船頭",
        "line": "淡水－八里渡輪",
        "color": "#0891b2"
      },
      "geometry": {
        "type": "Point",
        "coordinates": [
          121.439,
          25.1696
        ]
      }
    },
    {
      "type": "Feature",
      "properties": {
        "feature_type": "station",
        "ref": "TB02",
        "name": "八里渡船頭",
        "line": "淡水－八里渡輪",
        "color": "#0891b2"
      },
      "geometry": {
        "type": "Point",
        "coordinates": [
          121.4359,
          25.1593
        ]
      }
    }
  ]
}
