{
  "type": "FeatureCollection",
  "name": "F523",
  "properties": {
    "id": "new_taipei_f523",
    "name": "F523",
    "name_en": "F523",
    "ref": "F523",
    "color": "#6B8F9A",
    "city_id": "NewTaipei",
    "source": "TDX Bus Shape / StopOfRoute",
    "official_map_url": "https://ebus.gov.taipei/File/Get/ad0fc411-fc27-4c6a-b5a7-92974516cd7b?v=639248448792680783",
    "operator_id": "16240",
    "operator": "永和區公所",
    "operator_en": "Yonghe District Office"
  },
  "features": [
    {
      "type": "Feature",
      "properties": {
        "feature_type": "route",
        "ref": "F523",
        "name": "F523",
        "name_en": "F523",
        "color": "#6B8F9A",
        "direction": 0
      },
      "geometry": {
        "type": "LineString",
        "coordinates": [
          [
            121.504893111247,
            25.008991793967
          ],
          [
            121.502637612339,
            25.0072108751114
          ],
          [
            121.501051315319,
            25.0078700136399
          ],
          [
            121.500399027185,
            25.008244603989
          ],
          [
            121.49968894223775,
            25.00899447261647
          ],
          [
            121.49967159044824,
            25.009018956945706
          ],
          [
            121.49966193628404,
            25.009047145150852
          ],
          [
            121.4996609639457,
            25.009076664915046
          ],
          [
            121.4996687453967,
            25.00910533146008
          ],
          [
            121.49968470472642,
            25.009131023155078
          ],
          [
            121.49970733984209,
            25.009151617039233
          ],
          [
            121.500721383447,
            25.0098484258859
          ],
          [
            121.50267742683,
            25.0114621882138
          ],
          [
            121.50488188225044,
            25.00909741928438
          ],
          [
            121.50490495412649,
            25.00907827049934
          ],
          [
            121.50493229836084,
            25.009065380066843
          ],
          [
            121.50496235111181,
            25.009059323691595
          ],
          [
            121.50499310051227,
            25.009060506814762
          ],
          [
            121.50502248805827,
            25.009068850232726
          ],
          [
            121.50504886267473,
            25.009084034959987
          ],
          [
            121.506542699773,
            25.0102105792174
          ],
          [
            121.507984348613,
            25.0087540064774
          ],
          [
            121.509566785205,
            25.0071447401972
          ],
          [
            121.510762184057,
            25.0058826479202
          ],
          [
            121.511671547093,
            25.0049812442983
          ],
          [
            121.512505295697,
            25.0043643897226
          ],
          [
            121.511726383074,
            25.0034164047821
          ],
          [
            121.509344396027,
            25.0007555736369
          ],
          [
            121.508541507584,
            24.9998514020527
          ],
          [
            121.508057973191,
            24.9996444572918
          ],
          [
            121.506782477117,
            24.999662365973
          ],
          [
            121.50543342009918,
            24.999702578639873
          ],
          [
            121.50539751305364,
            24.99970878438768
          ],
          [
            121.5053653434097,
            24.999724662301038
          ],
          [
            121.50533998003739,
            24.999748710381237
          ],
          [
            121.505323820919,
            24.999778655000473
          ],
          [
            121.50531839381973,
            24.99981166504216
          ],
          [
            121.50532413645345,
            24.99984440674599
          ],
          [
            121.505853215546,
            25.0013298631809
          ],
          [
            121.506752629315,
            25.0023228000624
          ],
          [
            121.5072986649923,
            25.003265225491
          ],
          [
            121.50731011478493,
            25.003295036785794
          ],
          [
            121.50731164077453,
            25.003326907452074
          ],
          [
            121.50730295060153,
            25.00335780685423
          ],
          [
            121.50728479470548,
            25.003385066675687
          ],
          [
            121.50725874093801,
            25.003406332895697
          ],
          [
            121.50722725770035,
            25.00341970991269
          ],
          [
            121.506468080269,
            25.0036241642318
          ],
          [
            121.50674890937849,
            25.00416968070858
          ],
          [
            121.50675863284407,
            25.00418522320008
          ],
          [
            121.50677079985766,
            25.00419888502024
          ],
          [
            121.50678522649709,
            25.004210572222583
          ],
          [
            121.50680153332462,
            25.004219977419837
          ],
          [
            121.5068192914514,
            25.004226853244166
          ],
          [
            121.5068379052951,
            25.004231000130538
          ],
          [
            121.508004247147,
            25.004400207085
          ],
          [
            121.509553171164,
            25.0056149069181
          ],
          [
            121.510406000286,
            25.0063025070023
          ],
          [
            121.509678737713,
            25.0070596638999
          ],
          [
            121.508002257294,
            25.0087559963308
          ],
          [
            121.50654667948,
            25.0102404270194
          ],
          [
            121.504944847437,
            25.0090286062562
          ],
          [
            121.504056377863,
            25.0100175634308
          ]
        ]
      }
    },
    {
      "type": "Feature",
      "properties": {
        "feature_type": "station",
        "ref": "NWT193894",
        "name": "永平國小",
        "name_en": "Yongping Elementary School",
        "line": "F523",
        "color": "#6B8F9A",
        "direction": 0,
        "station_id": "72336"
      },
      "geometry": {
        "type": "Point",
        "coordinates": [
          121.50466780000001,
          25.008923
        ]
      }
    },
    {
      "type": "Feature",
      "properties": {
        "feature_type": "station",
        "ref": "NWT159965",
        "name": "莊仁橋",
        "name_en": "Zhuangren Bridge",
        "line": "F523",
        "color": "#6B8F9A",
        "direction": 0,
        "station_id": "9633"
      },
      "geometry": {
        "type": "Point",
        "coordinates": [
          121.5033866,
          25.00793778
        ]
      }
    },
    {
      "type": "Feature",
      "properties": {
        "feature_type": "station",
        "ref": "NWT159966",
        "name": "保順里",
        "name_en": "Baoshun Village",
        "line": "F523",
        "color": "#6B8F9A",
        "direction": 0,
        "station_id": "1165603807"
      },
      "geometry": {
        "type": "Point",
        "coordinates": [
          121.501063,
          25.007924
        ]
      }
    },
    {
      "type": "Feature",
      "properties": {
        "feature_type": "station",
        "ref": "NWT159967",
        "name": "環河西路",
        "name_en": "Huanhe W. Rd.",
        "line": "F523",
        "color": "#6B8F9A",
        "direction": 0,
        "station_id": "72342"
      },
      "geometry": {
        "type": "Point",
        "coordinates": [
          121.500233,
          25.009456
        ]
      }
    },
    {
      "type": "Feature",
      "properties": {
        "feature_type": "station",
        "ref": "NWT159968",
        "name": "保順路口",
        "name_en": "Baoshun Rd. Entrance",
        "line": "F523",
        "color": "#6B8F9A",
        "direction": 0,
        "station_id": "72340"
      },
      "geometry": {
        "type": "Point",
        "coordinates": [
          121.502094,
          25.010941
        ]
      }
    },
    {
      "type": "Feature",
      "properties": {
        "feature_type": "station",
        "ref": "NWT159969",
        "name": "泰隆柏園",
        "name_en": "Tailongboyuan",
        "line": "F523",
        "color": "#6B8F9A",
        "direction": 0,
        "station_id": "1165604625"
      },
      "geometry": {
        "type": "Point",
        "coordinates": [
          121.503239,
          25.010779
        ]
      }
    },
    {
      "type": "Feature",
      "properties": {
        "feature_type": "station",
        "ref": "NWT159970",
        "name": "仁愛公園",
        "name_en": "Renai Park",
        "line": "F523",
        "color": "#6B8F9A",
        "direction": 0,
        "station_id": "2999"
      },
      "geometry": {
        "type": "Point",
        "coordinates": [
          121.505873,
          25.009682
        ]
      }
    },
    {
      "type": "Feature",
      "properties": {
        "feature_type": "station",
        "ref": "NWT159971",
        "name": "永貞社區",
        "name_en": "Yongzhen Community",
        "line": "F523",
        "color": "#6B8F9A",
        "direction": 0,
        "station_id": "72352"
      },
      "geometry": {
        "type": "Point",
        "coordinates": [
          121.5072471,
          25.009453
        ]
      }
    },
    {
      "type": "Feature",
      "properties": {
        "feature_type": "station",
        "ref": "NWT159972",
        "name": "永貞路口",
        "name_en": "Yongzhen Rd. Entrance",
        "line": "F523",
        "color": "#6B8F9A",
        "direction": 0,
        "station_id": "72353"
      },
      "geometry": {
        "type": "Point",
        "coordinates": [
          121.5086225,
          25.007934
        ]
      }
    },
    {
      "type": "Feature",
      "properties": {
        "feature_type": "station",
        "ref": "NWT159973",
        "name": "保平路口",
        "name_en": "Baoping Rd. Entrance",
        "line": "F523",
        "color": "#6B8F9A",
        "direction": 0,
        "station_id": "72354"
      },
      "geometry": {
        "type": "Point",
        "coordinates": [
          121.510644,
          25.005904
        ]
      }
    },
    {
      "type": "Feature",
      "properties": {
        "feature_type": "station",
        "ref": "NWT159974",
        "name": "中和路口",
        "name_en": "Zhonghe Rd. Entrance",
        "line": "F523",
        "color": "#6B8F9A",
        "direction": 0,
        "station_id": "1165604576"
      },
      "geometry": {
        "type": "Point",
        "coordinates": [
          121.511926,
          25.003795
        ]
      }
    },
    {
      "type": "Feature",
      "properties": {
        "feature_type": "station",
        "ref": "NWT159975",
        "name": "捷運永安市場站",
        "name_en": "MRT Yongan Market Sta.",
        "line": "F523",
        "color": "#6B8F9A",
        "direction": 0,
        "station_id": "9611"
      },
      "geometry": {
        "type": "Point",
        "coordinates": [
          121.510832,
          25.002521
        ]
      }
    },
    {
      "type": "Feature",
      "properties": {
        "feature_type": "station",
        "ref": "NWT159976",
        "name": "雙和里",
        "name_en": "Shuanghe Village",
        "line": "F523",
        "color": "#6B8F9A",
        "direction": 0,
        "station_id": "3171"
      },
      "geometry": {
        "type": "Point",
        "coordinates": [
          121.5068521,
          24.99973099
        ]
      }
    },
    {
      "type": "Feature",
      "properties": {
        "feature_type": "station",
        "ref": "NWT159977",
        "name": "南山高中",
        "name_en": "Nanshan High School",
        "line": "F523",
        "color": "#6B8F9A",
        "direction": 0,
        "station_id": "3110"
      },
      "geometry": {
        "type": "Point",
        "coordinates": [
          121.505547,
          24.999775
        ]
      }
    },
    {
      "type": "Feature",
      "properties": {
        "feature_type": "station",
        "ref": "NWT159978",
        "name": "水源路口",
        "name_en": "Shuiyuan Rd. Entrance",
        "line": "F523",
        "color": "#6B8F9A",
        "direction": 0,
        "station_id": "72470"
      },
      "geometry": {
        "type": "Point",
        "coordinates": [
          121.5066055,
          25.003781
        ]
      }
    },
    {
      "type": "Feature",
      "properties": {
        "feature_type": "station",
        "ref": "NWT159979",
        "name": "教會",
        "name_en": "Church",
        "line": "F523",
        "color": "#6B8F9A",
        "direction": 0,
        "station_id": "72347"
      },
      "geometry": {
        "type": "Point",
        "coordinates": [
          121.5086976,
          25.004873
        ]
      }
    },
    {
      "type": "Feature",
      "properties": {
        "feature_type": "station",
        "ref": "NWT159980",
        "name": "保平路口",
        "name_en": "Baoping Rd. Entrance",
        "line": "F523",
        "color": "#6B8F9A",
        "direction": 0,
        "station_id": "1165603824"
      },
      "geometry": {
        "type": "Point",
        "coordinates": [
          121.510035,
          25.006778
        ]
      }
    },
    {
      "type": "Feature",
      "properties": {
        "feature_type": "station",
        "ref": "NWT159981",
        "name": "中山路口",
        "name_en": "Zhongshan Rd. Entrance",
        "line": "F523",
        "color": "#6B8F9A",
        "direction": 0,
        "station_id": "72348"
      },
      "geometry": {
        "type": "Point",
        "coordinates": [
          121.508125,
          25.008724
        ]
      }
    },
    {
      "type": "Feature",
      "properties": {
        "feature_type": "station",
        "ref": "NWT159982",
        "name": "仁愛公園",
        "name_en": "Renai Park",
        "line": "F523",
        "color": "#6B8F9A",
        "direction": 0,
        "station_id": "9634"
      },
      "geometry": {
        "type": "Point",
        "coordinates": [
          121.50588,
          25.00985
        ]
      }
    },
    {
      "type": "Feature",
      "properties": {
        "feature_type": "station",
        "ref": "NWT159983",
        "name": "保順保生路口",
        "name_en": "Baoshun & Baosheng Intersection",
        "line": "F523",
        "color": "#6B8F9A",
        "direction": 0,
        "station_id": "1165603802"
      },
      "geometry": {
        "type": "Point",
        "coordinates": [
          121.504299,
          25.009879
        ]
      }
    }
  ]
}
