{
  "type": "FeatureCollection",
  "name": "F211",
  "properties": {
    "id": "new_taipei_f211",
    "name": "F211",
    "name_en": "F211",
    "ref": "F211",
    "color": "#15803d",
    "city_id": "NewTaipei",
    "source": "TDX Bus Shape / StopOfRoute",
    "official_map_url": "https://ebus.gov.taipei/File/Get/595d7669-9887-4a2c-9c3e-efd605cf49c1?v=639234358791913236",
    "operator_id": "16233",
    "operator": "泰山區公所",
    "operator_en": "Taishan District Office"
  },
  "features": [
    {
      "type": "Feature",
      "properties": {
        "feature_type": "route",
        "ref": "F211",
        "name": "F211",
        "name_en": "F211",
        "color": "#15803d",
        "direction": 0
      },
      "geometry": {
        "type": "LineString",
        "coordinates": [
          [
            121.433896890283,
            25.0563455931429
          ],
          [
            121.433974155937,
            25.0562115855242
          ],
          [
            121.434003130558,
            25.0562236582827
          ],
          [
            121.433769491341,
            25.0566703614035
          ],
          [
            121.431890844702,
            25.055896583704
          ],
          [
            121.431799159208,
            25.056062370173
          ],
          [
            121.4317136344,
            25.0561700491853
          ],
          [
            121.431628109591,
            25.0564313673703
          ],
          [
            121.431453798435,
            25.0568492783348
          ],
          [
            121.431281299245,
            25.0568965517556
          ],
          [
            121.430708355507,
            25.0568374599768
          ],
          [
            121.430657620452,
            25.0555613988905
          ],
          [
            121.430527121187,
            25.0552163598524
          ],
          [
            121.430517011868,
            25.0550551728801
          ],
          [
            121.430601087104,
            25.0547922102947
          ],
          [
            121.430494543486,
            25.0544422492249
          ],
          [
            121.430361545161,
            25.0542347671432
          ],
          [
            121.430059671579,
            25.053731162022
          ],
          [
            121.429318577371,
            25.052878245891
          ],
          [
            121.428771363554,
            25.0523654428046
          ],
          [
            121.428486884848,
            25.0520932820365
          ],
          [
            121.428288293344,
            25.0519590070803
          ],
          [
            121.428100936031,
            25.0517446264663
          ],
          [
            121.427799424842,
            25.0513542755035
          ],
          [
            121.427735643628,
            25.051240026206
          ],
          [
            121.427600833337,
            25.0507731788324
          ],
          [
            121.427558433326,
            25.0504563650803
          ],
          [
            121.427499126826,
            25.049665128836
          ],
          [
            121.427475586161,
            25.0492646693795
          ],
          [
            121.42730442227,
            25.0486426935507
          ],
          [
            121.427098556284,
            25.0481378544429
          ],
          [
            121.426558952726,
            25.046490378578
          ],
          [
            121.426386091143,
            25.0461824182982
          ],
          [
            121.425918966236,
            25.0454095593496
          ],
          [
            121.425106480556,
            25.0440644317118
          ],
          [
            121.424847006985,
            25.0436665048667
          ],
          [
            121.424786124918,
            25.0434928218703
          ],
          [
            121.42475858303,
            25.0432666067859
          ],
          [
            121.424906439479,
            25.0419464085427
          ],
          [
            121.424981817276,
            25.0412418154518
          ],
          [
            121.425003560872,
            25.0408891890578
          ],
          [
            121.42497891813,
            25.040619629464
          ],
          [
            121.424881796738,
            25.0401412500172
          ],
          [
            121.424724518064,
            25.0398237521271
          ],
          [
            121.42390369734,
            25.0383488700758
          ],
          [
            121.423297413422,
            25.0373970167
          ],
          [
            121.42268496882,
            25.036422500314
          ],
          [
            121.422456661068,
            25.0360409658465
          ],
          [
            121.421926117342,
            25.03525096902
          ],
          [
            121.421491970221,
            25.034595917918
          ],
          [
            121.421142260729,
            25.0340334577145
          ],
          [
            121.420875539292,
            25.033562604633
          ],
          [
            121.422142103722,
            25.0329430065066
          ],
          [
            121.421535819805,
            25.0325575209845
          ],
          [
            121.4210255701,
            25.0323447482185
          ],
          [
            121.420932435034,
            25.0331190029009
          ],
          [
            121.420929535888,
            25.0334529356642
          ],
          [
            121.420956715382,
            25.0335481572296
          ],
          [
            121.421217638526,
            25.0340255773431
          ],
          [
            121.42155865058,
            25.0345591430156
          ],
          [
            121.422529502113,
            25.0360265187349
          ],
          [
            121.422789338077,
            25.0364540211808
          ],
          [
            121.423968928126,
            25.0383212897438
          ],
          [
            121.424198323057,
            25.038748455856
          ],
          [
            121.424875636052,
            25.0399521303802
          ],
          [
            121.424948477097,
            25.0401031634471
          ],
          [
            121.42504124977,
            25.0406068245477
          ],
          [
            121.425077489096,
            25.0408497893978
          ],
          [
            121.425065892512,
            25.0411538231132
          ],
          [
            121.424987615568,
            25.0419162023982
          ],
          [
            121.42490209076,
            25.0425856607476
          ],
          [
            121.424833960828,
            25.0432731732674
          ],
          [
            121.424864401861,
            25.043489866959
          ],
          [
            121.42493108222,
            25.0436609233754
          ],
          [
            121.425180771174,
            25.0440450607154
          ],
          [
            121.425765311496,
            25.0450099952726
          ],
          [
            121.426317961211,
            25.0459145119246
          ],
          [
            121.426627082658,
            25.0464601735528
          ],
          [
            121.426892716915,
            25.0472622457739
          ],
          [
            121.427189879385,
            25.0481772517613
          ],
          [
            121.427369512763,
            25.0486475150688
          ],
          [
            121.427552730449,
            25.0492863662107
          ],
          [
            121.427580176922,
            25.0496677743409
          ],
          [
            121.427613517101,
            25.0502777671224
          ],
          [
            121.427668963269,
            25.0507626731046
          ],
          [
            121.427809571853,
            25.0512071959285
          ],
          [
            121.427869004347,
            25.0513227584666
          ],
          [
            121.427977722323,
            25.0514767322472
          ],
          [
            121.42814877194,
            25.0516960378524
          ],
          [
            121.4283390284,
            25.0518972865131
          ],
          [
            121.428560813072,
            25.0520657047959
          ],
          [
            121.428861237082,
            25.0523562504121
          ],
          [
            121.429386707303,
            25.0528375368895
          ],
          [
            121.430090475006,
            25.0536579519787
          ],
          [
            121.430535493924,
            25.0543723225499
          ],
          [
            121.430602536677,
            25.0545108626841
          ],
          [
            121.430686611912,
            25.0547751390462
          ],
          [
            121.430596738385,
            25.0550617387302
          ],
          [
            121.430592389665,
            25.0551618679006
          ],
          [
            121.430727199957,
            25.0555522067378
          ],
          [
            121.430783733305,
            25.0568059443497
          ],
          [
            121.431282748818,
            25.0568571572395
          ],
          [
            121.431412123211,
            25.0568312225095
          ],
          [
            121.431568677097,
            25.0564671508472
          ],
          [
            121.431668697636,
            25.0561608570782
          ],
          [
            121.43177596604,
            25.056033152376
          ],
          [
            121.431879248118,
            25.0558466835744
          ],
          [
            121.433553142567,
            25.0565429855207
          ]
        ]
      }
    },
    {
      "type": "Feature",
      "properties": {
        "feature_type": "station",
        "ref": "NWT193239",
        "name": "泰山公有市場",
        "name_en": "Taishan Market",
        "line": "F211",
        "color": "#15803d",
        "direction": 0
      },
      "geometry": {
        "type": "Point",
        "coordinates": [
          121.433898,
          25.05631
        ]
      }
    },
    {
      "type": "Feature",
      "properties": {
        "feature_type": "station",
        "ref": "NWT158203",
        "name": "義學里",
        "name_en": "Yixue Village",
        "line": "F211",
        "color": "#15803d",
        "direction": 0
      },
      "geometry": {
        "type": "Point",
        "coordinates": [
          121.4278259,
          25.05149832
        ]
      }
    },
    {
      "type": "Feature",
      "properties": {
        "feature_type": "station",
        "ref": "NWT158204",
        "name": "文程路口",
        "name_en": "Wencheng Rd. Entrance",
        "line": "F211",
        "color": "#15803d",
        "direction": 0
      },
      "geometry": {
        "type": "Point",
        "coordinates": [
          121.4274415,
          25.04957047
        ]
      }
    },
    {
      "type": "Feature",
      "properties": {
        "feature_type": "station",
        "ref": "NWT158205",
        "name": "明志里",
        "name_en": "Mingzhi Village",
        "line": "F211",
        "color": "#15803d",
        "direction": 0
      },
      "geometry": {
        "type": "Point",
        "coordinates": [
          121.42698,
          25.048028
        ]
      }
    },
    {
      "type": "Feature",
      "properties": {
        "feature_type": "station",
        "ref": "NWT158206",
        "name": "明志國小",
        "name_en": "Mingzhi Elementary School",
        "line": "F211",
        "color": "#15803d",
        "direction": 0
      },
      "geometry": {
        "type": "Point",
        "coordinates": [
          121.4259089,
          25.0454414
        ]
      }
    },
    {
      "type": "Feature",
      "properties": {
        "feature_type": "station",
        "ref": "NWT158207",
        "name": "泰山巖",
        "name_en": "Taishanyan",
        "line": "F211",
        "color": "#15803d",
        "direction": 0
      },
      "geometry": {
        "type": "Point",
        "coordinates": [
          121.4247892,
          25.04275923
        ]
      }
    },
    {
      "type": "Feature",
      "properties": {
        "feature_type": "station",
        "ref": "NWT158208",
        "name": "明志科技大學",
        "name_en": "Mingchi U. of Technology",
        "line": "F211",
        "color": "#15803d",
        "direction": 0
      },
      "geometry": {
        "type": "Point",
        "coordinates": [
          121.4241632,
          25.03898947
        ]
      }
    },
    {
      "type": "Feature",
      "properties": {
        "feature_type": "station",
        "ref": "NWT158209",
        "name": "宏泰新村",
        "name_en": "Hongtai New Village",
        "line": "F211",
        "color": "#15803d",
        "direction": 0
      },
      "geometry": {
        "type": "Point",
        "coordinates": [
          121.423173,
          25.037323
        ]
      }
    },
    {
      "type": "Feature",
      "properties": {
        "feature_type": "station",
        "ref": "NWT158210",
        "name": "下坡角",
        "name_en": "Xiapojiao",
        "line": "F211",
        "color": "#15803d",
        "direction": 0
      },
      "geometry": {
        "type": "Point",
        "coordinates": [
          121.42184,
          25.03513
        ]
      }
    },
    {
      "type": "Feature",
      "properties": {
        "feature_type": "station",
        "ref": "NWT191668",
        "name": "捷運泰山貴和站(貴陽街)",
        "name_en": "MRT Taishan Guihe Station",
        "line": "F211",
        "color": "#15803d",
        "direction": 0
      },
      "geometry": {
        "type": "Point",
        "coordinates": [
          121.421777,
          25.033095
        ]
      }
    },
    {
      "type": "Feature",
      "properties": {
        "feature_type": "station",
        "ref": "NWT191669",
        "name": "捷運泰山貴和站(明志路)",
        "name_en": "MRT Taishan Guihe Station(Mingzhi Rd.)",
        "line": "F211",
        "color": "#15803d",
        "direction": 0
      },
      "geometry": {
        "type": "Point",
        "coordinates": [
          121.421012,
          25.032992
        ]
      }
    },
    {
      "type": "Feature",
      "properties": {
        "feature_type": "station",
        "ref": "NWT158212",
        "name": "下坡角",
        "name_en": "Xiapojiao",
        "line": "F211",
        "color": "#15803d",
        "direction": 0
      },
      "geometry": {
        "type": "Point",
        "coordinates": [
          121.421841,
          25.03488
        ]
      }
    },
    {
      "type": "Feature",
      "properties": {
        "feature_type": "station",
        "ref": "NWT158213",
        "name": "宏泰新村",
        "name_en": "Hongtai New Village",
        "line": "F211",
        "color": "#15803d",
        "direction": 0
      },
      "geometry": {
        "type": "Point",
        "coordinates": [
          121.422989,
          25.036664
        ]
      }
    },
    {
      "type": "Feature",
      "properties": {
        "feature_type": "station",
        "ref": "NWT158214",
        "name": "明志科技大學",
        "name_en": "Mingchi U. of Technology",
        "line": "F211",
        "color": "#15803d",
        "direction": 0
      },
      "geometry": {
        "type": "Point",
        "coordinates": [
          121.424821,
          25.039702
        ]
      }
    },
    {
      "type": "Feature",
      "properties": {
        "feature_type": "station",
        "ref": "NWT158215",
        "name": "泰山巖",
        "name_en": "Taishanyan",
        "line": "F211",
        "color": "#15803d",
        "direction": 0
      },
      "geometry": {
        "type": "Point",
        "coordinates": [
          121.42495,
          25.042955
        ]
      }
    },
    {
      "type": "Feature",
      "properties": {
        "feature_type": "station",
        "ref": "NWT158216",
        "name": "明志國小",
        "name_en": "Mingzhi Elementary School",
        "line": "F211",
        "color": "#15803d",
        "direction": 0
      },
      "geometry": {
        "type": "Point",
        "coordinates": [
          121.426046,
          25.045341
        ]
      }
    },
    {
      "type": "Feature",
      "properties": {
        "feature_type": "station",
        "ref": "NWT158217",
        "name": "明志里",
        "name_en": "Mingzhi Village",
        "line": "F211",
        "color": "#15803d",
        "direction": 0
      },
      "geometry": {
        "type": "Point",
        "coordinates": [
          121.427172,
          25.04793
        ]
      }
    },
    {
      "type": "Feature",
      "properties": {
        "feature_type": "station",
        "ref": "NWT158218",
        "name": "文程路口",
        "name_en": "Wencheng Rd. Entrance",
        "line": "F211",
        "color": "#15803d",
        "direction": 0
      },
      "geometry": {
        "type": "Point",
        "coordinates": [
          121.42758,
          25.04923
        ]
      }
    },
    {
      "type": "Feature",
      "properties": {
        "feature_type": "station",
        "ref": "NWT158219",
        "name": "義學里",
        "name_en": "Yixue Village",
        "line": "F211",
        "color": "#15803d",
        "direction": 0
      },
      "geometry": {
        "type": "Point",
        "coordinates": [
          121.42809,
          25.051508
        ]
      }
    },
    {
      "type": "Feature",
      "properties": {
        "feature_type": "station",
        "ref": "NWT158220",
        "name": "同榮里",
        "name_en": "Tongrong Village",
        "line": "F211",
        "color": "#15803d",
        "direction": 0
      },
      "geometry": {
        "type": "Point",
        "coordinates": [
          121.43054,
          25.054264
        ]
      }
    },
    {
      "type": "Feature",
      "properties": {
        "feature_type": "station",
        "ref": "NWT158221",
        "name": "泰山高中",
        "name_en": "Taishan Senior High School",
        "line": "F211",
        "color": "#15803d",
        "direction": 0
      },
      "geometry": {
        "type": "Point",
        "coordinates": [
          121.4308068,
          25.05674382
        ]
      }
    },
    {
      "type": "Feature",
      "properties": {
        "feature_type": "station",
        "ref": "NWT158222",
        "name": "泰山公有市場一",
        "name_en": "Taishan Public Market 1",
        "line": "F211",
        "color": "#15803d",
        "direction": 0
      },
      "geometry": {
        "type": "Point",
        "coordinates": [
          121.433432,
          25.056432
        ]
      }
    }
  ]
}
