{
  "type": "FeatureCollection",
  "name": "F902",
  "properties": {
    "id": "new_taipei_f902",
    "name": "F902",
    "name_en": "F902",
    "ref": "F902",
    "color": "#166534",
    "city_id": "NewTaipei",
    "source": "TDX Bus Shape / StopOfRoute",
    "official_map_url": "https://ebus.gov.taipei/File/Get/d999604e-e67d-4d4b-ba03-470318bbd731?v=639248448806925495",
    "operator_id": "16254",
    "operator": "汐止區公所",
    "operator_en": "Xizhi District Office"
  },
  "features": [
    {
      "type": "Feature",
      "properties": {
        "feature_type": "route",
        "ref": "F902",
        "name": "F902",
        "name_en": "F902",
        "color": "#166534",
        "direction": 0
      },
      "geometry": {
        "type": "LineString",
        "coordinates": [
          [
            121.661858264875,
            25.0690571900499
          ],
          [
            121.66255655475383,
            25.06959433918321
          ],
          [
            121.66259379171423,
            25.06961393586008
          ],
          [
            121.6626358192813,
            25.069620193263525
          ],
          [
            121.66267757130801,
            25.06961255366562
          ],
          [
            121.66271370205354,
            25.06959199520595
          ],
          [
            121.66273958550059,
            25.069561150096757
          ],
          [
            121.66275191856155,
            25.06952388244878
          ],
          [
            121.662849875562,
            25.0687426889993
          ],
          [
            121.66323704530419,
            25.067965935373916
          ],
          [
            121.66325877928992,
            25.06793624607903
          ],
          [
            121.66328961813235,
            25.067914727718133
          ],
          [
            121.66332640881748,
            25.067903409534868
          ],
          [
            121.66336523527998,
            25.06790349625661
          ],
          [
            121.6634019647627,
            25.067914978652535
          ],
          [
            121.66343297111122,
            25.067936913786177
          ],
          [
            121.663759374365,
            25.0682562857799
          ],
          [
            121.664508204881,
            25.0676835989384
          ],
          [
            121.66521485721466,
            25.06713063012645
          ],
          [
            121.6652311263691,
            25.06711496669142
          ],
          [
            121.66524386104788,
            25.06709633891318
          ],
          [
            121.6652522269391,
            25.06707575489305
          ],
          [
            121.66525588192013,
            25.067054056413266
          ],
          [
            121.66525467652079,
            25.067032130831823
          ],
          [
            121.66524875385154,
            25.06701110704688
          ],
          [
            121.664778564616,
            25.0658509090349
          ],
          [
            121.664286001664,
            25.0652430171683
          ],
          [
            121.66384462029,
            25.0647063571296
          ],
          [
            121.663420897898,
            25.0642406385833
          ],
          [
            121.662401707647,
            25.0634430250568
          ],
          [
            121.662258711459,
            25.0633552661928
          ],
          [
            121.661887724864,
            25.0631299343248
          ],
          [
            121.661624465389,
            25.0630387337211
          ],
          [
            121.660783288688,
            25.0629020895178
          ],
          [
            121.65997538953502,
            25.062845461691005
          ],
          [
            121.65995265818535,
            25.062845843158787
          ],
          [
            121.65993048241907,
            25.062850143603313
          ],
          [
            121.65990960310701,
            25.06285820243667
          ],
          [
            121.6598907780568,
            25.062869727166202
          ],
          [
            121.65987469051731,
            25.062884299505736
          ],
          [
            121.65986175501608,
            25.062901672693748
          ],
          [
            121.658860240908,
            25.0645628180353
          ],
          [
            121.656895196975,
            25.0636693028431
          ],
          [
            121.653669218696,
            25.0623392481414
          ],
          [
            121.654272010003,
            25.0609762865148
          ],
          [
            121.654315066525,
            25.0608159380881
          ],
          [
            121.65426755588,
            25.0609866794684
          ],
          [
            121.653673301642,
            25.0623407328491
          ],
          [
            121.65677237318484,
            25.063604217970997
          ],
          [
            121.65680301551843,
            25.06361250818062
          ],
          [
            121.65683466091001,
            25.063613092425072
          ],
          [
            121.65686535578686,
            25.063606046039514
          ],
          [
            121.65689292869597,
            25.06359186750763
          ],
          [
            121.65691542904216,
            25.063571559863796
          ],
          [
            121.65693137674954,
            25.063546311784414
          ],
          [
            121.6574173208,
            25.0624704049696
          ],
          [
            121.65773723362322,
            25.061744712554034
          ],
          [
            121.65774495193385,
            25.061716674416054
          ],
          [
            121.65774423994468,
            25.0616875119509
          ],
          [
            121.65773504172971,
            25.06165957519968
          ],
          [
            121.65771802140475,
            25.061634881210104
          ],
          [
            121.65769440784595,
            25.061615212900843
          ],
          [
            121.65766615229407,
            25.061602068991302
          ],
          [
            121.657179414454,
            25.0614474076814
          ],
          [
            121.656453460232,
            25.0613053436062
          ],
          [
            121.6543988357898,
            25.0608435428552
          ],
          [
            121.65437619578312,
            25.060836131971016
          ],
          [
            121.65435549653861,
            25.060824611680587
          ],
          [
            121.6543377867582,
            25.060809502988924
          ],
          [
            121.65432380171444,
            25.0607914331769
          ],
          [
            121.65431412203671,
            25.060771152464806
          ],
          [
            121.65430914052851,
            25.06074942439957
          ],
          [
            121.65427012393,
            25.0604105266353
          ],
          [
            121.654031936787,
            25.0595242197383
          ],
          [
            121.654039458486,
            25.0593286555573
          ],
          [
            121.654257587765,
            25.0583100921148
          ],
          [
            121.654376681337,
            25.0577653957262
          ],
          [
            121.654492014059,
            25.0576525702372
          ],
          [
            121.655043605338,
            25.0571316925629
          ],
          [
            121.655222872504,
            25.056917950942
          ],
          [
            121.655429719234,
            25.056719879528
          ],
          [
            121.655567617054,
            25.0566073674431
          ],
          [
            121.655975042431,
            25.0564020877339
          ],
          [
            121.655689217859,
            25.0560476276559
          ],
          [
            121.655671667227,
            25.055907536007
          ],
          [
            121.655654116595,
            25.0551788713905
          ],
          [
            121.655537530257,
            25.0543057274671
          ],
          [
            121.655563856204,
            25.0543082347002
          ],
          [
            121.655620268949,
            25.0547140930565
          ],
          [
            121.655670413611,
            25.0551763641574
          ],
          [
            121.65570872820193,
            25.0563571151235
          ],
          [
            121.65571664645206,
            25.05639298853829
          ],
          [
            121.65573716436556,
            25.05642440657675
          ],
          [
            121.65576795409038,
            25.056447826066332
          ],
          [
            121.65580552129646,
            25.05646058912598
          ],
          [
            121.65584560247645,
            25.056461247274306
          ],
          [
            121.65588395572875,
            25.05644957615979
          ],
          [
            121.656500307763,
            25.0561504242126
          ],
          [
            121.656610626019,
            25.0560689391372
          ],
          [
            121.65714585141613,
            25.054967701252288
          ],
          [
            121.65716869397326,
            25.05493645617389
          ],
          [
            121.65720156312078,
            25.05491430760909
          ],
          [
            121.65724070750124,
            25.054903609471687
          ],
          [
            121.65728151097518,
            25.054905623350034
          ],
          [
            121.65731916175285,
            25.054920111755557
          ],
          [
            121.65734946461886,
            25.054945658888325
          ],
          [
            121.65799917175,
            25.0557179431355
          ],
          [
            121.658094334288,
            25.0557899947718
          ],
          [
            121.658177261643,
            25.0558063083498
          ],
          [
            121.658171823784,
            25.0558239813926
          ],
          [
            121.65807802071,
            25.0558035894201
          ],
          [
            121.65799917175,
            25.0557369756432
          ],
          [
            121.6576647434,
            25.055344090306
          ],
          [
            121.65723625332917,
            25.055050968647407
          ],
          [
            121.65721687065857,
            25.055034162290823
          ],
          [
            121.65720190840389,
            25.05501350492807
          ],
          [
            121.65719246609447,
            25.054990291898875
          ],
          [
            121.65718903492026,
            25.05496573074766
          ],
          [
            121.65719179337137,
            25.05494109914832
          ],
          [
            121.65720045884159,
            25.054917945594653
          ],
          [
            121.657529526946,
            25.0542884902396
          ],
          [
            121.657687482631,
            25.0538503512573
          ],
          [
            121.657743895375,
            25.0535852113581
          ],
          [
            121.657849199165,
            25.052827713561
          ],
          [
            121.658234063323,
            25.051972014432
          ],
          [
            121.658684107784,
            25.0512268452335
          ],
          [
            121.658838302619,
            25.0508726985596
          ],
          [
            121.659105322943,
            25.050526073585
          ],
          [
            121.659154213988,
            25.0503330166371
          ],
          [
            121.659144185056,
            25.0497908274816
          ],
          [
            121.659173018236,
            25.0497958419478
          ],
          [
            121.659162989304,
            25.049918382965
          ],
          [
            121.659175525469,
            25.050328002171
          ],
          [
            121.659132902507,
            25.050528267414
          ],
          [
            121.659022584251,
            25.0506771343787
          ],
          [
            121.658858360484,
            25.0508764594092
          ],
          [
            121.658705419265,
            25.0512321731038
          ],
          [
            121.658265399858,
            25.051976194523
          ],
          [
            121.658123741188,
            25.0522576314373
          ],
          [
            121.65786925703,
            25.0528223856907
          ],
          [
            121.657830394917,
            25.0531129113249
          ],
          [
            121.657790279188,
            25.0533605005925
          ],
          [
            121.657707540496,
            25.0538766772047
          ],
          [
            121.657545823961,
            25.0542922510893
          ],
          [
            121.657247463224,
            25.0548758095908
          ],
          [
            121.657006768847,
            25.0553064268739
          ],
          [
            121.656628176651,
            25.0560667453082
          ],
          [
            121.65649780053,
            25.0561707954814
          ],
          [
            121.655985071363,
            25.0564196383655
          ],
          [
            121.655598957468,
            25.0566076808472
          ],
          [
            121.655449777099,
            25.0567277146314
          ],
          [
            121.655245437602,
            25.0569267262578
          ],
          [
            121.655014772158,
            25.0571771361626
          ],
          [
            121.654433094081,
            25.0577368759498
          ],
          [
            121.654400500051,
            25.0577794989123
          ],
          [
            121.654156044825,
            25.058876726793
          ],
          [
            121.65406703805,
            25.0593270885367
          ],
          [
            121.65406703805,
            25.0595076093191
          ],
          [
            121.654298957111,
            25.0604055121692
          ],
          [
            121.654355369855,
            25.0608132509504
          ],
          [
            121.65613299811599,
            25.061217542286
          ],
          [
            121.65760567704861,
            25.061524870565044
          ],
          [
            121.65763398818726,
            25.06153440605519
          ],
          [
            121.65765889475676,
            25.061550243588815
          ],
          [
            121.65767859767989,
            25.06157131502624
          ],
          [
            121.65769181450835,
            25.06159624884368
          ],
          [
            121.65769768496891,
            25.06162342211799
          ],
          [
            121.65769585573818,
            25.061650928133457
          ],
          [
            121.657602236706,
            25.0620963274838
          ],
          [
            121.657381974715,
            25.0626151879745
          ],
          [
            121.6569719963501,
            25.06343647995775
          ],
          [
            121.6569632188816,
            25.06346248116952
          ],
          [
            121.6569618290155,
            25.063489942898897
          ],
          [
            121.65696804580806,
            25.06351684256722
          ],
          [
            121.65698147058035,
            25.063541455115853
          ],
          [
            121.65700124241023,
            25.063562202157684
          ],
          [
            121.65702579051201,
            25.06357761084684
          ],
          [
            121.65889596898,
            25.0644531265877
          ],
          [
            121.65976745310375,
            25.062969028021577
          ],
          [
            121.65977818217397,
            25.062953829005227
          ],
          [
            121.65979127312377,
            25.062940681087
          ],
          [
            121.65980653911319,
            25.062929656499357
          ],
          [
            121.65982357147257,
            25.062921050369894
          ],
          [
            121.65984191424657,
            25.062915093084225
          ],
          [
            121.65986099638853,
            25.06291195119344
          ],
          [
            121.660545728353,
            25.0628516314519
          ],
          [
            121.661408216535,
            25.0629644569409
          ],
          [
            121.661633867513,
            25.0630095871366
          ],
          [
            121.661917184852,
            25.0631199053925
          ],
          [
            121.662258168553,
            25.0633079478742
          ],
          [
            121.66242615317,
            25.0634101176226
          ],
          [
            121.663446597037,
            25.0642092981698
          ],
          [
            121.663885362828,
            25.064700089047
          ],
          [
            121.664818053537,
            25.065830224362
          ],
          [
            121.66529400503421,
            25.06703195841409
          ],
          [
            121.66529975919883,
            25.0670530293664
          ],
          [
            121.66530078556063,
            25.06707496626423
          ],
          [
            121.6652969518851,
            25.067096642850274
          ],
          [
            121.66528841500345,
            25.067117172360447
          ],
          [
            121.66527552414968,
            25.06713571495621
          ],
          [
            121.66525912145225,
            25.06715126848874
          ],
          [
            121.663762508406,
            25.0683048634211
          ],
          [
            121.6634533446997,
            25.068009013925664
          ],
          [
            121.66342300089185,
            25.067987841835127
          ],
          [
            121.66338727810232,
            25.067976595809952
          ],
          [
            121.66334949116484,
            25.067976133165434
          ],
          [
            121.66331345035694,
            25.067986500552717
          ],
          [
            121.66328278988365,
            25.068006652567618
          ],
          [
            121.66326045033907,
            25.068034831164674
          ],
          [
            121.662884976825,
            25.0687113485857
          ],
          [
            121.66286491896,
            25.0687828047287
          ],
          [
            121.66283232493,
            25.0690683158967
          ]
        ]
      }
    },
    {
      "type": "Feature",
      "properties": {
        "feature_type": "route",
        "ref": "F902",
        "name": "F902",
        "name_en": "F902",
        "color": "#166534",
        "direction": 0
      },
      "geometry": {
        "type": "LineString",
        "coordinates": [
          [
            121.661852927286,
            25.0690753667687
          ],
          [
            121.66233817097978,
            25.06940409272645
          ],
          [
            121.66236426708195,
            25.069417607537122
          ],
          [
            121.6623928423853,
            25.06942468756206
          ],
          [
            121.66242244935114,
            25.06942511329493
          ],
          [
            121.66245125509893,
            25.06941885837986
          ],
          [
            121.66247747634922,
            25.069406310040318
          ],
          [
            121.66249976021601,
            25.069387959295128
          ],
          [
            121.662816746918,
            25.069054436038
          ],
          [
            121.662845487904,
            25.0687701118613
          ],
          [
            121.66320192317083,
            25.067963314004636
          ],
          [
            121.66322232504828,
            25.067932686511735
          ],
          [
            121.6632522978328,
            25.067909920672406
          ],
          [
            121.663288729703,
            25.067897217008774
          ],
          [
            121.66332770748313,
            25.067895940031327
          ],
          [
            121.66336504453918,
            25.067906226901226
          ],
          [
            121.66339702513469,
            25.06792724363667
          ],
          [
            121.663760627981,
            25.0682592631193
          ],
          [
            121.664508204881,
            25.0676835989384
          ],
          [
            121.66520903995195,
            25.067134673086894
          ],
          [
            121.66522530556202,
            25.067118997631162
          ],
          [
            121.66523803276108,
            25.067100357876356
          ],
          [
            121.66524638731363,
            25.06707976303474
          ],
          [
            121.66525002735668,
            25.067058055834153
          ],
          [
            121.66524880394199,
            25.067036124519447
          ],
          [
            121.66524286133767,
            25.067015099136793
          ],
          [
            121.664770347336,
            25.0658521168794
          ],
          [
            121.664286001664,
            25.0652430171683
          ],
          [
            121.663425912364,
            25.0642354674152
          ],
          [
            121.662390425098,
            25.0634322126142
          ],
          [
            121.661893992946,
            25.0631351054931
          ],
          [
            121.661611929224,
            25.0630410842523
          ],
          [
            121.660973838403,
            25.0629332732294
          ],
          [
            121.66002652691243,
            25.06281207643415
          ],
          [
            121.66000269325554,
            25.06281120622601
          ],
          [
            121.65997925976875,
            25.06281466232718
          ],
          [
            121.65995704444506,
            25.06282229252013
          ],
          [
            121.65993693122391,
            25.062833793202348
          ],
          [
            121.6599197204028,
            25.062848706766005
          ],
          [
            121.65990592289359,
            25.06286672365451
          ],
          [
            121.658857733675,
            25.0645701830326
          ],
          [
            121.656904599099,
            25.0636923380472
          ],
          [
            121.657243075566,
            25.0628411324134
          ],
          [
            121.65775430616094,
            25.061681658070214
          ],
          [
            121.65776228752583,
            25.061651320343344
          ],
          [
            121.65776042391641,
            25.061619906413434
          ],
          [
            121.65774876443301,
            25.061590299077434
          ],
          [
            121.65772828827328,
            25.061564984846424
          ],
          [
            121.6577007150853,
            25.061546089683908
          ],
          [
            121.65766852650545,
            25.06153523251353
          ],
          [
            121.656407540139,
            25.0612926025767
          ],
          [
            121.65431023966,
            25.0608005580829
          ],
          [
            121.654253826915,
            25.0603837305818
          ],
          [
            121.654130300305,
            25.059922416155
          ],
          [
            121.654038204869,
            25.0595575972789
          ],
          [
            121.654025668704,
            25.0593244246016
          ],
          [
            121.654231482928,
            25.0584750655198
          ],
          [
            121.654366652404,
            25.0577802824227
          ],
          [
            121.655011011308,
            25.0571541009587
          ],
          [
            121.655415929452,
            25.0567297517583
          ],
          [
            121.655610240016,
            25.0565833920267
          ],
          [
            121.655973788814,
            25.0564066320939
          ],
          [
            121.655682949776,
            25.056036188405
          ],
          [
            121.655662891911,
            25.0554074997079
          ],
          [
            121.655636565964,
            25.0550245198535
          ],
          [
            121.655528442985,
            25.0542509818067
          ],
          [
            121.655551320039,
            25.054245397171
          ],
          [
            121.655672145188,
            25.055077199468
          ],
          [
            121.655694232325,
            25.0555262798755
          ],
          [
            121.65569423232503,
            25.05635478897604
          ],
          [
            121.65570106009244,
            25.056391032413572
          ],
          [
            121.65572075986454,
            25.056423116684545
          ],
          [
            121.65575107096635,
            25.05644735991341
          ],
          [
            121.65578851500483,
            25.056460980034405
          ],
          [
            121.6558287950368,
            25.056462414051417
          ],
          [
            121.65586759079518,
            25.056451356463967
          ],
          [
            121.65649780053,
            25.0561587294222
          ],
          [
            121.656615640485,
            25.0560697226476
          ],
          [
            121.65714952138201,
            25.054954935457694
          ],
          [
            121.65717244884506,
            25.054923317462038
          ],
          [
            121.65720562141598,
            25.054900943907015
          ],
          [
            121.65724517405091,
            25.05489024787966
          ],
          [
            121.65728635287196,
            25.054892514948104
          ],
          [
            121.65732420854815,
            25.054907472630727
          ],
          [
            121.65735442924236,
            25.05493361665596
          ],
          [
            121.657947512086,
            25.0556601658801
          ],
          [
            121.658073942316,
            25.0557852366449
          ],
          [
            121.658177261643,
            25.0558069880822
          ],
          [
            121.658173183248,
            25.0558219421954
          ],
          [
            121.658071903118,
            25.0557974718284
          ],
          [
            121.657984897369,
            25.0557172634031
          ],
          [
            121.657896532155,
            25.0556190420688
          ],
          [
            121.657678338049,
            25.0553556457571
          ],
          [
            121.6572424414787,
            25.055028580410603
          ],
          [
            121.65722453132328,
            25.05501173653617
          ],
          [
            121.65721083104658,
            25.054991436330116
          ],
          [
            121.65720231807337,
            25.05496889748579
          ],
          [
            121.65719940293583,
            25.054945206923172
          ],
          [
            121.65720222621444,
            25.054921507103067
          ],
          [
            121.6572105159391,
            25.054899206093385
          ],
          [
            121.657519498014,
            25.05429836247
          ],
          [
            121.657696257947,
            25.0538473739181
          ],
          [
            121.657759200301,
            25.053378201849
          ],
          [
            121.657817858752,
            25.0531321856793
          ],
          [
            121.65783290215,
            25.0528520023816
          ],
          [
            121.658150067136,
            25.0521446492463
          ],
          [
            121.658598861859,
            25.0513796297499
          ],
          [
            121.658869643033,
            25.0508386942109
          ],
          [
            121.659002526386,
            25.0506794849098
          ],
          [
            121.659130395274,
            25.0504892485991
          ],
          [
            121.659156721221,
            25.0503124886663
          ],
          [
            121.65913540974,
            25.0498154297064
          ],
          [
            121.65937817399588,
            25.04983301874467
          ],
          [
            121.65941685365746,
            25.049841981920526
          ],
          [
            121.65945015803665,
            25.049862150454615
          ],
          [
            121.65947426210936,
            25.04989124334012
          ],
          [
            121.65948644557314,
            25.049925977254368
          ],
          [
            121.6594853334443,
            25.049962432247668
          ],
          [
            121.65947123701771,
            25.04999620644352
          ],
          [
            121.65901015291,
            25.0507063532371
          ],
          [
            121.658881813917,
            25.050848795417
          ],
          [
            121.6587971948,
            25.0510240275046
          ],
          [
            121.658650521664,
            25.0513198418337
          ],
          [
            121.658414998456,
            25.0517270713331
          ],
          [
            121.658162551424,
            25.0521737897537
          ],
          [
            121.658007416377,
            25.0525105033225
          ],
          [
            121.657855101967,
            25.0528609674978
          ],
          [
            121.657835357506,
            25.053152550871
          ],
          [
            121.657793047948,
            25.053352816114
          ],
          [
            121.657754969345,
            25.0536190137522
          ],
          [
            121.657716890742,
            25.0538527740622
          ],
          [
            121.657539190597,
            25.0543093647131
          ],
          [
            121.657238792733,
            25.0548868901851
          ],
          [
            121.657087888641,
            25.0551488568674
          ],
          [
            121.656911598815,
            25.055501083941
          ],
          [
            121.656633766048,
            25.0560800197315
          ],
          [
            121.656492734187,
            25.0561745110786
          ],
          [
            121.655965275025,
            25.0564290735882
          ],
          [
            121.655623977921,
            25.0566025427775
          ],
          [
            121.655436405546,
            25.0567389911033
          ],
          [
            121.655269987949,
            25.0569025880624
          ],
          [
            121.655052798883,
            25.0571419896469
          ],
          [
            121.654633934255,
            25.0575463985092
          ],
          [
            121.6544252071,
            25.0577477214911
          ],
          [
            121.654401231684,
            25.0577858000937
          ],
          [
            121.654375845949,
            25.0578503221702
          ],
          [
            121.654279944283,
            25.0583139644142
          ],
          [
            121.654151605289,
            25.0589041827536
          ],
          [
            121.654058524261,
            25.0593241051206
          ],
          [
            121.654068396491,
            25.0595324796956
          ],
          [
            121.65423199345,
            25.0601537250446
          ],
          [
            121.65438243191223,
            25.06074796331053
          ],
          [
            121.65438927058638,
            25.060766950843846
          ],
          [
            121.65439970686744,
            25.060784334677138
          ],
          [
            121.65441343385064,
            25.06079969780891
          ],
          [
            121.65442999395837,
            25.06081252812186
          ],
          [
            121.65444883517313,
            25.060822397928103
          ],
          [
            121.65446913652792,
            25.060828933684583
          ],
          [
            121.656147911286,
            25.0612149898007
          ],
          [
            121.656465232974,
            25.0612897366872
          ],
          [
            121.65767446630896,
            25.061518277544767
          ],
          [
            121.6577060594095,
            25.06152871626819
          ],
          [
            121.65773331380029,
            25.061546901568597
          ],
          [
            121.65775387171303,
            25.06157133823952
          ],
          [
            121.65776607792476,
            25.0616000587593
          ],
          [
            121.65776894965084,
            25.06163075069164
          ],
          [
            121.65776234371253,
            25.06166071621235
          ],
          [
            121.65755681958,
            25.0621866993249
          ],
          [
            121.65699464509181,
            25.063447294300882
          ],
          [
            121.6569871532451,
            25.063472794606497
          ],
          [
            121.6569866611602,
            25.06349945476256
          ],
          [
            121.65699330786138,
            25.06352542015324
          ],
          [
            121.6570066923609,
            25.063549124316864
          ],
          [
            121.65702600718754,
            25.063569137208944
          ],
          [
            121.65704978284504,
            25.063584106601127
          ],
          [
            121.65888816035,
            25.0644559019729
          ],
          [
            121.65987929518151,
            25.062825931636745
          ],
          [
            121.65989322958897,
            25.062807599121236
          ],
          [
            121.65991069723735,
            25.062792449462506
          ],
          [
            121.65993115287802,
            25.062780821269865
          ],
          [
            121.65995375740356,
            25.06277319154146
          ],
          [
            121.6599775835575,
            25.062769873255103
          ],
          [
            121.66000177880687,
            25.062771020142574
          ],
          [
            121.66134916633,
            25.062960259084
          ],
          [
            121.66163405069,
            25.0630110305541
          ],
          [
            121.661906242182,
            25.0631111631756
          ],
          [
            121.662153047939,
            25.06324902182
          ],
          [
            121.662432291024,
            25.0634281322838
          ],
          [
            121.662947057318,
            25.0638184379599
          ],
          [
            121.663467464886,
            25.0642228468221
          ],
          [
            121.664443405366,
            25.0653736668102
          ],
          [
            121.664818550117,
            25.0658510596606
          ],
          [
            121.66528651932902,
            25.067024137511883
          ],
          [
            121.66529231104262,
            25.067045100479938
          ],
          [
            121.66529341990068,
            25.0670669388715
          ],
          [
            121.66528970960246,
            25.06708853709625
          ],
          [
            121.6652813306205,
            25.067109019230077
          ],
          [
            121.66526862276754,
            25.06712755461233
          ],
          [
            121.66525241490594,
            25.067143145177713
          ],
          [
            121.663762221476,
            25.0683095975824
          ],
          [
            121.66343893374437,
            25.068017994970507
          ],
          [
            121.66340846404326,
            25.06799790225836
          ],
          [
            121.66337305702115,
            25.0679875407616
          ],
          [
            121.6633358728117,
            25.06798765285943
          ],
          [
            121.66330054164047,
            25.06799822760796
          ],
          [
            121.66327051282434,
            25.068018232614044
          ],
          [
            121.66324856624115,
            25.068045989173058
          ],
          [
            121.662893465211,
            25.0686836845944
          ],
          [
            121.662865258838,
            25.0687795862601
          ],
          [
            121.662839873103,
            25.0690655283588
          ]
        ]
      }
    },
    {
      "type": "Feature",
      "properties": {
        "feature_type": "station",
        "ref": "NWT192809",
        "name": "汐止火車站",
        "name_en": "Xizhi Rail Sta.",
        "line": "F902",
        "color": "#166534",
        "direction": 0,
        "station_id": "70890"
      },
      "geometry": {
        "type": "Point",
        "coordinates": [
          121.662051,
          25.069141
        ]
      }
    },
    {
      "type": "Feature",
      "properties": {
        "feature_type": "station",
        "ref": "NWT162430",
        "name": "東方鴻社區",
        "name_en": "Dongfanghong Community",
        "line": "F902",
        "color": "#166534",
        "direction": 0,
        "station_id": "71101"
      },
      "geometry": {
        "type": "Point",
        "coordinates": [
          121.663215,
          25.068243
        ]
      }
    },
    {
      "type": "Feature",
      "properties": {
        "feature_type": "station",
        "ref": "NWT162431",
        "name": "新昌市民活動中心",
        "name_en": "Xinchang Community Activity Center",
        "line": "F902",
        "color": "#166534",
        "direction": 0,
        "station_id": "70961"
      },
      "geometry": {
        "type": "Point",
        "coordinates": [
          121.664355,
          25.067731
        ]
      }
    },
    {
      "type": "Feature",
      "properties": {
        "feature_type": "station",
        "ref": "NWT162432",
        "name": "水碓",
        "name_en": "Shuidui",
        "line": "F902",
        "color": "#166534",
        "direction": 0,
        "station_id": "1165603862"
      },
      "geometry": {
        "type": "Point",
        "coordinates": [
          121.664622,
          25.065831
        ]
      }
    },
    {
      "type": "Feature",
      "properties": {
        "feature_type": "station",
        "ref": "NWT162433",
        "name": "福安街口",
        "name_en": "Fuan St. Entrance",
        "line": "F902",
        "color": "#166534",
        "direction": 0,
        "station_id": "1165603857"
      },
      "geometry": {
        "type": "Point",
        "coordinates": [
          121.6635086,
          25.064471
        ]
      }
    },
    {
      "type": "Feature",
      "properties": {
        "feature_type": "station",
        "ref": "NWT162434",
        "name": "秀峰國小",
        "name_en": "Xiulang Elementary School",
        "line": "F902",
        "color": "#166534",
        "direction": 0,
        "station_id": "1165603855"
      },
      "geometry": {
        "type": "Point",
        "coordinates": [
          121.662143,
          25.063371
        ]
      }
    },
    {
      "type": "Feature",
      "properties": {
        "feature_type": "station",
        "ref": "NWT162435",
        "name": "汐止區公所(仁愛路)",
        "name_en": "Xizhi District Office(Renai Rd.)",
        "line": "F902",
        "color": "#166534",
        "direction": 0,
        "station_id": "1165603895"
      },
      "geometry": {
        "type": "Point",
        "coordinates": [
          121.65929,
          25.063876
        ]
      }
    },
    {
      "type": "Feature",
      "properties": {
        "feature_type": "station",
        "ref": "NWT162436",
        "name": "汐止農會",
        "name_en": "XiZhi Farmers Association",
        "line": "F902",
        "color": "#166534",
        "direction": 0,
        "station_id": "7655"
      },
      "geometry": {
        "type": "Point",
        "coordinates": [
          121.656,
          25.063336
        ]
      }
    },
    {
      "type": "Feature",
      "properties": {
        "feature_type": "station",
        "ref": "NWT162437",
        "name": "連興街口",
        "name_en": "Lianxing St. Intersection",
        "line": "F902",
        "color": "#166534",
        "direction": 0,
        "station_id": "1165605329"
      },
      "geometry": {
        "type": "Point",
        "coordinates": [
          121.653933,
          25.061698
        ]
      }
    },
    {
      "type": "Feature",
      "properties": {
        "feature_type": "station",
        "ref": "NWT162438",
        "name": "莊敬街口",
        "name_en": "Zhuangjing St. Entrance",
        "line": "F902",
        "color": "#166534",
        "direction": 0,
        "station_id": "1165603846"
      },
      "geometry": {
        "type": "Point",
        "coordinates": [
          121.654226,
          25.060763
        ]
      }
    },
    {
      "type": "Feature",
      "properties": {
        "feature_type": "station",
        "ref": "NWT162439",
        "name": "汐碇路口",
        "name_en": "Xiding Rd. Entrance",
        "line": "F902",
        "color": "#166534",
        "direction": 0,
        "station_id": "1165603412"
      },
      "geometry": {
        "type": "Point",
        "coordinates": [
          121.654139,
          25.0585
        ]
      }
    },
    {
      "type": "Feature",
      "properties": {
        "feature_type": "station",
        "ref": "NWT162440",
        "name": "白雲土地公廟",
        "name_en": "Baiyun Tudigong Temple",
        "line": "F902",
        "color": "#166534",
        "direction": 0,
        "station_id": "70921"
      },
      "geometry": {
        "type": "Point",
        "coordinates": [
          121.654834,
          25.057316
        ]
      }
    },
    {
      "type": "Feature",
      "properties": {
        "feature_type": "station",
        "ref": "NWT162441",
        "name": "水源路二段72巷口",
        "name_en": "Lane 72 Sec.2 Shuiyuan Rd. Intersection",
        "line": "F902",
        "color": "#166534",
        "direction": 0,
        "station_id": "1165603402"
      },
      "geometry": {
        "type": "Point",
        "coordinates": [
          121.655878,
          25.056357
        ]
      }
    },
    {
      "type": "Feature",
      "properties": {
        "feature_type": "station",
        "ref": "NWT162442",
        "name": "台北小別墅",
        "name_en": "Taipei Villa",
        "line": "F902",
        "color": "#166534",
        "direction": 0,
        "station_id": "70878"
      },
      "geometry": {
        "type": "Point",
        "coordinates": [
          121.655601,
          25.054347
        ]
      }
    },
    {
      "type": "Feature",
      "properties": {
        "feature_type": "station",
        "ref": "NWT162443",
        "name": "白雲社區活動中心",
        "name_en": "Baiyun Community Activity Center",
        "line": "F902",
        "color": "#166534",
        "direction": 0,
        "station_id": "70924"
      },
      "geometry": {
        "type": "Point",
        "coordinates": [
          121.65691,
          25.055442
        ]
      }
    },
    {
      "type": "Feature",
      "properties": {
        "feature_type": "station",
        "ref": "NWT219536",
        "name": "水源路二段125巷",
        "name_en": "Lane 125 Sec.2 Shuiyuan Rd. Intersection",
        "line": "F902",
        "color": "#166534",
        "direction": 0,
        "station_id": "1165610087"
      },
      "geometry": {
        "type": "Point",
        "coordinates": [
          121.658106,
          25.055864
        ]
      }
    },
    {
      "type": "Feature",
      "properties": {
        "feature_type": "station",
        "ref": "NWT162444",
        "name": "白雲里",
        "name_en": "Baiyun Village",
        "line": "F902",
        "color": "#166534",
        "direction": 0,
        "station_id": "70923"
      },
      "geometry": {
        "type": "Point",
        "coordinates": [
          121.657637,
          25.053764
        ]
      }
    },
    {
      "type": "Feature",
      "properties": {
        "feature_type": "station",
        "ref": "NWT162445",
        "name": "柳燕橋",
        "name_en": "Liuyan Bridge",
        "line": "F902",
        "color": "#166534",
        "direction": 0,
        "station_id": "70927"
      },
      "geometry": {
        "type": "Point",
        "coordinates": [
          121.657985,
          25.052385
        ]
      }
    },
    {
      "type": "Feature",
      "properties": {
        "feature_type": "station",
        "ref": "NWT162446",
        "name": "逸林園",
        "name_en": "Yilinyuan",
        "line": "F902",
        "color": "#166534",
        "direction": 0,
        "station_id": "70949"
      },
      "geometry": {
        "type": "Point",
        "coordinates": [
          121.6591,
          25.049833
        ]
      }
    },
    {
      "type": "Feature",
      "properties": {
        "feature_type": "station",
        "ref": "NWT162447",
        "name": "柳燕橋",
        "name_en": "Liuyan Bridge",
        "line": "F902",
        "color": "#166534",
        "direction": 0,
        "station_id": "1165608933"
      },
      "geometry": {
        "type": "Point",
        "coordinates": [
          121.658121,
          25.052365
        ]
      }
    },
    {
      "type": "Feature",
      "properties": {
        "feature_type": "station",
        "ref": "NWT162448",
        "name": "白雲里",
        "name_en": "Baiyun Village",
        "line": "F902",
        "color": "#166534",
        "direction": 0,
        "station_id": "1165603851"
      },
      "geometry": {
        "type": "Point",
        "coordinates": [
          121.657617,
          25.054229
        ]
      }
    },
    {
      "type": "Feature",
      "properties": {
        "feature_type": "station",
        "ref": "NWT162449",
        "name": "白雲社區活動中心",
        "name_en": "Baiyun Community Activity Center",
        "line": "F902",
        "color": "#166534",
        "direction": 0,
        "station_id": "1165603852"
      },
      "geometry": {
        "type": "Point",
        "coordinates": [
          121.657009,
          25.055471
        ]
      }
    },
    {
      "type": "Feature",
      "properties": {
        "feature_type": "station",
        "ref": "NWT162450",
        "name": "水源路二段72巷口",
        "name_en": "Lane 72 Sec.2 Shuiyuan Rd. Intersection",
        "line": "F902",
        "color": "#166534",
        "direction": 0,
        "station_id": "1165603403"
      },
      "geometry": {
        "type": "Point",
        "coordinates": [
          121.656078,
          25.056449
        ]
      }
    },
    {
      "type": "Feature",
      "properties": {
        "feature_type": "station",
        "ref": "NWT162451",
        "name": "白雲土地公廟",
        "name_en": "Baiyun Tudigong Temple",
        "line": "F902",
        "color": "#166534",
        "direction": 0,
        "station_id": "1165603850"
      },
      "geometry": {
        "type": "Point",
        "coordinates": [
          121.654938,
          25.057345
        ]
      }
    },
    {
      "type": "Feature",
      "properties": {
        "feature_type": "station",
        "ref": "NWT162452",
        "name": "汐碇路口",
        "name_en": "Xiding Rd. Entrance",
        "line": "F902",
        "color": "#166534",
        "direction": 0,
        "station_id": "1165603413"
      },
      "geometry": {
        "type": "Point",
        "coordinates": [
          121.654253,
          25.058538
        ]
      }
    },
    {
      "type": "Feature",
      "properties": {
        "feature_type": "station",
        "ref": "NWT162453",
        "name": "莊敬街口",
        "name_en": "Zhuangjing St. Entrance",
        "line": "F902",
        "color": "#166534",
        "direction": 0,
        "station_id": "72578"
      },
      "geometry": {
        "type": "Point",
        "coordinates": [
          121.654582,
          25.060825
        ]
      }
    },
    {
      "type": "Feature",
      "properties": {
        "feature_type": "station",
        "ref": "NWT162454",
        "name": "青山國中",
        "name_en": "Qingshan Junior High School",
        "line": "F902",
        "color": "#166534",
        "direction": 0,
        "station_id": "70893"
      },
      "geometry": {
        "type": "Point",
        "coordinates": [
          121.656116,
          25.061144
        ]
      }
    },
    {
      "type": "Feature",
      "properties": {
        "feature_type": "station",
        "ref": "NWT162455",
        "name": "莊敬街5號",
        "name_en": "NO.5 Zhuangjing St.",
        "line": "F902",
        "color": "#166534",
        "direction": 0,
        "station_id": "70954"
      },
      "geometry": {
        "type": "Point",
        "coordinates": [
          121.657664,
          25.061606
        ]
      }
    },
    {
      "type": "Feature",
      "properties": {
        "feature_type": "station",
        "ref": "NWT162456",
        "name": "自強里活動中心",
        "name_en": "Ziqiang Village Activity Center",
        "line": "F902",
        "color": "#166534",
        "direction": 0,
        "station_id": "1165603878"
      },
      "geometry": {
        "type": "Point",
        "coordinates": [
          121.657312,
          25.062932
        ]
      }
    },
    {
      "type": "Feature",
      "properties": {
        "feature_type": "station",
        "ref": "NWT162457",
        "name": "汐止區公所(仁愛路)",
        "name_en": "Xizhi District Office(Renai Rd.)",
        "line": "F902",
        "color": "#166534",
        "direction": 0,
        "station_id": "70956"
      },
      "geometry": {
        "type": "Point",
        "coordinates": [
          121.659129,
          25.063895
        ]
      }
    },
    {
      "type": "Feature",
      "properties": {
        "feature_type": "station",
        "ref": "NWT162458",
        "name": "秀峰國小",
        "name_en": "Xiulang Elementary School",
        "line": "F902",
        "color": "#166534",
        "direction": 0,
        "station_id": "70958"
      },
      "geometry": {
        "type": "Point",
        "coordinates": [
          121.662321,
          25.063325
        ]
      }
    },
    {
      "type": "Feature",
      "properties": {
        "feature_type": "station",
        "ref": "NWT162459",
        "name": "福安街口",
        "name_en": "Fuan St. Entrance",
        "line": "F902",
        "color": "#166534",
        "direction": 0,
        "station_id": "70962"
      },
      "geometry": {
        "type": "Point",
        "coordinates": [
          121.6635868663242,
          25.064336021033988
        ]
      }
    },
    {
      "type": "Feature",
      "properties": {
        "feature_type": "station",
        "ref": "NWT162460",
        "name": "水碓",
        "name_en": "Shuidui",
        "line": "F902",
        "color": "#166534",
        "direction": 0,
        "station_id": "70955"
      },
      "geometry": {
        "type": "Point",
        "coordinates": [
          121.664753,
          25.065674
        ]
      }
    },
    {
      "type": "Feature",
      "properties": {
        "feature_type": "station",
        "ref": "NWT162461",
        "name": "新昌市民活動中心",
        "name_en": "Xinchang Community Activity Center",
        "line": "F902",
        "color": "#166534",
        "direction": 0,
        "station_id": "1165603594"
      },
      "geometry": {
        "type": "Point",
        "coordinates": [
          121.664838,
          25.067555
        ]
      }
    },
    {
      "type": "Feature",
      "properties": {
        "feature_type": "station",
        "ref": "NWT162462",
        "name": "汐止火車站(公園)",
        "name_en": "Xizhi Rail Sta.",
        "line": "F902",
        "color": "#166534",
        "direction": 0,
        "station_id": "71115"
      },
      "geometry": {
        "type": "Point",
        "coordinates": [
          121.662911,
          25.068882
        ]
      }
    },
    {
      "type": "Feature",
      "properties": {
        "feature_type": "station",
        "ref": "NWT219533",
        "name": "自強里活動中心",
        "name_en": "Ziqiang Village Activity Center",
        "line": "F902",
        "color": "#166534",
        "direction": 0,
        "station_id": "1165603890"
      },
      "geometry": {
        "type": "Point",
        "coordinates": [
          121.657228,
          25.062767
        ]
      }
    },
    {
      "type": "Feature",
      "properties": {
        "feature_type": "station",
        "ref": "NWT219534",
        "name": "莊敬街5號",
        "name_en": "NO.5 Zhuangjing St.",
        "line": "F902",
        "color": "#166534",
        "direction": 0,
        "station_id": "1165608932"
      },
      "geometry": {
        "type": "Point",
        "coordinates": [
          121.657284,
          25.061566
        ]
      }
    },
    {
      "type": "Feature",
      "properties": {
        "feature_type": "station",
        "ref": "NWT219535",
        "name": "青山國中",
        "name_en": "Qingshan Junior High School",
        "line": "F902",
        "color": "#166534",
        "direction": 0,
        "station_id": "1165603847"
      },
      "geometry": {
        "type": "Point",
        "coordinates": [
          121.655726,
          25.061225
        ]
      }
    }
  ]
}
