{
  "type": "FeatureCollection",
  "name": "F152-1545",
  "properties": {
    "id": "new_taipei_f152-1545",
    "name": "F152-1545",
    "name_en": "F152-1545",
    "ref": "F152-1545",
    "color": "#6B8F9A",
    "city_id": "NewTaipei",
    "source": "TDX Bus Shape / StopOfRoute",
    "official_map_url": "https://ebus.gov.taipei/File/Get/A140CE1F-92EF-4711-8E1F-8989B0C540E8?v=639248448777504878",
    "operator_id": "16231",
    "operator": "石門區公所",
    "operator_en": "Shimen District Office"
  },
  "features": [
    {
      "type": "Feature",
      "properties": {
        "feature_type": "route",
        "ref": "F152-1545",
        "name": "F152-1545",
        "name_en": "F152-1545",
        "color": "#6B8F9A",
        "direction": 0
      },
      "geometry": {
        "type": "LineString",
        "coordinates": [
          [
            121.545909985352,
            25.2892386070622
          ],
          [
            121.545799751551,
            25.2892386070622
          ],
          [
            121.545081781394,
            25.2893386877506
          ],
          [
            121.5433139934291,
            25.290312798686614
          ],
          [
            121.54328873692627,
            25.29032336377545
          ],
          [
            121.54326185094288,
            25.290328289494877
          ],
          [
            121.54323444014253,
            25.290327491057987
          ],
          [
            121.54320795489758,
            25.290321010712024
          ],
          [
            121.54318379660705,
            25.29030919134792
          ],
          [
            121.54316296559212,
            25.290292375790074
          ],
          [
            121.54212240104319,
            25.289238537109675
          ],
          [
            121.54210396749455,
            25.2892233151352
          ],
          [
            121.54208284482937,
            25.289212065373594
          ],
          [
            121.54205964460675,
            25.28920497933023
          ],
          [
            121.54203534419955,
            25.28920235552407
          ],
          [
            121.54201096732889,
            25.28920430449012
          ],
          [
            121.54198726516366,
            25.28921084951126
          ],
          [
            121.540528835293,
            25.2897658437324
          ],
          [
            121.540025530961,
            25.2898238615228
          ],
          [
            121.53946130795,
            25.2897658437324
          ],
          [
            121.538399582385,
            25.2894148361005
          ],
          [
            121.537887575385,
            25.2892697916245
          ],
          [
            121.537307397481,
            25.2892988005197
          ],
          [
            121.536298615871,
            25.2896389614793
          ],
          [
            121.535796071496,
            25.2896776519713
          ],
          [
            121.535283927855,
            25.2895696649131
          ],
          [
            121.534467331834,
            25.2888991800048
          ],
          [
            121.534144987736,
            25.2886120815739
          ],
          [
            121.533522455919,
            25.2883893597135
          ],
          [
            121.532522674935,
            25.2882800808462
          ],
          [
            121.531951148537,
            25.2881154268883
          ],
          [
            121.531505383879,
            25.2877776506367
          ],
          [
            121.530713559964,
            25.2870534822529
          ],
          [
            121.529915752749,
            25.2863494679127
          ],
          [
            121.529443759725,
            25.2860252456878
          ],
          [
            121.528968866684,
            25.2858208466753
          ],
          [
            121.528169595493,
            25.2855523017047
          ],
          [
            121.526936717447,
            25.285018538033
          ],
          [
            121.526521890246,
            25.2849953309168
          ],
          [
            121.524812649936,
            25.285298053737
          ],
          [
            121.523223501917,
            25.2854923103585
          ],
          [
            121.522683976725,
            25.285403532633
          ],
          [
            121.522211168419,
            25.2851432762824
          ],
          [
            121.521791989883,
            25.2847255481915
          ],
          [
            121.521055163945,
            25.2836565704034
          ],
          [
            121.519817934565,
            25.2824280436917
          ],
          [
            121.519414710922,
            25.2818188568925
          ],
          [
            121.519017289058,
            25.2809021758042
          ],
          [
            121.517762252678,
            25.2781580395093
          ],
          [
            121.517500123839,
            25.2775545492982
          ],
          [
            121.517268052677,
            25.2773021719099
          ],
          [
            121.51736875156,
            25.2772244907103
          ],
          [
            121.517854210673,
            25.2763918751314
          ],
          [
            121.518389246477,
            25.2754789628466
          ],
          [
            121.518374742029,
            25.2748088573675
          ],
          [
            121.51800762863893,
            25.274097549924328
          ],
          [
            121.51800032017805,
            25.274079081732513
          ],
          [
            121.51799676000938,
            25.274059424606406
          ],
          [
            121.51799720450745,
            25.274039506024245
          ],
          [
            121.51800163870148,
            25.27401999684466
          ],
          [
            121.51800991324768,
            25.274001554137595
          ],
          [
            121.51802149968591,
            25.2739850909672
          ],
          [
            121.51855136094,
            25.2733682696922
          ],
          [
            121.519232329022,
            25.2729265945612
          ],
          [
            121.519720461199,
            25.2726878495393
          ],
          [
            121.519938260145,
            25.2724246626583
          ],
          [
            121.520187341751,
            25.2721449960061
          ],
          [
            121.520394842975,
            25.2718624546277
          ],
          [
            121.520800128695,
            25.2714735322935
          ],
          [
            121.521687557861,
            25.2702123979231
          ],
          [
            121.522203071685,
            25.2700522228351
          ],
          [
            121.522365071051,
            25.2698016130994
          ],
          [
            121.522697067414,
            25.2692376990444
          ],
          [
            121.522920435907,
            25.2690288349989
          ],
          [
            121.523364590809,
            25.2684721530798
          ],
          [
            121.523723093766,
            25.26797548639
          ],
          [
            121.523993765029,
            25.2669909601112
          ],
          [
            121.52446143299196,
            25.266860163757567
          ],
          [
            121.52448179776496,
            25.266852056101428
          ],
          [
            121.52449982441274,
            25.266839913597313
          ],
          [
            121.52451441010373,
            25.266824405109432
          ],
          [
            121.52452481498902,
            25.26680631729491
          ],
          [
            121.52453051128813,
            25.266786567645404
          ],
          [
            121.5245312147304,
            25.266766209433424
          ],
          [
            121.5245080603298,
            25.266508874637832
          ],
          [
            121.52450911092932,
            25.266483278042177
          ],
          [
            121.52451674355325,
            25.26645856114949
          ],
          [
            121.5245305367341,
            25.26643616810705
          ],
          [
            121.5245497188822,
            25.266417351580266
          ],
          [
            121.52457321694932,
            25.266403164164483
          ],
          [
            121.5245995348814,
            25.26639443831215
          ],
          [
            121.52487054194842,
            25.266336960328406
          ],
          [
            121.52489474907456,
            25.266329189933224
          ],
          [
            121.52491671525675,
            25.266316775867775
          ],
          [
            121.52493522600199,
            25.266300340727962
          ],
          [
            121.52494941064649,
            25.266280657550265
          ],
          [
            121.52495860200712,
            25.26625865214455
          ],
          [
            121.52496236902329,
            25.266235331046996
          ],
          [
            121.5250027216334,
            25.265257426535268
          ],
          [
            121.5250101953334,
            25.265223438815106
          ],
          [
            121.52502903165265,
            25.26519335132177
          ],
          [
            121.52505731447391,
            25.265170198027374
          ],
          [
            121.5250921649818,
            25.2651563356296
          ],
          [
            121.52513003585774,
            25.265153175136348
          ],
          [
            121.52516734512074,
            25.265161140574325
          ],
          [
            121.526149125942,
            25.2655274613483
          ],
          [
            121.52691888624481,
            25.26618490153529
          ],
          [
            121.5269445307406,
            25.266201725513117
          ],
          [
            121.52697372108702,
            25.266211734588925
          ],
          [
            121.52700476319234,
            25.266214504636682
          ],
          [
            121.52703553163074,
            25.266209845993636
          ],
          [
            121.52706391971418,
            25.266198077633014
          ],
          [
            121.52708826815919,
            25.266179726457413
          ],
          [
            121.52782729053,
            25.2654578399998
          ],
          [
            121.528453882666,
            25.2653737142038
          ],
          [
            121.52903401458784,
            25.265048063647143
          ],
          [
            121.52906371500703,
            25.265036007852974
          ],
          [
            121.52909551255105,
            25.26503171399909
          ],
          [
            121.52912741370766,
            25.265035314420857
          ],
          [
            121.52915709847699,
            25.265046547278924
          ],
          [
            121.52918240804516,
            25.265064595667837
          ],
          [
            121.52920167033953,
            25.265088428777972
          ],
          [
            121.529705616494,
            25.2659263336573
          ],
          [
            121.53044892895208,
            25.26637671247492
          ],
          [
            121.53046407071847,
            25.26638767742957
          ],
          [
            121.53047730097015,
            25.26640100845922
          ],
          [
            121.53048793530462,
            25.266416144444683
          ],
          [
            121.53049568235059,
            25.266432670673368
          ],
          [
            121.53050032984588,
            25.266450134341284
          ],
          [
            121.53050175047592,
            25.26646804874716
          ],
          [
            121.530488856664,
            25.2675551831228
          ],
          [
            121.530958800767,
            25.2689853216561
          ],
          [
            121.531222781713,
            25.2697569582684
          ],
          [
            121.531021989035,
            25.2702142447483
          ],
          [
            121.53099227497401,
            25.270880802664635
          ],
          [
            121.53098908380012,
            25.27090175328205
          ],
          [
            121.53098150630177,
            25.270921714708678
          ],
          [
            121.53096982793073,
            25.270939962148493
          ],
          [
            121.53095449073504,
            25.27095580490203
          ],
          [
            121.53093607525601,
            25.270968643291646
          ],
          [
            121.53091553827409,
            25.270977901713596
          ],
          [
            121.52961310521846,
            25.271426305350612
          ],
          [
            121.52959147062693,
            25.27143620198796
          ],
          [
            121.5295722787774,
            25.271450051878265
          ],
          [
            121.52955659941182,
            25.271467180790705
          ],
          [
            121.52954509415179,
            25.27148686593725
          ],
          [
            121.52953824848424,
            25.271508276664544
          ],
          [
            121.52953635082385,
            25.271530490245993
          ],
          [
            121.52954896846,
            25.271983390975
          ],
          [
            121.52948514889,
            25.2722357683633
          ],
          [
            121.529292938554,
            25.2725548513423
          ],
          [
            121.529028584512,
            25.2728447929069
          ],
          [
            121.528903520542,
            25.2731771070125
          ],
          [
            121.52890806924319,
            25.273646571702262
          ],
          [
            121.52890570966437,
            25.27366903451503
          ],
          [
            121.52889829861405,
            25.27369057396365
          ],
          [
            121.52888615643187,
            25.273710252125973
          ],
          [
            121.5288698080631,
            25.273727218252223
          ],
          [
            121.52884996029997,
            25.27374073884259
          ],
          [
            121.52882771478865,
            25.273750153151997
          ],
          [
            121.527947322756,
            25.2740244068162
          ],
          [
            121.527806984303,
            25.2740937881008
          ],
          [
            121.527676931533,
            25.2742385434682
          ],
          [
            121.527518345796,
            25.2744563992908
          ],
          [
            121.527347193314,
            25.2749074876112
          ],
          [
            121.527222455065,
            25.2750728383138
          ],
          [
            121.52690123691261,
            25.275302191374372
          ],
          [
            121.5268870516942,
            25.275314233616125
          ],
          [
            121.52687497692688,
            25.27532852251075
          ],
          [
            121.52686566574788,
            25.27534443428103
          ],
          [
            121.5268593750033,
            25.275361530005547
          ],
          [
            121.52685627822143,
            25.275379338103875
          ],
          [
            121.52685645384447,
            25.275397297774724
          ],
          [
            121.526906258107,
            25.2758865378242
          ],
          [
            121.526650979829,
            25.2767016877793
          ],
          [
            121.526619070045,
            25.2769439120542
          ],
          [
            121.526688691393,
            25.2771658301025
          ],
          [
            121.527139304259,
            25.2776759115653
          ],
          [
            121.527196816499,
            25.2781198225513
          ],
          [
            121.527318184419,
            25.2784784826103
          ],
          [
            121.527195566182,
            25.2787923318012
          ],
          [
            121.526873857783,
            25.2792329503886
          ],
          [
            121.526551864754,
            25.2797749791081
          ],
          [
            121.526378296215,
            25.2799086211436
          ],
          [
            121.526012784135,
            25.2800594673986
          ],
          [
            121.525379854115,
            25.2803801578096
          ],
          [
            121.525174427064,
            25.2804742946
          ],
          [
            121.524852275257,
            25.2807275527847
          ],
          [
            121.52383856744,
            25.2812343276542
          ],
          [
            121.523418342558,
            25.2815920451755
          ],
          [
            121.522940742133,
            25.2816099928471
          ],
          [
            121.522554923827,
            25.281676713306
          ],
          [
            121.522186510858,
            25.2820654325017
          ],
          [
            121.521893521017,
            25.2822597920995
          ],
          [
            121.521699161419,
            25.282329413448
          ],
          [
            121.52098130817078,
            25.28282374656788
          ],
          [
            121.52095777678446,
            25.282845476520233
          ],
          [
            121.52094167730051,
            25.28287265664595
          ],
          [
            121.52093463406268,
            25.282902864969387
          ],
          [
            121.52093721703774,
            25.282933656912924
          ],
          [
            121.52094921720114,
            25.28296254067007
          ],
          [
            121.52096936631543,
            25.2829869096811
          ],
          [
            121.52134765072715,
            25.28332757579743
          ],
          [
            121.52136607774568,
            25.28334916128867
          ],
          [
            121.52137811372214,
            25.283374621224826
          ],
          [
            121.52138267661243,
            25.283402026740603
          ],
          [
            121.52137946893383,
            25.2834295911029
          ],
          [
            121.5213686998145,
            25.28345551722245
          ],
          [
            121.52135135417934,
            25.28347783492149
          ],
          [
            121.52120825253421,
            25.283618046964985
          ],
          [
            121.52119293923928,
            25.283637169713888
          ],
          [
            121.52118259858163,
            25.283659280894312
          ],
          [
            121.52117804546137,
            25.283682953174143
          ],
          [
            121.52117951803554,
            25.283706948343088
          ],
          [
            121.5211869392792,
            25.28373001130169
          ],
          [
            121.52119969477405,
            25.283750651413136
          ],
          [
            121.521971845034,
            25.284716845523
          ],
          [
            121.522309798663,
            25.2850649522653
          ],
          [
            121.52279678866,
            25.2853160038958
          ],
          [
            121.523374480775,
            25.2853767622147
          ],
          [
            121.525055280572,
            25.285121150899
          ],
          [
            121.526573831673,
            25.2849268937999
          ],
          [
            121.526974429011,
            25.2849257095684
          ],
          [
            121.52757148742,
            25.2851730985976
          ],
          [
            121.528352351533,
            25.2854942839143
          ],
          [
            121.529365273193,
            25.2858398236187
          ],
          [
            121.529927291759,
            25.2861752258466
          ],
          [
            121.531548063451,
            25.2876471202283
          ],
          [
            121.531774124866,
            25.2878413838918
          ],
          [
            121.532020168069,
            25.2880195105094
          ],
          [
            121.532287188393,
            25.2881191730247
          ],
          [
            121.532509078521,
            25.2881699444948
          ],
          [
            121.533302617794,
            25.2882263572393
          ],
          [
            121.533618529163,
            25.288278539028
          ],
          [
            121.533975809878,
            25.288391364517
          ],
          [
            121.534318047195,
            25.2885982112469
          ],
          [
            121.535032608625,
            25.2892986694912
          ],
          [
            121.535258259604,
            25.289434060078
          ],
          [
            121.535568353136,
            25.2895470820543
          ],
          [
            121.535899863145,
            25.2896074447287
          ],
          [
            121.536384196041,
            25.2895321340285
          ],
          [
            121.537321901929,
            25.2892146747236
          ],
          [
            121.537931088728,
            25.2891769631599
          ],
          [
            121.538421339057,
            25.2893133049673
          ],
          [
            121.539520776185,
            25.2896904206049
          ],
          [
            121.540053089412,
            25.2897426366163
          ],
          [
            121.540511429956,
            25.2896846188259
          ],
          [
            121.54197783487085,
            25.289131311349013
          ],
          [
            121.54200151034364,
            25.289124840098072
          ],
          [
            121.54202584529123,
            25.289122948443083
          ],
          [
            121.54205009297314,
            25.2891256117792
          ],
          [
            121.54207323582463,
            25.28913271833833
          ],
          [
            121.54209430264565,
            25.28914396989058
          ],
          [
            121.54211268738626,
            25.289159176825503
          ],
          [
            121.54318453594685,
            25.2902459223016
          ],
          [
            121.54320540559732,
            25.290262778901546
          ],
          [
            121.54322961846852,
            25.29027461903933
          ],
          [
            121.5432561656025,
            25.290281096233347
          ],
          [
            121.54328363628687,
            25.290281866286055
          ],
          [
            121.54331057073176,
            25.290276888276914
          ],
          [
            121.54333585593255,
            25.290266249766113
          ],
          [
            121.545083231839,
            25.2892980752974
          ],
          [
            121.545801201995,
            25.289209598167
          ],
          [
            121.546377279055,
            25.2891947749437
          ],
          [
            121.546986215364,
            25.289209598167
          ],
          [
            121.548698227946,
            25.2894895090652
          ],
          [
            121.54878314745484,
            25.289394260376003
          ],
          [
            121.54879296277032,
            25.28938533138345
          ],
          [
            121.54880446419122,
            25.289378627802268
          ],
          [
            121.54881726593374,
            25.289374299142345
          ],
          [
            121.54883078491679,
            25.289372542561185
          ],
          [
            121.54884440539115,
            25.289373438065816
          ],
          [
            121.54885765426096,
            25.28937700064052
          ],
          [
            121.550609426375,
            25.2900378021249
          ],
          [
            121.551911448919,
            25.290652423507
          ],
          [
            121.553502439121,
            25.2915394822095
          ],
          [
            121.553827963297,
            25.2917203180465
          ],
          [
            121.554271799394,
            25.2918247500692
          ],
          [
            121.554614104357,
            25.2918044438426
          ],
          [
            121.555442308315,
            25.2914853459954
          ],
          [
            121.555886144412,
            25.29127648195
          ],
          [
            121.556448916978,
            25.2911546445901
          ],
          [
            121.557427967191,
            25.2911488428111
          ],
          [
            121.558414269628,
            25.2910850232417
          ],
          [
            121.559548266947,
            25.2908122487639
          ],
          [
            121.560601540326,
            25.2907340156097
          ],
          [
            121.561027971086,
            25.290768826284
          ],
          [
            121.561608863156,
            25.2908865337904
          ],
          [
            121.562485668069,
            25.2910241045617
          ],
          [
            121.563303718914,
            25.290841348522
          ],
          [
            121.563773663016,
            25.2908210422953
          ],
          [
            121.565073261521,
            25.2911633472587
          ],
          [
            121.566384463584,
            25.291421526426
          ],
          [
            121.566932560938,
            25.2910069052144
          ]
        ]
      }
    },
    {
      "type": "Feature",
      "properties": {
        "feature_type": "station",
        "ref": "NWT157968",
        "name": "老梅",
        "name_en": "Laomei",
        "line": "F152-1545",
        "color": "#6B8F9A",
        "direction": 0,
        "station_id": "75539"
      },
      "geometry": {
        "type": "Point",
        "coordinates": [
          121.5458915,
          25.289253
        ]
      }
    },
    {
      "type": "Feature",
      "properties": {
        "feature_type": "station",
        "ref": "NWT157969",
        "name": "富貴角燈塔",
        "name_en": "Fugui Cape Lighthouse",
        "line": "F152-1545",
        "color": "#6B8F9A",
        "direction": 0,
        "station_id": "75507"
      },
      "geometry": {
        "type": "Point",
        "coordinates": [
          121.539208,
          25.289759
        ]
      }
    },
    {
      "type": "Feature",
      "properties": {
        "feature_type": "station",
        "ref": "NWT215011",
        "name": "富基漁港",
        "name_en": "Fuji Fishing Harbor",
        "line": "F152-1545",
        "color": "#6B8F9A",
        "direction": 0,
        "station_id": "75498"
      },
      "geometry": {
        "type": "Point",
        "coordinates": [
          121.531762,
          25.287986
        ]
      }
    },
    {
      "type": "Feature",
      "properties": {
        "feature_type": "station",
        "ref": "NWT157971",
        "name": "白沙灣",
        "name_en": "Baisha Bay",
        "line": "F152-1545",
        "color": "#6B8F9A",
        "direction": 0,
        "station_id": "75486"
      },
      "geometry": {
        "type": "Point",
        "coordinates": [
          121.521395,
          25.2844
        ]
      }
    },
    {
      "type": "Feature",
      "properties": {
        "feature_type": "station",
        "ref": "NWT157974",
        "name": "嘉祿工業",
        "name_en": "Karo's Industria",
        "line": "F152-1545",
        "color": "#6B8F9A",
        "direction": 0,
        "station_id": "75402"
      },
      "geometry": {
        "type": "Point",
        "coordinates": [
          121.5189958,
          25.272987
        ]
      }
    },
    {
      "type": "Feature",
      "properties": {
        "feature_type": "station",
        "ref": "NWT157975",
        "name": "德茂",
        "name_en": "Demao",
        "line": "F152-1545",
        "color": "#6B8F9A",
        "direction": 0,
        "station_id": "75502"
      },
      "geometry": {
        "type": "Point",
        "coordinates": [
          121.531154,
          25.269257
        ]
      }
    },
    {
      "type": "Feature",
      "properties": {
        "feature_type": "station",
        "ref": "NWT215012",
        "name": "白沙灣",
        "name_en": "Baisha Bay",
        "line": "F152-1545",
        "color": "#6B8F9A",
        "direction": 0,
        "station_id": "75485"
      },
      "geometry": {
        "type": "Point",
        "coordinates": [
          121.5225429,
          25.285141
        ]
      }
    },
    {
      "type": "Feature",
      "properties": {
        "feature_type": "station",
        "ref": "NWT157977",
        "name": "崁子腳",
        "name_en": "Kanzijiao",
        "line": "F152-1545",
        "color": "#6B8F9A",
        "direction": 0,
        "station_id": "75512"
      },
      "geometry": {
        "type": "Point",
        "coordinates": [
          121.534276,
          25.288474
        ]
      }
    },
    {
      "type": "Feature",
      "properties": {
        "feature_type": "station",
        "ref": "NWT157978",
        "name": "老梅",
        "name_en": "Laomei",
        "line": "F152-1545",
        "color": "#6B8F9A",
        "direction": 0,
        "station_id": "75538"
      },
      "geometry": {
        "type": "Point",
        "coordinates": [
          121.545697,
          25.289146
        ]
      }
    },
    {
      "type": "Feature",
      "properties": {
        "feature_type": "station",
        "ref": "NWT157979",
        "name": "崩山口",
        "name_en": "Bengshankou",
        "line": "F152-1545",
        "color": "#6B8F9A",
        "direction": 0,
        "station_id": "75545"
      },
      "geometry": {
        "type": "Point",
        "coordinates": [
          121.5528062,
          25.291123
        ]
      }
    },
    {
      "type": "Feature",
      "properties": {
        "feature_type": "station",
        "ref": "NWT157980",
        "name": "石門區公所",
        "name_en": "Shimen District office",
        "line": "F152-1545",
        "color": "#6B8F9A",
        "direction": 0,
        "station_id": "75533"
      },
      "geometry": {
        "type": "Point",
        "coordinates": [
          121.5668883,
          25.290961
        ]
      }
    }
  ]
}
