{
  "type": "FeatureCollection",
  "name": "F151-1730",
  "properties": {
    "id": "new_taipei_f151-1730",
    "name": "F151-1730",
    "name_en": "F151-1730",
    "ref": "F151-1730",
    "color": "#0B7A3E",
    "city_id": "NewTaipei",
    "source": "TDX Bus Shape / StopOfRoute",
    "official_map_url": "https://ebus.gov.taipei/File/Get/10ca87ca-cc72-469c-8d5b-f8367251a245?v=639248448777661085",
    "operator_id": "16231",
    "operator": "石門區公所",
    "operator_en": "Shimen District Office"
  },
  "features": [
    {
      "type": "Feature",
      "properties": {
        "feature_type": "route",
        "ref": "F151-1730",
        "name": "F151-1730",
        "name_en": "F151-1730",
        "color": "#0B7A3E",
        "direction": 0
      },
      "geometry": {
        "type": "LineString",
        "coordinates": [
          [
            121.567591694225,
            25.291420023738
          ],
          [
            121.567693237166,
            25.2916701202386
          ],
          [
            121.56769887844,
            25.2918581627203
          ],
          [
            121.567841790726,
            25.292085224017
          ],
          [
            121.568005387685,
            25.2927104652686
          ],
          [
            121.568505580687,
            25.2946303790067
          ],
          [
            121.568618406176,
            25.2955282818568
          ],
          [
            121.56866947435019,
            25.2959531363905
          ],
          [
            121.56867327695535,
            25.295970959228928
          ],
          [
            121.56868025008602,
            25.29598788151216
          ],
          [
            121.56869021023732,
            25.296003515864474
          ],
          [
            121.56870288131587,
            25.29601742890483
          ],
          [
            121.56871791208201,
            25.296029234966593
          ],
          [
            121.56873458608906,
            25.29603847045283
          ],
          [
            121.569870769104,
            25.296553113382
          ],
          [
            121.57052515694,
            25.2968238945557
          ],
          [
            121.570841068309,
            25.296902872398
          ],
          [
            121.571627085883,
            25.2968351771046
          ],
          [
            121.571867780259,
            25.2968577422024
          ],
          [
            121.57227019117,
            25.2969404808943
          ],
          [
            121.572965948352,
            25.2971623710227
          ],
          [
            121.573695553181,
            25.2973090441584
          ],
          [
            121.57492163310327,
            25.297634586037567
          ],
          [
            121.57496332007744,
            25.297638746476185
          ],
          [
            121.57500380412195,
            25.297629591890257
          ],
          [
            121.57503834709031,
            25.297608300702496
          ],
          [
            121.57506272093131,
            25.29757747894929
          ],
          [
            121.5750739422925,
            25.297540899206012
          ],
          [
            121.57507068918108,
            25.29750321865118
          ],
          [
            121.57500083068,
            25.2972606544183
          ],
          [
            121.574868114984,
            25.2970604930415
          ],
          [
            121.57466783510002,
            25.296910512832625
          ],
          [
            121.5746514755353,
            25.296895457176092
          ],
          [
            121.57463845549583,
            25.296877459644698
          ],
          [
            121.57462960706958,
            25.296857471230094
          ],
          [
            121.57462528061625,
            25.29683628338764
          ],
          [
            121.57462564744478,
            25.296814735064913
          ],
          [
            121.57463061733029,
            25.29679389194927
          ],
          [
            121.57471146695,
            25.2965680670454
          ],
          [
            121.574698412947,
            25.2962554961997
          ],
          [
            121.57452245030274,
            25.295943722521677
          ],
          [
            121.57451403250575,
            25.29592423014854
          ],
          [
            121.57450985434063,
            25.29590332039949
          ],
          [
            121.57451023069682,
            25.295882070175026
          ],
          [
            121.57451514714924,
            25.29586129395418
          ],
          [
            121.57452441526004,
            25.295841788048367
          ],
          [
            121.57453741337301,
            25.295824587622185
          ],
          [
            121.574770935185,
            25.2955737871625
          ],
          [
            121.574947889446,
            25.2952677433181
          ],
          [
            121.575020411684,
            25.2948601683405
          ],
          [
            121.574979799231,
            25.2943539631193
          ],
          [
            121.575113240149,
            25.2935895787308
          ],
          [
            121.575103087035,
            25.2930920761781
          ],
          [
            121.574818799862,
            25.2925423576141
          ],
          [
            121.574762232517,
            25.2923211647882
          ],
          [
            121.574723070508,
            25.2921035980742
          ],
          [
            121.57470690163122,
            25.29118433120878
          ],
          [
            121.57470470764858,
            25.291165256043556
          ],
          [
            121.57469886594149,
            25.291146841496865
          ],
          [
            121.5746895584113,
            25.29112964946376
          ],
          [
            121.57467707521667,
            25.291114215899192
          ],
          [
            121.57466180551636,
            25.291101021938534
          ],
          [
            121.57464453383298,
            25.291090630698534
          ],
          [
            121.573601151486,
            25.2905791806314
          ],
          [
            121.57270375610697,
            25.290418946460104
          ],
          [
            121.57268038278828,
            25.29041241399439
          ],
          [
            121.57265883387814,
            25.290401595011794
          ],
          [
            121.57264018328887,
            25.29038697835652
          ],
          [
            121.57262522553748,
            25.290369186699593
          ],
          [
            121.57261459782576,
            25.290348977967444
          ],
          [
            121.57260873754555,
            25.290327111503185
          ],
          [
            121.572510417027,
            25.2896755535459
          ],
          [
            121.572317507874,
            25.289442757162
          ],
          [
            121.57224933697,
            25.2892150373346
          ],
          [
            121.571779392868,
            25.2886979537777
          ],
          [
            121.571528465924,
            25.288236712344
          ],
          [
            121.571502357919,
            25.2877616916851
          ],
          [
            121.571348610774,
            25.2873164051438
          ],
          [
            121.57182059838829,
            25.287111024209143
          ],
          [
            121.57184248276943,
            25.287098055868398
          ],
          [
            121.571860213572,
            25.287080258899337
          ],
          [
            121.57187235957238,
            25.287058926400054
          ],
          [
            121.57187811382606,
            25.287035475638994
          ],
          [
            121.57187709403735,
            25.287011464615716
          ],
          [
            121.57186947951715,
            25.286988712876354
          ],
          [
            121.57173511435839,
            25.286719659088234
          ],
          [
            121.57172777846883,
            25.28669999165599
          ],
          [
            121.57172467837219,
            25.286679125731197
          ],
          [
            121.57172606033602,
            25.286658107365206
          ],
          [
            121.57173187236965,
            25.286637727286106
          ],
          [
            121.57174189581968,
            25.286618752209133
          ],
          [
            121.57175547283776,
            25.286602177067792
          ],
          [
            121.572183341733,
            25.2861756303401
          ],
          [
            121.572395106668,
            25.2854453314034
          ],
          [
            121.572432818232,
            25.2851871522361
          ],
          [
            121.57230787197754,
            25.284406040175945
          ],
          [
            121.57230683616979,
            25.284384379136554
          ],
          [
            121.57231057859246,
            25.284362857811118
          ],
          [
            121.57231896558226,
            25.28434245054997
          ],
          [
            121.5723316592492,
            25.28432397950847
          ],
          [
            121.57234814819854,
            25.284308188836754
          ],
          [
            121.57236745631441,
            25.28429587368767
          ],
          [
            121.573107275046,
            25.2839201887383
          ],
          [
            121.57368455206,
            25.2837867478204
          ],
          [
            121.573848452318,
            25.2836634600158
          ],
          [
            121.574112433264,
            25.2831369485679
          ],
          [
            121.574327099089,
            25.2829715978653
          ],
          [
            121.574788340522,
            25.2819693405361
          ],
          [
            121.574831853865,
            25.2811715959181
          ],
          [
            121.57475973689546,
            25.28046528508054
          ],
          [
            121.57476019399999,
            25.280441556154237
          ],
          [
            121.57476632894034,
            25.280418418819806
          ],
          [
            121.57477785388673,
            25.280397055147848
          ],
          [
            121.5747942147876,
            25.280378492177924
          ],
          [
            121.57481462510715,
            25.280363622308332
          ],
          [
            121.5748378518612,
            25.28035324311993
          ],
          [
            121.5757194358851,
            25.2800645328618
          ],
          [
            121.57574148216746,
            25.28005482763751
          ],
          [
            121.57576107971971,
            25.280041057404876
          ],
          [
            121.5757771318694,
            25.280023898561513
          ],
          [
            121.5757889465448,
            25.280004090893126
          ],
          [
            121.57579601436841,
            25.279982488386764
          ],
          [
            121.57579803112125,
            25.279960039487246
          ],
          [
            121.575773192514,
            25.2789538658801
          ],
          [
            121.57600961501,
            25.2784752191093
          ],
          [
            121.575995110563,
            25.27835048086
          ],
          [
            121.57577359834308,
            25.27791312672088
          ],
          [
            121.57576620396989,
            25.277893751058656
          ],
          [
            121.5757629283194,
            25.277873165566007
          ],
          [
            121.57576402431106,
            25.277852389038095
          ],
          [
            121.57576945170737,
            25.277832184249732
          ],
          [
            121.57577901125079,
            25.277813292985286
          ],
          [
            121.57579207875949,
            25.277796693631164
          ],
          [
            121.576032822126,
            25.2775469344629
          ],
          [
            121.57607343458,
            25.2771872241625
          ],
          [
            121.576288216638,
            25.2769585839227
          ],
          [
            121.576327262413,
            25.2764852088986
          ],
          [
            121.57684383557556,
            25.27495354068875
          ],
          [
            121.57685271970381,
            25.274934042442535
          ],
          [
            121.57686543151756,
            25.274916644095914
          ],
          [
            121.57688156853995,
            25.274901786159226
          ],
          [
            121.57690053278708,
            25.27489001921774
          ],
          [
            121.57692162150761,
            25.2748817793148
          ],
          [
            121.57694395709807,
            25.274877382033623
          ],
          [
            121.577306312626,
            25.274838954096
          ],
          [
            121.578044589009,
            25.2743371002091
          ],
          [
            121.578692937816,
            25.2733754553332
          ],
          [
            121.579023639222,
            25.2725109902562
          ],
          [
            121.57942541242,
            25.272041046154
          ],
          [
            121.57954434889,
            25.2717828669867
          ],
          [
            121.579628474686,
            25.2713332291111
          ],
          [
            121.579649695146,
            25.270852862328
          ],
          [
            121.58000123899,
            25.2704586109208
          ],
          [
            121.58077673984961,
            25.268919614346043
          ],
          [
            121.58078391568056,
            25.268900905963704
          ],
          [
            121.58078725676216,
            25.268881033232006
          ],
          [
            121.58078651669804,
            25.26886094021579
          ],
          [
            121.58078172087008,
            25.268841316043524
          ],
          [
            121.58077303376035,
            25.26882283376376
          ],
          [
            121.58076101141609,
            25.268806417340716
          ],
          [
            121.580273922605,
            25.2682611871095
          ],
          [
            121.580259418157,
            25.2676650543131
          ],
          [
            121.58000456332881,
            25.26663628260586
          ],
          [
            121.58000168366303,
            25.266612337563167
          ],
          [
            121.58000471302569,
            25.26658824452812
          ],
          [
            121.5800135395681,
            25.266565365079398
          ],
          [
            121.58002772282902,
            25.266544840944984
          ],
          [
            121.58004655503679,
            25.266527696318178
          ],
          [
            121.58006880055648,
            25.266514917157316
          ],
          [
            121.580558209778,
            25.266300185794
          ],
          [
            121.580677146248,
            25.2661696457656
          ],
          [
            121.580769974713,
            25.2657809265699
          ],
          [
            121.580975937868,
            25.2655546571873
          ],
          [
            121.581638791124,
            25.2651412804308
          ],
          [
            121.58230383240185,
            25.264405883713017
          ],
          [
            121.58231912034803,
            25.264391721251894
          ],
          [
            121.58233662900504,
            25.264380518585444
          ],
          [
            121.58235605478554,
            25.264372347307003
          ],
          [
            121.58237677169916,
            25.264367470733706
          ],
          [
            121.58239811214926,
            25.26436604601175
          ],
          [
            121.58241954630323,
            25.26436814777728
          ],
          [
            121.58316054754786,
            25.264502578668868
          ],
          [
            121.58320047007778,
            25.264503669644192
          ],
          [
            121.58323840361629,
            25.264492755867035
          ],
          [
            121.58327028128872,
            25.26447108179237
          ],
          [
            121.58329255249694,
            25.264441061521463
          ],
          [
            121.58330273662972,
            25.264406038771448
          ],
          [
            121.58329974668379,
            25.264370087605588
          ],
          [
            121.583118244779,
            25.2637075157855
          ],
          [
            121.58322230803104,
            25.26347895942467
          ],
          [
            121.58322846600714,
            25.26346104548858
          ],
          [
            121.58323115580642,
            25.26344216440155
          ],
          [
            121.58323018199943,
            25.263423145728883
          ],
          [
            121.58322557454395,
            25.263404574553313
          ],
          [
            121.58321747518191,
            25.263387022190948
          ],
          [
            121.58320638179428,
            25.263371320688616
          ],
          [
            121.58272709230039,
            25.262809841085296
          ],
          [
            121.58271530963464,
            25.26279290348567
          ],
          [
            121.58270703393698,
            25.26277392670886
          ],
          [
            121.58270280643023,
            25.26275387425301
          ],
          [
            121.5827027766754,
            25.262733455535294
          ],
          [
            121.58270694572518,
            25.262713392930515
          ],
          [
            121.58271501373527,
            25.262694670509326
          ],
          [
            121.582965948079,
            25.2622447422451
          ],
          [
            121.58348627241097,
            25.261830447962865
          ],
          [
            121.58350428883354,
            25.261812315915307
          ],
          [
            121.58351755192322,
            25.261790621925897
          ],
          [
            121.58352505554087,
            25.261766750657884
          ],
          [
            121.58352640712451,
            25.261741950969203
          ],
          [
            121.58352153596417,
            25.26171752028938
          ],
          [
            121.58351087754464,
            25.26169502269246
          ],
          [
            121.583225577691,
            25.2612453858054
          ],
          [
            121.583061677433,
            25.2602793895953
          ],
          [
            121.582833957606,
            25.2598478822792
          ],
          [
            121.582931137405,
            25.2590095252079
          ],
          [
            121.583137100561,
            25.2583038838322
          ],
          [
            121.583262482555,
            25.2572118828125
          ],
          [
            121.583194932694,
            25.2570100470835
          ],
          [
            121.583255157871,
            25.2565363842032
          ],
          [
            121.58273900681397,
            25.255471768498005
          ],
          [
            121.58271600331436,
            25.255440323418938
          ],
          [
            121.5826828362921,
            25.25541808918574
          ],
          [
            121.58264334113278,
            25.25540746275783
          ],
          [
            121.58260223288237,
            25.25540971274878
          ],
          [
            121.58256441916217,
            25.255424570548193
          ],
          [
            121.58253417431163,
            25.25545055576541
          ],
          [
            121.58227451122752,
            25.255765122617905
          ],
          [
            121.58224630270405,
            25.25578984946297
          ],
          [
            121.58221120637052,
            25.255804819216547
          ],
          [
            121.58217269224731,
            25.25580874247986
          ],
          [
            121.58213483203697,
            25.25580120448658
          ],
          [
            121.58210162831054,
            25.255783002151293
          ],
          [
            121.58207640242279,
            25.25575577155257
          ],
          [
            121.58188365835318,
            25.255463382092127
          ],
          [
            121.58186301046906,
            25.25543989202105
          ],
          [
            121.58183640289695,
            25.25542262188847
          ],
          [
            121.58180564627388,
            25.255412581021
          ],
          [
            121.5817730517433,
            25.255410523919096
          ],
          [
            121.5817410685545,
            25.255416605159454
          ],
          [
            121.58171177751939,
            25.25543057756896
          ],
          [
            121.58098535814163,
            25.255901223984655
          ],
          [
            121.58094469214805,
            25.25591836880855
          ],
          [
            121.58090034233989,
            25.25592067267924
          ],
          [
            121.58085814645402,
            25.25590802572111
          ],
          [
            121.58082396560886,
            25.25588218462959
          ],
          [
            121.58080254761282,
            25.255846738799605
          ],
          [
            121.58079686427908,
            25.25580665660054
          ],
          [
            121.580819293609,
            25.2554637249659
          ],
          [
            121.58129287465124,
            25.255431537661686
          ],
          [
            121.58131280186112,
            25.25542861133019
          ],
          [
            121.58133195836221,
            25.255422641485207
          ],
          [
            121.58134972908142,
            25.2554138046441
          ],
          [
            121.58136560123037,
            25.255402355801003
          ],
          [
            121.58137911680548,
            25.255388625321476
          ],
          [
            121.58139004142525,
            25.255372733525192
          ],
          [
            121.58167555127561,
            25.25486865957446
          ],
          [
            121.58169335651874,
            25.25484523084559
          ],
          [
            121.58171695505544,
            25.254826997032023
          ],
          [
            121.58174491204633,
            25.25481491115424
          ],
          [
            121.58177534284184,
            25.254809787951057
          ],
          [
            121.58180619602703,
            25.254811972790204
          ],
          [
            121.5818356932644,
            25.254821457822363
          ],
          [
            121.582092974722,
            25.2549396031534
          ],
          [
            121.58226174565702,
            25.254691563802947
          ],
          [
            121.58227730620483,
            25.254673218425495
          ],
          [
            121.58229647836255,
            25.254658491304458
          ],
          [
            121.58231860960899,
            25.254647744260268
          ],
          [
            121.58234272001364,
            25.254641453152075
          ],
          [
            121.58236774201266,
            25.254639896538453
          ],
          [
            121.58239276157124,
            25.25464318824279
          ],
          [
            121.58289985845296,
            25.254759903965496
          ],
          [
            121.58294198178065,
            25.25476266386521
          ],
          [
            121.58298233828616,
            25.254751952623963
          ],
          [
            121.58301610248569,
            25.254729147449044
          ],
          [
            121.58303907480256,
            25.25469708483836
          ],
          [
            121.5830483979498,
            25.254659752725708
          ],
          [
            121.58304298547331,
            25.254622004098536
          ],
          [
            121.582951590424,
            25.2543617669936
          ],
          [
            121.58241026725523,
            25.253570384006114
          ],
          [
            121.58240157437238,
            25.25355494327855
          ],
          [
            121.5823956072171,
            25.25353810548445
          ],
          [
            121.58239272231586,
            25.253520608464342
          ],
          [
            121.58239299630259,
            25.25350291700549
          ],
          [
            121.58239642189916,
            25.253485501060194
          ],
          [
            121.58240278047211,
            25.253469082993096
          ],
          [
            121.58266771611169,
            25.252930486556707
          ],
          [
            121.58267596936214,
            25.252906270805557
          ],
          [
            121.58267781413467,
            25.252880688336926
          ],
          [
            121.58267302060435,
            25.25285542524559
          ],
          [
            121.58266185612489,
            25.25283189055187
          ],
          [
            121.58264494338248,
            25.25281139687668
          ],
          [
            121.58262354647155,
            25.25279527562501
          ],
          [
            121.581987173735,
            25.2524231673704
          ],
          [
            121.58106634250974,
            25.25221899058604
          ],
          [
            121.58104172844493,
            25.25221078783412
          ],
          [
            121.58101952789482,
            25.252197772237633
          ],
          [
            121.58100101804116,
            25.252180624285117
          ],
          [
            121.58098710716561,
            25.25216018542945
          ],
          [
            121.5809784778771,
            25.252137458608686
          ],
          [
            121.58097555352798,
            25.252113559031702
          ],
          [
            121.580975553528,
            25.2518437035032
          ],
          [
            121.58070219266057,
            25.251718258608182
          ],
          [
            121.58067722747607,
            25.251702780668563
          ],
          [
            121.58065714661102,
            25.251681828673163
          ],
          [
            121.58064356957647,
            25.251656917020647
          ],
          [
            121.580637387522,
            25.25162968082565
          ],
          [
            121.58063900621624,
            25.251601907777733
          ],
          [
            121.580648183335,
            25.25157568598463
          ],
          [
            121.58087223584121,
            25.251141162136364
          ],
          [
            121.58087595358111,
            25.251131077198377
          ],
          [
            121.58087708668224,
            25.251120362153134
          ],
          [
            121.5808755165306,
            25.251109692942936
          ],
          [
            121.58087132530139,
            25.251099627949298
          ],
          [
            121.58086473234587,
            25.251090693931587
          ],
          [
            121.58085622234194,
            25.25108345250692
          ],
          [
            121.580771276238,
            25.2510265943421
          ],
          [
            121.57975121087821,
            25.25127786251133
          ],
          [
            121.57972033777017,
            25.25128168252173
          ],
          [
            121.57968963758817,
            25.25127813327942
          ],
          [
            121.57966097548626,
            25.251267504668512
          ],
          [
            121.57963628379123,
            25.251250513243207
          ],
          [
            121.57961722715497,
            25.251228304522634
          ],
          [
            121.57960503197711,
            25.25120218557656
          ],
          [
            121.579207863192,
            25.2499099870024
          ],
          [
            121.579325058131,
            25.2496088611164
          ],
          [
            121.579334824376,
            25.2494249301698
          ],
          [
            121.57913136094,
            25.249055440569
          ],
          [
            121.57895638029699,
            25.248137092634437
          ],
          [
            121.57895465061,
            25.248118809595944
          ],
          [
            121.57895635014447,
            25.248100396098838
          ],
          [
            121.57896145363551,
            25.24808251190194
          ],
          [
            121.57896981321483,
            25.248065675181053
          ],
          [
            121.57898118667242,
            25.248050373762457
          ],
          [
            121.57899493247338,
            25.248037301101633
          ],
          [
            121.579271343784,
            25.2478167551675
          ],
          [
            121.579497595125,
            25.247504235329
          ],
          [
            121.579534218544,
            25.2472193865178
          ],
          [
            121.579832089015,
            25.2469377931217
          ],
          [
            121.57990045273,
            25.2466936369978
          ],
          [
            121.580086011384,
            25.2464999398063
          ],
          [
            121.58072995294953,
            25.246060494585077
          ],
          [
            121.58074962351981,
            25.24604343093457
          ],
          [
            121.5807647219945,
            25.246022425680483
          ],
          [
            121.58077411904422,
            25.245998822858063
          ],
          [
            121.5807773120314,
            25.245973884955784
          ],
          [
            121.5807741301667,
            25.245948945874055
          ],
          [
            121.58076489272963,
            25.245925612192167
          ],
          [
            121.580391206539,
            25.2452449773298
          ],
          [
            121.58069896804103,
            25.245098164076182
          ],
          [
            121.58074085391789,
            25.24508627037299
          ],
          [
            121.58078429119628,
            25.245088909347853
          ],
          [
            121.58082379013308,
            25.245105581684626
          ],
          [
            121.58085408048463,
            25.245134062835422
          ],
          [
            121.58087112068564,
            25.245170552632032
          ],
          [
            121.58087265497173,
            25.245210071966728
          ],
          [
            121.58072814199,
            25.2460865021032
          ],
          [
            121.579928123757,
            25.2467278188552
          ],
          [
            121.579863015457,
            25.2469491870741
          ],
          [
            121.579563517279,
            25.2472242696403
          ],
          [
            121.57950736137,
            25.2475563219687
          ],
          [
            121.579295759396,
            25.2478427984873
          ],
          [
            121.57903818186799,
            25.24805939007508
          ],
          [
            121.57902508430351,
            25.24807246731187
          ],
          [
            121.57901429643017,
            25.248087644800854
          ],
          [
            121.57900642380832,
            25.24810424266682
          ],
          [
            121.57900168482308,
            25.248121800487812
          ],
          [
            121.57900021093312,
            25.248139831212924
          ],
          [
            121.57900201801615,
            25.248157705656737
          ],
          [
            121.579173681335,
            25.2490375357866
          ],
          [
            121.579372261649,
            25.2494216747548
          ],
          [
            121.579367378526,
            25.2496056057014
          ],
          [
            121.579258322124,
            25.2499360303223
          ],
          [
            121.57955232150992,
            25.250968311113695
          ],
          [
            121.57956062036148,
            25.250988833767444
          ],
          [
            121.57957314340628,
            25.251007278221067
          ],
          [
            121.57958944168352,
            25.25102308740078
          ],
          [
            121.57960886477012,
            25.251035630402143
          ],
          [
            121.57963063753972,
            25.251044406665635
          ],
          [
            121.57965379468791,
            25.251049055635157
          ],
          [
            121.580268314623,
            25.2511144905467
          ],
          [
            121.5807196220628,
            25.250998154280026
          ],
          [
            121.580761727451,
            25.250994305079217
          ],
          [
            121.58080245521042,
            25.251004013995722
          ],
          [
            121.58083693619598,
            25.251026014530336
          ],
          [
            121.58086086826233,
            25.25105756170646
          ],
          [
            121.5808712654383,
            25.251094719426106
          ],
          [
            121.58086689272473,
            25.251132655484422
          ],
          [
            121.58064279178389,
            25.251833306462693
          ],
          [
            121.58063831903526,
            25.251856954339384
          ],
          [
            121.58063969575724,
            25.251881121000196
          ],
          [
            121.58064691596536,
            25.251904409446357
          ],
          [
            121.5806596208805,
            25.25192566245257
          ],
          [
            121.58067717918321,
            25.251943823936482
          ],
          [
            121.58069840570836,
            25.251957830136405
          ],
          [
            121.58121482653,
            25.2522229593489
          ],
          [
            121.5822345193632,
            25.2524388270803
          ],
          [
            121.58225303487208,
            25.25244426117916
          ],
          [
            121.58227049062062,
            25.25245245558495
          ],
          [
            121.58228623212415,
            25.25246314945059
          ],
          [
            121.5822998320428,
            25.25247605246614
          ],
          [
            121.58231092117514,
            25.252490814349144
          ],
          [
            121.5823192916707,
            25.25250726603295
          ],
          [
            121.582585356238,
            25.2531654019869
          ],
          [
            121.58240727577412,
            25.253563579314324
          ],
          [
            121.58240126884863,
            25.253581383820507
          ],
          [
            121.58239868057224,
            25.253600127151408
          ],
          [
            121.582399698968,
            25.253618995366615
          ],
          [
            121.58240429319675,
            25.253637417096446
          ],
          [
            121.58241232413542,
            25.253654834491744
          ],
          [
            121.58242330096981,
            25.253670427817557
          ],
          [
            121.58303539751402,
            25.254390275999228
          ],
          [
            121.58304654234598,
            25.254406171203154
          ],
          [
            121.58305462046313,
            25.254423935412145
          ],
          [
            121.58305913094888,
            25.254442719023665
          ],
          [
            121.58305993230519,
            25.254461932778643
          ],
          [
            121.58305699939275,
            25.254480973924025
          ],
          [
            121.58305054332332,
            25.254498991358908
          ],
          [
            121.582912525444,
            25.2547914817716
          ],
          [
            121.58197145114467,
            25.254586830166353
          ],
          [
            121.58194553620115,
            25.254583832769143
          ],
          [
            121.58191971289352,
            25.254586014653828
          ],
          [
            121.58189501903371,
            25.254593232162755
          ],
          [
            121.58187262374041,
            25.254605143586495
          ],
          [
            121.58185358730778,
            25.254621184984536
          ],
          [
            121.58183864429013,
            25.25464087786569
          ],
          [
            121.581546878858,
            25.25513004493
          ],
          [
            121.581196921747,
            25.2554620972584
          ],
          [
            121.580846964637,
            25.2555011622382
          ],
          [
            121.58086694727507,
            25.25575080862483
          ],
          [
            121.5808775857659,
            25.255788458631507
          ],
          [
            121.5809020637693,
            25.255820241869657
          ],
          [
            121.58093725503072,
            25.255842148149437
          ],
          [
            121.5809786587823,
            25.255851375778704
          ],
          [
            121.58102097971296,
            25.255846744594663
          ],
          [
            121.58105912596403,
            25.255828620111462
          ],
          [
            121.58170072436884,
            25.25537703472002
          ],
          [
            121.58172987139487,
            25.255361829678346
          ],
          [
            121.58176211478148,
            25.25535467117087
          ],
          [
            121.58179527538904,
            25.255355887561723
          ],
          [
            121.58182678228776,
            25.25536538454456
          ],
          [
            121.58185419275934,
            25.25538242582178
          ],
          [
            121.58187557739674,
            25.255405980384854
          ],
          [
            121.58207801032637,
            25.25570371618391
          ],
          [
            121.58210336093343,
            25.25573040632605
          ],
          [
            121.5821364230044,
            25.255748156864126
          ],
          [
            121.5821739646409,
            25.2557554175397
          ],
          [
            121.58221209349944,
            25.25575143556079
          ],
          [
            121.58224685635301,
            25.25573662378179
          ],
          [
            121.58227489185555,
            25.255712225049336
          ],
          [
            121.58253361408194,
            25.255402070405918
          ],
          [
            121.58256368297722,
            25.25537641211918
          ],
          [
            121.58260115541907,
            25.255361696903563
          ],
          [
            121.58264188147704,
            25.255359356612026
          ],
          [
            121.58268108738282,
            25.255369665565475
          ],
          [
            121.58271417755506,
            25.25539141538388
          ],
          [
            121.58273740450917,
            25.25542231905853
          ],
          [
            121.583289339729,
            25.2565184794208
          ],
          [
            121.583233997674,
            25.2569937700085
          ],
          [
            121.58330480295,
            25.2571988611525
          ],
          [
            121.583196568796,
            25.2583125865008
          ],
          [
            121.58299350653,
            25.259021128766
          ],
          [
            121.582909380734,
            25.259855134503
          ],
          [
            121.583121145668,
            25.2602605338134
          ],
          [
            121.583282145037,
            25.2612337822474
          ],
          [
            121.58359514719864,
            25.2617053686996
          ],
          [
            121.58360644770434,
            25.26172811936336
          ],
          [
            121.58361177011857,
            25.26175295599727
          ],
          [
            121.58361063439219,
            25.261778240095186
          ],
          [
            121.5836031022374,
            25.261802597788993
          ],
          [
            121.58358958293074,
            25.26182470554882
          ],
          [
            121.5835711245476,
            25.261843114710693
          ],
          [
            121.58271596891151,
            25.26251529307944
          ],
          [
            121.58269632579106,
            25.262535221091063
          ],
          [
            121.58268249132752,
            25.26255927597986
          ],
          [
            121.58267564464728,
            25.26258570524914
          ],
          [
            121.58267621415371,
            25.262612855194185
          ],
          [
            121.58268416421222,
            25.26263902701689
          ],
          [
            121.58269875561321,
            25.262662290026498
          ],
          [
            121.58328612819103,
            25.263371304513257
          ],
          [
            121.58329736437256,
            25.263387856371736
          ],
          [
            121.58330528762971,
            25.263406321486432
          ],
          [
            121.58330939159671,
            25.263425790980754
          ],
          [
            121.58330953940384,
            25.263445615535833
          ],
          [
            121.5833057261217,
            25.263465133991318
          ],
          [
            121.5832982211591,
            25.263483426464884
          ],
          [
            121.583169010346,
            25.2637263715674
          ],
          [
            121.58339550746147,
            25.264412870243486
          ],
          [
            121.583400349832,
            25.26444869209528
          ],
          [
            121.58339194418873,
            25.26448417451325
          ],
          [
            121.58337116448251,
            25.264515149689597
          ],
          [
            121.5833403339908,
            25.26453815444118
          ],
          [
            121.58330289972027,
            25.264550616719106
          ],
          [
            121.58326292146694,
            25.264551125452588
          ],
          [
            121.58242944026054,
            25.264433899479698
          ],
          [
            121.58240881433204,
            25.26443263410476
          ],
          [
            121.58238838288005,
            25.264434611207967
          ],
          [
            121.58236862776334,
            25.26443975439703
          ],
          [
            121.58235013594069,
            25.264447910858873
          ],
          [
            121.58233345683628,
            25.264458838250853
          ],
          [
            121.58231882559055,
            25.264472501378584
          ],
          [
            121.581663448685,
            25.2651978477764
          ],
          [
            121.581019451211,
            25.2655981705301
          ],
          [
            121.580842496951,
            25.265792530128
          ],
          [
            121.58072646137,
            25.2662073573293
          ],
          [
            121.580636533795,
            25.2663407982472
          ],
          [
            121.5801648282101,
            25.266532184142108
          ],
          [
            121.58014224754363,
            25.266544298597033
          ],
          [
            121.58012291657765,
            25.26656083066113
          ],
          [
            121.58010807730183,
            25.266580845825537
          ],
          [
            121.5800984641269,
            25.266603353519535
          ],
          [
            121.58009455281868,
            25.266627239814582
          ],
          [
            121.58009650893845,
            25.266651186398736
          ],
          [
            121.580311634168,
            25.267689711874
          ],
          [
            121.580349345732,
            25.2682466826619
          ],
          [
            121.58082268094205,
            25.268788578767346
          ],
          [
            121.5808343611134,
            25.268804867347423
          ],
          [
            121.58084278487479,
            25.26882314703993
          ],
          [
            121.58084741802278,
            25.26884251700607
          ],
          [
            121.58084810605195,
            25.26886233129934
          ],
          [
            121.580844826018,
            25.268881929155903
          ],
          [
            121.58083781668716,
            25.268900396044497
          ],
          [
            121.580044752333,
            25.2704934215951
          ],
          [
            121.57973364525,
            25.2708345083868
          ],
          [
            121.579700996924,
            25.2713303282216
          ],
          [
            121.579599465791,
            25.2717973714343
          ],
          [
            121.579481979766,
            25.2720729559387
          ],
          [
            121.579075855233,
            25.2725341973724
          ],
          [
            121.57873355027,
            25.2734073651179
          ],
          [
            121.578085201462,
            25.2743835144414
          ],
          [
            121.577306312626,
            25.2748940709969
          ],
          [
            121.57696748358008,
            25.274935963458383
          ],
          [
            121.57694561746092,
            25.274940635047283
          ],
          [
            121.57692500386315,
            25.274949008931664
          ],
          [
            121.57690649307297,
            25.274960771068915
          ],
          [
            121.57689074872505,
            25.27497549977193
          ],
          [
            121.57687833527363,
            25.274992666998575
          ],
          [
            121.57686962924267,
            25.275011861502044
          ],
          [
            121.576367874866,
            25.2764997133462
          ],
          [
            121.576350469529,
            25.2769435494428
          ],
          [
            121.57576154374661,
            25.277700545333992
          ],
          [
            121.5757509225918,
            25.27771729660508
          ],
          [
            121.5757436353844,
            25.277735846493957
          ],
          [
            121.57574014975407,
            25.27775529023571
          ],
          [
            121.57574058050017,
            25.277774987449853
          ],
          [
            121.5757449134361,
            25.277794289407808
          ],
          [
            121.57575285113364,
            25.27781228485775
          ],
          [
            121.576027020347,
            25.2782982648486
          ],
          [
            121.576064731911,
            25.2784723182198
          ],
          [
            121.575828309415,
            25.2789335596535
          ],
          [
            121.57586282083874,
            25.27996671706349
          ],
          [
            121.57586103698168,
            25.279988982752503
          ],
          [
            121.57585427964058,
            25.280010466768115
          ],
          [
            121.57584283441774,
            25.280030235551582
          ],
          [
            121.57582718634703,
            25.280047451327228
          ],
          [
            121.5758079985736,
            25.28006138451258
          ],
          [
            121.57578634533606,
            25.28007135376992
          ],
          [
            121.57489506055185,
            25.2803804380431
          ],
          [
            121.57487232436077,
            25.280391046605242
          ],
          [
            121.57485239700716,
            25.280406004765485
          ],
          [
            121.57483647469947,
            25.28042451972843
          ],
          [
            121.5748253046205,
            25.280445722646324
          ],
          [
            121.57481941094618,
            25.28046861853429
          ],
          [
            121.57481906281905,
            25.280492061199237
          ],
          [
            121.574889871656,
            25.2811657941391
          ],
          [
            121.574840556534,
            25.2819693405361
          ],
          [
            121.574412172525,
            25.2829552963694
          ],
          [
            121.574158847497,
            25.2831717592422
          ],
          [
            121.573909370998,
            25.2836808653529
          ],
          [
            121.573728065403,
            25.2838331620527
          ],
          [
            121.573121779493,
            25.2839840083078
          ],
          [
            121.57243728107647,
            25.2843139561892
          ],
          [
            121.5724176775587,
            25.28432588566045
          ],
          [
            121.57240081646123,
            25.28434134029729
          ],
          [
            121.5723876835583,
            25.284359549215534
          ],
          [
            121.57237880770766,
            25.284379779147983
          ],
          [
            121.57237454633692,
            25.284401215441846
          ],
          [
            121.57237505879849,
            25.28442290332669
          ],
          [
            121.572482133354,
            25.2852147106866
          ],
          [
            121.572440070456,
            25.2854453314034
          ],
          [
            121.572231206411,
            25.2861988374562
          ],
          [
            121.57180400593383,
            25.286619424480424
          ],
          [
            121.5717894768205,
            25.2866371843726
          ],
          [
            121.5717790720591,
            25.28665761910855
          ],
          [
            121.57177352249718,
            25.28667956913093
          ],
          [
            121.57177306704396,
            25.286702089488866
          ],
          [
            121.57177772530677,
            25.286724210678486
          ],
          [
            121.57178712782395,
            25.28674469856822
          ],
          [
            121.5719821966221,
            25.287068270146502
          ],
          [
            121.57199420002495,
            25.287098109637743
          ],
          [
            121.57199616742588,
            25.28713015528899
          ],
          [
            121.57198775806476,
            25.287161324184165
          ],
          [
            121.57196970701845,
            25.28718889179613
          ],
          [
            121.57194359216017,
            25.28721044839216
          ],
          [
            121.57191191771332,
            25.287224048970504
          ],
          [
            121.57047937624353,
            25.287615177853056
          ],
          [
            121.57045825491434,
            25.28762306387706
          ],
          [
            121.57043899127876,
            25.28763460296606
          ],
          [
            121.57042252740142,
            25.28764930279665
          ],
          [
            121.57040947912874,
            25.287666613508094
          ],
          [
            121.57040033454349,
            25.287685887577275
          ],
          [
            121.57039542448163,
            25.287706491812635
          ],
          [
            121.57029938172708,
            25.288449533562414
          ],
          [
            121.57029501382597,
            25.288468568409314
          ],
          [
            121.57028703070594,
            25.28848650978812
          ],
          [
            121.5702756749126,
            25.288502874874226
          ],
          [
            121.57026130753502,
            25.288517143294094
          ],
          [
            121.57024438542402,
            25.288528861343554
          ],
          [
            121.5702257164472,
            25.288537557267812
          ],
          [
            121.569325110117,
            25.2888671623644
          ],
          [
            121.56889228387774,
            25.288927713608018
          ],
          [
            121.56887014537404,
            25.288932853525903
          ],
          [
            121.56884938157538,
            25.288941803195467
          ],
          [
            121.56883088832296,
            25.28895421277124
          ],
          [
            121.56881535223366,
            25.288969621510926
          ],
          [
            121.56880335013082,
            25.28898745731937
          ],
          [
            121.5687952744159,
            25.28900724090559
          ],
          [
            121.568632039255,
            25.2895649342876
          ],
          [
            121.56825914571148,
            25.290516404731335
          ],
          [
            121.56824177340677,
            25.29054574966236
          ],
          [
            121.56821565671395,
            25.290568772117037
          ],
          [
            121.56818313490878,
            25.290583558791017
          ],
          [
            121.56814723124383,
            25.29058873510346
          ],
          [
            121.56811128335205,
            25.29058381986028
          ],
          [
            121.56807831026451,
            25.290569064827775
          ],
          [
            121.56756733748011,
            25.290245948370615
          ],
          [
            121.56753389882473,
            25.29023110660726
          ],
          [
            121.5674974574252,
            25.29022636569767
          ],
          [
            121.56746116468398,
            25.290231972890187
          ],
          [
            121.56742848043972,
            25.290247393643185
          ],
          [
            121.5674025205279,
            25.290271157874344
          ],
          [
            121.56738568267353,
            25.290301214820705
          ],
          [
            121.56721272916045,
            25.290779049129068
          ],
          [
            121.56720825769875,
            25.290795962505193
          ],
          [
            121.56720681217226,
            25.290813535439746
          ],
          [
            121.56720850825695,
            25.290831089796004
          ],
          [
            121.56721330125954,
            25.29084816300185
          ],
          [
            121.56722106488036,
            25.290864305163893
          ],
          [
            121.56723134793778,
            25.29087879845495
          ],
          [
            121.567447371621,
            25.2911337458492
          ],
          [
            121.567697199489,
            25.2916575784767
          ]
        ]
      }
    },
    {
      "type": "Feature",
      "properties": {
        "feature_type": "station",
        "ref": "NWT215223",
        "name": "石門區公所",
        "name_en": "Shimen District office",
        "line": "F151-1730",
        "color": "#0B7A3E",
        "direction": 0,
        "station_id": "75534"
      },
      "geometry": {
        "type": "Point",
        "coordinates": [
          121.567687,
          25.291564
        ]
      }
    },
    {
      "type": "Feature",
      "properties": {
        "feature_type": "station",
        "ref": "NWT215224",
        "name": "尖子鹿",
        "name_en": "Yide St. Intersection",
        "line": "F151-1730",
        "color": "#0B7A3E",
        "direction": 0,
        "station_id": "75601"
      },
      "geometry": {
        "type": "Point",
        "coordinates": [
          121.574864,
          25.297518
        ]
      }
    },
    {
      "type": "Feature",
      "properties": {
        "feature_type": "station",
        "ref": "NWT215225",
        "name": "茄苳腳",
        "name_en": "Jiadongjiao",
        "line": "F151-1730",
        "color": "#0B7A3E",
        "direction": 0,
        "station_id": "1165609215"
      },
      "geometry": {
        "type": "Point",
        "coordinates": [
          121.580451,
          25.269328
        ]
      }
    },
    {
      "type": "Feature",
      "properties": {
        "feature_type": "station",
        "ref": "NWT215226",
        "name": "十塊厝",
        "name_en": "Shikuaicuo",
        "line": "F151-1730",
        "color": "#0B7A3E",
        "direction": 0,
        "station_id": "75583"
      },
      "geometry": {
        "type": "Point",
        "coordinates": [
          121.58288,
          25.258722
        ]
      }
    },
    {
      "type": "Feature",
      "properties": {
        "feature_type": "station",
        "ref": "NWT223773",
        "name": "內阿里磅50號",
        "name_en": "Nei Alibang No. 50",
        "line": "F151-1730",
        "color": "#0B7A3E",
        "direction": 0,
        "station_id": "1165610513"
      },
      "geometry": {
        "type": "Point",
        "coordinates": [
          121.580579,
          25.245421
        ]
      }
    },
    {
      "type": "Feature",
      "properties": {
        "feature_type": "station",
        "ref": "NWT215227",
        "name": "茄苳腳",
        "name_en": "Jiadongjiao",
        "line": "F151-1730",
        "color": "#0B7A3E",
        "direction": 0,
        "station_id": "1165609216"
      },
      "geometry": {
        "type": "Point",
        "coordinates": [
          121.580621,
          25.269534
        ]
      }
    },
    {
      "type": "Feature",
      "properties": {
        "feature_type": "station",
        "ref": "NWT215228",
        "name": "石門區公所",
        "name_en": "Shimen District office",
        "line": "F151-1730",
        "color": "#0B7A3E",
        "direction": 0,
        "station_id": "75534"
      },
      "geometry": {
        "type": "Point",
        "coordinates": [
          121.567687,
          25.291564
        ]
      }
    }
  ]
}
