{
  "type": "FeatureCollection",
  "name": "通勤9",
  "properties": {
    "id": "taipei_tongqin9",
    "name": "通勤9",
    "name_en": "通勤9",
    "ref": "通勤9",
    "color": "#16A34A",
    "city_id": "Taipei",
    "source": "TDX Bus Shape / StopOfRoute",
    "official_map_url": "https://ebus.gov.taipei/File/Get/c0168b2e-5bf2-4c6f-b531-b47911495611?v=639248448913392297",
    "operator_id": "400",
    "operator": "三重客運",
    "operator_en": "San Chung Bus Co., Ltd."
  },
  "features": [
    {
      "type": "Feature",
      "properties": {
        "feature_type": "route",
        "ref": "通勤9",
        "name": "通勤9",
        "name_en": "通勤9",
        "color": "#16A34A",
        "direction": 0
      },
      "geometry": {
        "type": "LineString",
        "coordinates": [
          [
            121.527221418749,
            25.143225921516
          ],
          [
            121.527246474153,
            25.1432022427574
          ],
          [
            121.527254961978,
            25.143174463615
          ],
          [
            121.5273326256296,
            25.142731901840687
          ],
          [
            121.52733715414246,
            25.142714892575167
          ],
          [
            121.52734456225528,
            25.142698873054126
          ],
          [
            121.52735468042144,
            25.14268413701709
          ],
          [
            121.52736724914938,
            25.142671062386075
          ],
          [
            121.52738194610009,
            25.142659984474516
          ],
          [
            121.52739809847584,
            25.14265131826867
          ],
          [
            121.5284890447634,
            25.142170462055113
          ],
          [
            121.52851675514889,
            25.1421534042088
          ],
          [
            121.52853834404861,
            25.142129740696667
          ],
          [
            121.52855178020361,
            25.142101504521094
          ],
          [
            121.5285559835537,
            25.142070965436332
          ],
          [
            121.52855061621418,
            25.142040578315132
          ],
          [
            121.52853632241359,
            25.142013078755667
          ],
          [
            121.528230408849,
            25.1415939973193
          ],
          [
            121.52815597716,
            25.1414769687096
          ],
          [
            121.528043676717,
            25.1412517769785
          ],
          [
            121.5276330801254,
            25.140469196135594
          ],
          [
            121.52762460022109,
            25.140446951393088
          ],
          [
            121.52762157952115,
            25.140423266572284
          ],
          [
            121.52762430357781,
            25.140399551870473
          ],
          [
            121.5276326409701,
            25.140376951393257
          ],
          [
            121.52764618946412,
            25.140356555490943
          ],
          [
            121.5276639795296,
            25.140339589636106
          ],
          [
            121.52834873332564,
            25.139817626222143
          ],
          [
            121.52836769171444,
            25.139799226228597
          ],
          [
            121.52838163757549,
            25.139776985997102
          ],
          [
            121.52838947848775,
            25.139752385715372
          ],
          [
            121.52839077780814,
            25.139726795318772
          ],
          [
            121.52838546318036,
            25.139701639879977
          ],
          [
            121.52837402226677,
            25.139678609405408
          ],
          [
            121.52783396053492,
            25.138866560486452
          ],
          [
            121.52782376798868,
            25.13884690262786
          ],
          [
            121.5278180255936,
            25.138825452700985
          ],
          [
            121.52781716254806,
            25.13880338717954
          ],
          [
            121.52782121455384,
            25.1387816188535
          ],
          [
            121.5278300139906,
            25.13876104821869
          ],
          [
            121.52784294124557,
            25.138742816860837
          ],
          [
            121.528214739019,
            25.1383218823983
          ],
          [
            121.52824281413,
            25.1382296755774
          ],
          [
            121.528246078678,
            25.1380795438098
          ],
          [
            121.528194498823,
            25.137903404729
          ],
          [
            121.52818405227,
            25.1376480617177
          ],
          [
            121.528354461664,
            25.1371769761035
          ],
          [
            121.528624113309,
            25.1364836435312
          ],
          [
            121.528655452967,
            25.1363163683313
          ],
          [
            121.528739678299,
            25.1357631172749
          ],
          [
            121.52882651527,
            25.1353670920094
          ],
          [
            121.528807580893,
            25.135197450943
          ],
          [
            121.528718785194,
            25.1349279162205
          ],
          [
            121.528706379912,
            25.1348475285565
          ],
          [
            121.528715520646,
            25.1346997569773
          ],
          [
            121.528808886712,
            25.1342351619674
          ],
          [
            121.528748166124,
            25.13401645887
          ],
          [
            121.528631948223,
            25.1337829781041
          ],
          [
            121.528570574725,
            25.1336925411305
          ],
          [
            121.528558822353,
            25.1334933431159
          ],
          [
            121.528562086901,
            25.1331534644477
          ],
          [
            121.528547722891,
            25.1329566299342
          ],
          [
            121.528408653156,
            25.1325357694899
          ],
          [
            121.528383842593,
            25.1323418894715
          ],
          [
            121.528318551638,
            25.1318666456853
          ],
          [
            121.528194498823,
            25.1315616375051
          ],
          [
            121.528043023807,
            25.1312199801506
          ],
          [
            121.527955533927,
            25.1310190047898
          ],
          [
            121.527934640822,
            25.1309031482551
          ],
          [
            121.528043023807,
            25.130483462949
          ],
          [
            121.528093950752,
            25.1302399265891
          ],
          [
            121.528079586742,
            25.1299550120759
          ],
          [
            121.52771567688993,
            25.129339973829723
          ],
          [
            121.52770594873014,
            25.129317861961933
          ],
          [
            121.5277017276623,
            25.129294030025164
          ],
          [
            121.52770338759326,
            25.129269936834458
          ],
          [
            121.52771084643774,
            25.129246773822864
          ],
          [
            121.5277237353482,
            25.129225686425123
          ],
          [
            121.52774110688544,
            25.12920797033022
          ],
          [
            121.528134431145,
            25.1288886456346
          ],
          [
            121.528289823618,
            25.1288165296079
          ],
          [
            121.52923040885867,
            25.12856141499639
          ],
          [
            121.52925451756303,
            25.12855187547437
          ],
          [
            121.52927566051564,
            25.128537317773542
          ],
          [
            121.52929243667165,
            25.12851862086395
          ],
          [
            121.52930389773982,
            25.128496841609596
          ],
          [
            121.5293093958703,
            25.12847321110751
          ],
          [
            121.52930863718014,
            25.128449168096015
          ],
          [
            121.52919746169682,
            25.127769904303175
          ],
          [
            121.52919265694317,
            25.127751532496756
          ],
          [
            121.52918449028473,
            25.127734295657902
          ],
          [
            121.5291731881634,
            25.127718599683753
          ],
          [
            121.52915908868938,
            25.127704914129477
          ],
          [
            121.52914261365754,
            25.127693648407227
          ],
          [
            121.52912452598457,
            25.12768523928856
          ],
          [
            121.52854794813881,
            25.127473020756707
          ],
          [
            121.52852156817902,
            25.127466331993233
          ],
          [
            121.52849450065736,
            25.127465295136254
          ],
          [
            121.52846787672881,
            25.127469863957046
          ],
          [
            121.52844307476374,
            25.127479801919254
          ],
          [
            121.52842137880606,
            25.127494594516058
          ],
          [
            121.52840369932711,
            25.127513768939004
          ],
          [
            121.52799207978546,
            25.128077415778307
          ],
          [
            121.5279681753325,
            25.128100734804484
          ],
          [
            121.5279375199933,
            25.128115504432785
          ],
          [
            121.5279032618889,
            25.128120375825613
          ],
          [
            121.52786912955098,
            25.128114818797698
          ],
          [
            121.52783883782324,
            25.128099438156426
          ],
          [
            121.52781550494177,
            25.12807565071552
          ],
          [
            121.52770985876695,
            25.127925103064857
          ],
          [
            121.5276985003257,
            25.12790146890876
          ],
          [
            121.52769529207036,
            25.12787555788285
          ],
          [
            121.52770068608147,
            25.12784995024761
          ],
          [
            121.52771419362777,
            25.12782696621578
          ],
          [
            121.52773459084058,
            25.127808688285118
          ],
          [
            121.52775983821685,
            25.127796831248503
          ],
          [
            121.52822295493128,
            25.127655389407405
          ],
          [
            121.52824179702972,
            25.12764787838842
          ],
          [
            121.52825913855996,
            25.127637379596607
          ],
          [
            121.52827420958083,
            25.12762428753633
          ],
          [
            121.52828654942738,
            25.12760900238309
          ],
          [
            121.52829578091652,
            25.127591991347046
          ],
          [
            121.52830165316794,
            25.12757363124879
          ],
          [
            121.5285023417412,
            25.126656375326636
          ],
          [
            121.52850458668802,
            25.126637578998654
          ],
          [
            121.5285031961374,
            25.12661856829585
          ],
          [
            121.52849818165585,
            25.126600072051875
          ],
          [
            121.52848969770696,
            25.126582660015856
          ],
          [
            121.5284780056261,
            25.126566868539502
          ],
          [
            121.52846377851276,
            25.126553431836477
          ],
          [
            121.527871961505,
            25.1260867293578
          ],
          [
            121.527498497241,
            25.1257237760078
          ],
          [
            121.527202076304,
            25.1254707720577
          ],
          [
            121.526869092432,
            25.1252520532673
          ],
          [
            121.526622292622,
            25.1250900828837
          ],
          [
            121.52643425467,
            25.1249529399093
          ],
          [
            121.526207042146,
            25.1247046634433
          ],
          [
            121.526110411533,
            25.1245497859638
          ],
          [
            121.52579942397422,
            25.123871247006395
          ],
          [
            121.52579152439871,
            25.123842929763494
          ],
          [
            121.5257928127672,
            25.123813482826336
          ],
          [
            121.52580328839665,
            25.12378560324081
          ],
          [
            121.52582207528218,
            25.123761622385175
          ],
          [
            121.52584760240553,
            25.123743545613703
          ],
          [
            121.52587756795529,
            25.12373291955984
          ],
          [
            121.5262185341032,
            25.12366190241551
          ],
          [
            121.52623743951818,
            25.12365637832559
          ],
          [
            121.52625523012897,
            25.12364797811514
          ],
          [
            121.52627122408981,
            25.123636976952202
          ],
          [
            121.52628496852836,
            25.123623686336998
          ],
          [
            121.52629607426793,
            25.12360848259608
          ],
          [
            121.52630431181483,
            25.123591573024413
          ],
          [
            121.526738510522,
            25.1224541916069
          ],
          [
            121.526751568713,
            25.1221846287647
          ],
          [
            121.526773767638,
            25.1218051116499
          ],
          [
            121.526694112672,
            25.121335147234
          ],
          [
            121.526579200591,
            25.1206896082596
          ],
          [
            121.526432948851,
            25.1199825854701
          ],
          [
            121.52613219834404,
            25.118555832321928
          ],
          [
            121.52613067386812,
            25.1185247546728
          ],
          [
            121.52613893652384,
            25.11849442831271
          ],
          [
            121.52615633077538,
            25.118467504405857
          ],
          [
            121.52618141539622,
            25.11844621377253
          ],
          [
            121.52621211196282,
            25.11843232047978
          ],
          [
            121.52624585401435,
            25.118426976253485
          ],
          [
            121.527676088639,
            25.1183911780718
          ],
          [
            121.52913207694,
            25.1183734431029
          ],
          [
            121.529809797056,
            25.1183639844518
          ],
          [
            121.530261610466,
            25.1182090989354
          ],
          [
            121.531687564928,
            25.1179702674491
          ],
          [
            121.532191611102,
            25.1179702674491
          ],
          [
            121.533447809081,
            25.1180140138454
          ],
          [
            121.535084000419,
            25.1180506662194
          ],
          [
            121.537533717059,
            25.1181204239331
          ],
          [
            121.5388325348485,
            25.118146852045825
          ],
          [
            121.53886325737169,
            25.11814382438638
          ],
          [
            121.53889207401349,
            25.11813369733666
          ],
          [
            121.5389170645241,
            25.11811715270171
          ],
          [
            121.53893654735889,
            25.11809530372576
          ],
          [
            121.53894921157008,
            25.11806962056795
          ],
          [
            121.53895420599326,
            25.118041806814723
          ],
          [
            121.539007986828,
            25.1165266275875
          ],
          [
            121.539108534899,
            25.11403539241
          ],
          [
            121.539215612065,
            25.1138261121549
          ],
          [
            121.539377533634,
            25.1130977667788
          ],
          [
            121.539542066841,
            25.1123599579471
          ],
          [
            121.5398502208938,
            25.110823994336293
          ],
          [
            121.53985174936874,
            25.11079585691921
          ],
          [
            121.53984523705724,
            25.110768181477813
          ],
          [
            121.53983110021822,
            25.110742981968812
          ],
          [
            121.53981029994824,
            25.110721971587104
          ],
          [
            121.5397842503588,
            25.110706578728717
          ],
          [
            121.53975487001014,
            25.110697874823643
          ],
          [
            121.537632959311,
            25.1103404199721
          ],
          [
            121.535175407756,
            25.1099454947118
          ],
          [
            121.534235218001,
            25.1097870512847
          ],
          [
            121.533693303072,
            25.1096250604045
          ],
          [
            121.532771394785,
            25.1092892538085
          ],
          [
            121.53027272002448,
            25.108405667841875
          ],
          [
            121.53025492376112,
            25.10839771406539
          ],
          [
            121.53023860599725,
            25.108387010629365
          ],
          [
            121.53022449562658,
            25.108373956261104
          ],
          [
            121.53021299493058,
            25.108358923135906
          ],
          [
            121.53020443178994,
            25.108342339842714
          ],
          [
            121.5301990221619,
            25.108324542935424
          ],
          [
            121.530035703761,
            25.1075357135373
          ],
          [
            121.529636123115,
            25.1065992205014
          ],
          [
            121.52932272653,
            25.1061179643458
          ],
          [
            121.528988436839,
            25.1057407622511
          ],
          [
            121.528677651892,
            25.1054498783364
          ],
          [
            121.528189275547,
            25.1050431126774
          ],
          [
            121.527544200909,
            25.104676549442
          ],
          [
            121.52678552001,
            25.1043832980625
          ],
          [
            121.525966771431,
            25.1042094753403
          ],
          [
            121.52486327743848,
            25.10412681322008
          ],
          [
            121.52482698593224,
            25.10411870684894
          ],
          [
            121.52479518575343,
            25.10410069980559
          ],
          [
            121.52477108951506,
            25.104074577679206
          ],
          [
            121.52475707973016,
            25.1040429232923
          ],
          [
            121.52475454161473,
            25.104008866469027
          ],
          [
            121.52476360686526,
            25.103976028427788
          ],
          [
            121.525350424814,
            25.1027313809849
          ],
          [
            121.525593307167,
            25.1022891316816
          ],
          [
            121.526342847333,
            25.100879599167
          ],
          [
            121.526473429244,
            25.100624178785
          ],
          [
            121.526833835316,
            25.0994582252661
          ],
          [
            121.527285648727,
            25.0978665506949
          ],
          [
            121.527243862515,
            25.0976773458025
          ],
          [
            121.52776579795791,
            25.095908474862526
          ],
          [
            121.52776982829592,
            25.095879998395468
          ],
          [
            121.52776547566987,
            25.095851370395504
          ],
          [
            121.52775299438466,
            25.095824804410576
          ],
          [
            121.52773326912481,
            25.09580218346129
          ],
          [
            121.5277076980343,
            25.095785110940632
          ],
          [
            121.52767827601208,
            25.095774836277077
          ],
          [
            121.52528252222,
            25.0952602275526
          ],
          [
            121.523725985848,
            25.0948676187099
          ],
          [
            121.522054537394,
            25.0944962947295
          ],
          [
            121.521427744224,
            25.0943165451367
          ],
          [
            121.520542398871,
            25.0937985810174
          ],
          [
            121.519181735364,
            25.0928761737315
          ],
          [
            121.517575577866,
            25.0918875346119
          ],
          [
            121.516557038964,
            25.091211092717
          ],
          [
            121.516410787224,
            25.0910928332604
          ],
          [
            121.515368743579,
            25.0904187521756
          ],
          [
            121.513472694239,
            25.089134440042
          ],
          [
            121.512038904862,
            25.0881505011855
          ],
          [
            121.511829565938,
            25.0879704934148
          ],
          [
            121.51129040318,
            25.0876831490856
          ],
          [
            121.51073326833,
            25.0873463481198
          ],
          [
            121.510390416115,
            25.0872011102425
          ],
          [
            121.5084356055,
            25.0866527104968
          ],
          [
            121.507867410902,
            25.0865093498842
          ],
          [
            121.507736076384,
            25.0864229578182
          ],
          [
            121.507505204126,
            25.0863465821728
          ],
          [
            121.505743939117,
            25.0857975525652
          ],
          [
            121.505446708365,
            25.0856811103935
          ],
          [
            121.505103699598,
            25.0855924596652
          ],
          [
            121.502858996558,
            25.0851903585857
          ],
          [
            121.500618210975,
            25.0848024480572
          ],
          [
            121.500131140449,
            25.0847504111855
          ],
          [
            121.499628400093,
            25.084735036651
          ],
          [
            121.499185727417,
            25.0847397672772
          ],
          [
            121.498403541773,
            25.0848864165991
          ],
          [
            121.497736268211,
            25.0850910157626
          ],
          [
            121.496999786236,
            25.085450541788
          ],
          [
            121.496420002554,
            25.0858313543868
          ],
          [
            121.495691355493,
            25.0863434390259
          ],
          [
            121.494695015517,
            25.0869962551358
          ],
          [
            121.494561821968,
            25.087167737051
          ],
          [
            121.493139784963,
            25.0880878221201
          ],
          [
            121.491724277054,
            25.0890528396444
          ],
          [
            121.491254182176,
            25.0893035537362
          ],
          [
            121.490582991157,
            25.0895424412138
          ],
          [
            121.49032966225,
            25.0896181282381
          ],
          [
            121.489585345361,
            25.0897553108504
          ],
          [
            121.489057794443,
            25.0897434847692
          ],
          [
            121.488271691342,
            25.0896630673867
          ],
          [
            121.487237482611,
            25.0893934322479
          ],
          [
            121.486182380774,
            25.0891072399155
          ],
          [
            121.485505966478,
            25.0889511347248
          ],
          [
            121.484944464263,
            25.0887169765655
          ],
          [
            121.484248462681,
            25.088275859219902
          ],
          [
            121.483985993041,
            25.0880405171438
          ],
          [
            121.48319988994,
            25.0872103118341
          ],
          [
            121.482442514859,
            25.0864002057824
          ],
          [
            121.482039016756,
            25.0858975825439
          ],
          [
            121.481681222321,
            25.0853677562836
          ],
          [
            121.481418752681,
            25.0849148003185
          ],
          [
            121.481177176147,
            25.084383787144
          ],
          [
            121.480820687531,
            25.083598498405
          ],
          [
            121.480520349137,
            25.0828557809259
          ],
          [
            121.47968964918353,
            25.080871399503227
          ],
          [
            121.47967410030807,
            25.080845387032245
          ],
          [
            121.47965163917603,
            25.08082433362146
          ],
          [
            121.47962381170464,
            25.080809543855032
          ],
          [
            121.47959265558714,
            25.080802100727766
          ],
          [
            121.47956045226009,
            25.080802549269784
          ],
          [
            121.47952927394121,
            25.08081097432613
          ],
          [
            121.478928555649,
            25.0810569194395
          ],
          [
            121.478453237495,
            25.0811881981936
          ],
          [
            121.477181369687,
            25.0815016108661
          ],
          [
            121.476567634708,
            25.0816352545165
          ],
          [
            121.476109292202,
            25.0816955715144
          ],
          [
            121.475627444953,
            25.0817972824632
          ],
          [
            121.474777356716,
            25.0820054348392
          ],
          [
            121.474121835525,
            25.0821473567107
          ],
          [
            121.473906375373,
            25.0821650969331
          ],
          [
            121.473591672969,
            25.0820846745711
          ],
          [
            121.473184257408,
            25.0819770504451
          ],
          [
            121.472873472461,
            25.0818824357507
          ],
          [
            121.472515678027,
            25.0817771768172
          ],
          [
            121.471903248867,
            25.0816435333219
          ],
          [
            121.471572876633,
            25.0815323607455
          ],
          [
            121.471309101174,
            25.081369149759
          ],
          [
            121.47109625266,
            25.0811716405207
          ],
          [
            121.470964364931,
            25.0810036982828
          ],
          [
            121.470771103703,
            25.0807789864775
          ],
          [
            121.470517774797,
            25.0805046009769
          ],
          [
            121.470301008826,
            25.0802503207614
          ],
          [
            121.470000670432,
            25.079917981637
          ],
          [
            121.469723836781,
            25.0796329498543
          ],
          [
            121.469454838046,
            25.0793715715782
          ],
          [
            121.469352984156,
            25.0792355600373
          ],
          [
            121.469326867774,
            25.079203626871
          ],
          [
            121.469086597058,
            25.0785413074701
          ],
          [
            121.468923696125,
            25.0780649675074
          ]
        ]
      }
    },
    {
      "type": "Feature",
      "properties": {
        "feature_type": "station",
        "ref": "TPE201638",
        "name": "惇敘工商(行義)",
        "name_en": "Dunxu High School of Industry and Commerce",
        "line": "通勤9",
        "color": "#16A34A",
        "direction": 0,
        "station_id": "7209"
      },
      "geometry": {
        "type": "Point",
        "coordinates": [
          121.52715689953087,
          25.143236986588352
        ]
      }
    },
    {
      "type": "Feature",
      "properties": {
        "feature_type": "station",
        "ref": "TPE201594",
        "name": "行義路402巷",
        "name_en": "Lane 402 Xingyi Rd.",
        "line": "通勤9",
        "color": "#16A34A",
        "direction": 0,
        "station_id": "188"
      },
      "geometry": {
        "type": "Point",
        "coordinates": [
          121.52766,
          25.14028
        ]
      }
    },
    {
      "type": "Feature",
      "properties": {
        "feature_type": "station",
        "ref": "TPE201595",
        "name": "行義路溫泉區",
        "name_en": "Xingyi Rd. hot spring area",
        "line": "通勤9",
        "color": "#16A34A",
        "direction": 0,
        "station_id": "7216"
      },
      "geometry": {
        "type": "Point",
        "coordinates": [
          121.528164,
          25.137649
        ]
      }
    },
    {
      "type": "Feature",
      "properties": {
        "feature_type": "station",
        "ref": "TPE201596",
        "name": "行義路260巷",
        "name_en": "Lane 260 Xingyi Rd.",
        "line": "通勤9",
        "color": "#16A34A",
        "direction": 0,
        "station_id": "7217"
      },
      "geometry": {
        "type": "Point",
        "coordinates": [
          121.5286395,
          25.13577979
        ]
      }
    },
    {
      "type": "Feature",
      "properties": {
        "feature_type": "station",
        "ref": "TPE201597",
        "name": "行義路186巷",
        "name_en": "Lane 186 Xingyi Rd.",
        "line": "通勤9",
        "color": "#16A34A",
        "direction": 0,
        "station_id": "7218"
      },
      "geometry": {
        "type": "Point",
        "coordinates": [
          121.5283054,
          25.13284684
        ]
      }
    },
    {
      "type": "Feature",
      "properties": {
        "feature_type": "station",
        "ref": "TPE201598",
        "name": "行義路154巷",
        "name_en": "Lane 154 Xingyi Rd.",
        "line": "通勤9",
        "color": "#16A34A",
        "direction": 0,
        "station_id": "7214"
      },
      "geometry": {
        "type": "Point",
        "coordinates": [
          121.5279257,
          25.13056285
        ]
      }
    },
    {
      "type": "Feature",
      "properties": {
        "feature_type": "station",
        "ref": "TPE201599",
        "name": "明山宮",
        "name_en": "Mingshan Temple",
        "line": "通勤9",
        "color": "#16A34A",
        "direction": 0,
        "station_id": "14614"
      },
      "geometry": {
        "type": "Point",
        "coordinates": [
          121.5291514,
          25.1281062
        ]
      }
    },
    {
      "type": "Feature",
      "properties": {
        "feature_type": "station",
        "ref": "TPE201600",
        "name": "磺溪",
        "name_en": "Huangxi",
        "line": "通勤9",
        "color": "#16A34A",
        "direction": 0,
        "station_id": "14615"
      },
      "geometry": {
        "type": "Point",
        "coordinates": [
          121.527588,
          25.125905
        ]
      }
    },
    {
      "type": "Feature",
      "properties": {
        "feature_type": "station",
        "ref": "TPE201601",
        "name": "五福宮(行義路)",
        "name_en": "Wufu Temple (Xingyi Rd.)",
        "line": "通勤9",
        "color": "#16A34A",
        "direction": 0,
        "station_id": "14617"
      },
      "geometry": {
        "type": "Point",
        "coordinates": [
          121.52614,
          25.1246
        ]
      }
    },
    {
      "type": "Feature",
      "properties": {
        "feature_type": "station",
        "ref": "TPE201602",
        "name": "天北站",
        "name_en": "Tianbei Stop",
        "line": "通勤9",
        "color": "#16A34A",
        "direction": 0,
        "station_id": "634"
      },
      "geometry": {
        "type": "Point",
        "coordinates": [
          121.5265869,
          25.12283081
        ]
      }
    },
    {
      "type": "Feature",
      "properties": {
        "feature_type": "station",
        "ref": "TPE201603",
        "name": "天玉里",
        "name_en": "Tianyu Village",
        "line": "通勤9",
        "color": "#16A34A",
        "direction": 0,
        "station_id": "50648"
      },
      "geometry": {
        "type": "Point",
        "coordinates": [
          121.52664417791,
          25.1214083603177
        ]
      }
    },
    {
      "type": "Feature",
      "properties": {
        "feature_type": "station",
        "ref": "TPE201604",
        "name": "天母國小",
        "name_en": "Tianmu Elementary School",
        "line": "通勤9",
        "color": "#16A34A",
        "direction": 0,
        "station_id": "50655"
      },
      "geometry": {
        "type": "Point",
        "coordinates": [
          121.52615807606,
          25.118950713724
        ]
      }
    },
    {
      "type": "Feature",
      "properties": {
        "feature_type": "station",
        "ref": "TPE201605",
        "name": "齊福華廈",
        "name_en": "Qifu Mansion",
        "line": "通勤9",
        "color": "#16A34A",
        "direction": 0,
        "station_id": "3890"
      },
      "geometry": {
        "type": "Point",
        "coordinates": [
          121.5275693,
          25.11838172
        ]
      }
    },
    {
      "type": "Feature",
      "properties": {
        "feature_type": "station",
        "ref": "TPE201606",
        "name": "三玉宮",
        "name_en": "Sanyu Temple",
        "line": "通勤9",
        "color": "#16A34A",
        "direction": 0,
        "station_id": "561"
      },
      "geometry": {
        "type": "Point",
        "coordinates": [
          121.5308437,
          25.118085
        ]
      }
    },
    {
      "type": "Feature",
      "properties": {
        "feature_type": "station",
        "ref": "TPE201607",
        "name": "忠誠路口",
        "name_en": "Zhongcheng Rd. Entrance",
        "line": "通勤9",
        "color": "#16A34A",
        "direction": 0,
        "station_id": "50653"
      },
      "geometry": {
        "type": "Point",
        "coordinates": [
          121.53533,
          25.11807
        ]
      }
    },
    {
      "type": "Feature",
      "properties": {
        "feature_type": "station",
        "ref": "TPE201608",
        "name": "天母國中",
        "name_en": "Tianmu Junior High School",
        "line": "通勤9",
        "color": "#16A34A",
        "direction": 0,
        "station_id": "50657"
      },
      "geometry": {
        "type": "Point",
        "coordinates": [
          121.53707,
          25.11807
        ]
      }
    },
    {
      "type": "Feature",
      "properties": {
        "feature_type": "station",
        "ref": "TPE201609",
        "name": "東山路",
        "name_en": "Terminal Stop DongShan Rd.",
        "line": "通勤9",
        "color": "#16A34A",
        "direction": 0,
        "station_id": "725"
      },
      "geometry": {
        "type": "Point",
        "coordinates": [
          121.53898,
          25.11525
        ]
      }
    },
    {
      "type": "Feature",
      "properties": {
        "feature_type": "station",
        "ref": "TPE201610",
        "name": "職能發展學院二",
        "name_en": "Taipei Vocational Development Institute 2",
        "line": "通勤9",
        "color": "#16A34A",
        "direction": 0,
        "station_id": "949"
      },
      "geometry": {
        "type": "Point",
        "coordinates": [
          121.53938898702161,
          25.11296710251853
        ]
      }
    },
    {
      "type": "Feature",
      "properties": {
        "feature_type": "station",
        "ref": "TPE201611",
        "name": "忠孝新村",
        "name_en": "Zhongxiao New Village",
        "line": "通勤9",
        "color": "#16A34A",
        "direction": 0,
        "station_id": "715"
      },
      "geometry": {
        "type": "Point",
        "coordinates": [
          121.53973,
          25.11119
        ]
      }
    },
    {
      "type": "Feature",
      "properties": {
        "feature_type": "station",
        "ref": "TPE201612",
        "name": "芝山國小",
        "name_en": "Zhishan Elementary School",
        "line": "通勤9",
        "color": "#16A34A",
        "direction": 0,
        "station_id": "50664"
      },
      "geometry": {
        "type": "Point",
        "coordinates": [
          121.537252,
          25.110333
        ]
      }
    },
    {
      "type": "Feature",
      "properties": {
        "feature_type": "station",
        "ref": "TPE201613",
        "name": "德行芝玉路口",
        "name_en": "Dexing and Zhiyu Intersection",
        "line": "通勤9",
        "color": "#16A34A",
        "direction": 0,
        "station_id": "59004"
      },
      "geometry": {
        "type": "Point",
        "coordinates": [
          121.533503,
          25.109595
        ]
      }
    },
    {
      "type": "Feature",
      "properties": {
        "feature_type": "station",
        "ref": "TPE201614",
        "name": "德行東路",
        "name_en": "Dexing E. Rd.",
        "line": "通勤9",
        "color": "#16A34A",
        "direction": 0,
        "station_id": "1000288"
      },
      "geometry": {
        "type": "Point",
        "coordinates": [
          121.53168417722993,
          25.108980959639226
        ]
      }
    },
    {
      "type": "Feature",
      "properties": {
        "feature_type": "station",
        "ref": "TPE201615",
        "name": "蘭雅新城",
        "name_en": "Lanya New Village",
        "line": "通勤9",
        "color": "#16A34A",
        "direction": 0,
        "station_id": "50658"
      },
      "geometry": {
        "type": "Point",
        "coordinates": [
          121.529800366051,
          25.107166732371
        ]
      }
    },
    {
      "type": "Feature",
      "properties": {
        "feature_type": "station",
        "ref": "TPE201616",
        "name": "雨農國小",
        "name_en": "Yunong Elementary School",
        "line": "通勤9",
        "color": "#16A34A",
        "direction": 0,
        "station_id": "3952"
      },
      "geometry": {
        "type": "Point",
        "coordinates": [
          121.528560201223,
          25.1054396312581
        ]
      }
    },
    {
      "type": "Feature",
      "properties": {
        "feature_type": "station",
        "ref": "TPE201617",
        "name": "忠誠公園",
        "name_en": "Zhongcheng park",
        "line": "通勤9",
        "color": "#16A34A",
        "direction": 0,
        "station_id": "718"
      },
      "geometry": {
        "type": "Point",
        "coordinates": [
          121.525920635582,
          25.1043342088164
        ]
      }
    },
    {
      "type": "Feature",
      "properties": {
        "feature_type": "station",
        "ref": "TPE201618",
        "name": "德行(中山忠誠路口)",
        "name_en": "Dexing (Zhongshan & Zhongcheng Rd. Intersection)",
        "line": "通勤9",
        "color": "#16A34A",
        "direction": 0,
        "station_id": "922"
      },
      "geometry": {
        "type": "Point",
        "coordinates": [
          121.524957,
          25.103354
        ]
      }
    },
    {
      "type": "Feature",
      "properties": {
        "feature_type": "station",
        "ref": "TPE201619",
        "name": "福林橋",
        "name_en": "Fulin Bridge",
        "line": "通勤9",
        "color": "#16A34A",
        "direction": 0,
        "station_id": "897"
      },
      "geometry": {
        "type": "Point",
        "coordinates": [
          121.527411,
          25.097079
        ]
      }
    },
    {
      "type": "Feature",
      "properties": {
        "feature_type": "station",
        "ref": "TPE201620",
        "name": "捷運士林站(中正)",
        "name_en": "MRT Shilin Sta. (Zhongzheng)",
        "line": "通勤9",
        "color": "#16A34A",
        "direction": 0,
        "station_id": "797"
      },
      "geometry": {
        "type": "Point",
        "coordinates": [
          121.526622,
          25.095583
        ]
      }
    },
    {
      "type": "Feature",
      "properties": {
        "feature_type": "station",
        "ref": "TPE201621",
        "name": "士林國中",
        "name_en": "Shilin Jr. High School",
        "line": "通勤9",
        "color": "#16A34A",
        "direction": 0,
        "station_id": "1165604814"
      },
      "geometry": {
        "type": "Point",
        "coordinates": [
          121.522929,
          25.094772
        ]
      }
    },
    {
      "type": "Feature",
      "properties": {
        "feature_type": "station",
        "ref": "TPE201622",
        "name": "士林區行政中心(中正)",
        "name_en": "Shilin Admin. Center",
        "line": "通勤9",
        "color": "#16A34A",
        "direction": 0,
        "station_id": "575"
      },
      "geometry": {
        "type": "Point",
        "coordinates": [
          121.519396,
          25.093132
        ]
      }
    },
    {
      "type": "Feature",
      "properties": {
        "feature_type": "station",
        "ref": "TPE201623",
        "name": "陽明高中",
        "name_en": "Yangming High School",
        "line": "通勤9",
        "color": "#16A34A",
        "direction": 0,
        "station_id": "1000115"
      },
      "geometry": {
        "type": "Point",
        "coordinates": [
          121.517889,
          25.092141
        ]
      }
    },
    {
      "type": "Feature",
      "properties": {
        "feature_type": "station",
        "ref": "TPE201624",
        "name": "重陽橋",
        "name_en": "Chongyang Bridge",
        "line": "通勤9",
        "color": "#16A34A",
        "direction": 0,
        "station_id": "7257"
      },
      "geometry": {
        "type": "Point",
        "coordinates": [
          121.508523654187,
          25.0867169999545
        ]
      }
    },
    {
      "type": "Feature",
      "properties": {
        "feature_type": "station",
        "ref": "TPE201625",
        "name": "五華國小",
        "name_en": "Wuhua Elementary School",
        "line": "通勤9",
        "color": "#16A34A",
        "direction": 0,
        "station_id": "4038"
      },
      "geometry": {
        "type": "Point",
        "coordinates": [
          121.49249,
          25.08862
        ]
      }
    },
    {
      "type": "Feature",
      "properties": {
        "feature_type": "station",
        "ref": "TPE201626",
        "name": "吉祥街口",
        "name_en": "Jixiang St. Entrance",
        "line": "通勤9",
        "color": "#16A34A",
        "direction": 0,
        "station_id": "4046"
      },
      "geometry": {
        "type": "Point",
        "coordinates": [
          121.48964,
          25.08983
        ]
      }
    },
    {
      "type": "Feature",
      "properties": {
        "feature_type": "station",
        "ref": "TPE201627",
        "name": "自然公園",
        "name_en": "Nature Park",
        "line": "通勤9",
        "color": "#16A34A",
        "direction": 0,
        "station_id": "4048"
      },
      "geometry": {
        "type": "Point",
        "coordinates": [
          121.48748,
          25.08957
        ]
      }
    },
    {
      "type": "Feature",
      "properties": {
        "feature_type": "station",
        "ref": "TPE201629",
        "name": "集賢路",
        "name_en": "Jixian Rd.",
        "line": "通勤9",
        "color": "#16A34A",
        "direction": 0,
        "station_id": "1165603255"
      },
      "geometry": {
        "type": "Point",
        "coordinates": [
          121.48288,
          25.087002
        ]
      }
    },
    {
      "type": "Feature",
      "properties": {
        "feature_type": "station",
        "ref": "TPE201630",
        "name": "尼加拉瓜公園",
        "name_en": "Nicaragua Park",
        "line": "通勤9",
        "color": "#16A34A",
        "direction": 0,
        "station_id": "3657"
      },
      "geometry": {
        "type": "Point",
        "coordinates": [
          121.4808989,
          25.08402005
        ]
      }
    },
    {
      "type": "Feature",
      "properties": {
        "feature_type": "station",
        "ref": "TPE201631",
        "name": "捷運徐匯中學站(集賢路)",
        "name_en": "MRT St. Ignatius High School Station(Jixian Rd.)",
        "line": "通勤9",
        "color": "#16A34A",
        "direction": 0,
        "station_id": "5012"
      },
      "geometry": {
        "type": "Point",
        "coordinates": [
          121.47994,
          25.08181
        ]
      }
    },
    {
      "type": "Feature",
      "properties": {
        "feature_type": "station",
        "ref": "TPE201632",
        "name": "民和公寓",
        "name_en": "Minhe Apartment",
        "line": "通勤9",
        "color": "#16A34A",
        "direction": 0,
        "station_id": "15087"
      },
      "geometry": {
        "type": "Point",
        "coordinates": [
          121.4791180235,
          25.0810914736106
        ]
      }
    },
    {
      "type": "Feature",
      "properties": {
        "feature_type": "station",
        "ref": "TPE201633",
        "name": "溪墘",
        "name_en": "XiQian",
        "line": "通勤9",
        "color": "#16A34A",
        "direction": 0,
        "station_id": "3683"
      },
      "geometry": {
        "type": "Point",
        "coordinates": [
          121.47682,
          25.08167
        ]
      }
    },
    {
      "type": "Feature",
      "properties": {
        "feature_type": "station",
        "ref": "TPE201634",
        "name": "蘆洲派出所",
        "name_en": "Luzhou Police Station",
        "line": "通勤9",
        "color": "#16A34A",
        "direction": 0,
        "station_id": "1000394"
      },
      "geometry": {
        "type": "Point",
        "coordinates": [
          121.4735458,
          25.08207017
        ]
      }
    },
    {
      "type": "Feature",
      "properties": {
        "feature_type": "station",
        "ref": "TPE201635",
        "name": "蘆洲監理站",
        "name_en": "Luzhou Motor Vehicles Office",
        "line": "通勤9",
        "color": "#16A34A",
        "direction": 0,
        "station_id": "15085"
      },
      "geometry": {
        "type": "Point",
        "coordinates": [
          121.4714493,
          25.08145684
        ]
      }
    },
    {
      "type": "Feature",
      "properties": {
        "feature_type": "station",
        "ref": "TPE201636",
        "name": "和平路口",
        "name_en": "Heping Rd. Entrance",
        "line": "通勤9",
        "color": "#16A34A",
        "direction": 0,
        "station_id": "15084"
      },
      "geometry": {
        "type": "Point",
        "coordinates": [
          121.4694739,
          25.0795305
        ]
      }
    },
    {
      "type": "Feature",
      "properties": {
        "feature_type": "station",
        "ref": "TPE201637",
        "name": "永安里",
        "name_en": "Yongan Village",
        "line": "通勤9",
        "color": "#16A34A",
        "direction": 0,
        "station_id": "15088"
      },
      "geometry": {
        "type": "Point",
        "coordinates": [
          121.468829,
          25.077997
        ]
      }
    }
  ]
}
