{
  "type": "FeatureCollection",
  "name": "12",
  "properties": {
    "id": "taoyuan_12",
    "name": "12",
    "name_en": "12",
    "ref": "12",
    "color": "#9a3412",
    "city_id": "Taoyuan",
    "source": "TDX Bus Shape / StopOfRoute",
    "operator_id": "4",
    "operator": "統聯客運",
    "operator_en": "United Highway Bus Co., Ltd.",
    "official_map_url": "https://ebus.tycg.gov.tw/cms/api/route/12/map/latest"
  },
  "features": [
    {
      "type": "Feature",
      "properties": {
        "feature_type": "route",
        "ref": "12",
        "name": "12",
        "name_en": "12",
        "color": "#9a3412",
        "direction": 0
      },
      "geometry": {
        "type": "LineString",
        "coordinates": [
          [
            121.28102,
            24.93564
          ],
          [
            121.28105,
            24.93144
          ],
          [
            121.28098,
            24.92478
          ],
          [
            121.28608,
            24.92478
          ],
          [
            121.28788,
            24.92499
          ],
          [
            121.29335,
            24.92536
          ],
          [
            121.29614,
            24.92453
          ],
          [
            121.29647,
            24.92547
          ],
          [
            121.29662,
            24.92629
          ],
          [
            121.29701,
            24.92919
          ],
          [
            121.29755,
            24.93276
          ],
          [
            121.29757,
            24.93356
          ],
          [
            121.29737,
            24.93601
          ],
          [
            121.29751,
            24.93941
          ],
          [
            121.29746,
            24.94676
          ],
          [
            121.29943,
            24.95897
          ],
          [
            121.30005,
            24.96264
          ],
          [
            121.3004,
            24.96415
          ],
          [
            121.30703,
            24.96318
          ],
          [
            121.31076,
            24.96315
          ],
          [
            121.31181,
            24.96286
          ],
          [
            121.31851,
            24.96052
          ],
          [
            121.31845,
            24.96035
          ],
          [
            121.31906,
            24.96018
          ],
          [
            121.31901,
            24.95999
          ],
          [
            121.31842,
            24.96019
          ],
          [
            121.31855,
            24.96051
          ],
          [
            121.31994,
            24.96005
          ],
          [
            121.32229,
            24.96052
          ],
          [
            121.32333,
            24.96086
          ],
          [
            121.32512,
            24.96173
          ],
          [
            121.32553,
            24.96205
          ],
          [
            121.32601,
            24.96253
          ],
          [
            121.32572,
            24.96303
          ],
          [
            121.32543,
            24.96331
          ],
          [
            121.32506,
            24.96349
          ],
          [
            121.32443,
            24.9637
          ],
          [
            121.32396,
            24.96396
          ],
          [
            121.32369,
            24.96415
          ],
          [
            121.32308,
            24.96508
          ],
          [
            121.32254,
            24.96579
          ],
          [
            121.32209,
            24.96623
          ],
          [
            121.32117,
            24.9672
          ],
          [
            121.32041,
            24.96786
          ],
          [
            121.31898,
            24.96895
          ],
          [
            121.31661,
            24.97038
          ],
          [
            121.31535,
            24.97104
          ],
          [
            121.31324,
            24.97196
          ],
          [
            121.31171,
            24.97251
          ],
          [
            121.3099,
            24.97308
          ],
          [
            121.30855,
            24.97342
          ],
          [
            121.30593,
            24.97394
          ],
          [
            121.2947,
            24.97567
          ],
          [
            121.29291,
            24.97599
          ],
          [
            121.291,
            24.97649
          ],
          [
            121.28936,
            24.97711
          ],
          [
            121.28832,
            24.97762
          ],
          [
            121.28729,
            24.97827
          ],
          [
            121.28625,
            24.97904
          ],
          [
            121.28531,
            24.9799
          ],
          [
            121.28386,
            24.98162
          ],
          [
            121.28312,
            24.98284
          ],
          [
            121.28232,
            24.98463
          ],
          [
            121.28185,
            24.98653
          ],
          [
            121.28167,
            24.98817
          ],
          [
            121.2818,
            24.99016
          ],
          [
            121.28199,
            24.99127
          ],
          [
            121.28297,
            24.99531
          ],
          [
            121.28342,
            24.99804
          ],
          [
            121.28348,
            25.00047
          ],
          [
            121.28313,
            25.0035
          ],
          [
            121.28274,
            25.00502
          ],
          [
            121.2823,
            25.00629
          ],
          [
            121.28135,
            25.0084
          ],
          [
            121.2802,
            25.0103
          ],
          [
            121.27845,
            25.01254
          ],
          [
            121.27782,
            25.01351
          ],
          [
            121.27763,
            25.01398
          ],
          [
            121.27728,
            25.01537
          ],
          [
            121.27651,
            25.01688
          ],
          [
            121.27636,
            25.01742
          ],
          [
            121.27631,
            25.01777
          ],
          [
            121.27635,
            25.01828
          ],
          [
            121.27659,
            25.01895
          ],
          [
            121.27778,
            25.02128
          ],
          [
            121.27832,
            25.0225
          ],
          [
            121.27866,
            25.02301
          ],
          [
            121.27925,
            25.02368
          ],
          [
            121.28,
            25.02433
          ],
          [
            121.28242,
            25.02643
          ],
          [
            121.28364,
            25.02753
          ],
          [
            121.28489,
            25.02857
          ],
          [
            121.28637,
            25.0298
          ],
          [
            121.28776,
            25.03091
          ],
          [
            121.29034,
            25.03283
          ],
          [
            121.29292,
            25.03461
          ],
          [
            121.29431,
            25.03556
          ],
          [
            121.29569,
            25.03646
          ],
          [
            121.29844,
            25.03813
          ],
          [
            121.30139,
            25.03979
          ],
          [
            121.30437,
            25.04135
          ],
          [
            121.3069,
            25.04259
          ],
          [
            121.30951,
            25.04373
          ],
          [
            121.31236,
            25.04493
          ],
          [
            121.31528,
            25.04606
          ],
          [
            121.31832,
            25.04712
          ],
          [
            121.32121,
            25.04833
          ],
          [
            121.32296,
            25.04941
          ],
          [
            121.32465,
            25.05083
          ],
          [
            121.32594,
            25.0523
          ],
          [
            121.32709,
            25.05387
          ],
          [
            121.32966,
            25.05713
          ],
          [
            121.33108,
            25.05865
          ],
          [
            121.33262,
            25.05993
          ],
          [
            121.33449,
            25.06139
          ],
          [
            121.33659,
            25.06267
          ],
          [
            121.33768,
            25.06329
          ],
          [
            121.33888,
            25.0638
          ],
          [
            121.34033,
            25.06434
          ],
          [
            121.34166,
            25.06471
          ],
          [
            121.34308,
            25.06505
          ],
          [
            121.34453,
            25.06524
          ],
          [
            121.34598,
            25.06539
          ],
          [
            121.34806,
            25.06546
          ],
          [
            121.35032,
            25.06539
          ],
          [
            121.35181,
            25.06518
          ],
          [
            121.35297,
            25.06491
          ],
          [
            121.35512,
            25.06426
          ],
          [
            121.36384,
            25.06426
          ],
          [
            121.36645,
            25.06439
          ],
          [
            121.3665,
            25.06357
          ],
          [
            121.36732,
            25.06299
          ]
        ]
      }
    },
    {
      "type": "Feature",
      "properties": {
        "feature_type": "route",
        "ref": "12",
        "name": "12",
        "name_en": "12",
        "color": "#9a3412",
        "direction": 0
      },
      "geometry": {
        "type": "LineString",
        "coordinates": [
          [
            121.28102,
            24.93564
          ],
          [
            121.28105,
            24.93144
          ],
          [
            121.28098,
            24.92478
          ],
          [
            121.28608,
            24.92478
          ],
          [
            121.28788,
            24.92499
          ],
          [
            121.29335,
            24.92536
          ],
          [
            121.29614,
            24.92453
          ],
          [
            121.29647,
            24.92547
          ],
          [
            121.29662,
            24.92629
          ],
          [
            121.29701,
            24.92919
          ],
          [
            121.29755,
            24.93276
          ],
          [
            121.29757,
            24.93356
          ],
          [
            121.29737,
            24.93601
          ],
          [
            121.29751,
            24.93941
          ],
          [
            121.29746,
            24.94676
          ],
          [
            121.29943,
            24.95897
          ],
          [
            121.30005,
            24.96264
          ],
          [
            121.3004,
            24.96415
          ],
          [
            121.30703,
            24.96318
          ],
          [
            121.31076,
            24.96315
          ],
          [
            121.31181,
            24.96286
          ],
          [
            121.31851,
            24.96052
          ],
          [
            121.31845,
            24.96035
          ],
          [
            121.31906,
            24.96018
          ],
          [
            121.31901,
            24.95999
          ],
          [
            121.31842,
            24.96019
          ],
          [
            121.31855,
            24.96051
          ],
          [
            121.31994,
            24.96005
          ],
          [
            121.32229,
            24.96052
          ],
          [
            121.32333,
            24.96086
          ],
          [
            121.32512,
            24.96173
          ],
          [
            121.32553,
            24.96205
          ],
          [
            121.32601,
            24.96253
          ],
          [
            121.32572,
            24.96303
          ],
          [
            121.32543,
            24.96331
          ],
          [
            121.32506,
            24.96349
          ],
          [
            121.32443,
            24.9637
          ],
          [
            121.32396,
            24.96396
          ],
          [
            121.32369,
            24.96415
          ],
          [
            121.32308,
            24.96508
          ],
          [
            121.32254,
            24.96579
          ],
          [
            121.32209,
            24.96623
          ],
          [
            121.32117,
            24.9672
          ],
          [
            121.32041,
            24.96786
          ],
          [
            121.31898,
            24.96895
          ],
          [
            121.31661,
            24.97038
          ],
          [
            121.31535,
            24.97104
          ],
          [
            121.31324,
            24.97196
          ],
          [
            121.31171,
            24.97251
          ],
          [
            121.3099,
            24.97308
          ],
          [
            121.30855,
            24.97342
          ],
          [
            121.30593,
            24.97394
          ],
          [
            121.2947,
            24.97567
          ],
          [
            121.29291,
            24.97599
          ],
          [
            121.291,
            24.97649
          ],
          [
            121.28936,
            24.97711
          ],
          [
            121.28832,
            24.97762
          ],
          [
            121.28729,
            24.97827
          ],
          [
            121.28625,
            24.97904
          ],
          [
            121.28531,
            24.9799
          ],
          [
            121.28386,
            24.98162
          ],
          [
            121.28312,
            24.98284
          ],
          [
            121.28232,
            24.98463
          ],
          [
            121.28185,
            24.98653
          ],
          [
            121.28167,
            24.98817
          ],
          [
            121.2818,
            24.99016
          ],
          [
            121.28199,
            24.99127
          ],
          [
            121.28297,
            24.99531
          ],
          [
            121.28342,
            24.99804
          ],
          [
            121.28348,
            25.00047
          ],
          [
            121.28313,
            25.0035
          ],
          [
            121.28274,
            25.00502
          ],
          [
            121.2823,
            25.00629
          ],
          [
            121.28135,
            25.0084
          ],
          [
            121.2802,
            25.0103
          ],
          [
            121.27845,
            25.01254
          ],
          [
            121.27782,
            25.01351
          ],
          [
            121.27763,
            25.01398
          ],
          [
            121.27728,
            25.01537
          ],
          [
            121.27651,
            25.01688
          ],
          [
            121.27636,
            25.01742
          ],
          [
            121.27631,
            25.01777
          ],
          [
            121.27635,
            25.01828
          ],
          [
            121.27659,
            25.01895
          ],
          [
            121.27778,
            25.02128
          ],
          [
            121.27832,
            25.0225
          ],
          [
            121.27866,
            25.02301
          ],
          [
            121.27925,
            25.02368
          ],
          [
            121.28,
            25.02433
          ],
          [
            121.28242,
            25.02643
          ],
          [
            121.28364,
            25.02753
          ],
          [
            121.28489,
            25.02857
          ],
          [
            121.28637,
            25.0298
          ],
          [
            121.28776,
            25.03091
          ],
          [
            121.29034,
            25.03283
          ],
          [
            121.29292,
            25.03461
          ],
          [
            121.29431,
            25.03556
          ],
          [
            121.29569,
            25.03646
          ],
          [
            121.29844,
            25.03813
          ],
          [
            121.30139,
            25.03979
          ],
          [
            121.30437,
            25.04135
          ],
          [
            121.3069,
            25.04259
          ],
          [
            121.30951,
            25.04373
          ],
          [
            121.31236,
            25.04493
          ],
          [
            121.31528,
            25.04606
          ],
          [
            121.31832,
            25.04712
          ],
          [
            121.32121,
            25.04833
          ],
          [
            121.32296,
            25.04941
          ],
          [
            121.32465,
            25.05083
          ],
          [
            121.32594,
            25.0523
          ],
          [
            121.32709,
            25.05387
          ],
          [
            121.32966,
            25.05713
          ],
          [
            121.33108,
            25.05865
          ],
          [
            121.33262,
            25.05993
          ],
          [
            121.33449,
            25.06139
          ],
          [
            121.33659,
            25.06267
          ],
          [
            121.33768,
            25.06329
          ],
          [
            121.33888,
            25.0638
          ],
          [
            121.34033,
            25.06434
          ],
          [
            121.34166,
            25.06471
          ],
          [
            121.34308,
            25.06505
          ],
          [
            121.34453,
            25.06524
          ],
          [
            121.34598,
            25.06539
          ],
          [
            121.34806,
            25.06546
          ],
          [
            121.35032,
            25.06539
          ],
          [
            121.35181,
            25.06518
          ],
          [
            121.35297,
            25.06491
          ],
          [
            121.35512,
            25.06426
          ],
          [
            121.36384,
            25.06426
          ],
          [
            121.36645,
            25.06439
          ],
          [
            121.3665,
            25.06357
          ],
          [
            121.36732,
            25.06299
          ]
        ]
      }
    },
    {
      "type": "Feature",
      "properties": {
        "feature_type": "route",
        "ref": "12",
        "name": "12",
        "name_en": "12",
        "color": "#9a3412",
        "direction": 1
      },
      "geometry": {
        "type": "LineString",
        "coordinates": [
          [
            121.3681,
            25.0645
          ],
          [
            121.36826,
            25.06455
          ],
          [
            121.3684,
            25.06469
          ],
          [
            121.36829,
            25.06559
          ],
          [
            121.36821,
            25.06572
          ],
          [
            121.368,
            25.06581
          ],
          [
            121.36715,
            25.0657
          ],
          [
            121.36438,
            25.0652
          ],
          [
            121.36211,
            25.06512
          ],
          [
            121.35992,
            25.06512
          ],
          [
            121.35655,
            25.06507
          ],
          [
            121.35467,
            25.0652
          ]
        ]
      }
    },
    {
      "type": "Feature",
      "properties": {
        "feature_type": "route",
        "ref": "12",
        "name": "12",
        "name_en": "12",
        "color": "#9a3412",
        "direction": 1
      },
      "geometry": {
        "type": "LineString",
        "coordinates": [
          [
            121.2778,
            25.02255
          ],
          [
            121.27753,
            25.0224
          ],
          [
            121.27671,
            25.02175
          ],
          [
            121.27589,
            25.02117
          ],
          [
            121.27465,
            25.02056
          ],
          [
            121.27422,
            25.02024
          ],
          [
            121.27337,
            25.0191
          ],
          [
            121.27272,
            25.01845
          ],
          [
            121.27217,
            25.01821
          ],
          [
            121.27174,
            25.01821
          ],
          [
            121.27149,
            25.0183
          ],
          [
            121.27127,
            25.01847
          ],
          [
            121.27108,
            25.01876
          ],
          [
            121.27103,
            25.01912
          ],
          [
            121.27112,
            25.01946
          ],
          [
            121.27129,
            25.01968
          ],
          [
            121.27164,
            25.01988
          ],
          [
            121.2722,
            25.01993
          ],
          [
            121.2726,
            25.01976
          ],
          [
            121.2731,
            25.01925
          ],
          [
            121.27661,
            25.01454
          ]
        ]
      }
    },
    {
      "type": "Feature",
      "properties": {
        "feature_type": "route",
        "ref": "12",
        "name": "12",
        "name_en": "12",
        "color": "#9a3412",
        "direction": 1
      },
      "geometry": {
        "type": "LineString",
        "coordinates": [
          [
            121.3681,
            25.0645
          ],
          [
            121.36826,
            25.06455
          ],
          [
            121.3684,
            25.06469
          ],
          [
            121.36829,
            25.06559
          ],
          [
            121.36821,
            25.06572
          ],
          [
            121.368,
            25.06581
          ],
          [
            121.36715,
            25.0657
          ],
          [
            121.36438,
            25.0652
          ],
          [
            121.36211,
            25.06512
          ],
          [
            121.35992,
            25.06512
          ],
          [
            121.35655,
            25.06507
          ],
          [
            121.35467,
            25.0652
          ]
        ]
      }
    },
    {
      "type": "Feature",
      "properties": {
        "feature_type": "route",
        "ref": "12",
        "name": "12",
        "name_en": "12",
        "color": "#9a3412",
        "direction": 1
      },
      "geometry": {
        "type": "LineString",
        "coordinates": [
          [
            121.2778,
            25.02255
          ],
          [
            121.27753,
            25.0224
          ],
          [
            121.27671,
            25.02175
          ],
          [
            121.27589,
            25.02117
          ],
          [
            121.27465,
            25.02056
          ],
          [
            121.27422,
            25.02024
          ],
          [
            121.27337,
            25.0191
          ],
          [
            121.27272,
            25.01845
          ],
          [
            121.27217,
            25.01821
          ],
          [
            121.27174,
            25.01821
          ],
          [
            121.27149,
            25.0183
          ],
          [
            121.27127,
            25.01847
          ],
          [
            121.27108,
            25.01876
          ],
          [
            121.27103,
            25.01912
          ],
          [
            121.27112,
            25.01946
          ],
          [
            121.27129,
            25.01968
          ],
          [
            121.27164,
            25.01988
          ],
          [
            121.2722,
            25.01993
          ],
          [
            121.2726,
            25.01976
          ],
          [
            121.2731,
            25.01925
          ],
          [
            121.27661,
            25.01454
          ]
        ]
      }
    },
    {
      "type": "Feature",
      "properties": {
        "feature_type": "station",
        "ref": "TAO4556",
        "name": "溪濱公園",
        "name_en": "Xibin Park",
        "line": "12",
        "color": "#9a3412",
        "direction": 0
      },
      "geometry": {
        "type": "Point",
        "coordinates": [
          121.280975,
          24.935639
        ]
      }
    },
    {
      "type": "Feature",
      "properties": {
        "feature_type": "station",
        "ref": "TAO4557",
        "name": "建德長興路口",
        "name_en": "Jiande and Changxing Road Intersection",
        "line": "12",
        "color": "#9a3412",
        "direction": 0
      },
      "geometry": {
        "type": "Point",
        "coordinates": [
          121.280882,
          24.931697
        ]
      }
    },
    {
      "type": "Feature",
      "properties": {
        "feature_type": "station",
        "ref": "TAO4400",
        "name": "建德興豐路口(G01)",
        "name_en": "Jiande Xingfeng intersection (G01)",
        "line": "12",
        "color": "#9a3412",
        "direction": 0
      },
      "geometry": {
        "type": "Point",
        "coordinates": [
          121.280875,
          24.929632
        ]
      }
    },
    {
      "type": "Feature",
      "properties": {
        "feature_type": "station",
        "ref": "TAO4401",
        "name": "深耕十期社區",
        "name_en": "Shengeng Community,Phase 10",
        "line": "12",
        "color": "#9a3412",
        "direction": 0
      },
      "geometry": {
        "type": "Point",
        "coordinates": [
          121.280927,
          24.925914
        ]
      }
    },
    {
      "type": "Feature",
      "properties": {
        "feature_type": "station",
        "ref": "TAO9612",
        "name": "豐德中正路口",
        "name_en": "Fengde Zhongzheng Intersection",
        "line": "12",
        "color": "#9a3412",
        "direction": 0
      },
      "geometry": {
        "type": "Point",
        "coordinates": [
          121.28259,
          24.924752
        ]
      }
    },
    {
      "type": "Feature",
      "properties": {
        "feature_type": "station",
        "ref": "TAO9613",
        "name": "遠雄艾菲爾",
        "name_en": "Far?Glory Eiffel",
        "line": "12",
        "color": "#9a3412",
        "direction": 0
      },
      "geometry": {
        "type": "Point",
        "coordinates": [
          121.288088,
          24.924904
        ]
      }
    },
    {
      "type": "Feature",
      "properties": {
        "feature_type": "station",
        "ref": "TAO9614",
        "name": "墨爾本社區",
        "name_en": "Melbourne?Community",
        "line": "12",
        "color": "#9a3412",
        "direction": 0
      },
      "geometry": {
        "type": "Point",
        "coordinates": [
          121.290863,
          24.925109
        ]
      }
    },
    {
      "type": "Feature",
      "properties": {
        "feature_type": "station",
        "ref": "TAO9615",
        "name": "介壽豐德路口",
        "name_en": "Jieshou Fengde Intersection",
        "line": "12",
        "color": "#9a3412",
        "direction": 0
      },
      "geometry": {
        "type": "Point",
        "coordinates": [
          121.294011,
          24.925064
        ]
      }
    },
    {
      "type": "Feature",
      "properties": {
        "feature_type": "station",
        "ref": "TAO65065",
        "name": "忠誠新村",
        "name_en": "Zhongcheng Village",
        "line": "12",
        "color": "#9a3412",
        "direction": 0
      },
      "geometry": {
        "type": "Point",
        "coordinates": [
          121.296714,
          24.926353
        ]
      }
    },
    {
      "type": "Feature",
      "properties": {
        "feature_type": "station",
        "ref": "TAO9617",
        "name": "瑞祥",
        "name_en": "Ruixiang",
        "line": "12",
        "color": "#9a3412",
        "direction": 0
      },
      "geometry": {
        "type": "Point",
        "coordinates": [
          121.297078,
          24.928869
        ]
      }
    },
    {
      "type": "Feature",
      "properties": {
        "feature_type": "station",
        "ref": "TAO65063",
        "name": "更寮腳(介壽路)",
        "name_en": "Gengliaojiao (Jieshou Road)",
        "line": "12",
        "color": "#9a3412",
        "direction": 0
      },
      "geometry": {
        "type": "Point",
        "coordinates": [
          121.297544,
          24.932074
        ]
      }
    },
    {
      "type": "Feature",
      "properties": {
        "feature_type": "station",
        "ref": "TAO9619",
        "name": "瑞發家園",
        "name_en": "Ruifa Homeland",
        "line": "12",
        "color": "#9a3412",
        "direction": 0
      },
      "geometry": {
        "type": "Point",
        "coordinates": [
          121.297595,
          24.933906
        ]
      }
    },
    {
      "type": "Feature",
      "properties": {
        "feature_type": "station",
        "ref": "TAO9620",
        "name": "瑞豐國小(桃園防災教育館)",
        "name_en": "Ruifeng Elementary School Taoyuan Disaster Prevention Education Hall",
        "line": "12",
        "color": "#9a3412",
        "direction": 0
      },
      "geometry": {
        "type": "Point",
        "coordinates": [
          121.297492,
          24.936669
        ]
      }
    },
    {
      "type": "Feature",
      "properties": {
        "feature_type": "station",
        "ref": "TAO9621",
        "name": "松柏園",
        "name_en": "Pine and Cypress Garden",
        "line": "12",
        "color": "#9a3412",
        "direction": 0
      },
      "geometry": {
        "type": "Point",
        "coordinates": [
          121.297537,
          24.938601
        ]
      }
    },
    {
      "type": "Feature",
      "properties": {
        "feature_type": "station",
        "ref": "TAO9622",
        "name": "欣桃社區",
        "name_en": "Xintao Community",
        "line": "12",
        "color": "#9a3412",
        "direction": 0
      },
      "geometry": {
        "type": "Point",
        "coordinates": [
          121.29758,
          24.94019
        ]
      }
    },
    {
      "type": "Feature",
      "properties": {
        "feature_type": "station",
        "ref": "TAO65058",
        "name": "梅花社區",
        "name_en": "Meihua Community",
        "line": "12",
        "color": "#9a3412",
        "direction": 0
      },
      "geometry": {
        "type": "Point",
        "coordinates": [
          121.297538,
          24.944357
        ]
      }
    },
    {
      "type": "Feature",
      "properties": {
        "feature_type": "station",
        "ref": "TAO9624",
        "name": "麻園站(G03)",
        "name_en": "Mayuan Station G03",
        "line": "12",
        "color": "#9a3412",
        "direction": 0
      },
      "geometry": {
        "type": "Point",
        "coordinates": [
          121.297662,
          24.94762
        ]
      }
    },
    {
      "type": "Feature",
      "properties": {
        "feature_type": "station",
        "ref": "TAO9625",
        "name": "鴻昌社區",
        "name_en": "Hongchang Community",
        "line": "12",
        "color": "#9a3412",
        "direction": 0
      },
      "geometry": {
        "type": "Point",
        "coordinates": [
          121.297983,
          24.949755
        ]
      }
    },
    {
      "type": "Feature",
      "properties": {
        "feature_type": "station",
        "ref": "TAO9626",
        "name": "瑞祥社區",
        "name_en": "Ruixiang Community",
        "line": "12",
        "color": "#9a3412",
        "direction": 0
      },
      "geometry": {
        "type": "Point",
        "coordinates": [
          121.298451,
          24.952279
        ]
      }
    },
    {
      "type": "Feature",
      "properties": {
        "feature_type": "station",
        "ref": "TAO9627",
        "name": "大湳站(G04)",
        "name_en": "Danan Station G04",
        "line": "12",
        "color": "#9a3412",
        "direction": 0
      },
      "geometry": {
        "type": "Point",
        "coordinates": [
          121.299604,
          24.959175
        ]
      }
    },
    {
      "type": "Feature",
      "properties": {
        "feature_type": "station",
        "ref": "TAO9408",
        "name": "陸光四村",
        "name_en": "The 4th village of Lu guang",
        "line": "12",
        "color": "#9a3412",
        "direction": 0
      },
      "geometry": {
        "type": "Point",
        "coordinates": [
          121.300131,
          24.962123
        ]
      }
    },
    {
      "type": "Feature",
      "properties": {
        "feature_type": "station",
        "ref": "TAO1236",
        "name": "介壽大智路口",
        "name_en": "Jieshou & Dazhi Rd. Intersection",
        "line": "12",
        "color": "#9a3412",
        "direction": 0
      },
      "geometry": {
        "type": "Point",
        "coordinates": [
          121.300429,
          24.963761
        ]
      }
    },
    {
      "type": "Feature",
      "properties": {
        "feature_type": "station",
        "ref": "TAO9630",
        "name": "大義里",
        "name_en": "Dayi Neighborhood",
        "line": "12",
        "color": "#9a3412",
        "direction": 0
      },
      "geometry": {
        "type": "Point",
        "coordinates": [
          121.303266,
          24.963691
        ]
      }
    },
    {
      "type": "Feature",
      "properties": {
        "feature_type": "station",
        "ref": "TAO9631",
        "name": "大成龍門社區",
        "name_en": "Dacheng Longmen Community",
        "line": "12",
        "color": "#9a3412",
        "direction": 0
      },
      "geometry": {
        "type": "Point",
        "coordinates": [
          121.305841,
          24.963335
        ]
      }
    },
    {
      "type": "Feature",
      "properties": {
        "feature_type": "station",
        "ref": "TAO60008",
        "name": "八德轉運站",
        "name_en": "Bade Bus Station",
        "line": "12",
        "color": "#9a3412",
        "direction": 0
      },
      "geometry": {
        "type": "Point",
        "coordinates": [
          121.318738,
          24.960143
        ]
      }
    },
    {
      "type": "Feature",
      "properties": {
        "feature_type": "station",
        "ref": "TAO9364",
        "name": "桃園長庚轉運站",
        "name_en": "Taoyuan Chang Gung Bus Terminal",
        "line": "12",
        "color": "#9a3412",
        "direction": 0
      },
      "geometry": {
        "type": "Point",
        "coordinates": [
          121.367301,
          25.062964
        ]
      }
    },
    {
      "type": "Feature",
      "properties": {
        "feature_type": "station",
        "ref": "TAO9364",
        "name": "桃園長庚轉運站",
        "name_en": "Taoyuan Chang Gung Bus Terminal",
        "line": "12",
        "color": "#9a3412",
        "direction": 1
      },
      "geometry": {
        "type": "Point",
        "coordinates": [
          121.367301,
          25.062964
        ]
      }
    },
    {
      "type": "Feature",
      "properties": {
        "feature_type": "station",
        "ref": "TAO60008",
        "name": "八德轉運站",
        "name_en": "Bade Bus Station",
        "line": "12",
        "color": "#9a3412",
        "direction": 1
      },
      "geometry": {
        "type": "Point",
        "coordinates": [
          121.318738,
          24.960143
        ]
      }
    },
    {
      "type": "Feature",
      "properties": {
        "feature_type": "station",
        "ref": "TAO9666",
        "name": "大成龍門社區",
        "name_en": "Dacheng Longmen Community",
        "line": "12",
        "color": "#9a3412",
        "direction": 1
      },
      "geometry": {
        "type": "Point",
        "coordinates": [
          121.305874,
          24.963391
        ]
      }
    },
    {
      "type": "Feature",
      "properties": {
        "feature_type": "station",
        "ref": "TAO9665",
        "name": "大義里",
        "name_en": "Dayi Neighborhood",
        "line": "12",
        "color": "#9a3412",
        "direction": 1
      },
      "geometry": {
        "type": "Point",
        "coordinates": [
          121.303089,
          24.963857
        ]
      }
    },
    {
      "type": "Feature",
      "properties": {
        "feature_type": "station",
        "ref": "TAO9664",
        "name": "介壽大智路口",
        "name_en": "Jieshou & Dazhi Rd. Intersection",
        "line": "12",
        "color": "#9a3412",
        "direction": 1
      },
      "geometry": {
        "type": "Point",
        "coordinates": [
          121.300151,
          24.963574
        ]
      }
    },
    {
      "type": "Feature",
      "properties": {
        "feature_type": "station",
        "ref": "TAO9409",
        "name": "陸光四村",
        "name_en": "The 4th village of Lu guang",
        "line": "12",
        "color": "#9a3412",
        "direction": 1
      },
      "geometry": {
        "type": "Point",
        "coordinates": [
          121.299929,
          24.962435
        ]
      }
    },
    {
      "type": "Feature",
      "properties": {
        "feature_type": "station",
        "ref": "TAO9662",
        "name": "大湳站(G04)",
        "name_en": "Danan Station G04",
        "line": "12",
        "color": "#9a3412",
        "direction": 1
      },
      "geometry": {
        "type": "Point",
        "coordinates": [
          121.299299,
          24.958995
        ]
      }
    },
    {
      "type": "Feature",
      "properties": {
        "feature_type": "station",
        "ref": "TAO9661",
        "name": "瑞祥社區",
        "name_en": "Ruixiang Community",
        "line": "12",
        "color": "#9a3412",
        "direction": 1
      },
      "geometry": {
        "type": "Point",
        "coordinates": [
          121.298264,
          24.952395
        ]
      }
    },
    {
      "type": "Feature",
      "properties": {
        "feature_type": "station",
        "ref": "TAO9660",
        "name": "鴻昌社區",
        "name_en": "Hongchang Community",
        "line": "12",
        "color": "#9a3412",
        "direction": 1
      },
      "geometry": {
        "type": "Point",
        "coordinates": [
          121.297828,
          24.949977
        ]
      }
    },
    {
      "type": "Feature",
      "properties": {
        "feature_type": "station",
        "ref": "TAO9659",
        "name": "麻園站(G03)",
        "name_en": "Mayuan Station G03",
        "line": "12",
        "color": "#9a3412",
        "direction": 1
      },
      "geometry": {
        "type": "Point",
        "coordinates": [
          121.297512,
          24.947735
        ]
      }
    },
    {
      "type": "Feature",
      "properties": {
        "feature_type": "station",
        "ref": "TAO65113",
        "name": "梅花社區",
        "name_en": "Meihua Community",
        "line": "12",
        "color": "#9a3412",
        "direction": 1
      },
      "geometry": {
        "type": "Point",
        "coordinates": [
          121.297347,
          24.944223
        ]
      }
    },
    {
      "type": "Feature",
      "properties": {
        "feature_type": "station",
        "ref": "TAO3776",
        "name": "欣桃社區",
        "name_en": "Xintao Community",
        "line": "12",
        "color": "#9a3412",
        "direction": 1
      },
      "geometry": {
        "type": "Point",
        "coordinates": [
          121.297392,
          24.940873
        ]
      }
    },
    {
      "type": "Feature",
      "properties": {
        "feature_type": "station",
        "ref": "TAO9656",
        "name": "松柏園",
        "name_en": "Pine and Cypress Garden",
        "line": "12",
        "color": "#9a3412",
        "direction": 1
      },
      "geometry": {
        "type": "Point",
        "coordinates": [
          121.297409,
          24.938632
        ]
      }
    },
    {
      "type": "Feature",
      "properties": {
        "feature_type": "station",
        "ref": "TAO9655",
        "name": "瑞豐國小(桃園防災教育館)",
        "name_en": "Ruifeng Elementary School Taoyuan Disaster Prevention Education Hall",
        "line": "12",
        "color": "#9a3412",
        "direction": 1
      },
      "geometry": {
        "type": "Point",
        "coordinates": [
          121.297291,
          24.936651
        ]
      }
    },
    {
      "type": "Feature",
      "properties": {
        "feature_type": "station",
        "ref": "TAO9654",
        "name": "瑞發家園",
        "name_en": "Ruifa Homeland",
        "line": "12",
        "color": "#9a3412",
        "direction": 1
      },
      "geometry": {
        "type": "Point",
        "coordinates": [
          121.297452,
          24.933835
        ]
      }
    },
    {
      "type": "Feature",
      "properties": {
        "feature_type": "station",
        "ref": "TAO65108",
        "name": "更寮腳(介壽路)",
        "name_en": "Gengliaojiao (Jieshou Road)",
        "line": "12",
        "color": "#9a3412",
        "direction": 1
      },
      "geometry": {
        "type": "Point",
        "coordinates": [
          121.297149,
          24.930736
        ]
      }
    },
    {
      "type": "Feature",
      "properties": {
        "feature_type": "station",
        "ref": "TAO9652",
        "name": "瑞祥",
        "name_en": "Ruixiang",
        "line": "12",
        "color": "#9a3412",
        "direction": 1
      },
      "geometry": {
        "type": "Point",
        "coordinates": [
          121.296904,
          24.929008
        ]
      }
    },
    {
      "type": "Feature",
      "properties": {
        "feature_type": "station",
        "ref": "TAO65106",
        "name": "忠誠新村",
        "name_en": "Zhongcheng Village",
        "line": "12",
        "color": "#9a3412",
        "direction": 1
      },
      "geometry": {
        "type": "Point",
        "coordinates": [
          121.296576,
          24.926683
        ]
      }
    },
    {
      "type": "Feature",
      "properties": {
        "feature_type": "station",
        "ref": "TAO9650",
        "name": "介壽豐德路口",
        "name_en": "Jieshou Fengde Intersection",
        "line": "12",
        "color": "#9a3412",
        "direction": 1
      },
      "geometry": {
        "type": "Point",
        "coordinates": [
          121.294548,
          24.925305
        ]
      }
    },
    {
      "type": "Feature",
      "properties": {
        "feature_type": "station",
        "ref": "TAO9649",
        "name": "墨爾本社區",
        "name_en": "Melbourne?Community",
        "line": "12",
        "color": "#9a3412",
        "direction": 1
      },
      "geometry": {
        "type": "Point",
        "coordinates": [
          121.291158,
          24.925498
        ]
      }
    },
    {
      "type": "Feature",
      "properties": {
        "feature_type": "station",
        "ref": "TAO9648",
        "name": "遠雄艾菲爾",
        "name_en": "Far?Glory Eiffel",
        "line": "12",
        "color": "#9a3412",
        "direction": 1
      },
      "geometry": {
        "type": "Point",
        "coordinates": [
          121.287079,
          24.925165
        ]
      }
    },
    {
      "type": "Feature",
      "properties": {
        "feature_type": "station",
        "ref": "TAO9647",
        "name": "豐德中正路口",
        "name_en": "Fengde Zhongzheng Intersection",
        "line": "12",
        "color": "#9a3412",
        "direction": 1
      },
      "geometry": {
        "type": "Point",
        "coordinates": [
          121.282626,
          24.925078
        ]
      }
    },
    {
      "type": "Feature",
      "properties": {
        "feature_type": "station",
        "ref": "TAO3615",
        "name": "深耕十期社區",
        "name_en": "Shengeng Community,Phase 10",
        "line": "12",
        "color": "#9a3412",
        "direction": 1
      },
      "geometry": {
        "type": "Point",
        "coordinates": [
          121.281298,
          24.925946
        ]
      }
    },
    {
      "type": "Feature",
      "properties": {
        "feature_type": "station",
        "ref": "TAO4413",
        "name": "建德興豐路口(G01)",
        "name_en": "Jiande Xingfeng intersection (G01)",
        "line": "12",
        "color": "#9a3412",
        "direction": 1
      },
      "geometry": {
        "type": "Point",
        "coordinates": [
          121.281269,
          24.928001
        ]
      }
    },
    {
      "type": "Feature",
      "properties": {
        "feature_type": "station",
        "ref": "TAO4565",
        "name": "建德長興路口",
        "name_en": "Jiande and Changxing Road Intersection",
        "line": "12",
        "color": "#9a3412",
        "direction": 1
      },
      "geometry": {
        "type": "Point",
        "coordinates": [
          121.281288,
          24.931651
        ]
      }
    },
    {
      "type": "Feature",
      "properties": {
        "feature_type": "station",
        "ref": "TAO4566",
        "name": "溪濱公園",
        "name_en": "Xibin Park",
        "line": "12",
        "color": "#9a3412",
        "direction": 1
      },
      "geometry": {
        "type": "Point",
        "coordinates": [
          121.281281,
          24.935561
        ]
      }
    }
  ]
}
