{
  "type": "FeatureCollection",
  "name": "8213",
  "properties": {
    "id": "inter_city_8213",
    "name": "8213",
    "name_en": "8213",
    "ref": "8213",
    "color": "#65a30d",
    "city_id": "InterCity",
    "source": "TDX Bus Shape / StopOfRoute",
    "official_map_url": "https://web.taiwanbus.tw/MISUploadData/Schematic/file/8213.jpg",
    "operator_id": "29",
    "operator": "屏東客運",
    "operator_en": "Pingtung Bus Co., Ltd."
  },
  "features": [
    {
      "type": "Feature",
      "properties": {
        "feature_type": "route",
        "ref": "8213",
        "name": "8213",
        "name_en": "8213",
        "color": "#65a30d",
        "direction": 0
      },
      "geometry": {
        "type": "LineString",
        "coordinates": [
          [
            120.53669,
            22.55088
          ],
          [
            120.53663,
            22.55036
          ],
          [
            120.53662,
            22.55022
          ],
          [
            120.53661,
            22.55008
          ],
          [
            120.53661,
            22.55008
          ],
          [
            120.53709,
            22.54993
          ],
          [
            120.53724,
            22.54988
          ],
          [
            120.5378,
            22.5497
          ],
          [
            120.53809,
            22.54961
          ],
          [
            120.53855,
            22.54947
          ],
          [
            120.53855,
            22.54947
          ],
          [
            120.53856,
            22.54934
          ],
          [
            120.53854,
            22.54926
          ],
          [
            120.53845,
            22.54896
          ],
          [
            120.53815,
            22.54841
          ],
          [
            120.53784,
            22.54769
          ],
          [
            120.53782,
            22.54763
          ],
          [
            120.53743,
            22.54669
          ],
          [
            120.53719,
            22.54607
          ],
          [
            120.53716,
            22.54601
          ],
          [
            120.53706,
            22.54581
          ],
          [
            120.53692,
            22.54544
          ],
          [
            120.53686,
            22.5453
          ],
          [
            120.53684,
            22.5453
          ],
          [
            120.53683,
            22.5453
          ],
          [
            120.53682,
            22.54531
          ],
          [
            120.53681,
            22.54531
          ],
          [
            120.5368,
            22.54531
          ],
          [
            120.53679,
            22.54531
          ],
          [
            120.53678,
            22.54531
          ],
          [
            120.53677,
            22.5453
          ],
          [
            120.53676,
            22.5453
          ],
          [
            120.53675,
            22.5453
          ],
          [
            120.53674,
            22.5453
          ],
          [
            120.53673,
            22.54529
          ],
          [
            120.53672,
            22.54529
          ],
          [
            120.53671,
            22.54528
          ],
          [
            120.5367,
            22.54528
          ],
          [
            120.5367,
            22.54527
          ],
          [
            120.53669,
            22.54526
          ],
          [
            120.53668,
            22.54526
          ],
          [
            120.53668,
            22.54525
          ],
          [
            120.53667,
            22.54524
          ],
          [
            120.53666,
            22.54523
          ],
          [
            120.53665,
            22.54522
          ],
          [
            120.53665,
            22.54521
          ],
          [
            120.53665,
            22.5452
          ],
          [
            120.53664,
            22.54519
          ],
          [
            120.53664,
            22.54518
          ],
          [
            120.53664,
            22.54517
          ],
          [
            120.53664,
            22.54516
          ],
          [
            120.53664,
            22.54515
          ],
          [
            120.53664,
            22.54514
          ],
          [
            120.53665,
            22.54513
          ],
          [
            120.53665,
            22.54512
          ],
          [
            120.53665,
            22.54511
          ],
          [
            120.53665,
            22.5451
          ],
          [
            120.53666,
            22.54509
          ],
          [
            120.53666,
            22.54508
          ],
          [
            120.53667,
            22.54508
          ],
          [
            120.53668,
            22.54507
          ],
          [
            120.53668,
            22.54506
          ],
          [
            120.53669,
            22.54506
          ],
          [
            120.5367,
            22.54505
          ],
          [
            120.53671,
            22.54504
          ],
          [
            120.53672,
            22.54503
          ],
          [
            120.53673,
            22.54503
          ],
          [
            120.53674,
            22.54502
          ],
          [
            120.53649,
            22.54442
          ],
          [
            120.53635,
            22.54407
          ],
          [
            120.53632,
            22.544
          ],
          [
            120.53632,
            22.544
          ],
          [
            120.53566,
            22.54239
          ],
          [
            120.53553,
            22.54212
          ],
          [
            120.53531,
            22.54171
          ],
          [
            120.53504,
            22.54097
          ],
          [
            120.53391,
            22.53828
          ],
          [
            120.53379,
            22.53801
          ],
          [
            120.53379,
            22.53801
          ],
          [
            120.53337,
            22.53718
          ],
          [
            120.53145,
            22.53368
          ],
          [
            120.53106,
            22.53296
          ],
          [
            120.53074,
            22.53244
          ],
          [
            120.52879,
            22.5289
          ],
          [
            120.52879,
            22.5289
          ],
          [
            120.52829,
            22.528
          ],
          [
            120.52816,
            22.5277
          ],
          [
            120.52801,
            22.52748
          ],
          [
            120.52769,
            22.52715
          ],
          [
            120.52746,
            22.52692
          ],
          [
            120.52665,
            22.52619
          ],
          [
            120.52547,
            22.52517
          ],
          [
            120.52285,
            22.52291
          ],
          [
            120.52145,
            22.52169
          ],
          [
            120.51816,
            22.51874
          ],
          [
            120.51695,
            22.51768
          ],
          [
            120.51473,
            22.51575
          ],
          [
            120.51424,
            22.51533
          ],
          [
            120.51319,
            22.51437
          ],
          [
            120.51319,
            22.51437
          ],
          [
            120.51254,
            22.51384
          ],
          [
            120.51245,
            22.51377
          ],
          [
            120.51236,
            22.51371
          ],
          [
            120.51181,
            22.51341
          ],
          [
            120.51168,
            22.51334
          ],
          [
            120.51133,
            22.51321
          ],
          [
            120.51133,
            22.51321
          ],
          [
            120.51092,
            22.51305
          ],
          [
            120.51075,
            22.51298
          ],
          [
            120.51062,
            22.51293
          ],
          [
            120.51022,
            22.51276
          ],
          [
            120.51009,
            22.5127
          ],
          [
            120.50996,
            22.51261
          ],
          [
            120.50987,
            22.51254
          ],
          [
            120.50973,
            22.51241
          ],
          [
            120.5096,
            22.51228
          ],
          [
            120.50915,
            22.51178
          ],
          [
            120.50912,
            22.51175
          ],
          [
            120.50911,
            22.51174
          ],
          [
            120.50891,
            22.51151
          ],
          [
            120.50891,
            22.51151
          ],
          [
            120.50878,
            22.51136
          ],
          [
            120.50867,
            22.51122
          ],
          [
            120.50847,
            22.51098
          ],
          [
            120.50813,
            22.51055
          ],
          [
            120.50805,
            22.51044
          ],
          [
            120.50792,
            22.51028
          ],
          [
            120.50742,
            22.50967
          ],
          [
            120.50704,
            22.5092
          ],
          [
            120.50631,
            22.50833
          ],
          [
            120.50566,
            22.50752
          ],
          [
            120.50557,
            22.5074
          ],
          [
            120.50547,
            22.50735
          ],
          [
            120.50526,
            22.50716
          ],
          [
            120.50498,
            22.50698
          ],
          [
            120.50475,
            22.50686
          ],
          [
            120.50455,
            22.50674
          ],
          [
            120.50376,
            22.50628
          ],
          [
            120.50277,
            22.50571
          ],
          [
            120.50243,
            22.50551
          ],
          [
            120.4998,
            22.50398
          ],
          [
            120.49932,
            22.5037
          ],
          [
            120.4985,
            22.50322
          ],
          [
            120.49784,
            22.50283
          ],
          [
            120.49768,
            22.50273
          ],
          [
            120.49751,
            22.50263
          ],
          [
            120.49735,
            22.50254
          ],
          [
            120.49727,
            22.50249
          ],
          [
            120.49727,
            22.50249
          ],
          [
            120.4969,
            22.50227
          ],
          [
            120.49687,
            22.50225
          ],
          [
            120.49439,
            22.50082
          ],
          [
            120.49277,
            22.49988
          ],
          [
            120.4911,
            22.49892
          ],
          [
            120.49053,
            22.49856
          ],
          [
            120.48988,
            22.4982
          ],
          [
            120.48981,
            22.4981
          ],
          [
            120.48964,
            22.498
          ],
          [
            120.48964,
            22.498
          ],
          [
            120.48936,
            22.49784
          ],
          [
            120.48921,
            22.49777
          ],
          [
            120.48911,
            22.4977
          ],
          [
            120.48864,
            22.49744
          ],
          [
            120.48843,
            22.49734
          ],
          [
            120.48843,
            22.49733
          ],
          [
            120.48786,
            22.49701
          ],
          [
            120.48766,
            22.49688
          ],
          [
            120.48689,
            22.49643
          ],
          [
            120.4852,
            22.49541
          ],
          [
            120.48185,
            22.49342
          ],
          [
            120.48085,
            22.49284
          ],
          [
            120.48003,
            22.49236
          ],
          [
            120.47877,
            22.49161
          ],
          [
            120.47864,
            22.49154
          ],
          [
            120.47864,
            22.49154
          ],
          [
            120.47805,
            22.49119
          ],
          [
            120.47692,
            22.49053
          ],
          [
            120.47627,
            22.49014
          ],
          [
            120.47618,
            22.49008
          ],
          [
            120.47601,
            22.48994
          ],
          [
            120.47567,
            22.48966
          ],
          [
            120.47502,
            22.489
          ],
          [
            120.47458,
            22.48854
          ],
          [
            120.47452,
            22.48848
          ],
          [
            120.47452,
            22.48848
          ],
          [
            120.47426,
            22.48821
          ],
          [
            120.4742,
            22.48814
          ],
          [
            120.47385,
            22.48777
          ],
          [
            120.4731,
            22.48701
          ],
          [
            120.47297,
            22.48688
          ],
          [
            120.47271,
            22.48661
          ],
          [
            120.47263,
            22.48654
          ],
          [
            120.47242,
            22.48631
          ],
          [
            120.47242,
            22.48631
          ],
          [
            120.47101,
            22.48482
          ],
          [
            120.47082,
            22.48461
          ],
          [
            120.47018,
            22.48393
          ],
          [
            120.46962,
            22.48336
          ],
          [
            120.46863,
            22.48234
          ],
          [
            120.46767,
            22.48131
          ],
          [
            120.46753,
            22.48118
          ],
          [
            120.46739,
            22.48104
          ],
          [
            120.46703,
            22.48066
          ],
          [
            120.4664,
            22.48004
          ],
          [
            120.4662,
            22.47984
          ],
          [
            120.46604,
            22.47967
          ],
          [
            120.4658,
            22.47946
          ],
          [
            120.46557,
            22.47929
          ],
          [
            120.46556,
            22.47928
          ],
          [
            120.46528,
            22.4791
          ],
          [
            120.46528,
            22.4791
          ],
          [
            120.46251,
            22.47726
          ],
          [
            120.46172,
            22.47663
          ],
          [
            120.46051,
            22.47567
          ],
          [
            120.45911,
            22.47461
          ],
          [
            120.45894,
            22.47448
          ],
          [
            120.45894,
            22.47448
          ],
          [
            120.45846,
            22.47409
          ],
          [
            120.4571,
            22.47307
          ],
          [
            120.45597,
            22.47218
          ],
          [
            120.45597,
            22.47218
          ],
          [
            120.45539,
            22.4717
          ],
          [
            120.45516,
            22.47153
          ],
          [
            120.45494,
            22.47136
          ],
          [
            120.45476,
            22.47124
          ],
          [
            120.45447,
            22.47108
          ],
          [
            120.45431,
            22.471
          ],
          [
            120.45354,
            22.47065
          ],
          [
            120.45325,
            22.47055
          ],
          [
            120.45316,
            22.4705
          ],
          [
            120.45307,
            22.47046
          ],
          [
            120.45284,
            22.47034
          ],
          [
            120.45257,
            22.47019
          ],
          [
            120.45244,
            22.4701
          ],
          [
            120.45197,
            22.46976
          ],
          [
            120.45183,
            22.46966
          ],
          [
            120.45169,
            22.46956
          ],
          [
            120.45146,
            22.46938
          ],
          [
            120.45116,
            22.46893
          ],
          [
            120.45094,
            22.46859
          ],
          [
            120.45094,
            22.46859
          ],
          [
            120.45081,
            22.46839
          ],
          [
            120.45049,
            22.46784
          ],
          [
            120.44988,
            22.46693
          ],
          [
            120.44988,
            22.46693
          ],
          [
            120.45034,
            22.46668
          ],
          [
            120.45052,
            22.46659
          ],
          [
            120.45099,
            22.46634
          ],
          [
            120.45135,
            22.46615
          ],
          [
            120.45149,
            22.46608
          ],
          [
            120.45149,
            22.46608
          ],
          [
            120.45164,
            22.466
          ],
          [
            120.45186,
            22.46589
          ],
          [
            120.45246,
            22.46558
          ],
          [
            120.45271,
            22.4655
          ],
          [
            120.45344,
            22.46529
          ],
          [
            120.45377,
            22.46522
          ],
          [
            120.45386,
            22.4652
          ],
          [
            120.45386,
            22.4652
          ],
          [
            120.45412,
            22.46512
          ],
          [
            120.45479,
            22.46489
          ],
          [
            120.45523,
            22.46476
          ],
          [
            120.45549,
            22.46468
          ],
          [
            120.4563,
            22.46444
          ],
          [
            120.45664,
            22.46435
          ],
          [
            120.4568,
            22.4643
          ],
          [
            120.45686,
            22.46429
          ],
          [
            120.45716,
            22.46419
          ],
          [
            120.45716,
            22.46419
          ],
          [
            120.45719,
            22.46429
          ],
          [
            120.45725,
            22.46446
          ],
          [
            120.45727,
            22.46452
          ],
          [
            120.45727,
            22.46452
          ],
          [
            120.45747,
            22.4645
          ],
          [
            120.45753,
            22.46451
          ],
          [
            120.45759,
            22.46454
          ],
          [
            120.45763,
            22.46462
          ],
          [
            120.45763,
            22.46464
          ]
        ]
      }
    },
    {
      "type": "Feature",
      "properties": {
        "feature_type": "route",
        "ref": "8213",
        "name": "8213",
        "name_en": "8213",
        "color": "#65a30d",
        "direction": 1
      },
      "geometry": {
        "type": "LineString",
        "coordinates": [
          [
            120.45763,
            22.46464
          ],
          [
            120.45763,
            22.46462
          ],
          [
            120.45759,
            22.46454
          ],
          [
            120.45753,
            22.46451
          ],
          [
            120.45747,
            22.4645
          ],
          [
            120.45727,
            22.46452
          ],
          [
            120.45727,
            22.46452
          ],
          [
            120.45725,
            22.46446
          ],
          [
            120.45719,
            22.46429
          ],
          [
            120.45716,
            22.46419
          ],
          [
            120.45716,
            22.46419
          ],
          [
            120.45686,
            22.46429
          ],
          [
            120.4568,
            22.4643
          ],
          [
            120.45664,
            22.46435
          ],
          [
            120.4563,
            22.46444
          ],
          [
            120.45549,
            22.46468
          ],
          [
            120.45523,
            22.46476
          ],
          [
            120.45479,
            22.46489
          ],
          [
            120.4547,
            22.46493
          ],
          [
            120.4547,
            22.46493
          ],
          [
            120.45412,
            22.46512
          ],
          [
            120.45377,
            22.46522
          ],
          [
            120.45344,
            22.46529
          ],
          [
            120.45272,
            22.46551
          ],
          [
            120.4525,
            22.4656
          ],
          [
            120.45186,
            22.46589
          ],
          [
            120.45164,
            22.466
          ],
          [
            120.45135,
            22.46615
          ],
          [
            120.45099,
            22.46634
          ],
          [
            120.45052,
            22.46659
          ],
          [
            120.45034,
            22.46668
          ],
          [
            120.44988,
            22.46693
          ],
          [
            120.44988,
            22.46693
          ],
          [
            120.45049,
            22.46784
          ],
          [
            120.45081,
            22.46839
          ],
          [
            120.45105,
            22.46876
          ],
          [
            120.45105,
            22.46876
          ],
          [
            120.45116,
            22.46893
          ],
          [
            120.45146,
            22.46938
          ],
          [
            120.45169,
            22.46956
          ],
          [
            120.45183,
            22.46966
          ],
          [
            120.45197,
            22.46976
          ],
          [
            120.45244,
            22.4701
          ],
          [
            120.45257,
            22.47019
          ],
          [
            120.45284,
            22.47034
          ],
          [
            120.45307,
            22.47046
          ],
          [
            120.45316,
            22.4705
          ],
          [
            120.45325,
            22.47055
          ],
          [
            120.45354,
            22.47065
          ],
          [
            120.45431,
            22.471
          ],
          [
            120.45447,
            22.47108
          ],
          [
            120.45476,
            22.47124
          ],
          [
            120.45494,
            22.47136
          ],
          [
            120.45516,
            22.47153
          ],
          [
            120.45539,
            22.4717
          ],
          [
            120.45567,
            22.47193
          ],
          [
            120.45567,
            22.47193
          ],
          [
            120.45693,
            22.47293
          ],
          [
            120.4576,
            22.47345
          ],
          [
            120.45883,
            22.47439
          ],
          [
            120.45883,
            22.47439
          ],
          [
            120.46033,
            22.47554
          ],
          [
            120.46093,
            22.47599
          ],
          [
            120.46147,
            22.47643
          ],
          [
            120.46178,
            22.47668
          ],
          [
            120.4624,
            22.47718
          ],
          [
            120.46257,
            22.4773
          ],
          [
            120.46495,
            22.47888
          ],
          [
            120.46556,
            22.47928
          ],
          [
            120.46556,
            22.47928
          ],
          [
            120.46557,
            22.47929
          ],
          [
            120.4658,
            22.47946
          ],
          [
            120.46604,
            22.47967
          ],
          [
            120.4662,
            22.47984
          ],
          [
            120.4664,
            22.48004
          ],
          [
            120.46703,
            22.48066
          ],
          [
            120.46739,
            22.48104
          ],
          [
            120.46753,
            22.48118
          ],
          [
            120.46767,
            22.48131
          ],
          [
            120.46863,
            22.48234
          ],
          [
            120.46962,
            22.48336
          ],
          [
            120.47018,
            22.48393
          ],
          [
            120.47082,
            22.48461
          ],
          [
            120.47101,
            22.48482
          ],
          [
            120.47251,
            22.4864
          ],
          [
            120.47251,
            22.4864
          ],
          [
            120.47263,
            22.48654
          ],
          [
            120.47271,
            22.48661
          ],
          [
            120.47297,
            22.48688
          ],
          [
            120.4731,
            22.48701
          ],
          [
            120.47385,
            22.48777
          ],
          [
            120.4742,
            22.48814
          ],
          [
            120.47426,
            22.48821
          ],
          [
            120.47444,
            22.4884
          ],
          [
            120.47444,
            22.4884
          ],
          [
            120.47458,
            22.48854
          ],
          [
            120.47502,
            22.489
          ],
          [
            120.47567,
            22.48966
          ],
          [
            120.47601,
            22.48994
          ],
          [
            120.47618,
            22.49008
          ],
          [
            120.47627,
            22.49014
          ],
          [
            120.47692,
            22.49053
          ],
          [
            120.47805,
            22.49119
          ],
          [
            120.47847,
            22.49144
          ],
          [
            120.47847,
            22.49144
          ],
          [
            120.47877,
            22.49161
          ],
          [
            120.48003,
            22.49236
          ],
          [
            120.48085,
            22.49284
          ],
          [
            120.48185,
            22.49342
          ],
          [
            120.4852,
            22.49541
          ],
          [
            120.48689,
            22.49643
          ],
          [
            120.48766,
            22.49688
          ],
          [
            120.48786,
            22.49701
          ],
          [
            120.48843,
            22.49733
          ],
          [
            120.48843,
            22.49734
          ],
          [
            120.48864,
            22.49744
          ],
          [
            120.48911,
            22.4977
          ],
          [
            120.48921,
            22.49777
          ],
          [
            120.48936,
            22.49784
          ],
          [
            120.48953,
            22.49794
          ],
          [
            120.48953,
            22.49794
          ],
          [
            120.48981,
            22.4981
          ],
          [
            120.48993,
            22.49812
          ],
          [
            120.49058,
            22.49848
          ],
          [
            120.49116,
            22.49885
          ],
          [
            120.49233,
            22.49952
          ],
          [
            120.49283,
            22.49981
          ],
          [
            120.49332,
            22.5001
          ],
          [
            120.49414,
            22.50058
          ],
          [
            120.49431,
            22.50067
          ],
          [
            120.49444,
            22.50075
          ],
          [
            120.4951,
            22.50113
          ],
          [
            120.49626,
            22.5018
          ],
          [
            120.49691,
            22.50218
          ],
          [
            120.49695,
            22.50219
          ],
          [
            120.49735,
            22.50243
          ],
          [
            120.49735,
            22.50243
          ],
          [
            120.49806,
            22.50285
          ],
          [
            120.49871,
            22.50324
          ],
          [
            120.49888,
            22.50333
          ],
          [
            120.49937,
            22.50363
          ],
          [
            120.49985,
            22.5039
          ],
          [
            120.50248,
            22.50543
          ],
          [
            120.50345,
            22.506
          ],
          [
            120.50352,
            22.50605
          ],
          [
            120.50361,
            22.5061
          ],
          [
            120.50418,
            22.50643
          ],
          [
            120.50462,
            22.50669
          ],
          [
            120.50476,
            22.50677
          ],
          [
            120.50505,
            22.50693
          ],
          [
            120.50533,
            22.50712
          ],
          [
            120.50554,
            22.50731
          ],
          [
            120.50557,
            22.5074
          ],
          [
            120.50566,
            22.50752
          ],
          [
            120.50631,
            22.50833
          ],
          [
            120.50704,
            22.5092
          ],
          [
            120.50742,
            22.50967
          ],
          [
            120.50792,
            22.51028
          ],
          [
            120.50805,
            22.51044
          ],
          [
            120.50813,
            22.51055
          ],
          [
            120.50847,
            22.51098
          ],
          [
            120.50867,
            22.51122
          ],
          [
            120.50878,
            22.51136
          ],
          [
            120.50891,
            22.51151
          ],
          [
            120.50891,
            22.51151
          ],
          [
            120.5096,
            22.51228
          ],
          [
            120.50987,
            22.51254
          ],
          [
            120.51009,
            22.5127
          ],
          [
            120.51092,
            22.51305
          ],
          [
            120.51118,
            22.51315
          ],
          [
            120.51118,
            22.51315
          ],
          [
            120.51181,
            22.51341
          ],
          [
            120.51245,
            22.51377
          ],
          [
            120.51331,
            22.51448
          ],
          [
            120.51331,
            22.51448
          ],
          [
            120.51424,
            22.51533
          ],
          [
            120.51473,
            22.51575
          ],
          [
            120.51695,
            22.51768
          ],
          [
            120.51816,
            22.51874
          ],
          [
            120.52145,
            22.52169
          ],
          [
            120.52249,
            22.52259
          ],
          [
            120.52285,
            22.52291
          ],
          [
            120.52547,
            22.52517
          ],
          [
            120.52665,
            22.52619
          ],
          [
            120.52746,
            22.52692
          ],
          [
            120.52769,
            22.52715
          ],
          [
            120.52801,
            22.52748
          ],
          [
            120.52816,
            22.5277
          ],
          [
            120.52829,
            22.528
          ],
          [
            120.52880999999999,
            22.52893
          ],
          [
            120.52880999999999,
            22.52893
          ],
          [
            120.53074,
            22.53244
          ],
          [
            120.53106,
            22.53296
          ],
          [
            120.53281,
            22.53617
          ],
          [
            120.53349,
            22.53741
          ],
          [
            120.53349,
            22.53741
          ],
          [
            120.53391,
            22.53828
          ],
          [
            120.53462,
            22.53995
          ],
          [
            120.53504,
            22.54097
          ],
          [
            120.53531,
            22.54171
          ],
          [
            120.53566,
            22.54239
          ],
          [
            120.53615,
            22.54359
          ],
          [
            120.536148,
            22.543592
          ],
          [
            120.536738,
            22.545006
          ],
          [
            120.536961,
            22.545099
          ],
          [
            120.536882,
            22.545281
          ],
          [
            120.536921,
            22.545409
          ],
          [
            120.538182,
            22.548472
          ],
          [
            120.538438,
            22.548914
          ],
          [
            120.538594,
            22.549479
          ],
          [
            120.536603,
            22.550099
          ],
          [
            120.536741,
            22.551296
          ],
          [
            120.536647,
            22.551301
          ],
          [
            120.536497,
            22.551127
          ],
          [
            120.536487,
            22.550893
          ]
        ]
      }
    },
    {
      "type": "Feature",
      "properties": {
        "feature_type": "station",
        "ref": "THB257758",
        "name": "潮州轉運站",
        "name_en": "Chaozhou Bus Station",
        "line": "8213",
        "color": "#65a30d",
        "direction": 0
      },
      "geometry": {
        "type": "Point",
        "coordinates": [
          120.536467,
          22.550897
        ]
      }
    },
    {
      "type": "Feature",
      "properties": {
        "feature_type": "station",
        "ref": "THB256603",
        "name": "介壽路",
        "name_en": "Jieshou Road",
        "line": "8213",
        "color": "#65a30d",
        "direction": 0
      },
      "geometry": {
        "type": "Point",
        "coordinates": [
          120.536171,
          22.544055
        ]
      }
    },
    {
      "type": "Feature",
      "properties": {
        "feature_type": "station",
        "ref": "THB251776",
        "name": "八老爺",
        "name_en": "Balaoye",
        "line": "8213",
        "color": "#65a30d",
        "direction": 0
      },
      "geometry": {
        "type": "Point",
        "coordinates": [
          120.53372,
          22.53804
        ]
      }
    },
    {
      "type": "Feature",
      "properties": {
        "feature_type": "station",
        "ref": "THB253241",
        "name": "下八老爺",
        "name_en": "Xiabalaoye",
        "line": "8213",
        "color": "#65a30d",
        "direction": 0
      },
      "geometry": {
        "type": "Point",
        "coordinates": [
          120.52874,
          22.52892
        ]
      }
    },
    {
      "type": "Feature",
      "properties": {
        "feature_type": "station",
        "ref": "THB254770",
        "name": "崁頂",
        "name_en": "Kanding",
        "line": "8213",
        "color": "#65a30d",
        "direction": 0
      },
      "geometry": {
        "type": "Point",
        "coordinates": [
          120.51314,
          22.51443
        ]
      }
    },
    {
      "type": "Feature",
      "properties": {
        "feature_type": "station",
        "ref": "THB254667",
        "name": "崁頂派出所",
        "name_en": "Kanding Police Substation",
        "line": "8213",
        "color": "#65a30d",
        "direction": 0
      },
      "geometry": {
        "type": "Point",
        "coordinates": [
          120.511268,
          22.513204
        ]
      }
    },
    {
      "type": "Feature",
      "properties": {
        "feature_type": "station",
        "ref": "THB253254",
        "name": "下崁頂",
        "name_en": "Xiakanding",
        "line": "8213",
        "color": "#65a30d",
        "direction": 0
      },
      "geometry": {
        "type": "Point",
        "coordinates": [
          120.508807,
          22.511588
        ]
      }
    },
    {
      "type": "Feature",
      "properties": {
        "feature_type": "station",
        "ref": "THB255319",
        "name": "溝仔底",
        "name_en": "Gouzidi",
        "line": "8213",
        "color": "#65a30d",
        "direction": 0
      },
      "geometry": {
        "type": "Point",
        "coordinates": [
          120.497042,
          22.502489
        ]
      }
    },
    {
      "type": "Feature",
      "properties": {
        "feature_type": "station",
        "ref": "THB259249",
        "name": "過溪仔",
        "name_en": "Guoxizi",
        "line": "8213",
        "color": "#65a30d",
        "direction": 0
      },
      "geometry": {
        "type": "Point",
        "coordinates": [
          120.48959,
          22.49808
        ]
      }
    },
    {
      "type": "Feature",
      "properties": {
        "feature_type": "station",
        "ref": "THB259137",
        "name": "港東",
        "name_en": "Gangdong",
        "line": "8213",
        "color": "#65a30d",
        "direction": 0
      },
      "geometry": {
        "type": "Point",
        "coordinates": [
          120.478175,
          22.491357
        ]
      }
    },
    {
      "type": "Feature",
      "properties": {
        "feature_type": "station",
        "ref": "THB254533",
        "name": "海坪",
        "name_en": "Haiping",
        "line": "8213",
        "color": "#65a30d",
        "direction": 0
      },
      "geometry": {
        "type": "Point",
        "coordinates": [
          120.47446,
          22.48853
        ]
      }
    },
    {
      "type": "Feature",
      "properties": {
        "feature_type": "station",
        "ref": "THB252045",
        "name": "環美路口",
        "name_en": "Huanmei intersection",
        "line": "8213",
        "color": "#65a30d",
        "direction": 0
      },
      "geometry": {
        "type": "Point",
        "coordinates": [
          120.472297,
          22.4864
        ]
      }
    },
    {
      "type": "Feature",
      "properties": {
        "feature_type": "station",
        "ref": "THB252811",
        "name": "內關帝",
        "name_en": "Neiguandi",
        "line": "8213",
        "color": "#65a30d",
        "direction": 0
      },
      "geometry": {
        "type": "Point",
        "coordinates": [
          120.46525,
          22.47913
        ]
      }
    },
    {
      "type": "Feature",
      "properties": {
        "feature_type": "station",
        "ref": "THB280646",
        "name": "安泰醫院",
        "name_en": "Antai Hospital",
        "line": "8213",
        "color": "#65a30d",
        "direction": 0
      },
      "geometry": {
        "type": "Point",
        "coordinates": [
          120.458898,
          22.474467
        ]
      }
    },
    {
      "type": "Feature",
      "properties": {
        "feature_type": "station",
        "ref": "THB288150",
        "name": "新街",
        "name_en": "Xin St.",
        "line": "8213",
        "color": "#65a30d",
        "direction": 0
      },
      "geometry": {
        "type": "Point",
        "coordinates": [
          120.455916,
          22.472168
        ]
      }
    },
    {
      "type": "Feature",
      "properties": {
        "feature_type": "station",
        "ref": "THB257583",
        "name": "頂新里",
        "name_en": "Dingxin Village",
        "line": "8213",
        "color": "#65a30d",
        "direction": 0
      },
      "geometry": {
        "type": "Point",
        "coordinates": [
          120.450861,
          22.468636
        ]
      }
    },
    {
      "type": "Feature",
      "properties": {
        "feature_type": "station",
        "ref": "THB309007",
        "name": "上東港",
        "name_en": "Shangdonggang",
        "line": "8213",
        "color": "#65a30d",
        "direction": 0
      },
      "geometry": {
        "type": "Point",
        "coordinates": [
          120.45147,
          22.46604
        ]
      }
    },
    {
      "type": "Feature",
      "properties": {
        "feature_type": "station",
        "ref": "THB309009",
        "name": "輔英醫院",
        "name_en": "Fooyin University Hospital",
        "line": "8213",
        "color": "#65a30d",
        "direction": 0
      },
      "geometry": {
        "type": "Point",
        "coordinates": [
          120.45385,
          22.465163
        ]
      }
    },
    {
      "type": "Feature",
      "properties": {
        "feature_type": "station",
        "ref": "THB309008",
        "name": "東港轉運站",
        "name_en": "Donggang Bus Station",
        "line": "8213",
        "color": "#65a30d",
        "direction": 0
      },
      "geometry": {
        "type": "Point",
        "coordinates": [
          120.457684,
          22.464626
        ]
      }
    },
    {
      "type": "Feature",
      "properties": {
        "feature_type": "station",
        "ref": "THB309008",
        "name": "東港轉運站",
        "name_en": "Donggang Bus Station",
        "line": "8213",
        "color": "#65a30d",
        "direction": 1
      },
      "geometry": {
        "type": "Point",
        "coordinates": [
          120.457684,
          22.464626
        ]
      }
    },
    {
      "type": "Feature",
      "properties": {
        "feature_type": "station",
        "ref": "THB309010",
        "name": "輔英醫院",
        "name_en": "Fooyin University Hospital",
        "line": "8213",
        "color": "#65a30d",
        "direction": 1
      },
      "geometry": {
        "type": "Point",
        "coordinates": [
          120.454722,
          22.464949
        ]
      }
    },
    {
      "type": "Feature",
      "properties": {
        "feature_type": "station",
        "ref": "THB258241",
        "name": "頂新里",
        "name_en": "Dingxin Village",
        "line": "8213",
        "color": "#65a30d",
        "direction": 1
      },
      "geometry": {
        "type": "Point",
        "coordinates": [
          120.451068,
          22.468754
        ]
      }
    },
    {
      "type": "Feature",
      "properties": {
        "feature_type": "station",
        "ref": "THB279897",
        "name": "新街",
        "name_en": "Xin St.",
        "line": "8213",
        "color": "#65a30d",
        "direction": 1
      },
      "geometry": {
        "type": "Point",
        "coordinates": [
          120.4560594,
          22.47221045
        ]
      }
    },
    {
      "type": "Feature",
      "properties": {
        "feature_type": "station",
        "ref": "THB280797",
        "name": "安泰醫院",
        "name_en": "Antai Hospital",
        "line": "8213",
        "color": "#65a30d",
        "direction": 1
      },
      "geometry": {
        "type": "Point",
        "coordinates": [
          120.458892,
          22.474329
        ]
      }
    },
    {
      "type": "Feature",
      "properties": {
        "feature_type": "station",
        "ref": "THB252505",
        "name": "內關帝",
        "name_en": "Neiguandi",
        "line": "8213",
        "color": "#65a30d",
        "direction": 1
      },
      "geometry": {
        "type": "Point",
        "coordinates": [
          120.4656,
          22.4792
        ]
      }
    },
    {
      "type": "Feature",
      "properties": {
        "feature_type": "station",
        "ref": "THB253268",
        "name": "環美路口",
        "name_en": "Huanmei intersection",
        "line": "8213",
        "color": "#65a30d",
        "direction": 1
      },
      "geometry": {
        "type": "Point",
        "coordinates": [
          120.472517,
          22.486389
        ]
      }
    },
    {
      "type": "Feature",
      "properties": {
        "feature_type": "station",
        "ref": "THB258990",
        "name": "海坪",
        "name_en": "Haiping",
        "line": "8213",
        "color": "#65a30d",
        "direction": 1
      },
      "geometry": {
        "type": "Point",
        "coordinates": [
          120.47451,
          22.48834
        ]
      }
    },
    {
      "type": "Feature",
      "properties": {
        "feature_type": "station",
        "ref": "THB259138",
        "name": "港東",
        "name_en": "Gangdong",
        "line": "8213",
        "color": "#65a30d",
        "direction": 1
      },
      "geometry": {
        "type": "Point",
        "coordinates": [
          120.478208,
          22.491203
        ]
      }
    },
    {
      "type": "Feature",
      "properties": {
        "feature_type": "station",
        "ref": "THB258604",
        "name": "過溪仔",
        "name_en": "Guoxizi",
        "line": "8213",
        "color": "#65a30d",
        "direction": 1
      },
      "geometry": {
        "type": "Point",
        "coordinates": [
          120.48957,
          22.49787
        ]
      }
    },
    {
      "type": "Feature",
      "properties": {
        "feature_type": "station",
        "ref": "THB258557",
        "name": "溝仔底",
        "name_en": "Gouzidi",
        "line": "8213",
        "color": "#65a30d",
        "direction": 1
      },
      "geometry": {
        "type": "Point",
        "coordinates": [
          120.497384,
          22.502385
        ]
      }
    },
    {
      "type": "Feature",
      "properties": {
        "feature_type": "station",
        "ref": "THB252027",
        "name": "下崁頂",
        "name_en": "Xiakanding",
        "line": "8213",
        "color": "#65a30d",
        "direction": 1
      },
      "geometry": {
        "type": "Point",
        "coordinates": [
          120.50893,
          22.51149
        ]
      }
    },
    {
      "type": "Feature",
      "properties": {
        "feature_type": "station",
        "ref": "THB257466",
        "name": "崁頂派出所",
        "name_en": "Kanding Police Substation",
        "line": "8213",
        "color": "#65a30d",
        "direction": 1
      },
      "geometry": {
        "type": "Point",
        "coordinates": [
          120.51122,
          22.51307
        ]
      }
    },
    {
      "type": "Feature",
      "properties": {
        "feature_type": "station",
        "ref": "THB254665",
        "name": "崁頂",
        "name_en": "Kanding",
        "line": "8213",
        "color": "#65a30d",
        "direction": 1
      },
      "geometry": {
        "type": "Point",
        "coordinates": [
          120.51339,
          22.51441
        ]
      }
    },
    {
      "type": "Feature",
      "properties": {
        "feature_type": "station",
        "ref": "THB251585",
        "name": "下八老爺",
        "name_en": "Xiabalaoye",
        "line": "8213",
        "color": "#65a30d",
        "direction": 1
      },
      "geometry": {
        "type": "Point",
        "coordinates": [
          120.52887,
          22.5289
        ]
      }
    },
    {
      "type": "Feature",
      "properties": {
        "feature_type": "station",
        "ref": "THB253215",
        "name": "八老爺",
        "name_en": "Balaoye",
        "line": "8213",
        "color": "#65a30d",
        "direction": 1
      },
      "geometry": {
        "type": "Point",
        "coordinates": [
          120.5335,
          22.5374
        ]
      }
    },
    {
      "type": "Feature",
      "properties": {
        "feature_type": "station",
        "ref": "THB252719",
        "name": "介壽路",
        "name_en": "Jieshou Road",
        "line": "8213",
        "color": "#65a30d",
        "direction": 1
      },
      "geometry": {
        "type": "Point",
        "coordinates": [
          120.536167,
          22.543586
        ]
      }
    },
    {
      "type": "Feature",
      "properties": {
        "feature_type": "station",
        "ref": "THB309168",
        "name": "潮州轉運站",
        "name_en": "Chaozhou Bus Station",
        "line": "8213",
        "color": "#65a30d",
        "direction": 1
      },
      "geometry": {
        "type": "Point",
        "coordinates": [
          120.536467,
          22.550897
        ]
      }
    }
  ]
}
