{
  "type": "FeatureCollection",
  "name": "8208",
  "properties": {
    "id": "inter_city_8208",
    "name": "8208",
    "name_en": "8208",
    "ref": "8208",
    "color": "#65a30d",
    "city_id": "InterCity",
    "source": "TDX Bus Shape / StopOfRoute",
    "official_map_url": "https://web.taiwanbus.tw/MISUploadData/Schematic/file/8208.jpg",
    "operator_id": "29",
    "operator": "屏東客運",
    "operator_en": "Pingtung Bus Co., Ltd."
  },
  "features": [
    {
      "type": "Feature",
      "properties": {
        "feature_type": "route",
        "ref": "8208",
        "name": "8208",
        "name_en": "8208",
        "color": "#65a30d",
        "direction": 0
      },
      "geometry": {
        "type": "LineString",
        "coordinates": [
          [
            120.48483,
            22.66977
          ],
          [
            120.48569,
            22.66964
          ],
          [
            120.48601,
            22.66962
          ],
          [
            120.48623,
            22.66958
          ],
          [
            120.48635,
            22.66957
          ],
          [
            120.48651,
            22.66955
          ],
          [
            120.48651,
            22.66955
          ],
          [
            120.48649,
            22.66965
          ],
          [
            120.48648,
            22.66973
          ],
          [
            120.48646,
            22.66976
          ],
          [
            120.48644,
            22.6698
          ],
          [
            120.48642,
            22.66984
          ],
          [
            120.48641,
            22.66989
          ],
          [
            120.48641,
            22.66994
          ],
          [
            120.48646,
            22.67024
          ],
          [
            120.48646,
            22.67024
          ],
          [
            120.48648,
            22.67024
          ],
          [
            120.48665,
            22.67027
          ],
          [
            120.4875,
            22.67055
          ],
          [
            120.48755,
            22.67056
          ],
          [
            120.48768,
            22.67062
          ],
          [
            120.48768,
            22.67062
          ],
          [
            120.48815,
            22.6708
          ],
          [
            120.48895,
            22.67107
          ],
          [
            120.48913,
            22.6711
          ],
          [
            120.48915,
            22.6711
          ],
          [
            120.48923,
            22.6711
          ],
          [
            120.48923,
            22.6711
          ],
          [
            120.48928,
            22.67098
          ],
          [
            120.48938,
            22.67075
          ],
          [
            120.48947,
            22.67056
          ],
          [
            120.48947,
            22.67056
          ],
          [
            120.4895,
            22.6705
          ],
          [
            120.48956,
            22.67039
          ],
          [
            120.48959,
            22.67032
          ],
          [
            120.4896,
            22.67027
          ],
          [
            120.4896,
            22.6702
          ],
          [
            120.48954,
            22.66988
          ],
          [
            120.48942,
            22.66918
          ],
          [
            120.48938,
            22.66875
          ],
          [
            120.48937,
            22.66864
          ],
          [
            120.48937,
            22.66859
          ],
          [
            120.48936,
            22.66847
          ],
          [
            120.48932,
            22.66826
          ],
          [
            120.48916,
            22.66758
          ],
          [
            120.48908,
            22.66721
          ],
          [
            120.48895,
            22.66689
          ],
          [
            120.48889,
            22.66668
          ],
          [
            120.48883,
            22.66645
          ],
          [
            120.48876,
            22.66637
          ],
          [
            120.48873,
            22.66628
          ],
          [
            120.48871,
            22.6662
          ],
          [
            120.48867,
            22.66606
          ],
          [
            120.48863,
            22.66592
          ],
          [
            120.48863,
            22.66592
          ],
          [
            120.48855,
            22.66564
          ],
          [
            120.4885,
            22.66549
          ],
          [
            120.48844,
            22.66526
          ],
          [
            120.48838,
            22.66506
          ],
          [
            120.48824,
            22.66457
          ],
          [
            120.48821,
            22.66446
          ],
          [
            120.48817,
            22.66425
          ],
          [
            120.48813,
            22.66406
          ],
          [
            120.48809,
            22.66391
          ],
          [
            120.48804,
            22.66368
          ],
          [
            120.48801,
            22.66353
          ],
          [
            120.48801,
            22.66353
          ],
          [
            120.48793,
            22.66318
          ],
          [
            120.48789,
            22.66301
          ],
          [
            120.48786,
            22.66287
          ],
          [
            120.48752,
            22.66125
          ],
          [
            120.48748,
            22.66107
          ],
          [
            120.48745,
            22.66089
          ],
          [
            120.48741,
            22.66072
          ],
          [
            120.48725,
            22.65997
          ],
          [
            120.48721,
            22.65978
          ],
          [
            120.48714,
            22.65942
          ],
          [
            120.48709,
            22.65915
          ],
          [
            120.48699,
            22.65869
          ],
          [
            120.48699,
            22.65869
          ],
          [
            120.48679,
            22.65773
          ],
          [
            120.48664,
            22.65704
          ],
          [
            120.48648,
            22.65626
          ],
          [
            120.4864,
            22.65588
          ],
          [
            120.48633,
            22.6556
          ],
          [
            120.48628,
            22.6553
          ],
          [
            120.48628,
            22.6553
          ],
          [
            120.48625,
            22.65517
          ],
          [
            120.48616,
            22.65474
          ],
          [
            120.48607,
            22.65435
          ],
          [
            120.48605,
            22.65429
          ],
          [
            120.48603,
            22.65418
          ],
          [
            120.486,
            22.65394
          ],
          [
            120.48599,
            22.65383
          ],
          [
            120.48598,
            22.65372
          ],
          [
            120.48598,
            22.65347
          ],
          [
            120.48597,
            22.65334
          ],
          [
            120.48596,
            22.65283
          ],
          [
            120.48596,
            22.65283
          ],
          [
            120.48594,
            22.65227
          ],
          [
            120.48592,
            22.65181
          ],
          [
            120.48591,
            22.65171
          ],
          [
            120.48589,
            22.65077
          ],
          [
            120.48587,
            22.65038
          ],
          [
            120.48586,
            22.65024
          ],
          [
            120.48585,
            22.64995
          ],
          [
            120.48585,
            22.64981
          ],
          [
            120.48585,
            22.64976
          ],
          [
            120.48584,
            22.64957
          ],
          [
            120.48581,
            22.6488
          ],
          [
            120.48581,
            22.6488
          ],
          [
            120.48581,
            22.64873
          ],
          [
            120.48579,
            22.64816
          ],
          [
            120.48576,
            22.64738
          ],
          [
            120.48576,
            22.64727
          ],
          [
            120.48572,
            22.64622
          ],
          [
            120.48571,
            22.646
          ],
          [
            120.48568,
            22.64487
          ],
          [
            120.48566,
            22.64454
          ],
          [
            120.48565,
            22.64427
          ],
          [
            120.48565,
            22.64427
          ],
          [
            120.48565,
            22.64387
          ],
          [
            120.48562,
            22.64327
          ],
          [
            120.48558,
            22.64214
          ],
          [
            120.48557,
            22.64197
          ],
          [
            120.48557,
            22.64194
          ],
          [
            120.48557,
            22.64176
          ],
          [
            120.48555,
            22.64101
          ],
          [
            120.48554,
            22.64068
          ],
          [
            120.48554,
            22.64068
          ],
          [
            120.48554,
            22.64044
          ],
          [
            120.48549,
            22.63902
          ],
          [
            120.48547,
            22.63852
          ],
          [
            120.48547,
            22.63852
          ],
          [
            120.48543,
            22.63843
          ],
          [
            120.48539,
            22.63833
          ],
          [
            120.48536,
            22.63825
          ],
          [
            120.48531,
            22.63818
          ],
          [
            120.48524,
            22.6381
          ],
          [
            120.48521,
            22.63803
          ],
          [
            120.48482,
            22.6376
          ],
          [
            120.48466,
            22.63743
          ],
          [
            120.48466,
            22.63743
          ],
          [
            120.48462,
            22.63739
          ],
          [
            120.48456,
            22.63732
          ],
          [
            120.4841,
            22.63687
          ],
          [
            120.48397,
            22.63673
          ],
          [
            120.4839,
            22.63668
          ],
          [
            120.48385,
            22.63664
          ],
          [
            120.48382,
            22.63661
          ],
          [
            120.48378,
            22.63659
          ],
          [
            120.4828,
            22.6359
          ],
          [
            120.48266,
            22.63579
          ],
          [
            120.4822,
            22.6355
          ],
          [
            120.4822,
            22.6355
          ],
          [
            120.48215,
            22.63546
          ],
          [
            120.48209,
            22.63543
          ],
          [
            120.48187,
            22.6353
          ],
          [
            120.48139,
            22.63497
          ],
          [
            120.4808,
            22.6345
          ],
          [
            120.48044,
            22.63424
          ],
          [
            120.48036,
            22.63418
          ],
          [
            120.48036,
            22.63418
          ],
          [
            120.48032,
            22.63414
          ],
          [
            120.48027,
            22.63293
          ],
          [
            120.48027,
            22.63293
          ],
          [
            120.48025,
            22.63247
          ],
          [
            120.48024,
            22.63178
          ],
          [
            120.48024,
            22.63169
          ],
          [
            120.48024,
            22.63148
          ],
          [
            120.48022,
            22.63019
          ],
          [
            120.48019,
            22.62876
          ],
          [
            120.48018,
            22.62793
          ],
          [
            120.48017,
            22.62734
          ],
          [
            120.48017,
            22.62734
          ],
          [
            120.48016,
            22.62693
          ],
          [
            120.48016,
            22.62693
          ],
          [
            120.48014,
            22.6252
          ],
          [
            120.48014,
            22.62501
          ],
          [
            120.48013,
            22.62471
          ],
          [
            120.4801,
            22.62321
          ],
          [
            120.48008,
            22.62161
          ],
          [
            120.48007,
            22.62145
          ],
          [
            120.48008,
            22.62137
          ],
          [
            120.4801,
            22.62129
          ],
          [
            120.48013,
            22.62121
          ],
          [
            120.48016,
            22.62113
          ],
          [
            120.48019,
            22.62106
          ],
          [
            120.48027,
            22.6209
          ],
          [
            120.48036,
            22.62079
          ],
          [
            120.48042,
            22.62068
          ],
          [
            120.48042,
            22.62068
          ],
          [
            120.48049,
            22.62055
          ],
          [
            120.48104,
            22.61952
          ],
          [
            120.48154,
            22.61864
          ],
          [
            120.48155,
            22.61862
          ],
          [
            120.48158,
            22.61856
          ],
          [
            120.4816,
            22.61841
          ],
          [
            120.48166,
            22.61831
          ],
          [
            120.4818,
            22.61819
          ],
          [
            120.4818,
            22.61819
          ],
          [
            120.48208,
            22.61765
          ],
          [
            120.48219,
            22.61737
          ],
          [
            120.48222,
            22.61731
          ],
          [
            120.48233,
            22.61714
          ],
          [
            120.48235,
            22.61709
          ],
          [
            120.48241,
            22.61696
          ],
          [
            120.48265,
            22.61654
          ],
          [
            120.48289,
            22.61608
          ],
          [
            120.48314,
            22.61564
          ],
          [
            120.48345,
            22.61508
          ],
          [
            120.48387,
            22.61437
          ],
          [
            120.48408,
            22.61398
          ],
          [
            120.48429,
            22.61358
          ],
          [
            120.48446,
            22.61328
          ],
          [
            120.48484,
            22.61261
          ],
          [
            120.48484,
            22.61261
          ],
          [
            120.4851,
            22.61215
          ],
          [
            120.48535,
            22.61168
          ],
          [
            120.48606,
            22.61044
          ],
          [
            120.48639,
            22.60981
          ],
          [
            120.48657,
            22.6094
          ],
          [
            120.48665,
            22.60914
          ],
          [
            120.48675,
            22.60883
          ],
          [
            120.48685,
            22.60845
          ],
          [
            120.4871,
            22.60739
          ],
          [
            120.48721,
            22.6069
          ],
          [
            120.48721,
            22.6069
          ],
          [
            120.4873,
            22.60649
          ],
          [
            120.48735,
            22.60628
          ],
          [
            120.48738,
            22.60619
          ],
          [
            120.48768,
            22.60495
          ],
          [
            120.48804,
            22.60341
          ],
          [
            120.48804,
            22.60341
          ],
          [
            120.48809,
            22.60323
          ],
          [
            120.48818,
            22.6029
          ],
          [
            120.48818,
            22.6029
          ],
          [
            120.48816,
            22.60287
          ],
          [
            120.48816,
            22.60285
          ],
          [
            120.48816,
            22.60281
          ],
          [
            120.48816,
            22.60274
          ],
          [
            120.48819,
            22.60241
          ],
          [
            120.48823,
            22.60184
          ],
          [
            120.48824,
            22.60168
          ],
          [
            120.48842,
            22.59943
          ],
          [
            120.48848,
            22.5986
          ],
          [
            120.48848,
            22.59847
          ],
          [
            120.4886,
            22.59684
          ],
          [
            120.48865,
            22.59604
          ],
          [
            120.48865,
            22.59604
          ],
          [
            120.48867,
            22.59576
          ],
          [
            120.4887,
            22.59503
          ],
          [
            120.48871,
            22.59485
          ],
          [
            120.48884,
            22.593139999999998
          ],
          [
            120.48884,
            22.59312
          ],
          [
            120.48885,
            22.59292
          ],
          [
            120.48885,
            22.59283
          ],
          [
            120.48886,
            22.59269
          ],
          [
            120.48889,
            22.59262
          ],
          [
            120.4889,
            22.59261
          ],
          [
            120.48891,
            22.5926
          ],
          [
            120.48894,
            22.59257
          ],
          [
            120.48896,
            22.59226
          ],
          [
            120.48896,
            22.59217
          ],
          [
            120.48896,
            22.59217
          ],
          [
            120.48897,
            22.59203
          ],
          [
            120.48902,
            22.59137
          ],
          [
            120.48903,
            22.59126
          ],
          [
            120.48908,
            22.59037
          ],
          [
            120.48908,
            22.59023
          ],
          [
            120.48911,
            22.59011
          ],
          [
            120.48913,
            22.58983
          ],
          [
            120.48915,
            22.58972
          ],
          [
            120.48916,
            22.58966
          ],
          [
            120.48921,
            22.58945
          ],
          [
            120.48931,
            22.58926
          ],
          [
            120.48934,
            22.58921
          ],
          [
            120.48937,
            22.58916
          ],
          [
            120.48943,
            22.58908
          ],
          [
            120.48985,
            22.5885
          ],
          [
            120.48997,
            22.58834
          ],
          [
            120.48998,
            22.58827
          ],
          [
            120.48998,
            22.58823
          ],
          [
            120.48998,
            22.5882
          ],
          [
            120.4899,
            22.58781
          ],
          [
            120.48981,
            22.58741
          ],
          [
            120.48977,
            22.58728
          ],
          [
            120.48977,
            22.58728
          ],
          [
            120.4896,
            22.58663
          ],
          [
            120.4896,
            22.58663
          ],
          [
            120.49033,
            22.58646
          ],
          [
            120.49126,
            22.58627
          ],
          [
            120.49144,
            22.58623
          ],
          [
            120.49159,
            22.5862
          ],
          [
            120.49194,
            22.58612
          ],
          [
            120.4926,
            22.58592
          ],
          [
            120.4926,
            22.58592
          ],
          [
            120.49267,
            22.5859
          ],
          [
            120.49297,
            22.58581
          ],
          [
            120.49312,
            22.58577
          ],
          [
            120.49342,
            22.58566
          ],
          [
            120.49351,
            22.58563
          ],
          [
            120.49384,
            22.58551
          ],
          [
            120.49391,
            22.58549
          ],
          [
            120.4948,
            22.58521
          ],
          [
            120.49489,
            22.58518
          ],
          [
            120.49496,
            22.58516
          ],
          [
            120.49621,
            22.58475
          ],
          [
            120.49701,
            22.5845
          ],
          [
            120.49701,
            22.5845
          ],
          [
            120.49722,
            22.58444
          ],
          [
            120.49758,
            22.58438
          ],
          [
            120.49777,
            22.58435
          ],
          [
            120.4989,
            22.58411
          ],
          [
            120.49947,
            22.58392
          ],
          [
            120.50008,
            22.58369
          ],
          [
            120.50056,
            22.5835
          ],
          [
            120.5017,
            22.58299
          ],
          [
            120.50287,
            22.58253
          ],
          [
            120.50316,
            22.58241
          ],
          [
            120.50316,
            22.58241
          ],
          [
            120.50489,
            22.58168
          ],
          [
            120.50728,
            22.58069
          ],
          [
            120.50835,
            22.58022
          ],
          [
            120.50835,
            22.58022
          ],
          [
            120.50862,
            22.5801
          ],
          [
            120.50919,
            22.57984
          ],
          [
            120.50951,
            22.57969
          ],
          [
            120.50968,
            22.57961
          ],
          [
            120.50982,
            22.57955
          ],
          [
            120.5103,
            22.57931
          ],
          [
            120.51073,
            22.5791
          ],
          [
            120.51088,
            22.57902
          ],
          [
            120.51102,
            22.57894
          ],
          [
            120.51115,
            22.57886
          ],
          [
            120.51132,
            22.57874
          ],
          [
            120.51147,
            22.57863
          ],
          [
            120.51314,
            22.57731
          ],
          [
            120.51344,
            22.57706
          ],
          [
            120.51375,
            22.57681
          ],
          [
            120.51375,
            22.57681
          ],
          [
            120.514,
            22.57662
          ],
          [
            120.5147,
            22.57606
          ],
          [
            120.51506,
            22.57576
          ],
          [
            120.51512,
            22.57572
          ],
          [
            120.51556,
            22.57536
          ],
          [
            120.51634,
            22.57472
          ],
          [
            120.51723,
            22.574
          ],
          [
            120.51724,
            22.57399
          ],
          [
            120.51724,
            22.57399
          ],
          [
            120.51765,
            22.57364
          ],
          [
            120.51768,
            22.57361
          ],
          [
            120.51792,
            22.5734
          ],
          [
            120.51803,
            22.57331
          ],
          [
            120.51983,
            22.57171
          ],
          [
            120.52127,
            22.57044
          ],
          [
            120.52154,
            22.57019
          ],
          [
            120.52177,
            22.57001
          ],
          [
            120.52197,
            22.56982
          ],
          [
            120.52346,
            22.56851
          ],
          [
            120.52346,
            22.56851
          ],
          [
            120.5238,
            22.56821
          ],
          [
            120.5239,
            22.56813
          ],
          [
            120.52515,
            22.56706
          ],
          [
            120.52521,
            22.56702
          ],
          [
            120.52542,
            22.56686
          ],
          [
            120.52566,
            22.56667
          ],
          [
            120.52689,
            22.56572
          ],
          [
            120.52741,
            22.56532
          ],
          [
            120.52752,
            22.56523
          ],
          [
            120.52783,
            22.56501
          ],
          [
            120.52828,
            22.56467
          ],
          [
            120.52904,
            22.56411
          ],
          [
            120.52912,
            22.56404
          ],
          [
            120.52919,
            22.56399
          ],
          [
            120.52932,
            22.56389
          ],
          [
            120.52943,
            22.5638
          ],
          [
            120.52952,
            22.56373
          ],
          [
            120.5298,
            22.56351
          ],
          [
            120.53053,
            22.56295
          ],
          [
            120.53065,
            22.56286
          ],
          [
            120.53092,
            22.56263
          ],
          [
            120.53094,
            22.56261
          ],
          [
            120.53115,
            22.56242
          ],
          [
            120.53154,
            22.56204
          ],
          [
            120.53165,
            22.56192
          ],
          [
            120.53175,
            22.56179
          ],
          [
            120.53175,
            22.56179
          ],
          [
            120.53234,
            22.56107
          ],
          [
            120.53274,
            22.56057
          ],
          [
            120.53305,
            22.56019
          ],
          [
            120.53341,
            22.55978
          ],
          [
            120.5338,
            22.5593
          ],
          [
            120.53407,
            22.55899
          ],
          [
            120.53417,
            22.55886
          ],
          [
            120.53429,
            22.55872
          ],
          [
            120.53487,
            22.558
          ],
          [
            120.53563,
            22.55706
          ],
          [
            120.53563,
            22.55706
          ],
          [
            120.53584,
            22.55681
          ],
          [
            120.53612,
            22.55649
          ],
          [
            120.53618,
            22.55642
          ],
          [
            120.53663,
            22.55589
          ],
          [
            120.53676,
            22.55572
          ],
          [
            120.53681,
            22.55567
          ],
          [
            120.53704,
            22.55537
          ],
          [
            120.53746,
            22.55484
          ],
          [
            120.53746,
            22.55484
          ],
          [
            120.53795,
            22.55519
          ],
          [
            120.53827,
            22.55542
          ],
          [
            120.53864,
            22.55566
          ],
          [
            120.5389,
            22.55585
          ],
          [
            120.53906,
            22.55596
          ],
          [
            120.5394,
            22.55621
          ],
          [
            120.53945,
            22.55623
          ],
          [
            120.5395,
            22.55625
          ],
          [
            120.53955,
            22.55627
          ],
          [
            120.53961,
            22.55628
          ],
          [
            120.53966,
            22.55628
          ],
          [
            120.5397,
            22.55628
          ],
          [
            120.53985,
            22.55628
          ],
          [
            120.53985,
            22.55628
          ],
          [
            120.54034,
            22.55627
          ],
          [
            120.54034,
            22.55627
          ],
          [
            120.54029,
            22.55523
          ],
          [
            120.54028,
            22.55428
          ],
          [
            120.54027,
            22.55378
          ],
          [
            120.54027,
            22.5537
          ],
          [
            120.54026,
            22.55307
          ],
          [
            120.54026,
            22.55307
          ],
          [
            120.54026,
            22.55304
          ],
          [
            120.54026,
            22.55293
          ],
          [
            120.54026,
            22.55287
          ],
          [
            120.54026,
            22.55241
          ],
          [
            120.54026,
            22.55229
          ],
          [
            120.54026,
            22.55209
          ],
          [
            120.54025,
            22.55203
          ],
          [
            120.54024,
            22.55162
          ],
          [
            120.54024,
            22.55162
          ],
          [
            120.54023,
            22.55162
          ],
          [
            120.54022,
            22.55162
          ],
          [
            120.54021,
            22.55162
          ],
          [
            120.5402,
            22.55161
          ],
          [
            120.54019,
            22.55161
          ],
          [
            120.54018,
            22.55161
          ],
          [
            120.54018,
            22.5516
          ],
          [
            120.54017,
            22.5516
          ],
          [
            120.54016,
            22.55159
          ],
          [
            120.54015,
            22.55158
          ],
          [
            120.54014,
            22.55158
          ],
          [
            120.54014,
            22.55157
          ],
          [
            120.54013,
            22.55157
          ],
          [
            120.54013,
            22.55156
          ],
          [
            120.54012,
            22.55155
          ],
          [
            120.54012,
            22.55154
          ],
          [
            120.54011,
            22.55153
          ],
          [
            120.54011,
            22.55152
          ],
          [
            120.54011,
            22.55151
          ],
          [
            120.54011,
            22.5515
          ],
          [
            120.54011,
            22.55149
          ],
          [
            120.54011,
            22.55148
          ],
          [
            120.54011,
            22.55147
          ],
          [
            120.54011,
            22.55146
          ],
          [
            120.53942,
            22.55142
          ],
          [
            120.53923,
            22.55141
          ],
          [
            120.53923,
            22.55141
          ],
          [
            120.53863,
            22.55138
          ],
          [
            120.53863,
            22.55138
          ],
          [
            120.53861,
            22.55073
          ],
          [
            120.5386,
            22.55056
          ],
          [
            120.53858,
            22.55014
          ],
          [
            120.53855,
            22.54947
          ],
          [
            120.53855,
            22.54947
          ],
          [
            120.53809,
            22.54961
          ],
          [
            120.5378,
            22.5497
          ],
          [
            120.53724,
            22.54988
          ],
          [
            120.53709,
            22.54993
          ],
          [
            120.53661,
            22.55008
          ],
          [
            120.53661,
            22.55008
          ],
          [
            120.53659,
            22.54985
          ],
          [
            120.53658,
            22.54973
          ],
          [
            120.53652,
            22.54913
          ],
          [
            120.53652,
            22.54913
          ],
          [
            120.5365,
            22.54913
          ],
          [
            120.53649,
            22.54913
          ],
          [
            120.53648,
            22.54914
          ],
          [
            120.53647,
            22.54914
          ],
          [
            120.53646,
            22.54914
          ],
          [
            120.53646,
            22.54915
          ],
          [
            120.53645,
            22.54915
          ],
          [
            120.53645,
            22.54916
          ],
          [
            120.53644,
            22.54917
          ],
          [
            120.53644,
            22.54918
          ],
          [
            120.5365,
            22.5498
          ],
          [
            120.5365,
            22.54982
          ],
          [
            120.5365,
            22.54983
          ],
          [
            120.5365,
            22.54984
          ],
          [
            120.53645,
            22.54988
          ],
          [
            120.53644,
            22.5499
          ],
          [
            120.53643,
            22.54991
          ],
          [
            120.53642,
            22.54992
          ],
          [
            120.53642,
            22.54993
          ],
          [
            120.53641,
            22.54994
          ],
          [
            120.53641,
            22.54995
          ],
          [
            120.5364,
            22.54995
          ],
          [
            120.5364,
            22.54996
          ],
          [
            120.5364,
            22.54997
          ],
          [
            120.5364,
            22.54998
          ],
          [
            120.5364,
            22.55005
          ],
          [
            120.53641,
            22.55009
          ],
          [
            120.53641,
            22.55011
          ],
          [
            120.53641,
            22.55013
          ],
          [
            120.53641,
            22.55014
          ],
          [
            120.53642,
            22.55015
          ],
          [
            120.53642,
            22.55016
          ],
          [
            120.53643,
            22.55017
          ],
          [
            120.53644,
            22.55018
          ],
          [
            120.53647,
            22.55021
          ],
          [
            120.53649,
            22.55023
          ],
          [
            120.53651,
            22.55025
          ],
          [
            120.53652,
            22.55026
          ],
          [
            120.53653,
            22.55028
          ],
          [
            120.53653,
            22.55029
          ],
          [
            120.53654,
            22.5503
          ],
          [
            120.53654,
            22.55031
          ],
          [
            120.53654,
            22.55032
          ],
          [
            120.53654,
            22.55035
          ],
          [
            120.53654,
            22.55037
          ],
          [
            120.53655,
            22.55038
          ],
          [
            120.53655,
            22.55045
          ],
          [
            120.53656,
            22.55056
          ],
          [
            120.53656,
            22.55056
          ],
          [
            120.5365,
            22.55065
          ],
          [
            120.53648,
            22.55069
          ],
          [
            120.53647,
            22.5507
          ],
          [
            120.53647,
            22.55072
          ],
          [
            120.53647,
            22.55073
          ],
          [
            120.53648,
            22.55087
          ]
        ]
      }
    },
    {
      "type": "Feature",
      "properties": {
        "feature_type": "route",
        "ref": "8208",
        "name": "8208",
        "name_en": "8208",
        "color": "#65a30d",
        "direction": 1
      },
      "geometry": {
        "type": "LineString",
        "coordinates": [
          [
            120.536488,
            22.550898
          ],
          [
            120.536507,
            22.551135
          ],
          [
            120.536644,
            22.551308
          ],
          [
            120.536752,
            22.551306
          ],
          [
            120.536619,
            22.550079
          ],
          [
            120.538521,
            22.549498
          ],
          [
            120.538633,
            22.551398
          ],
          [
            120.539705,
            22.551432
          ],
          [
            120.53971,
            22.55143
          ],
          [
            120.54011,
            22.55145
          ],
          [
            120.54012,
            22.55143
          ],
          [
            120.54013,
            22.55141
          ],
          [
            120.54019,
            22.55136
          ],
          [
            120.54026,
            22.55135
          ],
          [
            120.54033,
            22.55138
          ],
          [
            120.54038,
            22.55142
          ],
          [
            120.54039,
            22.55148
          ],
          [
            120.54038,
            22.55154
          ],
          [
            120.54034,
            22.55159
          ],
          [
            120.54028,
            22.55162
          ],
          [
            120.54024,
            22.55162
          ],
          [
            120.54026,
            22.55241
          ],
          [
            120.54026,
            22.55318
          ],
          [
            120.54026,
            22.55318
          ],
          [
            120.54029,
            22.55523
          ],
          [
            120.54034,
            22.55627
          ],
          [
            120.53986,
            22.55628
          ],
          [
            120.53986,
            22.55628
          ],
          [
            120.53955,
            22.55627
          ],
          [
            120.53945,
            22.55623
          ],
          [
            120.53906,
            22.55596
          ],
          [
            120.53827,
            22.55542
          ],
          [
            120.53746,
            22.55484
          ],
          [
            120.53663,
            22.55589
          ],
          [
            120.5356,
            22.55711
          ],
          [
            120.5356,
            22.55711
          ],
          [
            120.53429,
            22.55872
          ],
          [
            120.5338,
            22.5593
          ],
          [
            120.53234,
            22.56107
          ],
          [
            120.53154,
            22.56204
          ],
          [
            120.53146,
            22.56213
          ],
          [
            120.53146,
            22.56213
          ],
          [
            120.53094,
            22.56261
          ],
          [
            120.53065,
            22.56286
          ],
          [
            120.52932,
            22.56389
          ],
          [
            120.52912,
            22.56404
          ],
          [
            120.52741,
            22.56532
          ],
          [
            120.52566,
            22.56667
          ],
          [
            120.52515,
            22.56706
          ],
          [
            120.5238,
            22.56821
          ],
          [
            120.52349,
            22.56848
          ],
          [
            120.52349,
            22.56848
          ],
          [
            120.52177,
            22.57001
          ],
          [
            120.52127,
            22.57044
          ],
          [
            120.51768,
            22.57361
          ],
          [
            120.51724,
            22.57398
          ],
          [
            120.51724,
            22.57398
          ],
          [
            120.51512,
            22.57572
          ],
          [
            120.51372,
            22.57683
          ],
          [
            120.51372,
            22.57683
          ],
          [
            120.51314,
            22.57731
          ],
          [
            120.51132,
            22.57874
          ],
          [
            120.51073,
            22.5791
          ],
          [
            120.50951,
            22.57969
          ],
          [
            120.50822,
            22.58028
          ],
          [
            120.50822,
            22.58028
          ],
          [
            120.50728,
            22.58069
          ],
          [
            120.50489,
            22.58168
          ],
          [
            120.50293,
            22.5825
          ],
          [
            120.50293,
            22.5825
          ],
          [
            120.50198,
            22.58288
          ],
          [
            120.50044,
            22.58355
          ],
          [
            120.49925,
            22.584
          ],
          [
            120.4989,
            22.58411
          ],
          [
            120.49838,
            22.58422
          ],
          [
            120.49789,
            22.58432
          ],
          [
            120.49722,
            22.58444
          ],
          [
            120.49678,
            22.58458
          ],
          [
            120.49678,
            22.58458
          ],
          [
            120.4948,
            22.58521
          ],
          [
            120.49378,
            22.58552
          ],
          [
            120.49342,
            22.58566
          ],
          [
            120.49312,
            22.58578
          ],
          [
            120.49267,
            22.5859
          ],
          [
            120.4926,
            22.58592
          ],
          [
            120.4926,
            22.58592
          ],
          [
            120.49194,
            22.58612
          ],
          [
            120.49159,
            22.5862
          ],
          [
            120.49126,
            22.58627
          ],
          [
            120.4896,
            22.58663
          ],
          [
            120.48977,
            22.58728
          ],
          [
            120.48977,
            22.58728
          ],
          [
            120.4899,
            22.58781
          ],
          [
            120.48998,
            22.58823
          ],
          [
            120.48997,
            22.58834
          ],
          [
            120.48943,
            22.58908
          ],
          [
            120.48921,
            22.58945
          ],
          [
            120.48915,
            22.58972
          ],
          [
            120.48911,
            22.59011
          ],
          [
            120.48908,
            22.59037
          ],
          [
            120.48902,
            22.59137
          ],
          [
            120.489,
            22.59168
          ],
          [
            120.489,
            22.59168
          ],
          [
            120.48897,
            22.59203
          ],
          [
            120.48896,
            22.59226
          ],
          [
            120.48894,
            22.59257
          ],
          [
            120.48895,
            22.59261
          ],
          [
            120.48895,
            22.59263
          ],
          [
            120.48896,
            22.59265
          ],
          [
            120.48896,
            22.59267
          ],
          [
            120.48896,
            22.5927
          ],
          [
            120.48896,
            22.59277
          ],
          [
            120.48896,
            22.59289
          ],
          [
            120.48896,
            22.59301
          ],
          [
            120.48896,
            22.59311
          ],
          [
            120.48893,
            22.59354
          ],
          [
            120.48884,
            22.5948
          ],
          [
            120.48883,
            22.59498
          ],
          [
            120.48878,
            22.59573
          ],
          [
            120.48876,
            22.59594
          ],
          [
            120.48876,
            22.59594
          ],
          [
            120.4887,
            22.59685
          ],
          [
            120.4886,
            22.59848
          ],
          [
            120.48859,
            22.5986
          ],
          [
            120.48853,
            22.59942
          ],
          [
            120.48836,
            22.60169
          ],
          [
            120.48825,
            22.60263
          ],
          [
            120.48826,
            22.60268
          ],
          [
            120.48826,
            22.60272
          ],
          [
            120.48827,
            22.60272
          ],
          [
            120.48827,
            22.60273
          ],
          [
            120.48828,
            22.60274
          ],
          [
            120.48837,
            22.60279
          ],
          [
            120.48829,
            22.60295
          ],
          [
            120.48814,
            22.60348
          ],
          [
            120.48814,
            22.60348
          ],
          [
            120.48749,
            22.60619
          ],
          [
            120.48704,
            22.60815
          ],
          [
            120.48704,
            22.60815
          ],
          [
            120.48687,
            22.60885
          ],
          [
            120.48661,
            22.60958
          ],
          [
            120.48652,
            22.6098
          ],
          [
            120.48616,
            22.61048
          ],
          [
            120.48545,
            22.61174
          ],
          [
            120.48483,
            22.61286
          ],
          [
            120.48483,
            22.61286
          ],
          [
            120.4841,
            22.6142
          ],
          [
            120.48325,
            22.61569
          ],
          [
            120.48241,
            22.61722
          ],
          [
            120.48226,
            22.61758
          ],
          [
            120.48219,
            22.6178
          ],
          [
            120.48213,
            22.61816
          ],
          [
            120.48212,
            22.61826
          ],
          [
            120.48199,
            22.61825
          ],
          [
            120.48192,
            22.61826
          ],
          [
            120.4818,
            22.61834
          ],
          [
            120.48158,
            22.61856
          ],
          [
            120.48154,
            22.61864
          ],
          [
            120.48049,
            22.62055
          ],
          [
            120.48049,
            22.62055
          ],
          [
            120.48036,
            22.62079
          ],
          [
            120.48019,
            22.62106
          ],
          [
            120.48013,
            22.62121
          ],
          [
            120.48008,
            22.62137
          ],
          [
            120.48008,
            22.62161
          ],
          [
            120.48013,
            22.62471
          ],
          [
            120.48016,
            22.62665
          ],
          [
            120.48016,
            22.62665
          ],
          [
            120.48027,
            22.63293
          ],
          [
            120.48027,
            22.63293
          ],
          [
            120.48032,
            22.63414
          ],
          [
            120.48036,
            22.63418
          ],
          [
            120.48044,
            22.63424
          ],
          [
            120.4808,
            22.6345
          ],
          [
            120.48139,
            22.63493
          ],
          [
            120.48186,
            22.63527
          ],
          [
            120.48208,
            22.63541
          ],
          [
            120.48215,
            22.63546
          ],
          [
            120.48222,
            22.63551
          ],
          [
            120.48222,
            22.63551
          ],
          [
            120.48266,
            22.63579
          ],
          [
            120.4828,
            22.6359
          ],
          [
            120.48378,
            22.63659
          ],
          [
            120.48382,
            22.63661
          ],
          [
            120.48385,
            22.63664
          ],
          [
            120.4839,
            22.63668
          ],
          [
            120.48397,
            22.63673
          ],
          [
            120.4841,
            22.63687
          ],
          [
            120.48456,
            22.63732
          ],
          [
            120.48462,
            22.63739
          ],
          [
            120.48475,
            22.63753
          ],
          [
            120.48475,
            22.63753
          ],
          [
            120.48482,
            22.6376
          ],
          [
            120.48521,
            22.63804
          ],
          [
            120.48524,
            22.63806
          ],
          [
            120.48528,
            22.6381
          ],
          [
            120.48532,
            22.63812
          ],
          [
            120.48536,
            22.63814
          ],
          [
            120.48545,
            22.63817
          ],
          [
            120.48555,
            22.63817
          ],
          [
            120.48556,
            22.6386
          ],
          [
            120.48563,
            22.64048
          ],
          [
            120.48564,
            22.64083
          ],
          [
            120.48564,
            22.64083
          ],
          [
            120.48564,
            22.641
          ],
          [
            120.48567,
            22.64192
          ],
          [
            120.48567,
            22.64212
          ],
          [
            120.48573,
            22.64326
          ],
          [
            120.48574,
            22.64387
          ],
          [
            120.48576,
            22.64453
          ],
          [
            120.48576,
            22.64456
          ],
          [
            120.48576,
            22.64456
          ],
          [
            120.48583,
            22.64597
          ],
          [
            120.48586,
            22.64732
          ],
          [
            120.48593,
            22.64873
          ],
          [
            120.48594,
            22.6496
          ],
          [
            120.48594,
            22.6496
          ],
          [
            120.48595,
            22.64975
          ],
          [
            120.48595,
            22.64981
          ],
          [
            120.48597,
            22.65023
          ],
          [
            120.48597,
            22.65037
          ],
          [
            120.486,
            22.65076
          ],
          [
            120.486,
            22.65092
          ],
          [
            120.48602,
            22.65171
          ],
          [
            120.48602,
            22.65181
          ],
          [
            120.48603,
            22.65226
          ],
          [
            120.48605,
            22.65265
          ],
          [
            120.48605,
            22.65265
          ],
          [
            120.48607,
            22.65334
          ],
          [
            120.48608,
            22.65347
          ],
          [
            120.48608,
            22.65358
          ],
          [
            120.48609,
            22.65373
          ],
          [
            120.48611,
            22.6539
          ],
          [
            120.48615,
            22.65416
          ],
          [
            120.48616,
            22.65427
          ],
          [
            120.48627,
            22.65472
          ],
          [
            120.48636,
            22.65514
          ],
          [
            120.48639,
            22.65527
          ],
          [
            120.48639,
            22.65527
          ],
          [
            120.48645,
            22.65559
          ],
          [
            120.48651,
            22.65587
          ],
          [
            120.48691,
            22.65771
          ],
          [
            120.487,
            22.65822
          ],
          [
            120.487,
            22.65822
          ],
          [
            120.48718,
            22.65913
          ],
          [
            120.48724,
            22.65941
          ],
          [
            120.48731,
            22.65978
          ],
          [
            120.48762,
            22.66123
          ],
          [
            120.48796,
            22.66286
          ],
          [
            120.48798,
            22.66298
          ],
          [
            120.48802,
            22.66315
          ],
          [
            120.48813,
            22.66362
          ],
          [
            120.48813,
            22.66362
          ],
          [
            120.48819,
            22.66388
          ],
          [
            120.48823,
            22.66404
          ],
          [
            120.48831,
            22.66445
          ],
          [
            120.48834,
            22.66455
          ],
          [
            120.48848,
            22.66504
          ],
          [
            120.48853,
            22.66523
          ],
          [
            120.48859,
            22.66547
          ],
          [
            120.48871,
            22.66586
          ],
          [
            120.48871,
            22.66586
          ],
          [
            120.48876,
            22.66602
          ],
          [
            120.4888,
            22.66617
          ],
          [
            120.48882,
            22.66626
          ],
          [
            120.48885,
            22.66634
          ],
          [
            120.48883,
            22.66645
          ],
          [
            120.4889,
            22.66672
          ],
          [
            120.48895,
            22.66689
          ],
          [
            120.48908,
            22.66721
          ],
          [
            120.48916,
            22.66758
          ],
          [
            120.48932,
            22.66826
          ],
          [
            120.48936,
            22.66847
          ],
          [
            120.48938,
            22.66875
          ],
          [
            120.48942,
            22.66918
          ],
          [
            120.48946,
            22.66938
          ],
          [
            120.48946,
            22.66938
          ],
          [
            120.48954,
            22.66988
          ],
          [
            120.4896,
            22.6702
          ],
          [
            120.4896,
            22.67027
          ],
          [
            120.48959,
            22.67032
          ],
          [
            120.48956,
            22.67039
          ],
          [
            120.4895,
            22.6705
          ],
          [
            120.48938,
            22.67075
          ],
          [
            120.48928,
            22.67098
          ],
          [
            120.48923,
            22.6711
          ],
          [
            120.48923,
            22.6711
          ],
          [
            120.4892,
            22.67118
          ],
          [
            120.48891,
            22.67112
          ],
          [
            120.48812,
            22.67086
          ],
          [
            120.48751,
            22.67064
          ],
          [
            120.48662,
            22.67035
          ],
          [
            120.48647,
            22.67033
          ],
          [
            120.48638,
            22.67034
          ],
          [
            120.4857,
            22.67044
          ],
          [
            120.48472,
            22.67058
          ],
          [
            120.48472,
            22.67058
          ],
          [
            120.48476,
            22.67045
          ],
          [
            120.48463,
            22.6698
          ],
          [
            120.48463,
            22.6698
          ],
          [
            120.48476,
            22.66978
          ]
        ]
      }
    },
    {
      "type": "Feature",
      "properties": {
        "feature_type": "station",
        "ref": "THB278020",
        "name": "屏東轉運站",
        "name_en": "Pingtung Bus Station",
        "line": "8208",
        "color": "#65a30d",
        "direction": 0
      },
      "geometry": {
        "type": "Point",
        "coordinates": [
          120.484816,
          22.669673
        ]
      }
    },
    {
      "type": "Feature",
      "properties": {
        "feature_type": "station",
        "ref": "THB254860",
        "name": "逢甲路",
        "name_en": "Fengjia Road",
        "line": "8208",
        "color": "#65a30d",
        "direction": 0
      },
      "geometry": {
        "type": "Point",
        "coordinates": [
          120.487674,
          22.670557
        ]
      }
    },
    {
      "type": "Feature",
      "properties": {
        "feature_type": "station",
        "ref": "THB306686",
        "name": "屏東電信局",
        "name_en": "CHT Pingtung",
        "line": "8208",
        "color": "#65a30d",
        "direction": 0
      },
      "geometry": {
        "type": "Point",
        "coordinates": [
          120.48942,
          22.67054
        ]
      }
    },
    {
      "type": "Feature",
      "properties": {
        "feature_type": "station",
        "ref": "THB277947",
        "name": "南區市場",
        "name_en": "Nanqu Market",
        "line": "8208",
        "color": "#65a30d",
        "direction": 0
      },
      "geometry": {
        "type": "Point",
        "coordinates": [
          120.488596,
          22.665881
        ]
      }
    },
    {
      "type": "Feature",
      "properties": {
        "feature_type": "station",
        "ref": "THB253037",
        "name": "台糖前",
        "name_en": "Taiwan Sugar",
        "line": "8208",
        "color": "#65a30d",
        "direction": 0
      },
      "geometry": {
        "type": "Point",
        "coordinates": [
          120.487746,
          22.662616
        ]
      }
    },
    {
      "type": "Feature",
      "properties": {
        "feature_type": "station",
        "ref": "THB259128",
        "name": "復興國小",
        "name_en": "Fuxing Elementary School",
        "line": "8208",
        "color": "#65a30d",
        "direction": 0
      },
      "geometry": {
        "type": "Point",
        "coordinates": [
          120.486942,
          22.65869
        ]
      }
    },
    {
      "type": "Feature",
      "properties": {
        "feature_type": "station",
        "ref": "THB257042",
        "name": "新寮",
        "name_en": "Xinliao",
        "line": "8208",
        "color": "#65a30d",
        "direction": 0
      },
      "geometry": {
        "type": "Point",
        "coordinates": [
          120.48629,
          22.65534
        ]
      }
    },
    {
      "type": "Feature",
      "properties": {
        "feature_type": "station",
        "ref": "THB257751",
        "name": "劉厝",
        "name_en": "Liucuo",
        "line": "8208",
        "color": "#65a30d",
        "direction": 0
      },
      "geometry": {
        "type": "Point",
        "coordinates": [
          120.485913,
          22.652818
        ]
      }
    },
    {
      "type": "Feature",
      "properties": {
        "feature_type": "station",
        "ref": "THB255032",
        "name": "復興新村",
        "name_en": "Fuxing Village",
        "line": "8208",
        "color": "#65a30d",
        "direction": 0
      },
      "geometry": {
        "type": "Point",
        "coordinates": [
          120.485781,
          22.6488
        ]
      }
    },
    {
      "type": "Feature",
      "properties": {
        "feature_type": "station",
        "ref": "THB278287",
        "name": "復興新興路口",
        "name_en": "Fuxing Xinxing Intersection",
        "line": "8208",
        "color": "#65a30d",
        "direction": 0
      },
      "geometry": {
        "type": "Point",
        "coordinates": [
          120.48563,
          22.64422
        ]
      }
    },
    {
      "type": "Feature",
      "properties": {
        "feature_type": "station",
        "ref": "THB253376",
        "name": "上公館",
        "name_en": "Shanggongguan",
        "line": "8208",
        "color": "#65a30d",
        "direction": 0
      },
      "geometry": {
        "type": "Point",
        "coordinates": [
          120.485498,
          22.640817
        ]
      }
    },
    {
      "type": "Feature",
      "properties": {
        "feature_type": "station",
        "ref": "THB255232",
        "name": "龍華路消防隊",
        "name_en": "Longhua Rd. fire brigade",
        "line": "8208",
        "color": "#65a30d",
        "direction": 0
      },
      "geometry": {
        "type": "Point",
        "coordinates": [
          120.484558,
          22.637394
        ]
      }
    },
    {
      "type": "Feature",
      "properties": {
        "feature_type": "station",
        "ref": "THB276901",
        "name": "公館",
        "name_en": "Gongguan",
        "line": "8208",
        "color": "#65a30d",
        "direction": 0
      },
      "geometry": {
        "type": "Point",
        "coordinates": [
          120.4822,
          22.6355
        ]
      }
    },
    {
      "type": "Feature",
      "properties": {
        "feature_type": "station",
        "ref": "THB294724",
        "name": "龍華",
        "name_en": "Longhua",
        "line": "8208",
        "color": "#65a30d",
        "direction": 0
      },
      "geometry": {
        "type": "Point",
        "coordinates": [
          120.480182,
          22.632936
        ]
      }
    },
    {
      "type": "Feature",
      "properties": {
        "feature_type": "station",
        "ref": "THB278343",
        "name": "上廣安",
        "name_en": "Shangguangan",
        "line": "8208",
        "color": "#65a30d",
        "direction": 0
      },
      "geometry": {
        "type": "Point",
        "coordinates": [
          120.480095,
          22.626891
        ]
      }
    },
    {
      "type": "Feature",
      "properties": {
        "feature_type": "station",
        "ref": "THB257260",
        "name": "板橋頭",
        "name_en": "Banqiaotou",
        "line": "8208",
        "color": "#65a30d",
        "direction": 0
      },
      "geometry": {
        "type": "Point",
        "coordinates": [
          120.48038,
          22.62067
        ]
      }
    },
    {
      "type": "Feature",
      "properties": {
        "feature_type": "station",
        "ref": "THB255596",
        "name": "廣安",
        "name_en": "Guangan",
        "line": "8208",
        "color": "#65a30d",
        "direction": 0
      },
      "geometry": {
        "type": "Point",
        "coordinates": [
          120.4848,
          22.6126
        ]
      }
    },
    {
      "type": "Feature",
      "properties": {
        "feature_type": "station",
        "ref": "THB253264",
        "name": "下廣安",
        "name_en": "Xiaguangan",
        "line": "8208",
        "color": "#65a30d",
        "direction": 0
      },
      "geometry": {
        "type": "Point",
        "coordinates": [
          120.48669,
          22.60889
        ]
      }
    },
    {
      "type": "Feature",
      "properties": {
        "feature_type": "station",
        "ref": "THB255870",
        "name": "四維村",
        "name_en": "Siwei Village",
        "line": "8208",
        "color": "#65a30d",
        "direction": 0
      },
      "geometry": {
        "type": "Point",
        "coordinates": [
          120.48804,
          22.60341
        ]
      }
    },
    {
      "type": "Feature",
      "properties": {
        "feature_type": "station",
        "ref": "THB259230",
        "name": "萬丹國中",
        "name_en": "Wandan Junior High School",
        "line": "8208",
        "color": "#65a30d",
        "direction": 0
      },
      "geometry": {
        "type": "Point",
        "coordinates": [
          120.48862,
          22.59604
        ]
      }
    },
    {
      "type": "Feature",
      "properties": {
        "feature_type": "station",
        "ref": "THB253274",
        "name": "上萬丹",
        "name_en": "Shangwandan",
        "line": "8208",
        "color": "#65a30d",
        "direction": 0
      },
      "geometry": {
        "type": "Point",
        "coordinates": [
          120.488932,
          22.591505
        ]
      }
    },
    {
      "type": "Feature",
      "properties": {
        "feature_type": "station",
        "ref": "THB276121",
        "name": "萬丹",
        "name_en": "Wandan",
        "line": "8208",
        "color": "#65a30d",
        "direction": 0
      },
      "geometry": {
        "type": "Point",
        "coordinates": [
          120.489623,
          22.587313
        ]
      }
    },
    {
      "type": "Feature",
      "properties": {
        "feature_type": "station",
        "ref": "THB258953",
        "name": "萬壽丹榮路口",
        "name_en": "Wanshou Danrong intersection",
        "line": "8208",
        "color": "#65a30d",
        "direction": 0
      },
      "geometry": {
        "type": "Point",
        "coordinates": [
          120.492563,
          22.585808
        ]
      }
    },
    {
      "type": "Feature",
      "properties": {
        "feature_type": "station",
        "ref": "THB253321",
        "name": "萬壽路一段",
        "name_en": "Sec.1,Wanshou Rd.",
        "line": "8208",
        "color": "#65a30d",
        "direction": 0
      },
      "geometry": {
        "type": "Point",
        "coordinates": [
          120.49699,
          22.58445
        ]
      }
    },
    {
      "type": "Feature",
      "properties": {
        "feature_type": "station",
        "ref": "THB258968",
        "name": "香蕉市",
        "name_en": "Xiangjiaoshi",
        "line": "8208",
        "color": "#65a30d",
        "direction": 0
      },
      "geometry": {
        "type": "Point",
        "coordinates": [
          120.50311,
          22.58231
        ]
      }
    },
    {
      "type": "Feature",
      "properties": {
        "feature_type": "station",
        "ref": "THB255188",
        "name": "溪湖",
        "name_en": "Xihu",
        "line": "8208",
        "color": "#65a30d",
        "direction": 0
      },
      "geometry": {
        "type": "Point",
        "coordinates": [
          120.50832,
          22.58017
        ]
      }
    },
    {
      "type": "Feature",
      "properties": {
        "feature_type": "station",
        "ref": "THB251862",
        "name": "大湖仔",
        "name_en": "Dahuzi",
        "line": "8208",
        "color": "#65a30d",
        "direction": 0
      },
      "geometry": {
        "type": "Point",
        "coordinates": [
          120.51371,
          22.57677
        ]
      }
    },
    {
      "type": "Feature",
      "properties": {
        "feature_type": "station",
        "ref": "THB258558",
        "name": "溝仔墘",
        "name_en": "Gouziqian",
        "line": "8208",
        "color": "#65a30d",
        "direction": 0
      },
      "geometry": {
        "type": "Point",
        "coordinates": [
          120.5172,
          22.57395
        ]
      }
    },
    {
      "type": "Feature",
      "properties": {
        "feature_type": "station",
        "ref": "THB255481",
        "name": "港尾",
        "name_en": "Gangwei",
        "line": "8208",
        "color": "#65a30d",
        "direction": 0
      },
      "geometry": {
        "type": "Point",
        "coordinates": [
          120.52341,
          22.56847
        ]
      }
    },
    {
      "type": "Feature",
      "properties": {
        "feature_type": "station",
        "ref": "THB252715",
        "name": "五魁寮",
        "name_en": "Wukuiliao",
        "line": "8208",
        "color": "#65a30d",
        "direction": 0
      },
      "geometry": {
        "type": "Point",
        "coordinates": [
          120.53172,
          22.56177
        ]
      }
    },
    {
      "type": "Feature",
      "properties": {
        "feature_type": "station",
        "ref": "THB258404",
        "name": "日新職校",
        "name_en": "Rixin Industrial & Commercial Vocational Senior Sc",
        "line": "8208",
        "color": "#65a30d",
        "direction": 0
      },
      "geometry": {
        "type": "Point",
        "coordinates": [
          120.53562,
          22.55705
        ]
      }
    },
    {
      "type": "Feature",
      "properties": {
        "feature_type": "station",
        "ref": "THB259306",
        "name": "潮昇路",
        "name_en": "Chaosheng Road",
        "line": "8208",
        "color": "#65a30d",
        "direction": 0
      },
      "geometry": {
        "type": "Point",
        "coordinates": [
          120.539846,
          22.556204
        ]
      }
    },
    {
      "type": "Feature",
      "properties": {
        "feature_type": "station",
        "ref": "THB258663",
        "name": "潮州日式文化園區",
        "name_en": "Chaozhou Cultural Park",
        "line": "8208",
        "color": "#65a30d",
        "direction": 0
      },
      "geometry": {
        "type": "Point",
        "coordinates": [
          120.54023,
          22.55301
        ]
      }
    },
    {
      "type": "Feature",
      "properties": {
        "feature_type": "station",
        "ref": "THB259181",
        "name": "新生路",
        "name_en": "Xinsheng Road",
        "line": "8208",
        "color": "#65a30d",
        "direction": 0
      },
      "geometry": {
        "type": "Point",
        "coordinates": [
          120.539126,
          22.551475
        ]
      }
    },
    {
      "type": "Feature",
      "properties": {
        "feature_type": "station",
        "ref": "THB309168",
        "name": "潮州轉運站",
        "name_en": "Chaozhou Bus Station",
        "line": "8208",
        "color": "#65a30d",
        "direction": 0
      },
      "geometry": {
        "type": "Point",
        "coordinates": [
          120.536467,
          22.550897
        ]
      }
    },
    {
      "type": "Feature",
      "properties": {
        "feature_type": "station",
        "ref": "THB257758",
        "name": "潮州轉運站",
        "name_en": "Chaozhou Bus Station",
        "line": "8208",
        "color": "#65a30d",
        "direction": 1
      },
      "geometry": {
        "type": "Point",
        "coordinates": [
          120.536467,
          22.550897
        ]
      }
    },
    {
      "type": "Feature",
      "properties": {
        "feature_type": "station",
        "ref": "THB259180",
        "name": "新生路",
        "name_en": "Xinsheng Road",
        "line": "8208",
        "color": "#65a30d",
        "direction": 1
      },
      "geometry": {
        "type": "Point",
        "coordinates": [
          120.539712,
          22.551337
        ]
      }
    },
    {
      "type": "Feature",
      "properties": {
        "feature_type": "station",
        "ref": "THB276124",
        "name": "潮州日式文化園區",
        "name_en": "Chaozhou Cultural Park",
        "line": "8208",
        "color": "#65a30d",
        "direction": 1
      },
      "geometry": {
        "type": "Point",
        "coordinates": [
          120.54035,
          22.55312
        ]
      }
    },
    {
      "type": "Feature",
      "properties": {
        "feature_type": "station",
        "ref": "THB276123",
        "name": "潮昇路",
        "name_en": "Chaosheng Road",
        "line": "8208",
        "color": "#65a30d",
        "direction": 1
      },
      "geometry": {
        "type": "Point",
        "coordinates": [
          120.53986,
          22.55634
        ]
      }
    },
    {
      "type": "Feature",
      "properties": {
        "feature_type": "station",
        "ref": "THB258405",
        "name": "日新職校",
        "name_en": "Rixin Industrial & Commercial Vocational Senior Sc",
        "line": "8208",
        "color": "#65a30d",
        "direction": 1
      },
      "geometry": {
        "type": "Point",
        "coordinates": [
          120.535606,
          22.557113
        ]
      }
    },
    {
      "type": "Feature",
      "properties": {
        "feature_type": "station",
        "ref": "THB252494",
        "name": "五魁寮",
        "name_en": "Wukuiliao",
        "line": "8208",
        "color": "#65a30d",
        "direction": 1
      },
      "geometry": {
        "type": "Point",
        "coordinates": [
          120.531487,
          22.56213
        ]
      }
    },
    {
      "type": "Feature",
      "properties": {
        "feature_type": "station",
        "ref": "THB257608",
        "name": "港尾",
        "name_en": "Gangwei",
        "line": "8208",
        "color": "#65a30d",
        "direction": 1
      },
      "geometry": {
        "type": "Point",
        "coordinates": [
          120.523528,
          22.568522
        ]
      }
    },
    {
      "type": "Feature",
      "properties": {
        "feature_type": "station",
        "ref": "THB255320",
        "name": "溝仔墘",
        "name_en": "Gouziqian",
        "line": "8208",
        "color": "#65a30d",
        "direction": 1
      },
      "geometry": {
        "type": "Point",
        "coordinates": [
          120.51727,
          22.57401
        ]
      }
    },
    {
      "type": "Feature",
      "properties": {
        "feature_type": "station",
        "ref": "THB276122",
        "name": "大湖仔",
        "name_en": "Dahuzi",
        "line": "8208",
        "color": "#65a30d",
        "direction": 1
      },
      "geometry": {
        "type": "Point",
        "coordinates": [
          120.513739,
          22.576853
        ]
      }
    },
    {
      "type": "Feature",
      "properties": {
        "feature_type": "station",
        "ref": "THB258566",
        "name": "溪湖",
        "name_en": "Xihu",
        "line": "8208",
        "color": "#65a30d",
        "direction": 1
      },
      "geometry": {
        "type": "Point",
        "coordinates": [
          120.50826,
          22.58035
        ]
      }
    },
    {
      "type": "Feature",
      "properties": {
        "feature_type": "station",
        "ref": "THB254753",
        "name": "香蕉市",
        "name_en": "Xiangjiaoshi",
        "line": "8208",
        "color": "#65a30d",
        "direction": 1
      },
      "geometry": {
        "type": "Point",
        "coordinates": [
          120.502938,
          22.582525
        ]
      }
    },
    {
      "type": "Feature",
      "properties": {
        "feature_type": "station",
        "ref": "THB251987",
        "name": "萬壽路一段",
        "name_en": "Sec.1,Wanshou Rd.",
        "line": "8208",
        "color": "#65a30d",
        "direction": 1
      },
      "geometry": {
        "type": "Point",
        "coordinates": [
          120.496789,
          22.584608
        ]
      }
    },
    {
      "type": "Feature",
      "properties": {
        "feature_type": "station",
        "ref": "THB254512",
        "name": "萬壽丹榮路口",
        "name_en": "Wanshou Danrong intersection",
        "line": "8208",
        "color": "#65a30d",
        "direction": 1
      },
      "geometry": {
        "type": "Point",
        "coordinates": [
          120.49261,
          22.58596
        ]
      }
    },
    {
      "type": "Feature",
      "properties": {
        "feature_type": "station",
        "ref": "THB257066",
        "name": "萬丹",
        "name_en": "Wandan",
        "line": "8208",
        "color": "#65a30d",
        "direction": 1
      },
      "geometry": {
        "type": "Point",
        "coordinates": [
          120.48981,
          22.58727
        ]
      }
    },
    {
      "type": "Feature",
      "properties": {
        "feature_type": "station",
        "ref": "THB251624",
        "name": "上萬丹",
        "name_en": "Shangwandan",
        "line": "8208",
        "color": "#65a30d",
        "direction": 1
      },
      "geometry": {
        "type": "Point",
        "coordinates": [
          120.489013,
          22.591678
        ]
      }
    },
    {
      "type": "Feature",
      "properties": {
        "feature_type": "station",
        "ref": "THB257687",
        "name": "萬丹國中",
        "name_en": "Wandan Junior High School",
        "line": "8208",
        "color": "#65a30d",
        "direction": 1
      },
      "geometry": {
        "type": "Point",
        "coordinates": [
          120.488765,
          22.595979
        ]
      }
    },
    {
      "type": "Feature",
      "properties": {
        "feature_type": "station",
        "ref": "THB253146",
        "name": "四維村",
        "name_en": "Siwei Village",
        "line": "8208",
        "color": "#65a30d",
        "direction": 1
      },
      "geometry": {
        "type": "Point",
        "coordinates": [
          120.488176,
          22.603459
        ]
      }
    },
    {
      "type": "Feature",
      "properties": {
        "feature_type": "station",
        "ref": "THB251704",
        "name": "下廣安",
        "name_en": "Xiaguangan",
        "line": "8208",
        "color": "#65a30d",
        "direction": 1
      },
      "geometry": {
        "type": "Point",
        "coordinates": [
          120.486915,
          22.608947
        ]
      }
    },
    {
      "type": "Feature",
      "properties": {
        "feature_type": "station",
        "ref": "THB255597",
        "name": "廣安",
        "name_en": "Guangan",
        "line": "8208",
        "color": "#65a30d",
        "direction": 1
      },
      "geometry": {
        "type": "Point",
        "coordinates": [
          120.484916,
          22.612899
        ]
      }
    },
    {
      "type": "Feature",
      "properties": {
        "feature_type": "station",
        "ref": "THB254332",
        "name": "板橋頭",
        "name_en": "Banqiaotou",
        "line": "8208",
        "color": "#65a30d",
        "direction": 1
      },
      "geometry": {
        "type": "Point",
        "coordinates": [
          120.48055,
          22.62059
        ]
      }
    },
    {
      "type": "Feature",
      "properties": {
        "feature_type": "station",
        "ref": "THB253387",
        "name": "上廣安",
        "name_en": "Shangguangan",
        "line": "8208",
        "color": "#65a30d",
        "direction": 1
      },
      "geometry": {
        "type": "Point",
        "coordinates": [
          120.48019,
          22.62665
        ]
      }
    },
    {
      "type": "Feature",
      "properties": {
        "feature_type": "station",
        "ref": "THB294725",
        "name": "龍華",
        "name_en": "Longhua",
        "line": "8208",
        "color": "#65a30d",
        "direction": 1
      },
      "geometry": {
        "type": "Point",
        "coordinates": [
          120.480287,
          22.632878
        ]
      }
    },
    {
      "type": "Feature",
      "properties": {
        "feature_type": "station",
        "ref": "THB281366",
        "name": "公館",
        "name_en": "Gongguan",
        "line": "8208",
        "color": "#65a30d",
        "direction": 1
      },
      "geometry": {
        "type": "Point",
        "coordinates": [
          120.482274,
          22.6354
        ]
      }
    },
    {
      "type": "Feature",
      "properties": {
        "feature_type": "station",
        "ref": "THB255544",
        "name": "龍華路消防隊",
        "name_en": "Longhua Rd. fire brigade",
        "line": "8208",
        "color": "#65a30d",
        "direction": 1
      },
      "geometry": {
        "type": "Point",
        "coordinates": [
          120.484688,
          22.637414
        ]
      }
    },
    {
      "type": "Feature",
      "properties": {
        "feature_type": "station",
        "ref": "THB282062",
        "name": "上公館",
        "name_en": "Shanggongguan",
        "line": "8208",
        "color": "#65a30d",
        "direction": 1
      },
      "geometry": {
        "type": "Point",
        "coordinates": [
          120.485683,
          22.640816
        ]
      }
    },
    {
      "type": "Feature",
      "properties": {
        "feature_type": "station",
        "ref": "THB254897",
        "name": "復興新興路口",
        "name_en": "Fuxing Xinxing Intersection",
        "line": "8208",
        "color": "#65a30d",
        "direction": 1
      },
      "geometry": {
        "type": "Point",
        "coordinates": [
          120.485758,
          22.644492
        ]
      }
    },
    {
      "type": "Feature",
      "properties": {
        "feature_type": "station",
        "ref": "THB257605",
        "name": "復興新村",
        "name_en": "Fuxing Village",
        "line": "8208",
        "color": "#65a30d",
        "direction": 1
      },
      "geometry": {
        "type": "Point",
        "coordinates": [
          120.485915,
          22.649567
        ]
      }
    },
    {
      "type": "Feature",
      "properties": {
        "feature_type": "station",
        "ref": "THB257132",
        "name": "劉厝",
        "name_en": "Liucuo",
        "line": "8208",
        "color": "#65a30d",
        "direction": 1
      },
      "geometry": {
        "type": "Point",
        "coordinates": [
          120.48584,
          22.65268
        ]
      }
    },
    {
      "type": "Feature",
      "properties": {
        "feature_type": "station",
        "ref": "THB255507",
        "name": "新寮",
        "name_en": "Xinliao",
        "line": "8208",
        "color": "#65a30d",
        "direction": 1
      },
      "geometry": {
        "type": "Point",
        "coordinates": [
          120.48646,
          22.65528
        ]
      }
    },
    {
      "type": "Feature",
      "properties": {
        "feature_type": "station",
        "ref": "THB259129",
        "name": "復興國小",
        "name_en": "Fuxing Elementary School",
        "line": "8208",
        "color": "#65a30d",
        "direction": 1
      },
      "geometry": {
        "type": "Point",
        "coordinates": [
          120.48704,
          22.65821
        ]
      }
    },
    {
      "type": "Feature",
      "properties": {
        "feature_type": "station",
        "ref": "THB255866",
        "name": "台糖前",
        "name_en": "Taiwan Sugar",
        "line": "8208",
        "color": "#65a30d",
        "direction": 1
      },
      "geometry": {
        "type": "Point",
        "coordinates": [
          120.488196,
          22.663607
        ]
      }
    },
    {
      "type": "Feature",
      "properties": {
        "feature_type": "station",
        "ref": "THB254153",
        "name": "南區市場",
        "name_en": "Nanqu Market",
        "line": "8208",
        "color": "#65a30d",
        "direction": 1
      },
      "geometry": {
        "type": "Point",
        "coordinates": [
          120.4888,
          22.66587
        ]
      }
    },
    {
      "type": "Feature",
      "properties": {
        "feature_type": "station",
        "ref": "THB306687",
        "name": "屏東電信局",
        "name_en": "CHT Pingtung",
        "line": "8208",
        "color": "#65a30d",
        "direction": 1
      },
      "geometry": {
        "type": "Point",
        "coordinates": [
          120.48949,
          22.66937
        ]
      }
    },
    {
      "type": "Feature",
      "properties": {
        "feature_type": "station",
        "ref": "THB302340",
        "name": "屏東轉運站",
        "name_en": "Pingtung Bus Station",
        "line": "8208",
        "color": "#65a30d",
        "direction": 1
      },
      "geometry": {
        "type": "Point",
        "coordinates": [
          120.484736,
          22.669652
        ]
      }
    }
  ]
}
