{
  "type": "FeatureCollection",
  "name": "紅25區",
  "properties": {
    "id": "taipei_hong25qu",
    "name": "紅25區",
    "name_en": "紅25區",
    "ref": "紅25區",
    "color": "#701a75",
    "city_id": "Taipei",
    "source": "TDX Bus Shape / StopOfRoute",
    "official_map_url": "https://ebus.gov.taipei/File/Get/2cbeb7dc-930e-404a-98e7-5711e5bd0055?v=639234358580037610",
    "operator_id": "200",
    "operator": "首都客運",
    "operator_en": "Capital Bus Co., Ltd."
  },
  "features": [
    {
      "type": "Feature",
      "properties": {
        "feature_type": "route",
        "ref": "紅25區",
        "name": "紅25區",
        "name_en": "紅25區",
        "color": "#701a75",
        "direction": 0
      },
      "geometry": {
        "type": "LineString",
        "coordinates": [
          [
            121.610375394988,
            25.0594378556181
          ],
          [
            121.609056109861,
            25.0588705060614
          ],
          [
            121.608364216902,
            25.0585903876923
          ],
          [
            121.607994556895,
            25.0584529060499
          ],
          [
            121.607570694541,
            25.0583399745854
          ],
          [
            121.606613481092,
            25.0581651761134
          ],
          [
            121.605323465233,
            25.0579402945664
          ],
          [
            121.604950553085,
            25.0578695893659
          ],
          [
            121.604306629202,
            25.0577635314887
          ],
          [
            121.603410122382,
            25.0577507652566
          ],
          [
            121.6028724351,
            25.057743891131
          ],
          [
            121.602603591458,
            25.0577311248968
          ],
          [
            121.602301142362,
            25.0577026463696
          ],
          [
            121.602024710392,
            25.057653545445
          ],
          [
            121.601455585748,
            25.0574924942744
          ],
          [
            121.600299991709,
            25.0571969059044
          ],
          [
            121.600028979974,
            25.0571016496997
          ],
          [
            121.599831634565,
            25.0569898757427
          ],
          [
            121.599011059897,
            25.0566509002632
          ],
          [
            121.598112384983,
            25.0562374663158
          ],
          [
            121.596561113811,
            25.0556128936221
          ],
          [
            121.594978405277,
            25.0549549283795
          ],
          [
            121.594627174068,
            25.0549667128627
          ],
          [
            121.593411887585,
            25.0569520765339
          ],
          [
            121.592927997354,
            25.0577563012565
          ],
          [
            121.592594702203,
            25.0583779620045
          ],
          [
            121.59173106396,
            25.0599173661139
          ],
          [
            121.591321673087,
            25.0606706845311
          ],
          [
            121.59040184719,
            25.0600308014483
          ],
          [
            121.589735077569,
            25.0596343954165
          ],
          [
            121.588437212922,
            25.0587243075299
          ],
          [
            121.587777231133,
            25.0583176281079
          ],
          [
            121.58711592901,
            25.0579732016188
          ],
          [
            121.586854787934,
            25.0578656426657
          ],
          [
            121.586178769918,
            25.0576463932574
          ],
          [
            121.585761459529,
            25.0574711797793
          ],
          [
            121.585508597084,
            25.0573434377959
          ],
          [
            121.584374671421,
            25.0569090507522
          ],
          [
            121.583759737829,
            25.0566140033351
          ],
          [
            121.583365169246,
            25.0564461313575
          ],
          [
            121.582719441954,
            25.0561073042708
          ],
          [
            121.582457201908,
            25.0559427972308
          ],
          [
            121.58222746174,
            25.0557034603534
          ],
          [
            121.582139958151,
            25.0559065191569
          ],
          [
            121.58188537379,
            25.0564517127609
          ],
          [
            121.581413518998,
            25.057290193179
          ],
          [
            121.578924990309,
            25.05600110606
          ],
          [
            121.577753846984,
            25.0553742200954
          ],
          [
            121.576159372959,
            25.0544381948985
          ],
          [
            121.575744562049,
            25.0542174008945
          ],
          [
            121.574469938197,
            25.0534862484881
          ],
          [
            121.572055422868,
            25.0521962266741
          ],
          [
            121.570765836779,
            25.0514611809299
          ],
          [
            121.570538847763,
            25.0513643958481
          ],
          [
            121.569858240238,
            25.0513175627603
          ],
          [
            121.567733209214,
            25.0513555503908
          ],
          [
            121.566632745569,
            25.0514342562744
          ],
          [
            121.565376426928,
            25.0514592763039
          ],
          [
            121.563839418662,
            25.0514727265938
          ],
          [
            121.563607811267,
            25.0514468273483
          ],
          [
            121.562092260458,
            25.0514750059828
          ],
          [
            121.560993941966,
            25.0514866661055
          ],
          [
            121.560049001936,
            25.0515206747904
          ],
          [
            121.558700773085,
            25.051548853408
          ],
          [
            121.556604958307,
            25.0516061822994
          ],
          [
            121.555313576018,
            25.0516129840306
          ],
          [
            121.553855944348,
            25.0516625394887
          ],
          [
            121.550547045377,
            25.0517072365514
          ],
          [
            121.549381154556,
            25.0517315284264
          ],
          [
            121.547566528277,
            25.051791244687
          ],
          [
            121.54674698879,
            25.051805975671
          ],
          [
            121.545840725547,
            25.0518334735031
          ],
          [
            121.545428709594,
            25.0518160641141
          ],
          [
            121.544488328015,
            25.0518328862232
          ]
        ]
      }
    },
    {
      "type": "Feature",
      "properties": {
        "feature_type": "route",
        "ref": "紅25區",
        "name": "紅25區",
        "name_en": "紅25區",
        "color": "#701a75",
        "direction": 1
      },
      "geometry": {
        "type": "LineString",
        "coordinates": [
          [
            121.543718217979,
            25.0518819557555
          ],
          [
            121.542629236485,
            25.0519041821858
          ],
          [
            121.541155564213,
            25.0519210048867
          ],
          [
            121.540665932971,
            25.0519292641104
          ],
          [
            121.540559098159,
            25.0519856621414
          ],
          [
            121.54052757963,
            25.0520620114004
          ],
          [
            121.540565493223,
            25.0545659924514
          ],
          [
            121.540648629052,
            25.0545957866627
          ],
          [
            121.542034530728,
            25.0545651648343
          ],
          [
            121.542081123336,
            25.0545055763897
          ],
          [
            121.542030876406,
            25.0520169053399
          ],
          [
            121.542053259129,
            25.0519376593309
          ],
          [
            121.542109672727,
            25.0518660688975
          ],
          [
            121.542524083932,
            25.0518570430685
          ],
          [
            121.542692298411,
            25.0518698098335
          ],
          [
            121.542954543403,
            25.0518683523228
          ],
          [
            121.543745568683,
            25.0518571780733
          ]
        ]
      }
    },
    {
      "type": "Feature",
      "properties": {
        "feature_type": "station",
        "ref": "TPE215493",
        "name": "三重里",
        "name_en": "Sanchong Village",
        "line": "紅25區",
        "color": "#701a75",
        "direction": 0
      },
      "geometry": {
        "type": "Point",
        "coordinates": [
          121.61005754124962,
          25.05937408357435
        ]
      }
    },
    {
      "type": "Feature",
      "properties": {
        "feature_type": "station",
        "ref": "TPE215494",
        "name": "育成高中",
        "name_en": "Yucheng High School",
        "line": "紅25區",
        "color": "#701a75",
        "direction": 0
      },
      "geometry": {
        "type": "Point",
        "coordinates": [
          121.60895745708942,
          25.05887707963565
        ]
      }
    },
    {
      "type": "Feature",
      "properties": {
        "feature_type": "station",
        "ref": "TPE215495",
        "name": "南港高工(重陽)",
        "name_en": "Nangang Vocational High School (Chongyang)",
        "line": "紅25區",
        "color": "#701a75",
        "direction": 0
      },
      "geometry": {
        "type": "Point",
        "coordinates": [
          121.605866,
          25.058039
        ]
      }
    },
    {
      "type": "Feature",
      "properties": {
        "feature_type": "station",
        "ref": "TPE215496",
        "name": "東新國小",
        "name_en": "Dongxin Elementary School",
        "line": "紅25區",
        "color": "#701a75",
        "direction": 0
      },
      "geometry": {
        "type": "Point",
        "coordinates": [
          121.602725808672,
          25.05778835407
        ]
      }
    },
    {
      "type": "Feature",
      "properties": {
        "feature_type": "station",
        "ref": "TPE215497",
        "name": "中國電視公司",
        "name_en": "China Television Company",
        "line": "紅25區",
        "color": "#701a75",
        "direction": 0
      },
      "geometry": {
        "type": "Point",
        "coordinates": [
          121.59951,
          25.05684
        ]
      }
    },
    {
      "type": "Feature",
      "properties": {
        "feature_type": "station",
        "ref": "TPE215498",
        "name": "南港分局(重陽)",
        "name_en": "Nangang Police Dist. (Chongyang)",
        "line": "紅25區",
        "color": "#701a75",
        "direction": 0
      },
      "geometry": {
        "type": "Point",
        "coordinates": [
          121.5960871,
          25.05548009
        ]
      }
    },
    {
      "type": "Feature",
      "properties": {
        "feature_type": "station",
        "ref": "TPE215499",
        "name": "南港分局(向陽)",
        "name_en": "Nangang Police Dist. (Xiangyang)",
        "line": "紅25區",
        "color": "#701a75",
        "direction": 0
      },
      "geometry": {
        "type": "Point",
        "coordinates": [
          121.594415258716,
          25.0553345135907
        ]
      }
    },
    {
      "type": "Feature",
      "properties": {
        "feature_type": "station",
        "ref": "TPE215500",
        "name": "新明成功路口",
        "name_en": "Xinming and Chenggong Intersection",
        "line": "紅25區",
        "color": "#701a75",
        "direction": 0
      },
      "geometry": {
        "type": "Point",
        "coordinates": [
          121.590455,
          25.060167
        ]
      }
    },
    {
      "type": "Feature",
      "properties": {
        "feature_type": "station",
        "ref": "TPE215501",
        "name": "台北企業總部園區",
        "name_en": "T.CBD",
        "line": "紅25區",
        "color": "#701a75",
        "direction": 0
      },
      "geometry": {
        "type": "Point",
        "coordinates": [
          121.587344,
          25.058162
        ]
      }
    },
    {
      "type": "Feature",
      "properties": {
        "feature_type": "station",
        "ref": "TPE215502",
        "name": "新明路",
        "name_en": "Xinming Rd.",
        "line": "紅25區",
        "color": "#701a75",
        "direction": 0
      },
      "geometry": {
        "type": "Point",
        "coordinates": [
          121.5852542,
          25.05733619
        ]
      }
    },
    {
      "type": "Feature",
      "properties": {
        "feature_type": "station",
        "ref": "TPE215503",
        "name": "週美里",
        "name_en": "Zhoumei Village",
        "line": "紅25區",
        "color": "#701a75",
        "direction": 0
      },
      "geometry": {
        "type": "Point",
        "coordinates": [
          121.5827604,
          25.05620879
        ]
      }
    },
    {
      "type": "Feature",
      "properties": {
        "feature_type": "station",
        "ref": "TPE215504",
        "name": "南京舊宗路口",
        "name_en": "Nanjing and Jiuzong Intersection",
        "line": "紅25區",
        "color": "#701a75",
        "direction": 0
      },
      "geometry": {
        "type": "Point",
        "coordinates": [
          121.57950353609606,
          25.056369580641974
        ]
      }
    },
    {
      "type": "Feature",
      "properties": {
        "feature_type": "station",
        "ref": "TPE215505",
        "name": "麥帥一橋",
        "name_en": "MacArthur No.1 bridge",
        "line": "紅25區",
        "color": "#701a75",
        "direction": 0
      },
      "geometry": {
        "type": "Point",
        "coordinates": [
          121.577715906746,
          25.0554380798046
        ]
      }
    },
    {
      "type": "Feature",
      "properties": {
        "feature_type": "station",
        "ref": "TPE215506",
        "name": "南京公寓(捷運南京三民)",
        "name_en": "Nanjing Apartment (MRT Nanjing Sanmin Sta.)",
        "line": "紅25區",
        "color": "#701a75",
        "direction": 0
      },
      "geometry": {
        "type": "Point",
        "coordinates": [
          121.56665364964157,
          25.051513187536237
        ]
      }
    },
    {
      "type": "Feature",
      "properties": {
        "feature_type": "station",
        "ref": "TPE215507",
        "name": "南京三民路口",
        "name_en": "NanJing-SanMin Intersection",
        "line": "紅25區",
        "color": "#701a75",
        "direction": 0
      },
      "geometry": {
        "type": "Point",
        "coordinates": [
          121.56111056329053,
          25.05158012283465
        ]
      }
    },
    {
      "type": "Feature",
      "properties": {
        "feature_type": "station",
        "ref": "TPE215508",
        "name": "南京寧安街口",
        "name_en": "Nanjing & Ningan Intersection",
        "line": "紅25區",
        "color": "#701a75",
        "direction": 0
      },
      "geometry": {
        "type": "Point",
        "coordinates": [
          121.555516323112,
          25.0516596699759
        ]
      }
    },
    {
      "type": "Feature",
      "properties": {
        "feature_type": "station",
        "ref": "TPE215509",
        "name": "南京敦化路口(小巨蛋)",
        "name_en": "Nanjing & Dunhua Intersection (Taipei Arena)",
        "line": "紅25區",
        "color": "#701a75",
        "direction": 0
      },
      "geometry": {
        "type": "Point",
        "coordinates": [
          121.549520919642,
          25.0517934820293
        ]
      }
    },
    {
      "type": "Feature",
      "properties": {
        "feature_type": "station",
        "ref": "TPE215510",
        "name": "捷運南京復興站",
        "name_en": "MRT Nanjing Fuxing Station",
        "line": "紅25區",
        "color": "#701a75",
        "direction": 0
      },
      "geometry": {
        "type": "Point",
        "coordinates": [
          121.5444563164689,
          25.05191518176843
        ]
      }
    },
    {
      "type": "Feature",
      "properties": {
        "feature_type": "station",
        "ref": "TPE217543",
        "name": "龍江路口",
        "name_en": "Longjiang Rd. Entrance",
        "line": "紅25區",
        "color": "#701a75",
        "direction": 1
      },
      "geometry": {
        "type": "Point",
        "coordinates": [
          121.540453,
          25.053452
        ]
      }
    },
    {
      "type": "Feature",
      "properties": {
        "feature_type": "station",
        "ref": "TPE215529",
        "name": "長春市場",
        "name_en": "Changchun Market",
        "line": "紅25區",
        "color": "#701a75",
        "direction": 1
      },
      "geometry": {
        "type": "Point",
        "coordinates": [
          121.5414952,
          25.05456174
        ]
      }
    },
    {
      "type": "Feature",
      "properties": {
        "feature_type": "station",
        "ref": "TPE215530",
        "name": "遼寧街口",
        "name_en": "Liaoning St. Entrance",
        "line": "紅25區",
        "color": "#701a75",
        "direction": 1
      },
      "geometry": {
        "type": "Point",
        "coordinates": [
          121.541976,
          25.052587
        ]
      }
    },
    {
      "type": "Feature",
      "properties": {
        "feature_type": "station",
        "ref": "TPE215511",
        "name": "捷運南京復興站",
        "name_en": "MRT Nanjing Fuxing Station",
        "line": "紅25區",
        "color": "#701a75",
        "direction": 1
      },
      "geometry": {
        "type": "Point",
        "coordinates": [
          121.543561439976,
          25.0518040049938
        ]
      }
    },
    {
      "type": "Feature",
      "properties": {
        "feature_type": "station",
        "ref": "TPE215512",
        "name": "南京敦化路口(小巨蛋)",
        "name_en": "Nanjing & Dunhua Intersection (Taipei Arena)",
        "line": "紅25區",
        "color": "#701a75",
        "direction": 1
      },
      "geometry": {
        "type": "Point",
        "coordinates": [
          121.548353475095,
          25.0517035084006
        ]
      }
    },
    {
      "type": "Feature",
      "properties": {
        "feature_type": "station",
        "ref": "TPE215513",
        "name": "南京寧安街口",
        "name_en": "Nanjing & Ningan Intersection",
        "line": "紅25區",
        "color": "#701a75",
        "direction": 1
      },
      "geometry": {
        "type": "Point",
        "coordinates": [
          121.55469770362868,
          25.051594154729063
        ]
      }
    },
    {
      "type": "Feature",
      "properties": {
        "feature_type": "station",
        "ref": "TPE215514",
        "name": "南京三民路口",
        "name_en": "NanJing-SanMin Intersection",
        "line": "紅25區",
        "color": "#701a75",
        "direction": 1
      },
      "geometry": {
        "type": "Point",
        "coordinates": [
          121.5602663380149,
          25.05148353485096
        ]
      }
    },
    {
      "type": "Feature",
      "properties": {
        "feature_type": "station",
        "ref": "TPE215515",
        "name": "南京公寓(捷運南京三民)",
        "name_en": "Nanjing Apartment (MRT Nanjing Sanmin Sta.)",
        "line": "紅25區",
        "color": "#701a75",
        "direction": 1
      },
      "geometry": {
        "type": "Point",
        "coordinates": [
          121.566535683299,
          25.0512559293088
        ]
      }
    },
    {
      "type": "Feature",
      "properties": {
        "feature_type": "station",
        "ref": "TPE215516",
        "name": "麥帥一橋",
        "name_en": "MacArthur No.1 bridge",
        "line": "紅25區",
        "color": "#701a75",
        "direction": 1
      },
      "geometry": {
        "type": "Point",
        "coordinates": [
          121.577219,
          25.054593
        ]
      }
    },
    {
      "type": "Feature",
      "properties": {
        "feature_type": "station",
        "ref": "TPE215517",
        "name": "南京舊宗路口",
        "name_en": "Nanjing & Jiuzong Intersection",
        "line": "紅25區",
        "color": "#701a75",
        "direction": 1
      },
      "geometry": {
        "type": "Point",
        "coordinates": [
          121.579810502461,
          25.0560262183777
        ]
      }
    },
    {
      "type": "Feature",
      "properties": {
        "feature_type": "station",
        "ref": "TPE215518",
        "name": "週美里",
        "name_en": "Zhoumei Village",
        "line": "紅25區",
        "color": "#701a75",
        "direction": 1
      },
      "geometry": {
        "type": "Point",
        "coordinates": [
          121.5828479,
          25.05609093
        ]
      }
    },
    {
      "type": "Feature",
      "properties": {
        "feature_type": "station",
        "ref": "TPE215519",
        "name": "新明路",
        "name_en": "Xinming Rd.",
        "line": "紅25區",
        "color": "#701a75",
        "direction": 1
      },
      "geometry": {
        "type": "Point",
        "coordinates": [
          121.5854194,
          25.05722486
        ]
      }
    },
    {
      "type": "Feature",
      "properties": {
        "feature_type": "station",
        "ref": "TPE215520",
        "name": "台北企業總部園區",
        "name_en": "T.CBD",
        "line": "紅25區",
        "color": "#701a75",
        "direction": 1
      },
      "geometry": {
        "type": "Point",
        "coordinates": [
          121.587031,
          25.057943
        ]
      }
    },
    {
      "type": "Feature",
      "properties": {
        "feature_type": "station",
        "ref": "TPE215521",
        "name": "新明成功路口",
        "name_en": "Xinming and Chenggong Intersection",
        "line": "紅25區",
        "color": "#701a75",
        "direction": 1
      },
      "geometry": {
        "type": "Point",
        "coordinates": [
          121.590623,
          25.06008
        ]
      }
    },
    {
      "type": "Feature",
      "properties": {
        "feature_type": "station",
        "ref": "TPE215522",
        "name": "南港分局(重陽)",
        "name_en": "Nangang Police Dist. (Chongyang)",
        "line": "紅25區",
        "color": "#701a75",
        "direction": 1
      },
      "geometry": {
        "type": "Point",
        "coordinates": [
          121.596717,
          25.055561
        ]
      }
    },
    {
      "type": "Feature",
      "properties": {
        "feature_type": "station",
        "ref": "TPE215523",
        "name": "中國電視公司",
        "name_en": "China Television Company",
        "line": "紅25區",
        "color": "#701a75",
        "direction": 1
      },
      "geometry": {
        "type": "Point",
        "coordinates": [
          121.59918,
          25.05646
        ]
      }
    },
    {
      "type": "Feature",
      "properties": {
        "feature_type": "station",
        "ref": "TPE215524",
        "name": "東新國小",
        "name_en": "Dongxin Elementary School",
        "line": "紅25區",
        "color": "#701a75",
        "direction": 1
      },
      "geometry": {
        "type": "Point",
        "coordinates": [
          121.60365,
          25.0576
        ]
      }
    },
    {
      "type": "Feature",
      "properties": {
        "feature_type": "station",
        "ref": "TPE215525",
        "name": "南港高工(重陽)",
        "name_en": "Nangang Vocational High School (Chongyang)",
        "line": "紅25區",
        "color": "#701a75",
        "direction": 1
      },
      "geometry": {
        "type": "Point",
        "coordinates": [
          121.60707,
          25.058155
        ]
      }
    },
    {
      "type": "Feature",
      "properties": {
        "feature_type": "station",
        "ref": "TPE215526",
        "name": "育成高中",
        "name_en": "Yucheng High School",
        "line": "紅25區",
        "color": "#701a75",
        "direction": 1
      },
      "geometry": {
        "type": "Point",
        "coordinates": [
          121.60939,
          25.05884
        ]
      }
    },
    {
      "type": "Feature",
      "properties": {
        "feature_type": "station",
        "ref": "TPE215527",
        "name": "三重里",
        "name_en": "Sanchong Village",
        "line": "紅25區",
        "color": "#701a75",
        "direction": 1
      },
      "geometry": {
        "type": "Point",
        "coordinates": [
          121.61043408707262,
          25.05927148642987
        ]
      }
    }
  ]
}
