{
  "type": "FeatureCollection",
  "name": "5059",
  "properties": {
    "id": "taoyuan_5059",
    "name": "5059",
    "name_en": "5059",
    "ref": "5059",
    "color": "#b91c1c",
    "city_id": "Taoyuan",
    "source": "TDX Bus Shape / StopOfRoute",
    "official_map_url": "http://ebus.tycg.gov.tw/cms/api/route/5059/map/2198/image",
    "operator_id": "1",
    "operator": "桃園客運",
    "operator_en": "Taoyuan Bus Co., Ltd."
  },
  "features": [
    {
      "type": "Feature",
      "properties": {
        "feature_type": "route",
        "ref": "5059",
        "name": "5059",
        "name_en": "5059",
        "color": "#b91c1c",
        "direction": 0
      },
      "geometry": {
        "type": "LineString",
        "coordinates": [
          [
            121.31408,
            24.9908
          ],
          [
            121.31477,
            24.99102
          ],
          [
            121.3151,
            24.99102
          ],
          [
            121.31376,
            24.99241
          ],
          [
            121.31332,
            24.99299
          ],
          [
            121.31313,
            24.99363
          ],
          [
            121.3127,
            24.9953
          ],
          [
            121.31062,
            24.9999
          ],
          [
            121.31408466006513,
            25.000768548058318
          ],
          [
            121.3141140169421,
            25.000780020996405
          ],
          [
            121.3141391190313,
            25.000798350814975
          ],
          [
            121.31415792605465,
            25.000822146539445
          ],
          [
            121.31416906416715,
            25.000849669902326
          ],
          [
            121.31417171973442,
            25.000878910333736
          ],
          [
            121.31416577855981,
            25.000907513984515
          ],
          [
            121.3133,
            25.00326
          ],
          [
            121.31138,
            25.00852
          ],
          [
            121.31084,
            25.0093
          ],
          [
            121.30958,
            25.01047
          ],
          [
            121.30851,
            25.01151
          ],
          [
            121.30806,
            25.01211
          ],
          [
            121.30706,
            25.01386
          ],
          [
            121.30635,
            25.01507
          ],
          [
            121.30563,
            25.01648
          ],
          [
            121.30338,
            25.02157
          ],
          [
            121.3022,
            25.02414
          ],
          [
            121.30129,
            25.02619
          ],
          [
            121.3009,
            25.02728
          ],
          [
            121.30071,
            25.02831
          ],
          [
            121.30055,
            25.03079
          ],
          [
            121.30044,
            25.03303
          ],
          [
            121.30052,
            25.03335
          ],
          [
            121.30132,
            25.03414
          ],
          [
            121.29972,
            25.03566
          ],
          [
            121.29799,
            25.03737
          ],
          [
            121.29727,
            25.03836
          ],
          [
            121.29684,
            25.03903
          ],
          [
            121.29641,
            25.03983
          ],
          [
            121.29605,
            25.04055
          ],
          [
            121.29577,
            25.04114
          ],
          [
            121.29549,
            25.04151
          ],
          [
            121.29524,
            25.04195
          ],
          [
            121.29278,
            25.04631
          ],
          [
            121.29156,
            25.04846
          ],
          [
            121.29091,
            25.04964
          ],
          [
            121.29058,
            25.05023
          ],
          [
            121.29026,
            25.05058
          ],
          [
            121.28368,
            25.05419
          ],
          [
            121.27984,
            25.05672
          ],
          [
            121.27896,
            25.05712
          ],
          [
            121.27628,
            25.05834
          ],
          [
            121.27002,
            25.06118
          ],
          [
            121.2669,
            25.06261
          ],
          [
            121.26367,
            25.06405
          ],
          [
            121.26319,
            25.06441
          ],
          [
            121.26292,
            25.06471
          ],
          [
            121.26276,
            25.06495
          ],
          [
            121.26261,
            25.06528
          ],
          [
            121.26057,
            25.07157
          ],
          [
            121.26042,
            25.07209
          ],
          [
            121.26038,
            25.07255
          ],
          [
            121.26038,
            25.07306
          ],
          [
            121.26048,
            25.07457
          ],
          [
            121.26047,
            25.07535
          ],
          [
            121.26039,
            25.07588
          ],
          [
            121.26028,
            25.07638
          ],
          [
            121.26,
            25.07723
          ],
          [
            121.25972,
            25.07783
          ],
          [
            121.25944,
            25.07837
          ],
          [
            121.25741,
            25.0818
          ],
          [
            121.25637,
            25.08357
          ],
          [
            121.25534,
            25.08531
          ],
          [
            121.25422,
            25.08718
          ],
          [
            121.25299,
            25.08905
          ],
          [
            121.25071,
            25.08935
          ],
          [
            121.25038,
            25.08949
          ],
          [
            121.25021,
            25.08958
          ],
          [
            121.24992,
            25.08976
          ],
          [
            121.2497,
            25.09017
          ],
          [
            121.24915159324108,
            25.091482646462968
          ],
          [
            121.24913251987623,
            25.09151284152458
          ],
          [
            121.24910417365973,
            25.091535833665098
          ],
          [
            121.24906933521433,
            25.091549524266366
          ],
          [
            121.24903154307678,
            25.091552522775626
          ],
          [
            121.24899463579004,
            25.091544524634653
          ],
          [
            121.24896204907458,
            25.09152609453483
          ],
          [
            121.24291,
            25.08675
          ],
          [
            121.24217,
            25.08661
          ],
          [
            121.24164,
            25.08622
          ],
          [
            121.23858,
            25.0838
          ],
          [
            121.23754,
            25.08289
          ],
          [
            121.23579,
            25.08154
          ],
          [
            121.2343730076885,
            25.080457016122754
          ],
          [
            121.23435212399718,
            25.080436114403796
          ],
          [
            121.23433772796446,
            25.08041064833859
          ],
          [
            121.23433113792048,
            25.080382633954258
          ],
          [
            121.23433281292988,
            25.080354022742007
          ],
          [
            121.23434263631093,
            25.08032680776825
          ],
          [
            121.23435965274858,
            25.080303170421004
          ],
          [
            121.23583790991171,
            25.07875110515147
          ],
          [
            121.23586134298635,
            25.078732094074454
          ],
          [
            121.23588901534852,
            25.078719449144444
          ],
          [
            121.23591932657865,
            25.0787137398801
          ],
          [
            121.23595022681944,
            25.078715352381796
          ],
          [
            121.23597962638051,
            25.078724177600897
          ],
          [
            121.23600585056306,
            25.0787398650535
          ],
          [
            121.23984,
            25.08174
          ],
          [
            121.24005,
            25.0821
          ],
          [
            121.24016,
            25.08253
          ],
          [
            121.24012111601022,
            25.083173564554222
          ],
          [
            121.24011839384323,
            25.083191453393358
          ],
          [
            121.24011247501433,
            25.08320864437792
          ],
          [
            121.2401035200728,
            25.083224705596795
          ],
          [
            121.24009177572823,
            25.08323919456179
          ],
          [
            121.24007756553846,
            25.083251712100473
          ],
          [
            121.24006159420938,
            25.083261749675145
          ],
          [
            121.23945,
            25.08358
          ],
          [
            121.23922,
            25.08366
          ],
          [
            121.23855911373835,
            25.083729877888224
          ],
          [
            121.23853786247705,
            25.083730398995943
          ],
          [
            121.23851694191293,
            25.083727484519734
          ],
          [
            121.23849691798213,
            25.08372123674138
          ],
          [
            121.23847842375905,
            25.08371185318994
          ],
          [
            121.23846204395497,
            25.08369963053473
          ],
          [
            121.23844806816315,
            25.083684661443385
          ],
          [
            121.23772973138213,
            25.08276247748521
          ],
          [
            121.23771714460135,
            25.082741699350695
          ],
          [
            121.23770974191635,
            25.082718568143545
          ],
          [
            121.23770811611146,
            25.082694517323496
          ],
          [
            121.23771234729035,
            25.08267073187845
          ],
          [
            121.23772222698214,
            25.082648383721246
          ],
          [
            121.23773699668841,
            25.082628859235292
          ],
          [
            121.2389153668048,
            25.081396516561938
          ],
          [
            121.23893798863482,
            25.081378063822946
          ],
          [
            121.2389646021697,
            25.081365558134877
          ],
          [
            121.23899379518001,
            25.081359505374337
          ],
          [
            121.23902372062743,
            25.081360288498768
          ],
          [
            121.23905248513249,
            25.08136785795998
          ],
          [
            121.23907858886216,
            25.081381961950783
          ],
          [
            121.2396,
            25.08175
          ],
          [
            121.23982,
            25.08183
          ],
          [
            121.24021977608976,
            25.082078173326114
          ],
          [
            121.24023566570203,
            25.082090082241844
          ],
          [
            121.24024929754546,
            25.082104597348216
          ],
          [
            121.24025992722798,
            25.08212106799579
          ],
          [
            121.24026722527445,
            25.082138983664297
          ],
          [
            121.24027096547636,
            25.082157789043926
          ],
          [
            121.24027103779677,
            25.082176837146246
          ],
          [
            121.24016986708857,
            25.083260836317056
          ],
          [
            121.24016627435105,
            25.083279651908498
          ],
          [
            121.24015915174974,
            25.08329754376293
          ],
          [
            121.240148712298,
            25.08331402587149
          ],
          [
            121.2401352769541,
            25.083328591496006
          ],
          [
            121.24011925878423,
            25.083340792820103
          ],
          [
            121.24010143987527,
            25.083350132343845
          ],
          [
            121.23946,
            25.08362
          ],
          [
            121.23890296434269,
            25.083838773724466
          ],
          [
            121.23888464623177,
            25.083844460224245
          ],
          [
            121.23886586374745,
            25.083847340681675
          ],
          [
            121.23884681799673,
            25.083847451701068
          ],
          [
            121.23882799668132,
            25.083844790439574
          ],
          [
            121.23880988175584,
            25.083839425043713
          ],
          [
            121.23879261841698,
            25.08383131239321
          ],
          [
            121.23817,
            25.08348
          ],
          [
            121.23681,
            25.0824
          ],
          [
            121.23515,
            25.08113
          ],
          [
            121.23409,
            25.08028
          ],
          [
            121.23315,
            25.07953
          ],
          [
            121.2321086385371,
            25.0786964744478
          ],
          [
            121.23208851208351,
            25.078675452125253
          ],
          [
            121.23207479276044,
            25.07865008581514
          ],
          [
            121.23206872340587,
            25.078622347862648
          ],
          [
            121.23207071605202,
            25.07859412132297
          ],
          [
            121.23208063542344,
            25.078567322420152
          ],
          [
            121.23209753616166,
            25.07854405564019
          ],
          [
            121.23281,
            25.0778
          ]
        ]
      }
    },
    {
      "type": "Feature",
      "properties": {
        "feature_type": "route",
        "ref": "5059",
        "name": "5059",
        "name_en": "5059",
        "color": "#b91c1c",
        "direction": 1
      },
      "geometry": {
        "type": "LineString",
        "coordinates": [
          [
            121.23263,
            25.078
          ],
          [
            121.23359814759665,
            25.077000808929952
          ],
          [
            121.23362195931604,
            25.07698185111132
          ],
          [
            121.23365000808177,
            25.07696939770772
          ],
          [
            121.23368064109631,
            25.076964020085068
          ],
          [
            121.23371175383095,
            25.076966087693183
          ],
          [
            121.23374120879949,
            25.076975458484647
          ],
          [
            121.23376729188082,
            25.07699174225875
          ],
          [
            121.23455,
            25.07763
          ],
          [
            121.23572,
            25.07854
          ],
          [
            121.236,
            25.07876
          ],
          [
            121.23662,
            25.07928
          ],
          [
            121.23685,
            25.07965
          ],
          [
            121.23718580845517,
            25.080054959022647
          ],
          [
            121.23719932905883,
            25.080075947023666
          ],
          [
            121.23720745930143,
            25.08009951530331
          ],
          [
            121.23720953622453,
            25.080124149974328
          ],
          [
            121.23720545224333,
            25.080148574958397
          ],
          [
            121.23719541890844,
            25.080171525039002
          ],
          [
            121.23718022940756,
            25.080191526862208
          ],
          [
            121.23667,
            25.08072
          ],
          [
            121.23613398574273,
            25.081274166836238
          ],
          [
            121.23611528269231,
            25.081289890619324
          ],
          [
            121.23609372165573,
            25.08130147436427
          ],
          [
            121.23606998180901,
            25.081308690355893
          ],
          [
            121.2360451125277,
            25.08131121962476
          ],
          [
            121.23602021311193,
            25.081308950369262
          ],
          [
            121.23599610088684,
            25.081301868517492
          ],
          [
            121.23532,
            25.08103
          ],
          [
            121.23447879565866,
            25.08074842615107
          ],
          [
            121.234460404582,
            25.08074053586451
          ],
          [
            121.23444354530962,
            25.08072974761138
          ],
          [
            121.23442897739277,
            25.080716470016124
          ],
          [
            121.23441713701038,
            25.08070110062413
          ],
          [
            121.23440837867622,
            25.08068409961142
          ],
          [
            121.23440293850155,
            25.080665844576128
          ],
          [
            121.23435,
            25.0804
          ],
          [
            121.23435,
            25.08034
          ],
          [
            121.23438,
            25.08029
          ],
          [
            121.23506,
            25.07958
          ],
          [
            121.23509,
            25.07955
          ],
          [
            121.23516,
            25.07948
          ],
          [
            121.23582905126337,
            25.07876971428654
          ],
          [
            121.23585302873073,
            25.078750166432656
          ],
          [
            121.23588147688407,
            25.078737307749464
          ],
          [
            121.2359126399479,
            25.078731766752874
          ],
          [
            121.23594430026093,
            25.07873393775756
          ],
          [
            121.23597420477611,
            25.078743666268025
          ],
          [
            121.23600053173796,
            25.078760518183167
          ],
          [
            121.23662,
            25.07928
          ],
          [
            121.23742,
            25.07992
          ],
          [
            121.23819,
            25.08049
          ],
          [
            121.23838,
            25.08065
          ],
          [
            121.23898,
            25.08112
          ],
          [
            121.23927,
            25.08137
          ],
          [
            121.23986,
            25.08184
          ],
          [
            121.23994,
            25.08191
          ],
          [
            121.24003,
            25.08206
          ],
          [
            121.2401,
            25.08221
          ],
          [
            121.24014,
            25.08242
          ],
          [
            121.24016,
            25.08258
          ],
          [
            121.24016,
            25.08273
          ],
          [
            121.24013,
            25.08288
          ],
          [
            121.24008,
            25.083
          ],
          [
            121.24002,
            25.08311
          ],
          [
            121.23991,
            25.08326
          ],
          [
            121.23976,
            25.08342
          ],
          [
            121.23962,
            25.08352
          ],
          [
            121.23885874262687,
            25.083843203891025
          ],
          [
            121.23882644590681,
            25.083863557074594
          ],
          [
            121.2388030202241,
            25.083892647311263
          ],
          [
            121.23879134612075,
            25.083927134655557
          ],
          [
            121.23879271410613,
            25.08396320671686
          ],
          [
            121.2388069729568,
            25.083996875922605
          ],
          [
            121.2388322315175,
            25.084024176944915
          ],
          [
            121.23962,
            25.08463
          ],
          [
            121.23977,
            25.08475
          ],
          [
            121.2399,
            25.08485
          ],
          [
            121.24059,
            25.08538
          ],
          [
            121.24184,
            25.08637
          ],
          [
            121.24207,
            25.08655
          ],
          [
            121.24217,
            25.0866
          ],
          [
            121.24225,
            25.08663
          ],
          [
            121.24271,
            25.08672
          ],
          [
            121.24291,
            25.08678
          ],
          [
            121.24323,
            25.08699
          ],
          [
            121.24364,
            25.08731
          ],
          [
            121.24385,
            25.08748
          ],
          [
            121.24625,
            25.08937
          ],
          [
            121.24648,
            25.08955
          ],
          [
            121.2467,
            25.08973
          ],
          [
            121.24766,
            25.09051
          ],
          [
            121.24835,
            25.08976
          ],
          [
            121.24921393585322,
            25.088829743777122
          ],
          [
            121.249237312884,
            25.088810330063648
          ],
          [
            121.24926508040629,
            25.088797340036326
          ],
          [
            121.2492955955707,
            25.08879137906017
          ],
          [
            121.24932676073003,
            25.08879285689947
          ],
          [
            121.24935643355563,
            25.08880167196588
          ],
          [
            121.24938288780234,
            25.088817464705365
          ],
          [
            121.24977,
            25.08912
          ],
          [
            121.24997,
            25.08921
          ],
          [
            121.25005,
            25.08923
          ],
          [
            121.25035,
            25.08924
          ],
          [
            121.25208,
            25.08905
          ],
          [
            121.25297,
            25.08888
          ],
          [
            121.25433,
            25.08678
          ],
          [
            121.25442,
            25.08664
          ],
          [
            121.25474,
            25.08613
          ],
          [
            121.25651,
            25.08312
          ],
          [
            121.25659,
            25.08298
          ],
          [
            121.25668,
            25.08284
          ],
          [
            121.25739,
            25.08162
          ],
          [
            121.25776,
            25.08101
          ],
          [
            121.25808,
            25.08047
          ],
          [
            121.25862,
            25.07959
          ],
          [
            121.25891,
            25.07907
          ],
          [
            121.25895,
            25.07898
          ],
          [
            121.25899,
            25.0789
          ],
          [
            121.25905,
            25.0788
          ],
          [
            121.25935,
            25.0783
          ],
          [
            121.2595,
            25.07802
          ],
          [
            121.25964,
            25.07773
          ],
          [
            121.25978,
            25.07745
          ],
          [
            121.25988,
            25.07719
          ],
          [
            121.26004,
            25.07676
          ],
          [
            121.26013,
            25.07645
          ],
          [
            121.26018,
            25.07629
          ],
          [
            121.26032,
            25.07532
          ],
          [
            121.26035,
            25.07488
          ],
          [
            121.26035,
            25.07459
          ],
          [
            121.26027,
            25.07327
          ],
          [
            121.26025,
            25.07249
          ],
          [
            121.26025,
            25.07241
          ],
          [
            121.26033,
            25.07205
          ],
          [
            121.26051,
            25.07139
          ],
          [
            121.26072,
            25.0707
          ],
          [
            121.26101,
            25.06987
          ],
          [
            121.26124,
            25.06915
          ],
          [
            121.26159,
            25.06803
          ],
          [
            121.26185,
            25.06723
          ],
          [
            121.26195,
            25.06694
          ],
          [
            121.26218,
            25.06621
          ],
          [
            121.26247,
            25.06533
          ],
          [
            121.26253,
            25.06515
          ],
          [
            121.26272,
            25.06482
          ],
          [
            121.26296,
            25.06449
          ],
          [
            121.26326,
            25.06421
          ],
          [
            121.26335,
            25.06413
          ],
          [
            121.26349,
            25.06402
          ],
          [
            121.26376,
            25.06388
          ],
          [
            121.26601,
            25.06288
          ],
          [
            121.26651,
            25.06267
          ],
          [
            121.26683,
            25.06252
          ],
          [
            121.26689,
            25.06249
          ],
          [
            121.26838,
            25.06182
          ],
          [
            121.26853,
            25.06176
          ],
          [
            121.26985,
            25.06116
          ],
          [
            121.27117,
            25.06055
          ],
          [
            121.27161,
            25.06035
          ],
          [
            121.27179,
            25.06027
          ],
          [
            121.27398,
            25.05927
          ],
          [
            121.27463,
            25.05898
          ],
          [
            121.27525,
            25.05869
          ],
          [
            121.27577,
            25.05845
          ],
          [
            121.27589,
            25.05839
          ],
          [
            121.27612,
            25.05829
          ],
          [
            121.27621,
            25.05824
          ],
          [
            121.27777,
            25.05755
          ],
          [
            121.27783,
            25.05751
          ],
          [
            121.27874,
            25.05711
          ],
          [
            121.27956,
            25.05674
          ],
          [
            121.27959,
            25.05673
          ],
          [
            121.27991,
            25.05655
          ],
          [
            121.28053,
            25.05614
          ],
          [
            121.28073,
            25.05602
          ],
          [
            121.28133,
            25.0556
          ],
          [
            121.2814,
            25.05554
          ],
          [
            121.28146,
            25.05551
          ],
          [
            121.2825,
            25.05482
          ],
          [
            121.28294,
            25.05454
          ],
          [
            121.28364,
            25.0541
          ],
          [
            121.28402,
            25.05389
          ],
          [
            121.2849,
            25.05339
          ],
          [
            121.28506,
            25.05331
          ],
          [
            121.28555,
            25.05301
          ],
          [
            121.28676,
            25.05237
          ],
          [
            121.2871,
            25.05218
          ],
          [
            121.2872,
            25.05213
          ],
          [
            121.28731,
            25.05207
          ],
          [
            121.28742,
            25.05201
          ],
          [
            121.28844,
            25.05146
          ],
          [
            121.29026,
            25.05044
          ],
          [
            121.29039,
            25.0503
          ],
          [
            121.29065,
            25.04986
          ],
          [
            121.29078,
            25.04963
          ],
          [
            121.29119,
            25.04889
          ],
          [
            121.29128,
            25.04874
          ],
          [
            121.29151,
            25.0483
          ],
          [
            121.29205,
            25.04729
          ],
          [
            121.29236,
            25.04678
          ],
          [
            121.29244,
            25.04662
          ],
          [
            121.29249,
            25.04654
          ],
          [
            121.29287,
            25.04589
          ],
          [
            121.29297,
            25.04569
          ],
          [
            121.29309,
            25.04549
          ],
          [
            121.29355,
            25.04467
          ],
          [
            121.2938,
            25.04423
          ],
          [
            121.29404,
            25.04381
          ],
          [
            121.29446,
            25.04306
          ],
          [
            121.29491,
            25.04229
          ],
          [
            121.29512,
            25.04194
          ],
          [
            121.2953,
            25.04159
          ],
          [
            121.29532,
            25.04155
          ],
          [
            121.29556,
            25.04114
          ],
          [
            121.29564,
            25.04107
          ],
          [
            121.29584,
            25.04075
          ],
          [
            121.29594,
            25.0405
          ],
          [
            121.29648,
            25.03941
          ],
          [
            121.29682,
            25.0388
          ],
          [
            121.2969,
            25.03868
          ],
          [
            121.29742,
            25.03793
          ],
          [
            121.29753,
            25.03774
          ],
          [
            121.29783,
            25.03733
          ],
          [
            121.29814,
            25.03693
          ],
          [
            121.29826,
            25.0368
          ],
          [
            121.2983,
            25.03664
          ],
          [
            121.29853,
            25.03632
          ],
          [
            121.29894,
            25.03576
          ],
          [
            121.29942,
            25.03531
          ],
          [
            121.30015,
            25.03471
          ],
          [
            121.30085020065762,
            25.034035091893983
          ],
          [
            121.30086711989827,
            25.034014084272197
          ],
          [
            121.30087817400542,
            25.03398963474604
          ],
          [
            121.30088242040293,
            25.033963471784485
          ],
          [
            121.30087960703715,
            25.033937148344087
          ],
          [
            121.30086990090118,
            25.03391222690695
          ],
          [
            121.3008541461483,
            25.03389047347712
          ],
          [
            121.3006,
            25.03362
          ],
          [
            121.3005,
            25.03351
          ],
          [
            121.30039,
            25.03337
          ],
          [
            121.30033,
            25.03321
          ],
          [
            121.30037,
            25.03302
          ],
          [
            121.30037,
            25.03288
          ],
          [
            121.30039,
            25.03262
          ],
          [
            121.30044,
            25.03189
          ],
          [
            121.30044,
            25.03178
          ],
          [
            121.30045,
            25.03169
          ],
          [
            121.3005,
            25.03093
          ],
          [
            121.30051,
            25.03074
          ],
          [
            121.30052,
            25.03065
          ],
          [
            121.30057,
            25.0298
          ],
          [
            121.30063,
            25.02889
          ],
          [
            121.30065,
            25.02851
          ],
          [
            121.30066,
            25.02832
          ],
          [
            121.30068,
            25.02825
          ],
          [
            121.3007,
            25.02809
          ],
          [
            121.30079,
            25.02762
          ],
          [
            121.30082,
            25.02744
          ],
          [
            121.30092,
            25.0271
          ],
          [
            121.30111,
            25.02651
          ],
          [
            121.30112,
            25.02649
          ],
          [
            121.30131,
            25.02603
          ],
          [
            121.30134,
            25.02595
          ],
          [
            121.30139,
            25.02584
          ],
          [
            121.30144,
            25.02571
          ],
          [
            121.30183,
            25.02484
          ],
          [
            121.30217,
            25.02408
          ],
          [
            121.30219,
            25.02403
          ],
          [
            121.30222,
            25.02396
          ],
          [
            121.30225,
            25.02391
          ],
          [
            121.30244,
            25.02349
          ],
          [
            121.30264,
            25.02304
          ],
          [
            121.30306,
            25.02211
          ],
          [
            121.30329,
            25.02158
          ],
          [
            121.30364,
            25.0208
          ],
          [
            121.30372,
            25.02063
          ],
          [
            121.3038,
            25.02045
          ],
          [
            121.30384,
            25.02035
          ],
          [
            121.30389,
            25.02024
          ],
          [
            121.30404,
            25.01991
          ],
          [
            121.30441,
            25.01902
          ],
          [
            121.30494,
            25.01784
          ],
          [
            121.30503,
            25.01763
          ],
          [
            121.30505,
            25.01759
          ],
          [
            121.30548,
            25.0167
          ],
          [
            121.3055,
            25.01664
          ],
          [
            121.30554,
            25.01658
          ],
          [
            121.3056,
            25.01645
          ],
          [
            121.30582,
            25.01601
          ],
          [
            121.30621,
            25.01524
          ],
          [
            121.30624,
            25.0152
          ],
          [
            121.30631,
            25.01505
          ],
          [
            121.30636,
            25.01496
          ],
          [
            121.30644,
            25.01483
          ],
          [
            121.30665,
            25.01446
          ],
          [
            121.30716,
            25.0136
          ],
          [
            121.3073,
            25.01335
          ],
          [
            121.30735,
            25.01328
          ],
          [
            121.30739,
            25.01321
          ],
          [
            121.30741,
            25.01316
          ],
          [
            121.30779,
            25.0125
          ],
          [
            121.3081,
            25.01196
          ],
          [
            121.30835,
            25.01162
          ],
          [
            121.30837,
            25.01159
          ],
          [
            121.30847,
            25.01146
          ],
          [
            121.30853,
            25.01139
          ],
          [
            121.30884,
            25.01109
          ],
          [
            121.30909,
            25.01083
          ],
          [
            121.30956,
            25.01038
          ],
          [
            121.30967,
            25.01028
          ],
          [
            121.31066,
            25.00934
          ],
          [
            121.31075,
            25.00925
          ],
          [
            121.31078,
            25.00924
          ],
          [
            121.31082,
            25.0092
          ],
          [
            121.31087,
            25.00915
          ],
          [
            121.31109,
            25.00902
          ],
          [
            121.31118,
            25.00877
          ],
          [
            121.31125,
            25.00857
          ],
          [
            121.31146,
            25.00797
          ],
          [
            121.31147,
            25.00795
          ],
          [
            121.31148,
            25.00791
          ],
          [
            121.31149,
            25.00788
          ],
          [
            121.3115,
            25.00786
          ],
          [
            121.3115,
            25.00785
          ],
          [
            121.31163,
            25.0075
          ],
          [
            121.3117,
            25.00732
          ],
          [
            121.31185,
            25.00692
          ],
          [
            121.31205,
            25.00638
          ],
          [
            121.31208,
            25.00631
          ],
          [
            121.31212,
            25.00619
          ],
          [
            121.31215,
            25.0061
          ],
          [
            121.31251,
            25.0051
          ],
          [
            121.31256,
            25.00496
          ],
          [
            121.31292,
            25.00392
          ],
          [
            121.31295,
            25.00385
          ],
          [
            121.31299,
            25.00373
          ],
          [
            121.31302,
            25.00365
          ],
          [
            121.31325,
            25.00301
          ],
          [
            121.31331,
            25.00285
          ],
          [
            121.31363,
            25.00194
          ],
          [
            121.31399795888622,
            25.000913448531765
          ],
          [
            121.31399910192451,
            25.000907399226065
          ],
          [
            121.31399831247246,
            25.000901258675277
          ],
          [
            121.31399564071431,
            25.000895577194143
          ],
          [
            121.31399130766926,
            25.000890824778974
          ],
          [
            121.31398567178522,
            25.000887394569798
          ],
          [
            121.31397922435683,
            25.000885573920325
          ],
          [
            121.31394,
            25.00088
          ],
          [
            121.31284,
            25.00059
          ],
          [
            121.31272,
            25.00055
          ],
          [
            121.31252,
            25.0005
          ],
          [
            121.31251,
            25.0005
          ],
          [
            121.31248,
            25.00049
          ],
          [
            121.3123,
            25.00045
          ],
          [
            121.31196,
            25.00036
          ],
          [
            121.31171,
            25.00029
          ],
          [
            121.31062578826601,
            25.000018689047714
          ],
          [
            121.3106062416889,
            25.00001087660268
          ],
          [
            121.31058982050448,
            24.99999825024321
          ],
          [
            121.31057800926584,
            24.999981884321116
          ],
          [
            121.31057178249057,
            24.999963129150245
          ],
          [
            121.31057165393531,
            24.999943532175738
          ],
          [
            121.31057755275837,
            24.999924874472995
          ],
          [
            121.31063,
            24.99982
          ],
          [
            121.31065,
            24.99978
          ],
          [
            121.31088,
            24.99925
          ],
          [
            121.3109,
            24.99919
          ],
          [
            121.31112,
            24.99873
          ],
          [
            121.31139,
            24.99813
          ],
          [
            121.31187,
            24.99713
          ],
          [
            121.31208,
            24.99663
          ],
          [
            121.31209,
            24.99661
          ],
          [
            121.31219,
            24.9964
          ],
          [
            121.31226,
            24.99623
          ],
          [
            121.31228,
            24.9962
          ],
          [
            121.31231,
            24.99612
          ],
          [
            121.31241,
            24.99588
          ],
          [
            121.31253,
            24.9956
          ],
          [
            121.31262,
            24.99537
          ],
          [
            121.31264,
            24.99533
          ],
          [
            121.31268,
            24.99523
          ],
          [
            121.31269,
            24.99521
          ],
          [
            121.31272,
            24.99514
          ],
          [
            121.31281,
            24.99484
          ],
          [
            121.31292,
            24.99445
          ],
          [
            121.31295,
            24.99433
          ],
          [
            121.31299,
            24.99417
          ],
          [
            121.31304,
            24.99397
          ],
          [
            121.3131,
            24.99369
          ],
          [
            121.31318,
            24.99348
          ],
          [
            121.3132,
            24.99341
          ],
          [
            121.31322,
            24.99335
          ],
          [
            121.3133,
            24.99305
          ],
          [
            121.31332,
            24.99299
          ],
          [
            121.31336,
            24.99293
          ],
          [
            121.31349,
            24.99273
          ],
          [
            121.31354,
            24.99265
          ],
          [
            121.31373,
            24.99241
          ],
          [
            121.31389,
            24.99227
          ],
          [
            121.31432,
            24.9918
          ],
          [
            121.31443,
            24.99167
          ],
          [
            121.31449,
            24.99161
          ],
          [
            121.31453,
            24.99157
          ],
          [
            121.31532828516816,
            24.990667595026636
          ],
          [
            121.31534677362842,
            24.990637959655317
          ],
          [
            121.31535429424648,
            24.990604178545585
          ],
          [
            121.31534983282054,
            24.99056994839878
          ],
          [
            121.31533383920427,
            24.990538720702258
          ],
          [
            121.31530792606279,
            24.990513644200895
          ],
          [
            121.31527495275388,
            24.990497326301387
          ],
          [
            121.31453,
            24.99026
          ],
          [
            121.31447,
            24.99024
          ],
          [
            121.3132513964514,
            24.98986437478155
          ],
          [
            121.31310716559813,
            24.99044446258028
          ],
          [
            121.31310428771417,
            24.990470550251874
          ],
          [
            121.31310839307653,
            24.990496665218235
          ],
          [
            121.31311927879833,
            24.990521105050266
          ],
          [
            121.31313630194938,
            24.9905424262879
          ],
          [
            121.31315845711207,
            24.99055936966082
          ],
          [
            121.31318419160058,
            24.99057085734831
          ],
          [
            121.3135,
            24.99067
          ],
          [
            121.31375,
            24.99076
          ],
          [
            121.31387,
            24.9908
          ],
          [
            121.31422,
            24.9909
          ],
          [
            121.31425,
            24.99091
          ]
        ]
      }
    },
    {
      "type": "Feature",
      "properties": {
        "feature_type": "station",
        "ref": "TAO64667",
        "name": "今日飯店",
        "name_en": "Hotel Today",
        "line": "5059",
        "color": "#b91c1c",
        "direction": 0,
        "station_id": "4777"
      },
      "geometry": {
        "type": "Point",
        "coordinates": [
          121.314177,
          24.990751
        ]
      }
    },
    {
      "type": "Feature",
      "properties": {
        "feature_type": "station",
        "ref": "TAO4850",
        "name": "民生成功路口",
        "name_en": "Minsheng and ChengGung Rd. Intersection",
        "line": "5059",
        "color": "#b91c1c",
        "direction": 0,
        "station_id": "4143"
      },
      "geometry": {
        "type": "Point",
        "coordinates": [
          121.313695,
          24.992577
        ]
      }
    },
    {
      "type": "Feature",
      "properties": {
        "feature_type": "station",
        "ref": "TAO64664",
        "name": "關帝廟",
        "name_en": "Guandi Temple",
        "line": "5059",
        "color": "#b91c1c",
        "direction": 0,
        "station_id": "1391"
      },
      "geometry": {
        "type": "Point",
        "coordinates": [
          121.313063,
          24.994145
        ]
      }
    },
    {
      "type": "Feature",
      "properties": {
        "feature_type": "station",
        "ref": "TAO64663",
        "name": "鴻福寺",
        "name_en": "Hong Fu temple",
        "line": "5059",
        "color": "#b91c1c",
        "direction": 0,
        "station_id": "4778"
      },
      "geometry": {
        "type": "Point",
        "coordinates": [
          121.312559,
          24.995752
        ]
      }
    },
    {
      "type": "Feature",
      "properties": {
        "feature_type": "station",
        "ref": "TAO64662",
        "name": "北門口",
        "name_en": "Beimen Station",
        "line": "5059",
        "color": "#b91c1c",
        "direction": 0,
        "station_id": "991"
      },
      "geometry": {
        "type": "Point",
        "coordinates": [
          121.310979,
          24.999195
        ]
      }
    },
    {
      "type": "Feature",
      "properties": {
        "feature_type": "station",
        "ref": "TAO8126",
        "name": "三民民生路口",
        "name_en": "Sanmin and Minsheng Road Intersection",
        "line": "5059",
        "color": "#b91c1c",
        "direction": 0,
        "station_id": "1657"
      },
      "geometry": {
        "type": "Point",
        "coordinates": [
          121.311174,
          25.000009
        ]
      }
    },
    {
      "type": "Feature",
      "properties": {
        "feature_type": "station",
        "ref": "TAO9694",
        "name": "春日路口",
        "name_en": "Chunri Sanmin Road Intersection",
        "line": "5059",
        "color": "#b91c1c",
        "direction": 0,
        "station_id": "5124"
      },
      "geometry": {
        "type": "Point",
        "coordinates": [
          121.313928,
          25.001695
        ]
      }
    },
    {
      "type": "Feature",
      "properties": {
        "feature_type": "station",
        "ref": "TAO10080",
        "name": "青溪三春日路口",
        "name_en": "Qingxi 3rd and Chunri Rd, Intersection",
        "line": "5059",
        "color": "#b91c1c",
        "direction": 0,
        "station_id": "19"
      },
      "geometry": {
        "type": "Point",
        "coordinates": [
          121.312875,
          25.004609
        ]
      }
    },
    {
      "type": "Feature",
      "properties": {
        "feature_type": "station",
        "ref": "TAO64502",
        "name": "新檜溪橋",
        "name_en": "Xinkuaixi Bridge",
        "line": "5059",
        "color": "#b91c1c",
        "direction": 0,
        "station_id": "1651"
      },
      "geometry": {
        "type": "Point",
        "coordinates": [
          121.31199,
          25.007003
        ]
      }
    },
    {
      "type": "Feature",
      "properties": {
        "feature_type": "station",
        "ref": "TAO63142",
        "name": "慈文路口",
        "name_en": "Ciwen Road Intersection",
        "line": "5059",
        "color": "#b91c1c",
        "direction": 0,
        "station_id": "1365"
      },
      "geometry": {
        "type": "Point",
        "coordinates": [
          121.3098,
          25.01045
        ]
      }
    },
    {
      "type": "Feature",
      "properties": {
        "feature_type": "station",
        "ref": "TAO63141",
        "name": "經國麗品",
        "name_en": "Jingguolipin",
        "line": "5059",
        "color": "#b91c1c",
        "direction": 0,
        "station_id": "1647"
      },
      "geometry": {
        "type": "Point",
        "coordinates": [
          121.307539,
          25.013185
        ]
      }
    },
    {
      "type": "Feature",
      "properties": {
        "feature_type": "station",
        "ref": "TAO63140",
        "name": "經國大興西路口",
        "name_en": "Jingguo Daxing West Road Intersection",
        "line": "5059",
        "color": "#b91c1c",
        "direction": 0,
        "station_id": "1367"
      },
      "geometry": {
        "type": "Point",
        "coordinates": [
          121.306818,
          25.014427
        ]
      }
    },
    {
      "type": "Feature",
      "properties": {
        "feature_type": "station",
        "ref": "TAO2207",
        "name": "敏盛醫院",
        "name_en": "Min-Sheng General Hospital",
        "line": "5059",
        "color": "#b91c1c",
        "direction": 0,
        "station_id": "220"
      },
      "geometry": {
        "type": "Point",
        "coordinates": [
          121.30554,
          25.01686
        ]
      }
    },
    {
      "type": "Feature",
      "properties": {
        "feature_type": "station",
        "ref": "TAO2208",
        "name": "巴黎富邑",
        "name_en": "BaLiFuYi Building",
        "line": "5059",
        "color": "#b91c1c",
        "direction": 0,
        "station_id": "1790"
      },
      "geometry": {
        "type": "Point",
        "coordinates": [
          121.304625,
          25.018841
        ]
      }
    },
    {
      "type": "Feature",
      "properties": {
        "feature_type": "station",
        "ref": "TAO63137",
        "name": "經國南平路口",
        "name_en": "Jingguo and Nanping Rd. Intersection",
        "line": "5059",
        "color": "#b91c1c",
        "direction": 0,
        "station_id": "1792"
      },
      "geometry": {
        "type": "Point",
        "coordinates": [
          121.303769,
          25.020887
        ]
      }
    },
    {
      "type": "Feature",
      "properties": {
        "feature_type": "station",
        "ref": "TAO63136",
        "name": "中悅春天",
        "name_en": "Jungyuechuentian",
        "line": "5059",
        "color": "#b91c1c",
        "direction": 0,
        "station_id": "1794"
      },
      "geometry": {
        "type": "Point",
        "coordinates": [
          121.302756,
          25.023117
        ]
      }
    },
    {
      "type": "Feature",
      "properties": {
        "feature_type": "station",
        "ref": "TAO63135",
        "name": "經國莊敬路口",
        "name_en": "Jingguo Zhuangjing Road Intersection",
        "line": "5059",
        "color": "#b91c1c",
        "direction": 0,
        "station_id": "1796"
      },
      "geometry": {
        "type": "Point",
        "coordinates": [
          121.301835,
          25.025152
        ]
      }
    },
    {
      "type": "Feature",
      "properties": {
        "feature_type": "station",
        "ref": "TAO63134",
        "name": "經國轉運站(幸福路口)",
        "name_en": "JingGuo Bus Station (Xingfu Rd. Intersection)",
        "line": "5059",
        "color": "#b91c1c",
        "direction": 0,
        "station_id": "1798"
      },
      "geometry": {
        "type": "Point",
        "coordinates": [
          121.300886,
          25.027884
        ]
      }
    },
    {
      "type": "Feature",
      "properties": {
        "feature_type": "station",
        "ref": "TAO1682",
        "name": "長榮加油站",
        "name_en": "Zhangrong Gas Station",
        "line": "5059",
        "color": "#b91c1c",
        "direction": 0,
        "station_id": "1368"
      },
      "geometry": {
        "type": "Point",
        "coordinates": [
          121.300598,
          25.032186
        ]
      }
    },
    {
      "type": "Feature",
      "properties": {
        "feature_type": "station",
        "ref": "TAO63131",
        "name": "亞建公司",
        "name_en": "Yajian Company",
        "line": "5059",
        "color": "#b91c1c",
        "direction": 0,
        "station_id": "1370"
      },
      "geometry": {
        "type": "Point",
        "coordinates": [
          121.30081,
          25.03466
        ]
      }
    },
    {
      "type": "Feature",
      "properties": {
        "feature_type": "station",
        "ref": "TAO63130",
        "name": "長榮",
        "name_en": "Evergreen",
        "line": "5059",
        "color": "#b91c1c",
        "direction": 0,
        "station_id": "4370"
      },
      "geometry": {
        "type": "Point",
        "coordinates": [
          121.295269,
          25.042094
        ]
      }
    },
    {
      "type": "Feature",
      "properties": {
        "feature_type": "station",
        "ref": "TAO2219",
        "name": "南崁",
        "name_en": "NanKan",
        "line": "5059",
        "color": "#b91c1c",
        "direction": 0,
        "station_id": "4578"
      },
      "geometry": {
        "type": "Point",
        "coordinates": [
          121.292138,
          25.047657
        ]
      }
    },
    {
      "type": "Feature",
      "properties": {
        "feature_type": "station",
        "ref": "TAO6733",
        "name": "台茂",
        "name_en": "Taimall",
        "line": "5059",
        "color": "#b91c1c",
        "direction": 0,
        "station_id": "3744"
      },
      "geometry": {
        "type": "Point",
        "coordinates": [
          121.286915,
          25.052447
        ]
      }
    },
    {
      "type": "Feature",
      "properties": {
        "feature_type": "station",
        "ref": "TAO64595",
        "name": "下南崁",
        "name_en": "Xianankan",
        "line": "5059",
        "color": "#b91c1c",
        "direction": 0,
        "station_id": "1373"
      },
      "geometry": {
        "type": "Point",
        "coordinates": [
          121.285459,
          25.053294
        ]
      }
    },
    {
      "type": "Feature",
      "properties": {
        "feature_type": "station",
        "ref": "TAO2331",
        "name": "南亞(好市多)",
        "name_en": "Nanya (Costco)",
        "line": "5059",
        "color": "#b91c1c",
        "direction": 0,
        "station_id": "4064"
      },
      "geometry": {
        "type": "Point",
        "coordinates": [
          121.282279,
          25.055207
        ]
      }
    },
    {
      "type": "Feature",
      "properties": {
        "feature_type": "station",
        "ref": "TAO64593",
        "name": "溪洲",
        "name_en": "Xizhou",
        "line": "5059",
        "color": "#b91c1c",
        "direction": 0,
        "station_id": "440"
      },
      "geometry": {
        "type": "Point",
        "coordinates": [
          121.278999,
          25.05713
        ]
      }
    },
    {
      "type": "Feature",
      "properties": {
        "feature_type": "station",
        "ref": "TAO64592",
        "name": "台灣松下",
        "name_en": "Panasonic Taiwan Co., Ltd.",
        "line": "5059",
        "color": "#b91c1c",
        "direction": 0,
        "station_id": "4580"
      },
      "geometry": {
        "type": "Point",
        "coordinates": [
          121.275075,
          25.058906
        ]
      }
    },
    {
      "type": "Feature",
      "properties": {
        "feature_type": "station",
        "ref": "TAO64590",
        "name": "三商",
        "name_en": "Sanshang",
        "line": "5059",
        "color": "#b91c1c",
        "direction": 0,
        "station_id": "4582"
      },
      "geometry": {
        "type": "Point",
        "coordinates": [
          121.270502,
          25.060989
        ]
      }
    },
    {
      "type": "Feature",
      "properties": {
        "feature_type": "station",
        "ref": "TAO64589",
        "name": "水尾",
        "name_en": "Shuiwei",
        "line": "5059",
        "color": "#b91c1c",
        "direction": 0,
        "station_id": "1264"
      },
      "geometry": {
        "type": "Point",
        "coordinates": [
          121.267394,
          25.062501
        ]
      }
    },
    {
      "type": "Feature",
      "properties": {
        "feature_type": "station",
        "ref": "TAO2332",
        "name": "八股路口",
        "name_en": "Bagu Road Intersection",
        "line": "5059",
        "color": "#b91c1c",
        "direction": 0,
        "station_id": "4228"
      },
      "geometry": {
        "type": "Point",
        "coordinates": [
          121.262769,
          25.065055
        ]
      }
    },
    {
      "type": "Feature",
      "properties": {
        "feature_type": "station",
        "ref": "TAO64587",
        "name": "下水尾",
        "name_en": "Xiashuiwei",
        "line": "5059",
        "color": "#b91c1c",
        "direction": 0,
        "station_id": "4756"
      },
      "geometry": {
        "type": "Point",
        "coordinates": [
          121.260958,
          25.070508
        ]
      }
    },
    {
      "type": "Feature",
      "properties": {
        "feature_type": "station",
        "ref": "TAO63127",
        "name": "菓林",
        "name_en": "Guolin",
        "line": "5059",
        "color": "#b91c1c",
        "direction": 0,
        "station_id": "4584"
      },
      "geometry": {
        "type": "Point",
        "coordinates": [
          121.260518,
          25.075497
        ]
      }
    },
    {
      "type": "Feature",
      "properties": {
        "feature_type": "station",
        "ref": "TAO63126",
        "name": "崁下",
        "name_en": "Kanxia",
        "line": "5059",
        "color": "#b91c1c",
        "direction": 0,
        "station_id": "4586"
      },
      "geometry": {
        "type": "Point",
        "coordinates": [
          121.259252,
          25.078739
        ]
      }
    },
    {
      "type": "Feature",
      "properties": {
        "feature_type": "station",
        "ref": "TAO64582",
        "name": "崁中",
        "name_en": "Kanzhong",
        "line": "5059",
        "color": "#b91c1c",
        "direction": 0,
        "station_id": "4908"
      },
      "geometry": {
        "type": "Point",
        "coordinates": [
          121.25716,
          25.082320000000006
        ]
      }
    },
    {
      "type": "Feature",
      "properties": {
        "feature_type": "station",
        "ref": "TAO64581",
        "name": "崁上",
        "name_en": "Kanshang",
        "line": "5059",
        "color": "#b91c1c",
        "direction": 0,
        "station_id": "4910"
      },
      "geometry": {
        "type": "Point",
        "coordinates": [
          121.255835,
          25.084608000000003
        ]
      }
    },
    {
      "type": "Feature",
      "properties": {
        "feature_type": "station",
        "ref": "TAO64580",
        "name": "樹仔坡",
        "name_en": "Shuzipo",
        "line": "5059",
        "color": "#b91c1c",
        "direction": 0,
        "station_id": "3639"
      },
      "geometry": {
        "type": "Point",
        "coordinates": [
          121.254239,
          25.087292
        ]
      }
    },
    {
      "type": "Feature",
      "properties": {
        "feature_type": "station",
        "ref": "TAO6497",
        "name": "長榮空運倉儲",
        "name_en": "Evergreen Air Cargo Service Corp",
        "line": "5059",
        "color": "#b91c1c",
        "direction": 0,
        "station_id": "6229"
      },
      "geometry": {
        "type": "Point",
        "coordinates": [
          121.24823,
          25.09102
        ]
      }
    },
    {
      "type": "Feature",
      "properties": {
        "feature_type": "station",
        "ref": "TAO63125",
        "name": "桃園機場貨運站",
        "name_en": "Taoyuan International Airport Transportation Station",
        "line": "5059",
        "color": "#b91c1c",
        "direction": 0,
        "station_id": "4588"
      },
      "geometry": {
        "type": "Point",
        "coordinates": [
          121.244506,
          25.088171
        ]
      }
    },
    {
      "type": "Feature",
      "properties": {
        "feature_type": "station",
        "ref": "TAO63124",
        "name": "桃園機場航郵中心",
        "name_en": "Taoyuan International Airport Mail Center",
        "line": "5059",
        "color": "#b91c1c",
        "direction": 0,
        "station_id": "4590"
      },
      "geometry": {
        "type": "Point",
        "coordinates": [
          121.242002,
          25.086649
        ]
      }
    },
    {
      "type": "Feature",
      "properties": {
        "feature_type": "station",
        "ref": "TAO5481",
        "name": "桃園機場第一航廈",
        "name_en": "Taoyuan International Airport Terminal 1",
        "line": "5059",
        "color": "#b91c1c",
        "direction": 0,
        "station_id": "6200"
      },
      "geometry": {
        "type": "Point",
        "coordinates": [
          121.238138,
          25.082183
        ]
      }
    },
    {
      "type": "Feature",
      "properties": {
        "feature_type": "station",
        "ref": "TAO5512",
        "name": "桃園機場第二航廈",
        "name_en": "Taoyuan International Airport Terminal 2",
        "line": "5059",
        "color": "#b91c1c",
        "direction": 0,
        "station_id": "4592"
      },
      "geometry": {
        "type": "Point",
        "coordinates": [
          121.23272,
          25.077874
        ]
      }
    },
    {
      "type": "Feature",
      "properties": {
        "feature_type": "station",
        "ref": "TAO63121",
        "name": "桃園機場第二航廈",
        "name_en": "Taoyuan International Airport Terminal 2",
        "line": "5059",
        "color": "#b91c1c",
        "direction": 1,
        "station_id": "4592"
      },
      "geometry": {
        "type": "Point",
        "coordinates": [
          121.23272,
          25.077874
        ]
      }
    },
    {
      "type": "Feature",
      "properties": {
        "feature_type": "station",
        "ref": "TAO63120",
        "name": "桃園機場第一航廈",
        "name_en": "Taoyuan International Airport Terminal 1",
        "line": "5059",
        "color": "#b91c1c",
        "direction": 1,
        "station_id": "6481"
      },
      "geometry": {
        "type": "Point",
        "coordinates": [
          121.236199,
          25.081375
        ]
      }
    },
    {
      "type": "Feature",
      "properties": {
        "feature_type": "station",
        "ref": "TAO63119",
        "name": "桃園機場航郵中心",
        "name_en": "Taoyuan International Airport Mail Center",
        "line": "5059",
        "color": "#b91c1c",
        "direction": 1,
        "station_id": "4591"
      },
      "geometry": {
        "type": "Point",
        "coordinates": [
          121.241819,
          25.086291
        ]
      }
    },
    {
      "type": "Feature",
      "properties": {
        "feature_type": "station",
        "ref": "TAO63118",
        "name": "桃園機場貨運站",
        "name_en": "Taoyuan International Airport Transportation Station",
        "line": "5059",
        "color": "#b91c1c",
        "direction": 1,
        "station_id": "4589"
      },
      "geometry": {
        "type": "Point",
        "coordinates": [
          121.244695,
          25.088016
        ]
      }
    },
    {
      "type": "Feature",
      "properties": {
        "feature_type": "station",
        "ref": "TAO63117",
        "name": "桃園機場加油站",
        "name_en": "Taoyuan Airport Gas Station",
        "line": "5059",
        "color": "#b91c1c",
        "direction": 1,
        "station_id": "2277"
      },
      "geometry": {
        "type": "Point",
        "coordinates": [
          121.248572,
          25.089466
        ]
      }
    },
    {
      "type": "Feature",
      "properties": {
        "feature_type": "station",
        "ref": "TAO64521",
        "name": "樹仔坡",
        "name_en": "Shuzipo",
        "line": "5059",
        "color": "#b91c1c",
        "direction": 1,
        "station_id": "3638"
      },
      "geometry": {
        "type": "Point",
        "coordinates": [
          121.253888,
          25.087392
        ]
      }
    },
    {
      "type": "Feature",
      "properties": {
        "feature_type": "station",
        "ref": "TAO64520",
        "name": "崁上",
        "name_en": "Kanshang",
        "line": "5059",
        "color": "#b91c1c",
        "direction": 1,
        "station_id": "4911"
      },
      "geometry": {
        "type": "Point",
        "coordinates": [
          121.255727,
          25.084313
        ]
      }
    },
    {
      "type": "Feature",
      "properties": {
        "feature_type": "station",
        "ref": "TAO64519",
        "name": "崁中",
        "name_en": "Kanzhong",
        "line": "5059",
        "color": "#b91c1c",
        "direction": 1,
        "station_id": "4909"
      },
      "geometry": {
        "type": "Point",
        "coordinates": [
          121.25700999999998,
          25.08222
        ]
      }
    },
    {
      "type": "Feature",
      "properties": {
        "feature_type": "station",
        "ref": "TAO63116",
        "name": "崁下",
        "name_en": "Kanxia",
        "line": "5059",
        "color": "#b91c1c",
        "direction": 1,
        "station_id": "4587"
      },
      "geometry": {
        "type": "Point",
        "coordinates": [
          121.258837,
          25.079081
        ]
      }
    },
    {
      "type": "Feature",
      "properties": {
        "feature_type": "station",
        "ref": "TAO63115",
        "name": "菓林",
        "name_en": "Guolin",
        "line": "5059",
        "color": "#b91c1c",
        "direction": 1,
        "station_id": "4585"
      },
      "geometry": {
        "type": "Point",
        "coordinates": [
          121.260304,
          25.074691
        ]
      }
    },
    {
      "type": "Feature",
      "properties": {
        "feature_type": "station",
        "ref": "TAO64514",
        "name": "下水尾",
        "name_en": "Xiashuiwei",
        "line": "5059",
        "color": "#b91c1c",
        "direction": 1,
        "station_id": "4757"
      },
      "geometry": {
        "type": "Point",
        "coordinates": [
          121.260894,
          25.070003
        ]
      }
    },
    {
      "type": "Feature",
      "properties": {
        "feature_type": "station",
        "ref": "TAO2333",
        "name": "八股路口",
        "name_en": "Bagu Road Intersection",
        "line": "5059",
        "color": "#b91c1c",
        "direction": 1,
        "station_id": "4229"
      },
      "geometry": {
        "type": "Point",
        "coordinates": [
          121.262617,
          25.064831
        ]
      }
    },
    {
      "type": "Feature",
      "properties": {
        "feature_type": "station",
        "ref": "TAO64512",
        "name": "水尾",
        "name_en": "Shuiwei",
        "line": "5059",
        "color": "#b91c1c",
        "direction": 1,
        "station_id": "1268"
      },
      "geometry": {
        "type": "Point",
        "coordinates": [
          121.267146,
          25.062337
        ]
      }
    },
    {
      "type": "Feature",
      "properties": {
        "feature_type": "station",
        "ref": "TAO5303",
        "name": "三商",
        "name_en": "Sanshang",
        "line": "5059",
        "color": "#b91c1c",
        "direction": 1,
        "station_id": "4583"
      },
      "geometry": {
        "type": "Point",
        "coordinates": [
          121.270087,
          25.060974
        ]
      }
    },
    {
      "type": "Feature",
      "properties": {
        "feature_type": "station",
        "ref": "TAO64509",
        "name": "台灣松下",
        "name_en": "Panasonic Taiwan Co., Ltd.",
        "line": "5059",
        "color": "#b91c1c",
        "direction": 1,
        "station_id": "4581"
      },
      "geometry": {
        "type": "Point",
        "coordinates": [
          121.274992,
          25.058765
        ]
      }
    },
    {
      "type": "Feature",
      "properties": {
        "feature_type": "station",
        "ref": "TAO64508",
        "name": "溪洲",
        "name_en": "Xizhou",
        "line": "5059",
        "color": "#b91c1c",
        "direction": 1,
        "station_id": "441"
      },
      "geometry": {
        "type": "Point",
        "coordinates": [
          121.278441,
          25.057208
        ]
      }
    },
    {
      "type": "Feature",
      "properties": {
        "feature_type": "station",
        "ref": "TAO6735",
        "name": "南亞(好市多)",
        "name_en": "Nanya (Costco)",
        "line": "5059",
        "color": "#b91c1c",
        "direction": 1,
        "station_id": "4065"
      },
      "geometry": {
        "type": "Point",
        "coordinates": [
          121.282149,
          25.054958
        ]
      }
    },
    {
      "type": "Feature",
      "properties": {
        "feature_type": "station",
        "ref": "TAO5299",
        "name": "下南崁",
        "name_en": "Xianankan",
        "line": "5059",
        "color": "#b91c1c",
        "direction": 1,
        "station_id": "1372"
      },
      "geometry": {
        "type": "Point",
        "coordinates": [
          121.285101,
          25.053163
        ]
      }
    },
    {
      "type": "Feature",
      "properties": {
        "feature_type": "station",
        "ref": "TAO5886",
        "name": "台茂",
        "name_en": "Taimall",
        "line": "5059",
        "color": "#b91c1c",
        "direction": 1,
        "station_id": "7078"
      },
      "geometry": {
        "type": "Point",
        "coordinates": [
          121.286938,
          25.052241
        ]
      }
    },
    {
      "type": "Feature",
      "properties": {
        "feature_type": "station",
        "ref": "TAO2220",
        "name": "南崁",
        "name_en": "NanKan",
        "line": "5059",
        "color": "#b91c1c",
        "direction": 1,
        "station_id": "4579"
      },
      "geometry": {
        "type": "Point",
        "coordinates": [
          121.291795,
          25.047618
        ]
      }
    },
    {
      "type": "Feature",
      "properties": {
        "feature_type": "station",
        "ref": "TAO63113",
        "name": "長榮",
        "name_en": "Evergreen",
        "line": "5059",
        "color": "#b91c1c",
        "direction": 1,
        "station_id": "4371"
      },
      "geometry": {
        "type": "Point",
        "coordinates": [
          121.294134,
          25.043486
        ]
      }
    },
    {
      "type": "Feature",
      "properties": {
        "feature_type": "station",
        "ref": "TAO63112",
        "name": "亞建公司",
        "name_en": "Yajian Company",
        "line": "5059",
        "color": "#b91c1c",
        "direction": 1,
        "station_id": "1371"
      },
      "geometry": {
        "type": "Point",
        "coordinates": [
          121.29985928306327,
          25.034868036672247
        ]
      }
    },
    {
      "type": "Feature",
      "properties": {
        "feature_type": "station",
        "ref": "TAO1709",
        "name": "長榮加油站",
        "name_en": "Zhangrong Gas Station",
        "line": "5059",
        "color": "#b91c1c",
        "direction": 1,
        "station_id": "1369"
      },
      "geometry": {
        "type": "Point",
        "coordinates": [
          121.300315,
          25.032323
        ]
      }
    },
    {
      "type": "Feature",
      "properties": {
        "feature_type": "station",
        "ref": "TAO6629",
        "name": "經國轉運站(水汴一路口)",
        "name_en": "Jingguo Bus Station(Shuibian 1st Rd. Inter.)",
        "line": "5059",
        "color": "#b91c1c",
        "direction": 1,
        "station_id": "2820"
      },
      "geometry": {
        "type": "Point",
        "coordinates": [
          121.300444,
          25.030217
        ]
      }
    },
    {
      "type": "Feature",
      "properties": {
        "feature_type": "station",
        "ref": "TAO63109",
        "name": "經國轉運站(幸福路口)",
        "name_en": "JingGuo Bus Station (Xingfu Rd. Intersection)",
        "line": "5059",
        "color": "#b91c1c",
        "direction": 1,
        "station_id": "1799"
      },
      "geometry": {
        "type": "Point",
        "coordinates": [
          121.300669,
          25.027662
        ]
      }
    },
    {
      "type": "Feature",
      "properties": {
        "feature_type": "station",
        "ref": "TAO63108",
        "name": "經國莊敬路口",
        "name_en": "Jingguo Zhuangjing Road Intersection",
        "line": "5059",
        "color": "#b91c1c",
        "direction": 1,
        "station_id": "1797"
      },
      "geometry": {
        "type": "Point",
        "coordinates": [
          121.301666,
          25.025131
        ]
      }
    },
    {
      "type": "Feature",
      "properties": {
        "feature_type": "station",
        "ref": "TAO63107",
        "name": "中悅春天",
        "name_en": "Jungyuechuentian",
        "line": "5059",
        "color": "#b91c1c",
        "direction": 1,
        "station_id": "1795"
      },
      "geometry": {
        "type": "Point",
        "coordinates": [
          121.302707,
          25.022779
        ]
      }
    },
    {
      "type": "Feature",
      "properties": {
        "feature_type": "station",
        "ref": "TAO63106",
        "name": "經國南平路口",
        "name_en": "Jingguo and Nanping Rd. Intersection",
        "line": "5059",
        "color": "#b91c1c",
        "direction": 1,
        "station_id": "1793"
      },
      "geometry": {
        "type": "Point",
        "coordinates": [
          121.303373,
          25.021039
        ]
      }
    },
    {
      "type": "Feature",
      "properties": {
        "feature_type": "station",
        "ref": "TAO522",
        "name": "巴黎富邑",
        "name_en": "BaLiFuYi Building",
        "line": "5059",
        "color": "#b91c1c",
        "direction": 1,
        "station_id": "1791"
      },
      "geometry": {
        "type": "Point",
        "coordinates": [
          121.304365,
          25.018755
        ]
      }
    },
    {
      "type": "Feature",
      "properties": {
        "feature_type": "station",
        "ref": "TAO13337",
        "name": "敏盛醫院",
        "name_en": "Min-Sheng General Hospital",
        "line": "5059",
        "color": "#b91c1c",
        "direction": 1,
        "station_id": "221"
      },
      "geometry": {
        "type": "Point",
        "coordinates": [
          121.305257,
          25.016832
        ]
      }
    },
    {
      "type": "Feature",
      "properties": {
        "feature_type": "station",
        "ref": "TAO63103",
        "name": "經國大興西路口",
        "name_en": "Jingguo Daxing West Road Intersection",
        "line": "5059",
        "color": "#b91c1c",
        "direction": 1,
        "station_id": "1366"
      },
      "geometry": {
        "type": "Point",
        "coordinates": [
          121.306699,
          25.014314
        ]
      }
    },
    {
      "type": "Feature",
      "properties": {
        "feature_type": "station",
        "ref": "TAO63102",
        "name": "經國麗品",
        "name_en": "Jingguolipin",
        "line": "5059",
        "color": "#b91c1c",
        "direction": 1,
        "station_id": "1646"
      },
      "geometry": {
        "type": "Point",
        "coordinates": [
          121.307715,
          25.012573
        ]
      }
    },
    {
      "type": "Feature",
      "properties": {
        "feature_type": "station",
        "ref": "TAO63101",
        "name": "慈文路口",
        "name_en": "Ciwen Road Intersection",
        "line": "5059",
        "color": "#b91c1c",
        "direction": 1,
        "station_id": "1364"
      },
      "geometry": {
        "type": "Point",
        "coordinates": [
          121.30998,
          25.00979
        ]
      }
    },
    {
      "type": "Feature",
      "properties": {
        "feature_type": "station",
        "ref": "TAO64441",
        "name": "新檜溪橋",
        "name_en": "Xinkuaixi Bridge",
        "line": "5059",
        "color": "#b91c1c",
        "direction": 1,
        "station_id": "1650"
      },
      "geometry": {
        "type": "Point",
        "coordinates": [
          121.311728,
          25.007179
        ]
      }
    },
    {
      "type": "Feature",
      "properties": {
        "feature_type": "station",
        "ref": "TAO10081",
        "name": "青溪三春日路口",
        "name_en": "Qingxi 3rd and Chunri Rd, Intersection",
        "line": "5059",
        "color": "#b91c1c",
        "direction": 1,
        "station_id": "20"
      },
      "geometry": {
        "type": "Point",
        "coordinates": [
          121.312638,
          25.004575
        ]
      }
    },
    {
      "type": "Feature",
      "properties": {
        "feature_type": "station",
        "ref": "TAO8129",
        "name": "春日路口",
        "name_en": "Chunri Road Intersection",
        "line": "5059",
        "color": "#b91c1c",
        "direction": 1,
        "station_id": "5125"
      },
      "geometry": {
        "type": "Point",
        "coordinates": [
          121.313376,
          25.002234
        ]
      }
    },
    {
      "type": "Feature",
      "properties": {
        "feature_type": "station",
        "ref": "TAO64604",
        "name": "北門口",
        "name_en": "Beimen Station",
        "line": "5059",
        "color": "#b91c1c",
        "direction": 1,
        "station_id": "988"
      },
      "geometry": {
        "type": "Point",
        "coordinates": [
          121.310988,
          24.998878
        ]
      }
    },
    {
      "type": "Feature",
      "properties": {
        "feature_type": "station",
        "ref": "TAO64603",
        "name": "鴻福寺",
        "name_en": "Hong Fu temple",
        "line": "5059",
        "color": "#b91c1c",
        "direction": 1,
        "station_id": "4779"
      },
      "geometry": {
        "type": "Point",
        "coordinates": [
          121.312107,
          24.996275
        ]
      }
    },
    {
      "type": "Feature",
      "properties": {
        "feature_type": "station",
        "ref": "TAO64258",
        "name": "關帝廟",
        "name_en": "Guandi Temple",
        "line": "5059",
        "color": "#b91c1c",
        "direction": 1,
        "station_id": "1390"
      },
      "geometry": {
        "type": "Point",
        "coordinates": [
          121.312918,
          24.994081
        ]
      }
    },
    {
      "type": "Feature",
      "properties": {
        "feature_type": "station",
        "ref": "TAO1369",
        "name": "民生成功路口",
        "name_en": "Minsheng and ChengGung Rd. Intersection",
        "line": "5059",
        "color": "#b91c1c",
        "direction": 1,
        "station_id": "4144"
      },
      "geometry": {
        "type": "Point",
        "coordinates": [
          121.313506,
          24.992543
        ]
      }
    },
    {
      "type": "Feature",
      "properties": {
        "feature_type": "station",
        "ref": "TAO64667",
        "name": "今日飯店",
        "name_en": "Hotel Today",
        "line": "5059",
        "color": "#b91c1c",
        "direction": 1,
        "station_id": "4777"
      },
      "geometry": {
        "type": "Point",
        "coordinates": [
          121.314177,
          24.990751
        ]
      }
    }
  ]
}
