{
  "type": "FeatureCollection",
  "name": "5014B",
  "properties": {
    "id": "taoyuan_5014b",
    "name": "5014B",
    "name_en": "5014B",
    "ref": "5014B",
    "color": "#65a30d",
    "city_id": "Taoyuan",
    "source": "TDX Bus Shape / StopOfRoute",
    "operator_id": "1",
    "operator": "桃園客運",
    "operator_en": "Taoyuan Bus Co., Ltd.",
    "official_map_url": "https://ebus.tycg.gov.tw/cms/api/route/50142/map/latest"
  },
  "features": [
    {
      "type": "Feature",
      "properties": {
        "feature_type": "route",
        "ref": "5014B",
        "name": "5014B",
        "name_en": "5014B",
        "color": "#65a30d",
        "direction": 0
      },
      "geometry": {
        "type": "LineString",
        "coordinates": [
          [
            121.31389,
            24.99071
          ],
          [
            121.31468,
            24.99095
          ],
          [
            121.315,
            24.99104
          ],
          [
            121.31437,
            24.99176
          ],
          [
            121.31369,
            24.99247
          ],
          [
            121.31332,
            24.99299
          ],
          [
            121.31273,
            24.99515
          ],
          [
            121.30962,
            25.00209
          ],
          [
            121.30805,
            25.00837
          ],
          [
            121.30813,
            25.01131
          ],
          [
            121.30941,
            25.01189
          ],
          [
            121.3096,
            25.01215
          ],
          [
            121.30988,
            25.01228
          ],
          [
            121.30948,
            25.01366
          ],
          [
            121.30894,
            25.01692
          ],
          [
            121.30872,
            25.01831
          ],
          [
            121.30852,
            25.01973
          ],
          [
            121.30832,
            25.02045
          ],
          [
            121.30388,
            25.03132
          ],
          [
            121.30269,
            25.03404
          ],
          [
            121.30157,
            25.03687
          ],
          [
            121.29937,
            25.04216
          ],
          [
            121.29895,
            25.04269
          ],
          [
            121.29455,
            25.04676
          ]
        ]
      }
    },
    {
      "type": "Feature",
      "properties": {
        "feature_type": "route",
        "ref": "5014B",
        "name": "5014B",
        "name_en": "5014B",
        "color": "#65a30d",
        "direction": 1
      },
      "geometry": {
        "type": "LineString",
        "coordinates": [
          [
            121.29404,
            25.04727
          ],
          [
            121.29492,
            25.04749
          ],
          [
            121.29574,
            25.04781
          ],
          [
            121.29592,
            25.04787
          ],
          [
            121.29641,
            25.04783
          ],
          [
            121.29893,
            25.04711
          ],
          [
            121.30254,
            25.0488
          ],
          [
            121.30005,
            25.05316
          ],
          [
            121.29623,
            25.05908
          ],
          [
            121.29519,
            25.05909
          ],
          [
            121.29513,
            25.05721
          ],
          [
            121.29484,
            25.05653
          ],
          [
            121.2943,
            25.0554
          ],
          [
            121.29425,
            25.05504
          ],
          [
            121.29441,
            25.05444
          ],
          [
            121.29475,
            25.0537
          ],
          [
            121.29566,
            25.05328
          ],
          [
            121.29719,
            25.05202
          ],
          [
            121.29428,
            25.05086
          ],
          [
            121.29383,
            25.05086
          ],
          [
            121.2932,
            25.0511
          ],
          [
            121.29282,
            25.05113
          ],
          [
            121.29258,
            25.0511
          ],
          [
            121.2922,
            25.05096
          ],
          [
            121.29186,
            25.05007
          ],
          [
            121.29145,
            25.04899
          ],
          [
            121.28873,
            25.04772
          ],
          [
            121.28872,
            25.04671
          ],
          [
            121.28876,
            25.04654
          ],
          [
            121.28928,
            25.0461
          ],
          [
            121.28909,
            25.04588
          ],
          [
            121.28881,
            25.04535
          ],
          [
            121.28852,
            25.0448
          ],
          [
            121.28821,
            25.04426
          ],
          [
            121.28741,
            25.04374
          ],
          [
            121.28727,
            25.04361
          ],
          [
            121.28697,
            25.04291
          ],
          [
            121.28678,
            25.04274
          ],
          [
            121.28542,
            25.04191
          ],
          [
            121.28485,
            25.04154
          ],
          [
            121.29122,
            25.03813
          ],
          [
            121.29146,
            25.03797
          ],
          [
            121.29226,
            25.03698
          ],
          [
            121.29239,
            25.03695
          ],
          [
            121.29332,
            25.03759
          ],
          [
            121.29314,
            25.03896
          ],
          [
            121.2929,
            25.04069
          ],
          [
            121.29274,
            25.04092
          ],
          [
            121.29064,
            25.04206
          ],
          [
            121.29176,
            25.04374
          ],
          [
            121.29201,
            25.04391
          ]
        ]
      }
    },
    {
      "type": "Feature",
      "properties": {
        "feature_type": "route",
        "ref": "5014B",
        "name": "5014B",
        "name_en": "5014B",
        "color": "#65a30d",
        "direction": 1
      },
      "geometry": {
        "type": "LineString",
        "coordinates": [
          [
            121.3122,
            24.99264
          ],
          [
            121.31305,
            24.9905
          ]
        ]
      }
    },
    {
      "type": "Feature",
      "properties": {
        "feature_type": "station",
        "ref": "TAO64667",
        "name": "今日飯店",
        "name_en": "Hotel Today",
        "line": "5014B",
        "color": "#65a30d",
        "direction": 0
      },
      "geometry": {
        "type": "Point",
        "coordinates": [
          121.314177,
          24.990751
        ]
      }
    },
    {
      "type": "Feature",
      "properties": {
        "feature_type": "station",
        "ref": "TAO4850",
        "name": "民生成功路口",
        "name_en": "Minsheng and ChengGung Rd. Intersection",
        "line": "5014B",
        "color": "#65a30d",
        "direction": 0
      },
      "geometry": {
        "type": "Point",
        "coordinates": [
          121.313695,
          24.992577
        ]
      }
    },
    {
      "type": "Feature",
      "properties": {
        "feature_type": "station",
        "ref": "TAO64664",
        "name": "關帝廟",
        "name_en": "Guandi Temple",
        "line": "5014B",
        "color": "#65a30d",
        "direction": 0
      },
      "geometry": {
        "type": "Point",
        "coordinates": [
          121.313063,
          24.994145
        ]
      }
    },
    {
      "type": "Feature",
      "properties": {
        "feature_type": "station",
        "ref": "TAO64663",
        "name": "鴻福寺",
        "name_en": "Hong Fu temple",
        "line": "5014B",
        "color": "#65a30d",
        "direction": 0
      },
      "geometry": {
        "type": "Point",
        "coordinates": [
          121.312559,
          24.995752
        ]
      }
    },
    {
      "type": "Feature",
      "properties": {
        "feature_type": "station",
        "ref": "TAO64662",
        "name": "北門口",
        "name_en": "Beimen Station",
        "line": "5014B",
        "color": "#65a30d",
        "direction": 0
      },
      "geometry": {
        "type": "Point",
        "coordinates": [
          121.310979,
          24.999195
        ]
      }
    },
    {
      "type": "Feature",
      "properties": {
        "feature_type": "station",
        "ref": "TAO64661",
        "name": "北門新村",
        "name_en": "Beimen Village",
        "line": "5014B",
        "color": "#65a30d",
        "direction": 0
      },
      "geometry": {
        "type": "Point",
        "coordinates": [
          121.310089,
          25.001223
        ]
      }
    },
    {
      "type": "Feature",
      "properties": {
        "feature_type": "station",
        "ref": "TAO62936",
        "name": "臺灣菸酒公司",
        "name_en": "Taiwan Tobacco & Liquor Corporation",
        "line": "5014B",
        "color": "#65a30d",
        "direction": 0
      },
      "geometry": {
        "type": "Point",
        "coordinates": [
          121.309309,
          25.003714
        ]
      }
    },
    {
      "type": "Feature",
      "properties": {
        "feature_type": "station",
        "ref": "TAO64659",
        "name": "北門國小",
        "name_en": "Beimen Elementary School",
        "line": "5014B",
        "color": "#65a30d",
        "direction": 0
      },
      "geometry": {
        "type": "Point",
        "coordinates": [
          121.308741,
          25.006016
        ]
      }
    },
    {
      "type": "Feature",
      "properties": {
        "feature_type": "station",
        "ref": "TAO64658",
        "name": "文昌國中",
        "name_en": "Wunchang Junior High School",
        "line": "5014B",
        "color": "#65a30d",
        "direction": 0
      },
      "geometry": {
        "type": "Point",
        "coordinates": [
          121.308149,
          25.008988
        ]
      }
    },
    {
      "type": "Feature",
      "properties": {
        "feature_type": "station",
        "ref": "TAO64657",
        "name": "瓦斯公司",
        "name_en": "Gas Corporation",
        "line": "5014B",
        "color": "#65a30d",
        "direction": 0
      },
      "geometry": {
        "type": "Point",
        "coordinates": [
          121.309569,
          25.013629
        ]
      }
    },
    {
      "type": "Feature",
      "properties": {
        "feature_type": "station",
        "ref": "TAO64656",
        "name": "大興路口",
        "name_en": "Daxing Road Intersection",
        "line": "5014B",
        "color": "#65a30d",
        "direction": 0
      },
      "geometry": {
        "type": "Point",
        "coordinates": [
          121.309302,
          25.015096
        ]
      }
    },
    {
      "type": "Feature",
      "properties": {
        "feature_type": "station",
        "ref": "TAO64655",
        "name": "永吉新村",
        "name_en": "Yongji Village",
        "line": "5014B",
        "color": "#65a30d",
        "direction": 0
      },
      "geometry": {
        "type": "Point",
        "coordinates": [
          121.309057,
          25.016476
        ]
      }
    },
    {
      "type": "Feature",
      "properties": {
        "feature_type": "station",
        "ref": "TAO5134",
        "name": "新埔國宅",
        "name_en": "Xinpu Public Housing",
        "line": "5014B",
        "color": "#65a30d",
        "direction": 0
      },
      "geometry": {
        "type": "Point",
        "coordinates": [
          121.308484,
          25.020138
        ]
      }
    },
    {
      "type": "Feature",
      "properties": {
        "feature_type": "station",
        "ref": "TAO64652",
        "name": "春日健行路口",
        "name_en": "Chunri Jianxing Road Intersection",
        "line": "5014B",
        "color": "#65a30d",
        "direction": 0
      },
      "geometry": {
        "type": "Point",
        "coordinates": [
          121.307464,
          25.022705
        ]
      }
    },
    {
      "type": "Feature",
      "properties": {
        "feature_type": "station",
        "ref": "TAO64651",
        "name": "鹽庫西街口",
        "name_en": "Yanku West Street Intersection",
        "line": "5014B",
        "color": "#65a30d",
        "direction": 0
      },
      "geometry": {
        "type": "Point",
        "coordinates": [
          121.306647,
          25.024708
        ]
      }
    },
    {
      "type": "Feature",
      "properties": {
        "feature_type": "station",
        "ref": "TAO64650",
        "name": "水汴頭",
        "name_en": "Shuibiantou",
        "line": "5014B",
        "color": "#65a30d",
        "direction": 0
      },
      "geometry": {
        "type": "Point",
        "coordinates": [
          121.305846,
          25.026785
        ]
      }
    },
    {
      "type": "Feature",
      "properties": {
        "feature_type": "station",
        "ref": "TAO64649",
        "name": "許厝",
        "name_en": "Xucuo",
        "line": "5014B",
        "color": "#65a30d",
        "direction": 0
      },
      "geometry": {
        "type": "Point",
        "coordinates": [
          121.304914,
          25.028964
        ]
      }
    },
    {
      "type": "Feature",
      "properties": {
        "feature_type": "station",
        "ref": "TAO64648",
        "name": "煉油廠",
        "name_en": "Refinery",
        "line": "5014B",
        "color": "#65a30d",
        "direction": 0
      },
      "geometry": {
        "type": "Point",
        "coordinates": [
          121.304259,
          25.030656
        ]
      }
    },
    {
      "type": "Feature",
      "properties": {
        "feature_type": "station",
        "ref": "TAO64647",
        "name": "民生北路一段54巷口",
        "name_en": "Lane 54, Section 1, Minsheng North Road",
        "line": "5014B",
        "color": "#65a30d",
        "direction": 0
      },
      "geometry": {
        "type": "Point",
        "coordinates": [
          121.303061,
          25.033461
        ]
      }
    },
    {
      "type": "Feature",
      "properties": {
        "feature_type": "station",
        "ref": "TAO64646",
        "name": "甘蔗園橋",
        "name_en": "Ganzheyuan Bridge",
        "line": "5014B",
        "color": "#65a30d",
        "direction": 0
      },
      "geometry": {
        "type": "Point",
        "coordinates": [
          121.302283,
          25.035334
        ]
      }
    },
    {
      "type": "Feature",
      "properties": {
        "feature_type": "station",
        "ref": "TAO64645",
        "name": "力捷公司",
        "name_en": "Lijie Company",
        "line": "5014B",
        "color": "#65a30d",
        "direction": 0
      },
      "geometry": {
        "type": "Point",
        "coordinates": [
          121.301772,
          25.036574
        ]
      }
    },
    {
      "type": "Feature",
      "properties": {
        "feature_type": "station",
        "ref": "TAO4019",
        "name": "南上里",
        "name_en": "Nanshang Village",
        "line": "5014B",
        "color": "#65a30d",
        "direction": 0
      },
      "geometry": {
        "type": "Point",
        "coordinates": [
          121.301152,
          25.038138
        ]
      }
    },
    {
      "type": "Feature",
      "properties": {
        "feature_type": "station",
        "ref": "TAO64643",
        "name": "甘蔗園",
        "name_en": "Sugarcane Farm",
        "line": "5014B",
        "color": "#65a30d",
        "direction": 0
      },
      "geometry": {
        "type": "Point",
        "coordinates": [
          121.300298,
          25.040214
        ]
      }
    },
    {
      "type": "Feature",
      "properties": {
        "feature_type": "station",
        "ref": "TAO64642",
        "name": "頂南崁",
        "name_en": "Dingnankan",
        "line": "5014B",
        "color": "#65a30d",
        "direction": 0
      },
      "geometry": {
        "type": "Point",
        "coordinates": [
          121.298138,
          25.043576
        ]
      }
    },
    {
      "type": "Feature",
      "properties": {
        "feature_type": "station",
        "ref": "TAO64641",
        "name": "大同公司",
        "name_en": "Datung Company",
        "line": "5014B",
        "color": "#65a30d",
        "direction": 0
      },
      "geometry": {
        "type": "Point",
        "coordinates": [
          121.296498,
          25.045057
        ]
      }
    },
    {
      "type": "Feature",
      "properties": {
        "feature_type": "station",
        "ref": "TAO17083",
        "name": "蘆竹區公所",
        "name_en": "Luzhu District Office",
        "line": "5014B",
        "color": "#65a30d",
        "direction": 0
      },
      "geometry": {
        "type": "Point",
        "coordinates": [
          121.294729,
          25.046754
        ]
      }
    },
    {
      "type": "Feature",
      "properties": {
        "feature_type": "station",
        "ref": "TAO17083",
        "name": "蘆竹區公所",
        "name_en": "Luzhu District Office",
        "line": "5014B",
        "color": "#65a30d",
        "direction": 1
      },
      "geometry": {
        "type": "Point",
        "coordinates": [
          121.294729,
          25.046754
        ]
      }
    },
    {
      "type": "Feature",
      "properties": {
        "feature_type": "station",
        "ref": "TAO6723",
        "name": "南美國小",
        "name_en": "Nanmei Elementary School",
        "line": "5014B",
        "color": "#65a30d",
        "direction": 1
      },
      "geometry": {
        "type": "Point",
        "coordinates": [
          121.29712,
          25.047576
        ]
      }
    },
    {
      "type": "Feature",
      "properties": {
        "feature_type": "station",
        "ref": "TAO64639",
        "name": "南上路口",
        "name_en": "Nanshang Road Intersection",
        "line": "5014B",
        "color": "#65a30d",
        "direction": 1
      },
      "geometry": {
        "type": "Point",
        "coordinates": [
          121.299414,
          25.047255
        ]
      }
    },
    {
      "type": "Feature",
      "properties": {
        "feature_type": "station",
        "ref": "TAO64638",
        "name": "長榮吉邸",
        "name_en": "Changrongjidi",
        "line": "5014B",
        "color": "#65a30d",
        "direction": 1
      },
      "geometry": {
        "type": "Point",
        "coordinates": [
          121.301871,
          25.048426
        ]
      }
    },
    {
      "type": "Feature",
      "properties": {
        "feature_type": "station",
        "ref": "TAO64637",
        "name": "南崁國小",
        "name_en": "Nankan Elementary School",
        "line": "5014B",
        "color": "#65a30d",
        "direction": 1
      },
      "geometry": {
        "type": "Point",
        "coordinates": [
          121.301946,
          25.049998
        ]
      }
    },
    {
      "type": "Feature",
      "properties": {
        "feature_type": "station",
        "ref": "TAO16944",
        "name": "中山長春路口",
        "name_en": "Jhongshan Jhangchun Rd. Intersection",
        "line": "5014B",
        "color": "#65a30d",
        "direction": 1
      },
      "geometry": {
        "type": "Point",
        "coordinates": [
          121.300602,
          25.052322
        ]
      }
    },
    {
      "type": "Feature",
      "properties": {
        "feature_type": "station",
        "ref": "TAO5416",
        "name": "長榮花園",
        "name_en": "Changrong Garden",
        "line": "5014B",
        "color": "#65a30d",
        "direction": 1
      },
      "geometry": {
        "type": "Point",
        "coordinates": [
          121.297766,
          25.056736
        ]
      }
    },
    {
      "type": "Feature",
      "properties": {
        "feature_type": "station",
        "ref": "TAO64634",
        "name": "歐洲之星",
        "name_en": "Ouzhouzhixing",
        "line": "5014B",
        "color": "#65a30d",
        "direction": 1
      },
      "geometry": {
        "type": "Point",
        "coordinates": [
          121.297005,
          25.058062
        ]
      }
    },
    {
      "type": "Feature",
      "properties": {
        "feature_type": "station",
        "ref": "TAO64633",
        "name": "六福中山路口",
        "name_en": "Liufu and Zhongshan Rd. Intersection",
        "line": "5014B",
        "color": "#65a30d",
        "direction": 1
      },
      "geometry": {
        "type": "Point",
        "coordinates": [
          121.295548,
          25.059132
        ]
      }
    },
    {
      "type": "Feature",
      "properties": {
        "feature_type": "station",
        "ref": "TAO64632",
        "name": "快樂GO社區",
        "name_en": "Happy Go Community",
        "line": "5014B",
        "color": "#65a30d",
        "direction": 1
      },
      "geometry": {
        "type": "Point",
        "coordinates": [
          121.29511,
          25.05822
        ]
      }
    },
    {
      "type": "Feature",
      "properties": {
        "feature_type": "station",
        "ref": "TAO64631",
        "name": "天悅社區",
        "name_en": "Tianyue Community",
        "line": "5014B",
        "color": "#65a30d",
        "direction": 1
      },
      "geometry": {
        "type": "Point",
        "coordinates": [
          121.294912,
          25.056952
        ]
      }
    },
    {
      "type": "Feature",
      "properties": {
        "feature_type": "station",
        "ref": "TAO5866",
        "name": "五福宮",
        "name_en": "Wufu Temple",
        "line": "5014B",
        "color": "#65a30d",
        "direction": 1
      },
      "geometry": {
        "type": "Point",
        "coordinates": [
          121.2942,
          25.05499
        ]
      }
    },
    {
      "type": "Feature",
      "properties": {
        "feature_type": "station",
        "ref": "TAO64629",
        "name": "南崁高中",
        "name_en": "Nankan Municipal Senior High School",
        "line": "5014B",
        "color": "#65a30d",
        "direction": 1
      },
      "geometry": {
        "type": "Point",
        "coordinates": [
          121.296691,
          25.052316
        ]
      }
    },
    {
      "type": "Feature",
      "properties": {
        "feature_type": "station",
        "ref": "TAO64628",
        "name": "吉林路口",
        "name_en": "Jilin Road Intersection",
        "line": "5014B",
        "color": "#65a30d",
        "direction": 1
      },
      "geometry": {
        "type": "Point",
        "coordinates": [
          121.295372,
          25.051386
        ]
      }
    },
    {
      "type": "Feature",
      "properties": {
        "feature_type": "station",
        "ref": "TAO5865",
        "name": "光復路(錦興國小)",
        "name_en": "Guangfu Rd. (Jinxing Elementary School)",
        "line": "5014B",
        "color": "#65a30d",
        "direction": 1
      },
      "geometry": {
        "type": "Point",
        "coordinates": [
          121.288648,
          25.047115
        ]
      }
    },
    {
      "type": "Feature",
      "properties": {
        "feature_type": "station",
        "ref": "TAO4661",
        "name": "光明國中",
        "name_en": "Guang-Ming Junior High School",
        "line": "5014B",
        "color": "#65a30d",
        "direction": 1
      },
      "geometry": {
        "type": "Point",
        "coordinates": [
          121.288368,
          25.044763
        ]
      }
    },
    {
      "type": "Feature",
      "properties": {
        "feature_type": "station",
        "ref": "TAO16979",
        "name": "南竹南昌路口",
        "name_en": "Nanzhu and Nanchang Rd. Intersection",
        "line": "5014B",
        "color": "#65a30d",
        "direction": 1
      },
      "geometry": {
        "type": "Point",
        "coordinates": [
          121.28693,
          25.04304
        ]
      }
    },
    {
      "type": "Feature",
      "properties": {
        "feature_type": "station",
        "ref": "TAO6422",
        "name": "南竹奉化路口",
        "name_en": "Nanzhu Fenghua Road Intersection",
        "line": "5014B",
        "color": "#65a30d",
        "direction": 1
      },
      "geometry": {
        "type": "Point",
        "coordinates": [
          121.285756,
          25.04216
        ]
      }
    },
    {
      "type": "Feature",
      "properties": {
        "feature_type": "station",
        "ref": "TAO6421",
        "name": "奉化南順一街口",
        "name_en": "Fenghua Nanshun 1st Street Intersection  ",
        "line": "5014B",
        "color": "#65a30d",
        "direction": 1
      },
      "geometry": {
        "type": "Point",
        "coordinates": [
          121.285546,
          25.041037
        ]
      }
    },
    {
      "type": "Feature",
      "properties": {
        "feature_type": "station",
        "ref": "TAO6420",
        "name": "奉化忠孝西路口",
        "name_en": "Fenghua Zhongxiao West Road Intersection ",
        "line": "5014B",
        "color": "#65a30d",
        "direction": 1
      },
      "geometry": {
        "type": "Point",
        "coordinates": [
          121.288633,
          25.039424
        ]
      }
    },
    {
      "type": "Feature",
      "properties": {
        "feature_type": "station",
        "ref": "TAO4357",
        "name": "麗寶經典",
        "name_en": "Libao Classic",
        "line": "5014B",
        "color": "#65a30d",
        "direction": 1
      },
      "geometry": {
        "type": "Point",
        "coordinates": [
          121.29085,
          25.03827
        ]
      }
    },
    {
      "type": "Feature",
      "properties": {
        "feature_type": "station",
        "ref": "TAO4358",
        "name": "光明郵局",
        "name_en": "Guangming post office",
        "line": "5014B",
        "color": "#65a30d",
        "direction": 1
      },
      "geometry": {
        "type": "Point",
        "coordinates": [
          121.293289,
          25.038504
        ]
      }
    },
    {
      "type": "Feature",
      "properties": {
        "feature_type": "station",
        "ref": "TAO16989",
        "name": "星河社區",
        "name_en": "Shinghe Community",
        "line": "5014B",
        "color": "#65a30d",
        "direction": 1
      },
      "geometry": {
        "type": "Point",
        "coordinates": [
          121.291968,
          25.041374
        ]
      }
    },
    {
      "type": "Feature",
      "properties": {
        "feature_type": "station",
        "ref": "TAO17263",
        "name": "土地公廟",
        "name_en": "Tudigong Temple",
        "line": "5014B",
        "color": "#65a30d",
        "direction": 1
      },
      "geometry": {
        "type": "Point",
        "coordinates": [
          121.292288,
          25.043955
        ]
      }
    },
    {
      "type": "Feature",
      "properties": {
        "feature_type": "station",
        "ref": "TAO64625",
        "name": "大同公司",
        "name_en": "Datung Company",
        "line": "5014B",
        "color": "#65a30d",
        "direction": 1
      },
      "geometry": {
        "type": "Point",
        "coordinates": [
          121.296378,
          25.044902
        ]
      }
    },
    {
      "type": "Feature",
      "properties": {
        "feature_type": "station",
        "ref": "TAO64624",
        "name": "頂南崁",
        "name_en": "Dingnankan",
        "line": "5014B",
        "color": "#65a30d",
        "direction": 1
      },
      "geometry": {
        "type": "Point",
        "coordinates": [
          121.297995,
          25.043413
        ]
      }
    },
    {
      "type": "Feature",
      "properties": {
        "feature_type": "station",
        "ref": "TAO64623",
        "name": "甘蔗園",
        "name_en": "Sugarcane Farm",
        "line": "5014B",
        "color": "#65a30d",
        "direction": 1
      },
      "geometry": {
        "type": "Point",
        "coordinates": [
          121.300169,
          25.039947
        ]
      }
    },
    {
      "type": "Feature",
      "properties": {
        "feature_type": "station",
        "ref": "TAO64622",
        "name": "南上里",
        "name_en": "Nanshang Village",
        "line": "5014B",
        "color": "#65a30d",
        "direction": 1
      },
      "geometry": {
        "type": "Point",
        "coordinates": [
          121.300992,
          25.037963
        ]
      }
    },
    {
      "type": "Feature",
      "properties": {
        "feature_type": "station",
        "ref": "TAO64621",
        "name": "力捷公司",
        "name_en": "Lijie Company",
        "line": "5014B",
        "color": "#65a30d",
        "direction": 1
      },
      "geometry": {
        "type": "Point",
        "coordinates": [
          121.301518,
          25.036653
        ]
      }
    },
    {
      "type": "Feature",
      "properties": {
        "feature_type": "station",
        "ref": "TAO64620",
        "name": "甘蔗園橋",
        "name_en": "Ganzheyuan Bridge",
        "line": "5014B",
        "color": "#65a30d",
        "direction": 1
      },
      "geometry": {
        "type": "Point",
        "coordinates": [
          121.302076,
          25.035316
        ]
      }
    },
    {
      "type": "Feature",
      "properties": {
        "feature_type": "station",
        "ref": "TAO64619",
        "name": "民生北路一段54巷口",
        "name_en": "Lane 54, Section 1, Minsheng North Road",
        "line": "5014B",
        "color": "#65a30d",
        "direction": 1
      },
      "geometry": {
        "type": "Point",
        "coordinates": [
          121.302724,
          25.033716
        ]
      }
    },
    {
      "type": "Feature",
      "properties": {
        "feature_type": "station",
        "ref": "TAO64618",
        "name": "煉油廠",
        "name_en": "Refinery",
        "line": "5014B",
        "color": "#65a30d",
        "direction": 1
      },
      "geometry": {
        "type": "Point",
        "coordinates": [
          121.303815,
          25.030938
        ]
      }
    },
    {
      "type": "Feature",
      "properties": {
        "feature_type": "station",
        "ref": "TAO64617",
        "name": "許厝",
        "name_en": "Xucuo",
        "line": "5014B",
        "color": "#65a30d",
        "direction": 1
      },
      "geometry": {
        "type": "Point",
        "coordinates": [
          121.304555,
          25.029108
        ]
      }
    },
    {
      "type": "Feature",
      "properties": {
        "feature_type": "station",
        "ref": "TAO64616",
        "name": "水汴頭",
        "name_en": "Shuibiantou",
        "line": "5014B",
        "color": "#65a30d",
        "direction": 1
      },
      "geometry": {
        "type": "Point",
        "coordinates": [
          121.305556,
          25.026746
        ]
      }
    },
    {
      "type": "Feature",
      "properties": {
        "feature_type": "station",
        "ref": "TAO64615",
        "name": "鹽庫西街口",
        "name_en": "Yanku West Street Intersection",
        "line": "5014B",
        "color": "#65a30d",
        "direction": 1
      },
      "geometry": {
        "type": "Point",
        "coordinates": [
          121.306334,
          25.024789
        ]
      }
    },
    {
      "type": "Feature",
      "properties": {
        "feature_type": "station",
        "ref": "TAO64614",
        "name": "春日健行路口",
        "name_en": "Chunri Jianxing Road Intersection",
        "line": "5014B",
        "color": "#65a30d",
        "direction": 1
      },
      "geometry": {
        "type": "Point",
        "coordinates": [
          121.307471,
          25.021966
        ]
      }
    },
    {
      "type": "Feature",
      "properties": {
        "feature_type": "station",
        "ref": "TAO64613",
        "name": "新埔國宅",
        "name_en": "Xinpu Residence",
        "line": "5014B",
        "color": "#65a30d",
        "direction": 1
      },
      "geometry": {
        "type": "Point",
        "coordinates": [
          121.308149,
          25.020207
        ]
      }
    },
    {
      "type": "Feature",
      "properties": {
        "feature_type": "station",
        "ref": "TAO64611",
        "name": "永吉新村",
        "name_en": "Yongji Village",
        "line": "5014B",
        "color": "#65a30d",
        "direction": 1
      },
      "geometry": {
        "type": "Point",
        "coordinates": [
          121.308774,
          25.016617
        ]
      }
    },
    {
      "type": "Feature",
      "properties": {
        "feature_type": "station",
        "ref": "TAO64610",
        "name": "大興路口",
        "name_en": "Daxing Road Intersection",
        "line": "5014B",
        "color": "#65a30d",
        "direction": 1
      },
      "geometry": {
        "type": "Point",
        "coordinates": [
          121.309058,
          25.014982
        ]
      }
    },
    {
      "type": "Feature",
      "properties": {
        "feature_type": "station",
        "ref": "TAO64609",
        "name": "瓦斯公司",
        "name_en": "Gas Corporation",
        "line": "5014B",
        "color": "#65a30d",
        "direction": 1
      },
      "geometry": {
        "type": "Point",
        "coordinates": [
          121.309361,
          25.013368
        ]
      }
    },
    {
      "type": "Feature",
      "properties": {
        "feature_type": "station",
        "ref": "TAO64608",
        "name": "文昌國中",
        "name_en": "Wunchang Junior High School",
        "line": "5014B",
        "color": "#65a30d",
        "direction": 1
      },
      "geometry": {
        "type": "Point",
        "coordinates": [
          121.308012,
          25.009578
        ]
      }
    },
    {
      "type": "Feature",
      "properties": {
        "feature_type": "station",
        "ref": "TAO64607",
        "name": "北門國小",
        "name_en": "Beimen Elementary School",
        "line": "5014B",
        "color": "#65a30d",
        "direction": 1
      },
      "geometry": {
        "type": "Point",
        "coordinates": [
          121.308591,
          25.005988
        ]
      }
    },
    {
      "type": "Feature",
      "properties": {
        "feature_type": "station",
        "ref": "TAO62879",
        "name": "臺灣菸酒公司",
        "name_en": "Taiwan Tobacco & Liquor Corporation",
        "line": "5014B",
        "color": "#65a30d",
        "direction": 1
      },
      "geometry": {
        "type": "Point",
        "coordinates": [
          121.309371,
          25.002758
        ]
      }
    },
    {
      "type": "Feature",
      "properties": {
        "feature_type": "station",
        "ref": "TAO64605",
        "name": "北門新村",
        "name_en": "Beimen Village",
        "line": "5014B",
        "color": "#65a30d",
        "direction": 1
      },
      "geometry": {
        "type": "Point",
        "coordinates": [
          121.310058,
          25.000792
        ]
      }
    },
    {
      "type": "Feature",
      "properties": {
        "feature_type": "station",
        "ref": "TAO64604",
        "name": "北門口",
        "name_en": "Beimen Station",
        "line": "5014B",
        "color": "#65a30d",
        "direction": 1
      },
      "geometry": {
        "type": "Point",
        "coordinates": [
          121.310988,
          24.998878
        ]
      }
    },
    {
      "type": "Feature",
      "properties": {
        "feature_type": "station",
        "ref": "TAO64603",
        "name": "鴻福寺",
        "name_en": "Hong Fu temple",
        "line": "5014B",
        "color": "#65a30d",
        "direction": 1
      },
      "geometry": {
        "type": "Point",
        "coordinates": [
          121.312107,
          24.996275
        ]
      }
    },
    {
      "type": "Feature",
      "properties": {
        "feature_type": "station",
        "ref": "TAO64602",
        "name": "關帝廟",
        "name_en": "Guandi Temple",
        "line": "5014B",
        "color": "#65a30d",
        "direction": 1
      },
      "geometry": {
        "type": "Point",
        "coordinates": [
          121.312918,
          24.994081
        ]
      }
    },
    {
      "type": "Feature",
      "properties": {
        "feature_type": "station",
        "ref": "TAO64601",
        "name": "成功路",
        "name_en": "Chenggong Rd.",
        "line": "5014B",
        "color": "#65a30d",
        "direction": 1
      },
      "geometry": {
        "type": "Point",
        "coordinates": [
          121.312939,
          24.993006
        ]
      }
    },
    {
      "type": "Feature",
      "properties": {
        "feature_type": "station",
        "ref": "TAO3445",
        "name": "復興中正路口(桃園火車站)",
        "name_en": "Fuxing and Zhongzheng Rd. Int.(Taoyuan Station)",
        "line": "5014B",
        "color": "#65a30d",
        "direction": 1
      },
      "geometry": {
        "type": "Point",
        "coordinates": [
          121.313636,
          24.990577
        ]
      }
    }
  ]
}
